{
  "id": 2014439477,
  "type": "Feature",
  "properties": {
    "geom:area": 0,
    "geom:bbox": "-122.365420,37.630250,-121.246580,38.124210",
    "geom:latitude": 37.89340628765123,
    "geom:longitude": -121.81417059218886,
    "src:alt_label": "swim-takeoff",
    "src:geom": "swim",
    "swim:elevations": [
      152,
      183,
      275,
      635,
      1075,
      1142,
      1481,
      1924,
      2282,
      2556,
      2809,
      3378,
      3411,
      3758,
      3907,
      4135,
      4354,
      4494,
      4676,
      5020,
      5379,
      5534,
      5959,
      6225,
      6252,
      6456,
      6766,
      6974,
      7118
    ],
    "swim:geom": "takeoff",
    "swim:timestamps": [
      1767085168,
      1767085170,
      1767085179,
      1767085203,
      1767085252,
      1767085261,
      1767085299,
      1767085334,
      1767085358,
      1767085378,
      1767085396,
      1767085434,
      1767085443,
      1767085495,
      1767085506,
      1767085525,
      1767085544,
      1767085556,
      1767085571,
      1767085598,
      1767085631,
      1767085659,
      1767085708,
      1767085738,
      1767085741,
      1767085765,
      1767085795,
      1767085817,
      1767085840
    ],
    "wof:geomhash": "4188df8a0a39f0b6bd64b1fb610bcce1",
    "wof:id": 2014439477,
    "wof:repo": "sfomuseum-data-flights-2025-12"
  },
  "bbox": [
    -122.36542,
    37.63025,
    -121.24658,
    38.12421
  ],
  "geometry": {"coordinates":[[-122.36542,37.63025],[-122.36456,37.63158],[-122.35983,37.63827],[-122.34021,37.65007],[-122.29591,37.67375],[-122.28676,37.67895],[-122.24253,37.70331],[-122.19738,37.72632],[-122.16491,37.74283],[-122.13604,37.75779],[-122.11081,37.77108],[-122.05866,37.79818],[-122.04495,37.80523],[-121.95694,37.84486],[-121.93764,37.85253],[-121.90149,37.8669],[-121.86564,37.88121],[-121.84264,37.89037],[-121.81331,37.90197],[-121.76146,37.92246],[-121.69533,37.94858],[-121.63986,37.97043],[-121.53568,38.01132],[-121.47172,38.03639],[-121.46523,38.03895],[-121.4133,38.05921],[-121.34742,38.08493],[-121.29831,38.10406],[-121.24658,38.12421]],"type":"LineString"}
}
