{
  "id": 2014429865,
  "type": "Feature",
  "properties": {
    "geom:area": 0,
    "geom:bbox": "-122.365190,37.630580,-121.441990,38.509260",
    "geom:latitude": 38.06946541792743,
    "geom:longitude": -121.90381187859747,
    "src:alt_label": "swim-takeoff",
    "src:geom": "swim",
    "swim:elevations": [
      152,
      706,
      865,
      1041,
      1131,
      1493,
      1678,
      2148,
      2599,
      2880,
      2971,
      3199,
      3417,
      3525,
      3636,
      4245,
      4652,
      4985,
      5278,
      5448,
      5528,
      5545,
      5824,
      5874,
      5955,
      6146,
      6275,
      6598,
      6723,
      6909
    ],
    "swim:geom": "takeoff",
    "swim:timestamps": [
      1767041834,
      1767041875,
      1767041897,
      1767041928,
      1767041944,
      1767041996,
      1767042018,
      1767042058,
      1767042088,
      1767042109,
      1767042121,
      1767042155,
      1767042198,
      1767042222,
      1767042242,
      1767042290,
      1767042321,
      1767042353,
      1767042385,
      1767042408,
      1767042417,
      1767042420,
      1767042465,
      1767042475,
      1767042485,
      1767042508,
      1767042526,
      1767042562,
      1767042580,
      1767042610
    ],
    "wof:geomhash": "e55059ff7af4203a4b31e066f7813db9",
    "wof:id": 2014429865,
    "wof:repo": "sfomuseum-data-flights-2025-12"
  },
  "bbox": [
    -122.36519,
    37.63058,
    -121.44199,
    38.50926
  ],
  "geometry": {"coordinates":[[-122.36519,37.63058],[-122.33898,37.6523],[-122.32133,37.66173],[-122.29331,37.67589],[-122.27756,37.68424],[-122.22488,37.72353],[-122.20429,37.7464],[-122.16611,37.78826],[-122.13692,37.81994],[-122.11677,37.84176],[-122.10538,37.85408],[-122.0713,37.89074],[-122.02153,37.94397],[-121.99167,37.97598],[-121.96688,38.00262],[-121.90314,38.07103],[-121.86253,38.1143],[-121.82211,38.15736],[-121.77954,38.20242],[-121.74896,38.23489],[-121.7371,38.24753],[-121.73316,38.2517],[-121.67297,38.31534],[-121.65952,38.32945],[-121.64444,38.34546],[-121.61282,38.37903],[-121.58777,38.40536],[-121.52946,38.45447],[-121.49836,38.47548],[-121.44199,38.50926]],"type":"LineString"}
}
