{
  "id": 2014410917,
  "type": "Feature",
  "properties": {
    "geom:area": 0,
    "geom:bbox": "-122.366280,37.628560,-122.117020,38.422450",
    "geom:latitude": 38.00183641656189,
    "geom:longitude": -122.19906368221552,
    "src:alt_label": "swim-takeoff",
    "src:geom": "swim",
    "swim:elevations": [
      183,
      443,
      1009,
      1099,
      1460,
      1824,
      2238,
      2469,
      2849,
      3243,
      3393,
      3477,
      3775,
      4186,
      4510,
      4601,
      5134,
      5409,
      5435,
      5786,
      5913
    ],
    "swim:geom": "takeoff",
    "swim:timestamps": [
      1766844322,
      1766844337,
      1766844379,
      1766844394,
      1766844440,
      1766844478,
      1766844504,
      1766844520,
      1766844546,
      1766844576,
      1766844611,
      1766844630,
      1766844677,
      1766844714,
      1766844744,
      1766844753,
      1766844805,
      1766844835,
      1766844847,
      1766844893,
      1766844907
    ],
    "wof:geomhash": "1dccc75979dc3a0f748647740a00c005",
    "wof:id": 2014410917,
    "wof:repo": "sfomuseum-data-flights-2025-12"
  },
  "bbox": [
    -122.36628,
    37.62856,
    -122.11702,
    38.42245
  ],
  "geometry": {"coordinates":[[-122.36628,37.62856],[-122.35706,37.63758],[-122.32732,37.65505],[-122.31609,37.66178],[-122.27068,37.68936],[-122.25241,37.72783],[-122.24672,37.75931],[-122.24273,37.77859],[-122.23559,37.81051],[-122.2269,37.8472],[-122.21575,37.89481],[-122.20909,37.92352],[-122.19089,38.00316],[-122.17595,38.06719],[-122.16336,38.12119],[-122.1595,38.13785],[-122.13778,38.23172],[-122.12487,38.28656],[-122.12,38.30719],[-122.11702,38.39491],[-122.11911,38.42245]],"type":"LineString"}
}
