{
  "id": 2014423129,
  "type": "Feature",
  "properties": {
    "geom:area": 0,
    "geom:bbox": "-122.350640,37.494270,-121.266780,37.610720",
    "geom:latitude": 37.552723942270454,
    "geom:longitude": -121.81432976638725,
    "src:alt_label": "swim-approach",
    "src:geom": "swim",
    "swim:elevations": [
      4697,
      4580,
      4253,
      4030,
      3715,
      3595,
      3473,
      3320,
      3175,
      2995,
      2804,
      2435,
      2438,
      2438,
      2314,
      2211,
      1911,
      1771,
      1604,
      1518,
      1289,
      1098,
      1042,
      824,
      716,
      573,
      456,
      364,
      239,
      181,
      57
    ],
    "swim:geom": "approach",
    "swim:timestamps": [
      1767035901,
      1767035914,
      1767035952,
      1767035974,
      1767036014,
      1767036031,
      1767036052,
      1767036076,
      1767036106,
      1767036128,
      1767036152,
      1767036200,
      1767036229,
      1767036262,
      1767036286,
      1767036300,
      1767036358,
      1767036383,
      1767036410,
      1767036428,
      1767036470,
      1767036506,
      1767036519,
      1767036565,
      1767036587,
      1767036616,
      1767036642,
      1767036660,
      1767036694,
      1767036705,
      1767036735
    ],
    "wof:geomhash": "3154ccd0ebfba01d686b8e080691bd44",
    "wof:id": 2014423129,
    "wof:repo": "sfomuseum-data-flights-2025-12"
  },
  "bbox": [
    -122.35064,
    37.49427,
    -121.26678,
    37.61072
  ],
  "geometry": {"coordinates":[[-121.26678,37.59216],[-121.29403,37.58861],[-121.37576,37.57988],[-121.42202,37.57489],[-121.50142,37.56561],[-121.53308,37.56168],[-121.57196,37.55694],[-121.61543,37.55171],[-121.66414,37.55017],[-121.69712,37.55661],[-121.73127,37.56293],[-121.80058,37.57151],[-121.82893,37.55016],[-121.85237,37.51875],[-121.87623,37.49994],[-121.89282,37.49427],[-121.96849,37.49498],[-122.00026,37.49871],[-122.03186,37.50904],[-122.0531,37.51583],[-122.10138,37.53154],[-122.13757,37.54312],[-122.1504,37.54734],[-122.19609,37.56194],[-122.21878,37.56937],[-122.24797,37.57906],[-122.27234,37.58624],[-122.28761,37.59063],[-122.31612,37.5993],[-122.32582,37.60223],[-122.35064,37.61072]],"type":"LineString"}
}
