{
  "id": 2014443507,
  "type": "Feature",
  "properties": {
    "geom:area": 0,
    "geom:bbox": "-122.360950,37.456360,-121.250060,37.613400",
    "geom:latitude": 37.53098852397606,
    "geom:longitude": -121.81260002428523,
    "src:alt_label": "swim-approach",
    "src:geom": "swim",
    "swim:elevations": [
      4635,
      4558,
      4202,
      3973,
      3475,
      3352,
      3109,
      3081,
      2925,
      2844,
      2590,
      2447,
      2264,
      2152,
      2009,
      1910,
      1856,
      1829,
      1733,
      1490,
      1233,
      1163,
      1030,
      826,
      555,
      470,
      336,
      230,
      48,
      119
    ],
    "swim:geom": "approach",
    "swim:timestamps": [
      1767213922,
      1767213931,
      1767213969,
      1767213993,
      1767214047,
      1767214062,
      1767214107,
      1767214116,
      1767214148,
      1767214182,
      1767214218,
      1767214243,
      1767214278,
      1767214300,
      1767214339,
      1767214378,
      1767214390,
      1767214434,
      1767214458,
      1767214498,
      1767214527,
      1767214537,
      1767214564,
      1767214596,
      1767214647,
      1767214668,
      1767214698,
      1767214722,
      1767214764,
      1767214776
    ],
    "wof:geomhash": "1db0931d245a92186c8370d3e8f59567",
    "wof:id": 2014443507,
    "wof:repo": "sfomuseum-data-flights-2025-12"
  },
  "bbox": [
    -122.36095,
    37.45636,
    -121.25006,
    37.6134
  ],
  "geometry": {"coordinates":[[-121.25006,37.59465],[-121.26839,37.59211],[-121.34558,37.58317],[-121.39432,37.57779],[-121.50151,37.56546],[-121.53072,37.56196],[-121.61539,37.55194],[-121.62974,37.54903],[-121.67111,37.52382],[-121.70738,37.49716],[-121.74796,37.47672],[-121.78278,37.47619],[-121.83264,37.47577],[-121.86333,37.47546],[-121.91417,37.46637],[-121.95972,37.45636],[-121.97404,37.45835],[-122.02431,37.47102],[-122.05041,37.48148],[-122.0922,37.49975],[-122.12404,37.51294],[-122.13435,37.5173],[-122.16303,37.5296],[-122.19799,37.5444],[-122.25155,37.56695],[-122.27066,37.57484],[-122.29638,37.58573],[-122.31594,37.59389],[-122.35089,37.60856],[-122.36095,37.6134]],"type":"LineString"}
}
