{
  "id": 2014447565,
  "type": "Feature",
  "properties": {
    "geom:area": 0,
    "geom:bbox": "-122.386240,37.635180,-121.244340,37.991800",
    "geom:latitude": 37.93756425024503,
    "geom:longitude": -121.93446759685742,
    "src:alt_label": "swim-takeoff",
    "src:geom": "swim",
    "swim:elevations": [
      328,
      444,
      925,
      1014,
      1300,
      1405,
      1878,
      2377,
      2779,
      3173,
      3301,
      3741,
      4214,
      4651,
      4988,
      5095,
      5389,
      5923,
      6078,
      6580,
      6773,
      7349,
      7389,
      7652,
      7928,
      8196,
      8486,
      8685,
      8888
    ],
    "swim:geom": "takeoff",
    "swim:timestamps": [
      1767219053,
      1767219062,
      1767219113,
      1767219122,
      1767219173,
      1767219194,
      1767219230,
      1767219269,
      1767219294,
      1767219327,
      1767219337,
      1767219380,
      1767219410,
      1767219443,
      1767219474,
      1767219484,
      1767219512,
      1767219561,
      1767219573,
      1767219618,
      1767219636,
      1767219688,
      1767219692,
      1767219716,
      1767219743,
      1767219773,
      1767219806,
      1767219837,
      1767219860
    ],
    "wof:geomhash": "82429b37a53b2d2ad6049e97785f3b6d",
    "wof:id": 2014447565,
    "wof:repo": "sfomuseum-data-flights-2025-12"
  },
  "bbox": [
    -122.38624,
    37.63518,
    -121.24434,
    37.9918
  ],
  "geometry": {"coordinates":[[-122.36204,37.63518],[-122.35658,37.63988],[-122.32279,37.66913],[-122.31708,37.6751],[-122.32497,37.72443],[-122.33866,37.74836],[-122.36255,37.79416],[-122.38377,37.84359],[-122.38624,37.87854],[-122.37513,37.92465],[-122.36456,37.93575],[-122.2908,37.96067],[-122.23444,37.9711],[-122.17185,37.98372],[-122.11102,37.98918],[-122.09114,37.98945],[-122.03235,37.98929],[-121.92873,37.99011],[-121.90305,37.99022],[-121.80464,37.99004],[-121.7647,37.99033],[-121.647,37.9918],[-121.6384,37.99176],[-121.58365,37.99134],[-121.52146,37.99086],[-121.4515,37.99084],[-121.37355,37.99085],[-121.29993,37.99091],[-121.24434,37.9909]],"type":"LineString"}
}
