{
  "id": 2014409365,
  "type": "Feature",
  "properties": {
    "geom:area": 0,
    "geom:bbox": "-122.355890,36.725570,-121.881610,37.610630",
    "geom:latitude": 37.20878981095721,
    "geom:longitude": -122.06993397384717,
    "src:alt_label": "swim-approach",
    "src:geom": "swim",
    "swim:elevations": [
      5186,
      4973,
      4716,
      4539,
      4203,
      4055,
      3776,
      3595,
      3556,
      3201,
      2902,
      2751,
      2568,
      2452,
      2438,
      2438,
      2194,
      1948,
      1805,
      1584,
      1560,
      1460,
      1172,
      1096,
      952,
      666,
      536,
      455,
      243,
      148,
      36
    ],
    "swim:geom": "approach",
    "swim:timestamps": [
      1766865988,
      1766866013,
      1766866041,
      1766866067,
      1766866106,
      1766866128,
      1766866167,
      1766866196,
      1766866201,
      1766866247,
      1766866284,
      1766866305,
      1766866327,
      1766866355,
      1766866388,
      1766866428,
      1766866463,
      1766866498,
      1766866522,
      1766866555,
      1766866561,
      1766866592,
      1766866635,
      1766866652,
      1766866689,
      1766866733,
      1766866756,
      1766866772,
      1766866823,
      1766866847,
      1766866875
    ],
    "wof:geomhash": "8970d1052f85ce71e63564147a63fb31",
    "wof:id": 2014409365,
    "wof:repo": "sfomuseum-data-flights-2025-12"
  },
  "bbox": [
    -122.35589,
    36.72557,
    -121.88161,
    37.61063
  ],
  "geometry": {"coordinates":[[-121.88161,36.72557],[-121.89802,36.75629],[-121.90897,36.79477],[-121.91867,36.82925],[-121.93328,36.88137],[-121.94097,36.90891],[-121.95575,36.959],[-121.97032,36.99582],[-121.97253,37.00154],[-121.99458,37.05829],[-122.01212,37.10306],[-122.02177,37.1276],[-122.03227,37.15457],[-122.04513,37.18766],[-122.0608,37.22753],[-122.07973,37.27556],[-122.09539,37.31569],[-122.11146,37.35622],[-122.1229,37.38434],[-122.13616,37.42241],[-122.13844,37.42902],[-122.14926,37.46082],[-122.17244,37.50133],[-122.18222,37.51465],[-122.20444,37.53972],[-122.24185,37.56066],[-122.26355,37.5708],[-122.27669,37.57651],[-122.31701,37.59399],[-122.33504,37.60187],[-122.35589,37.61063]],"type":"LineString"}
}
