{
  "id": 2014413737,
  "type": "Feature",
  "properties": {
    "geom:area": 0,
    "geom:bbox": "-122.469590,36.732560,-121.313760,37.715260",
    "geom:latitude": 37.22014743795897,
    "geom:longitude": -122.00279811875133,
    "src:alt_label": "swim-takeoff",
    "src:geom": "swim",
    "swim:elevations": [
      183,
      581,
      708,
      944,
      1215,
      1391,
      1937,
      2340,
      2683,
      3174,
      3215,
      3323,
      3409,
      3602,
      3881,
      4383,
      4542,
      4818,
      5358,
      5592,
      5640,
      5715,
      6227,
      6411,
      6703,
      7009,
      7195,
      7345,
      7457,
      7698,
      7882,
      8084,
      8327,
      8530,
      8621,
      8717,
      8839,
      8893
    ],
    "swim:geom": "takeoff",
    "swim:timestamps": [
      1766863855,
      1766863885,
      1766863895,
      1766863920,
      1766863964,
      1766863994,
      1766864031,
      1766864057,
      1766864084,
      1766864125,
      1766864139,
      1766864156,
      1766864170,
      1766864189,
      1766864212,
      1766864248,
      1766864264,
      1766864290,
      1766864337,
      1766864368,
      1766864372,
      1766864379,
      1766864426,
      1766864446,
      1766864475,
      1766864513,
      1766864539,
      1766864559,
      1766864571,
      1766864601,
      1766864627,
      1766864659,
      1766864695,
      1766864725,
      1766864744,
      1766864760,
      1766864784,
      1766864792
    ],
    "wof:geomhash": "73156712bc7a1a957aaa6b0c86173d6a",
    "wof:id": 2014413737,
    "wof:repo": "sfomuseum-data-flights-2025-12"
  },
  "bbox": [
    -122.46959,
    36.73256,
    -121.31376,
    37.71526
  ],
  "geometry": {"coordinates":[[-122.36844,37.63],[-122.36323,37.65188],[-122.36309,37.65988],[-122.36247,37.67771],[-122.38138,37.71088],[-122.42224,37.71526],[-122.4531,37.67747],[-122.45658,37.64323],[-122.46051,37.60743],[-122.46726,37.55101],[-122.46959,37.53065],[-122.46835,37.50356],[-122.45719,37.48284],[-122.43015,37.46083],[-122.39153,37.43635],[-122.32943,37.39704],[-122.30319,37.37981],[-122.2573,37.35025],[-122.17445,37.2964],[-122.1194,37.26039],[-122.11203,37.25558],[-122.09978,37.24772],[-122.01339,37.19211],[-121.97765,37.16882],[-121.92343,37.13354],[-121.85236,37.08712],[-121.80356,37.05511],[-121.76556,37.03017],[-121.74278,37.01519],[-121.68594,36.9777],[-121.63591,36.94515],[-121.5744,36.9047],[-121.50457,36.85901],[-121.44588,36.82009],[-121.40932,36.79587],[-121.37786,36.77519],[-121.32989,36.74333],[-121.31376,36.73256]],"type":"LineString"}
}
