{
  "id": 2014443589,
  "type": "Feature",
  "properties": {
    "geom:area": 0,
    "geom:bbox": "-122.360270,37.474270,-121.251460,37.622940",
    "geom:latitude": 37.55295139717921,
    "geom:longitude": -121.81341961289827,
    "src:alt_label": "swim-approach",
    "src:geom": "swim",
    "swim:elevations": [
      4800,
      4548,
      4233,
      3967,
      3766,
      3624,
      3509,
      3418,
      3373,
      3250,
      3108,
      2979,
      2854,
      2743,
      2679,
      2587,
      2324,
      2151,
      2026,
      1829,
      1799,
      1603,
      1379,
      1125,
      1100,
      939,
      794,
      609,
      498,
      402,
      194,
      22,
      0
    ],
    "swim:geom": "approach",
    "swim:timestamps": [
      1767209545,
      1767209566,
      1767209605,
      1767209638,
      1767209666,
      1767209693,
      1767209723,
      1767209752,
      1767209770,
      1767209809,
      1767209836,
      1767209863,
      1767209894,
      1767209938,
      1767209959,
      1767209986,
      1767210027,
      1767210051,
      1767210069,
      1767210108,
      1767210147,
      1767210170,
      1767210198,
      1767210238,
      1767210241,
      1767210266,
      1767210291,
      1767210324,
      1767210342,
      1767210360,
      1767210411,
      1767210448,
      1767210454
    ],
    "wof:geomhash": "bc00f88d15dc4776c212ce6202c557a1",
    "wof:id": 2014443589,
    "wof:repo": "sfomuseum-data-flights-2025-12"
  },
  "bbox": [
    -122.36027,
    37.47427,
    -121.25146,
    37.62294
  ],
  "geometry": {"coordinates":[[-121.25146,37.59444],[-121.29282,37.58912],[-121.36844,37.5808],[-121.42937,37.57376],[-121.48044,37.56773],[-121.52772,37.56217],[-121.5767,37.55652],[-121.62171,37.56045],[-121.64444,37.5727],[-121.69256,37.59991],[-121.72594,37.61882],[-121.76403,37.62294],[-121.79253,37.59947],[-121.81972,37.55759],[-121.83293,37.53751],[-121.84952,37.51205],[-121.88071,37.47744],[-121.91344,37.47435],[-121.9383,37.47428],[-121.99047,37.47427],[-122.04226,37.48054],[-122.07073,37.49267],[-122.10476,37.50736],[-122.15365,37.52798],[-122.15809,37.52982],[-122.18651,37.54174],[-122.21319,37.55303],[-122.24832,37.56771],[-122.26675,37.57557],[-122.2835,37.58261],[-122.32613,37.6005],[-122.3556,37.61281],[-122.36027,37.61465]],"type":"LineString"}
}
