{
  "id": 2014447615,
  "type": "Feature",
  "properties": {
    "geom:area": 0,
    "geom:bbox": "-122.556630,36.722200,-122.355740,37.700580",
    "geom:latitude": 37.1981399534,
    "geom:longitude": -122.47570660143018,
    "src:alt_label": "swim-takeoff",
    "src:geom": "swim",
    "swim:elevations": [
      1268,
      2004,
      2519,
      2943,
      3559,
      3700,
      4650,
      4908,
      5653,
      6068,
      6520,
      6634,
      6768,
      6964,
      7114,
      7435,
      7529,
      7620,
      7620,
      7620,
      7620,
      7620,
      7620
    ],
    "swim:geom": "takeoff",
    "swim:timestamps": [
      1767209867,
      1767209906,
      1767209935,
      1767209956,
      1767209989,
      1767210004,
      1767210054,
      1767210069,
      1767210114,
      1767210138,
      1767210173,
      1767210198,
      1767210224,
      1767210246,
      1767210263,
      1767210298,
      1767210307,
      1767210354,
      1767210372,
      1767210400,
      1767210420,
      1767210448,
      1767210472
    ],
    "wof:geomhash": "cc05527fb754dbdf69336589ac0d2cec",
    "wof:id": 2014447615,
    "wof:repo": "sfomuseum-data-flights-2025-12"
  },
  "bbox": [
    -122.55663,
    36.7222,
    -122.35574,
    37.70058
  ],
  "geometry": {"coordinates":[[-122.3922,37.70058],[-122.42271,37.67075],[-122.42281,37.63653],[-122.42878,37.61026],[-122.43798,37.56744],[-122.44292,37.54579],[-122.46035,37.46967],[-122.4656,37.44628],[-122.4817,37.3743],[-122.49052,37.33515],[-122.50363,37.27718],[-122.51321,37.23398],[-122.52438,37.18412],[-122.53425,37.1407],[-122.54182,37.10672],[-122.55663,37.03674],[-122.55652,37.01809],[-122.50891,36.9316],[-122.48581,36.89993],[-122.45005,36.851],[-122.42335,36.81445],[-122.38679,36.76472],[-122.35574,36.7222]],"type":"LineString"}
}
