{
  "id": 2014417931,
  "type": "Feature",
  "properties": {
    "geom:area": 0,
    "geom:bbox": "-122.356460,37.462040,-121.309750,37.613230",
    "geom:latitude": 37.53941229112745,
    "geom:longitude": -121.83736390045311,
    "src:alt_label": "swim-approach",
    "src:geom": "swim",
    "swim:elevations": [
      4223,
      4059,
      3813,
      3640,
      3252,
      3160,
      3029,
      2962,
      2833,
      2779,
      2631,
      2314,
      2175,
      2130,
      1927,
      1859,
      1773,
      1588,
      1523,
      1524,
      1285,
      1255,
      1064,
      910,
      731,
      597,
      542,
      518,
      321,
      308,
      84,
      0
    ],
    "swim:geom": "approach",
    "swim:timestamps": [
      1766940743,
      1766940761,
      1766940791,
      1766940811,
      1766940857,
      1766940875,
      1766940919,
      1766940952,
      1766940987,
      1766940995,
      1766941024,
      1766941076,
      1766941105,
      1766941137,
      1766941166,
      1766941195,
      1766941218,
      1766941251,
      1766941277,
      1766941292,
      1766941346,
      1766941350,
      1766941377,
      1766941400,
      1766941431,
      1766941466,
      1766941474,
      1766941482,
      1766941527,
      1766941530,
      1766941583,
      1766941600
    ],
    "wof:geomhash": "f397c9c3617628fee8c8367be3d82eb5",
    "wof:id": 2014417931,
    "wof:repo": "sfomuseum-data-flights-2025-12"
  },
  "bbox": [
    -122.35646,
    37.46204,
    -121.30975,
    37.61323
  ],
  "geometry": {"coordinates":[[-121.30975,37.58696],[-121.3457,37.58302],[-121.40379,37.57641],[-121.44329,37.57186],[-121.53073,37.56207],[-121.56372,37.55803],[-121.64252,37.54633],[-121.69405,37.53413],[-121.74253,37.52256],[-121.75484,37.5194],[-121.78356,37.49646],[-121.84054,37.46204],[-121.87658,37.46936],[-121.91361,37.47744],[-121.94437,37.4846],[-121.97648,37.49168],[-122.00115,37.4989],[-122.03533,37.50998],[-122.06336,37.51878],[-122.07828,37.52377],[-122.13234,37.54187],[-122.13604,37.5431],[-122.1619,37.55129],[-122.18426,37.55835],[-122.21399,37.56798],[-122.24662,37.57852],[-122.25386,37.58085],[-122.26073,37.58299],[-122.29869,37.59406],[-122.30119,37.59481],[-122.34403,37.60793],[-122.35646,37.61323]],"type":"LineString"}
}
