{
  "id": 2014441675,
  "type": "Feature",
  "properties": {
    "geom:area": 0,
    "geom:bbox": "-122.358530,36.718450,-121.875650,37.611650",
    "geom:latitude": 37.223753680351194,
    "geom:longitude": -122.1214965719266,
    "src:alt_label": "swim-approach",
    "src:geom": "swim",
    "swim:elevations": [
      5172,
      4913,
      4844,
      4545,
      4348,
      4148,
      3988,
      3720,
      3655,
      3260,
      3138,
      2787,
      2704,
      2530,
      2436,
      2438,
      2382,
      2270,
      2033,
      1934,
      1743,
      1629,
      1493,
      1254,
      1224,
      1128,
      1092,
      1014,
      941,
      743,
      647,
      430,
      286,
      183,
      140,
      127
    ],
    "swim:geom": "approach",
    "swim:timestamps": [
      1767211693,
      1767211729,
      1767211751,
      1767211796,
      1767211823,
      1767211849,
      1767211870,
      1767211909,
      1767211924,
      1767211977,
      1767211995,
      1767212037,
      1767212049,
      1767212082,
      1767212128,
      1767212158,
      1767212185,
      1767212203,
      1767212246,
      1767212269,
      1767212308,
      1767212330,
      1767212357,
      1767212393,
      1767212402,
      1767212450,
      1767212476,
      1767212497,
      1767212527,
      1767212566,
      1767212585,
      1767212630,
      1767212664,
      1767212690,
      1767212702,
      1767212730
    ],
    "wof:geomhash": "a3f24a619ea59d9ce730c1a325877610",
    "wof:id": 2014441675,
    "wof:repo": "sfomuseum-data-flights-2025-12"
  },
  "bbox": [
    -122.35853,
    36.71845,
    -121.87565,
    37.61165
  ],
  "geometry": {"coordinates":[[-121.87565,36.71845],[-121.90252,36.77224],[-121.91186,36.80495],[-121.9298,36.86839],[-121.94059,36.90773],[-121.95056,36.94362],[-121.9608,36.97171],[-121.98076,37.02318],[-121.98822,37.04233],[-122.01303,37.1052],[-122.02306,37.12549],[-122.07206,37.15661],[-122.08681,37.16497],[-122.12651,37.18739],[-122.18165,37.21986],[-122.21803,37.24122],[-122.25042,37.26025],[-122.27255,37.27322],[-122.31594,37.30781],[-122.31306,37.33432],[-122.26958,37.36089],[-122.24333,37.37366],[-122.21053,37.38988],[-122.16994,37.41398],[-122.16401,37.42312],[-122.14042,37.47386],[-122.13584,37.49932],[-122.14888,37.51647],[-122.1746,37.5345],[-122.21414,37.55101],[-122.23403,37.55943],[-122.27795,37.57797],[-122.30635,37.59002],[-122.32685,37.59847],[-122.33637,37.60243],[-122.35853,37.61165]],"type":"LineString"}
}
