{
  "id": 2014439577,
  "type": "Feature",
  "properties": {
    "geom:area": 0,
    "geom:bbox": "-122.469150,36.743800,-121.331840,37.704790",
    "geom:latitude": 37.21824693177981,
    "geom:longitude": -122.00389326598199,
    "src:alt_label": "swim-takeoff",
    "src:geom": "swim",
    "swim:elevations": [
      274,
      655,
      905,
      1038,
      1107,
      1283,
      1372,
      1973,
      2337,
      2598,
      2968,
      3061,
      3290,
      3491,
      3782,
      4118,
      4294,
      4588,
      4678,
      5022,
      5277,
      5390,
      5714,
      5847,
      6204,
      6263,
      6438,
      6502,
      6831,
      6950,
      7101,
      7374,
      7386,
      7500,
      7592,
      7704,
      7818
    ],
    "swim:geom": "takeoff",
    "swim:timestamps": [
      1767122154,
      1767122182,
      1767122218,
      1767122245,
      1767122264,
      1767122303,
      1767122323,
      1767122365,
      1767122389,
      1767122407,
      1767122434,
      1767122442,
      1767122465,
      1767122499,
      1767122528,
      1767122576,
      1767122596,
      1767122623,
      1767122632,
      1767122667,
      1767122697,
      1767122709,
      1767122757,
      1767122772,
      1767122815,
      1767122822,
      1767122847,
      1767122856,
      1767122908,
      1767122923,
      1767122949,
      1767122993,
      1767123002,
      1767123027,
      1767123050,
      1767123077,
      1767123098
    ],
    "wof:geomhash": "ef6946a0012c782b93daba5b57ef675f",
    "wof:id": 2014439577,
    "wof:repo": "sfomuseum-data-flights-2025-12"
  },
  "bbox": [
    -122.46915,
    36.7438,
    -121.33184,
    37.70479
  ],
  "geometry": {"coordinates":[[-122.36886,37.62994],[-122.36487,37.64828],[-122.36205,37.67319],[-122.36572,37.69323],[-122.37927,37.70479],[-122.42166,37.69807],[-122.43138,37.67761],[-122.4427,37.62748],[-122.44873,37.59917],[-122.45402,37.57644],[-122.46201,37.543],[-122.46442,37.53277],[-122.46915,37.50296],[-122.43701,37.46195],[-122.39284,37.43572],[-122.31308,37.38595],[-122.27958,37.36431],[-122.2341,37.33487],[-122.21753,37.32417],[-122.1574,37.28532],[-122.10408,37.25072],[-122.08267,37.23683],[-121.99523,37.17989],[-121.96803,37.16215],[-121.88665,37.10906],[-121.87339,37.10039],[-121.82803,37.0708],[-121.81094,37.05959],[-121.70992,36.9933],[-121.68088,36.97419],[-121.63009,36.94082],[-121.54553,36.88513],[-121.5277,36.87341],[-121.47597,36.83928],[-121.42986,36.80867],[-121.37409,36.77195],[-121.33184,36.7438]],"type":"LineString"}
}
