{
  "id": 2014418095,
  "type": "Feature",
  "properties": {
    "geom:area": 0,
    "geom:bbox": "-122.356890,36.753820,-121.896330,37.611120",
    "geom:latitude": 37.22478786477886,
    "geom:longitude": -122.07585417208556,
    "src:alt_label": "swim-approach",
    "src:geom": "swim",
    "swim:elevations": [
      5488,
      5477,
      5046,
      4795,
      4340,
      4095,
      3854,
      3656,
      3505,
      3404,
      3181,
      2975,
      2781,
      2608,
      2569,
      2423,
      2345,
      2023,
      1891,
      1790,
      1638,
      1462,
      1426,
      1240,
      1041,
      962,
      824,
      579,
      546,
      344,
      174,
      62,
      16
    ],
    "swim:geom": "approach",
    "swim:timestamps": [
      1766912125,
      1766912134,
      1766912177,
      1766912201,
      1766912248,
      1766912274,
      1766912302,
      1766912326,
      1766912358,
      1766912386,
      1766912414,
      1766912451,
      1766912482,
      1766912511,
      1766912521,
      1766912547,
      1766912558,
      1766912607,
      1766912632,
      1766912658,
      1766912690,
      1766912722,
      1766912747,
      1766912782,
      1766912814,
      1766912830,
      1766912854,
      1766912906,
      1766912913,
      1766912956,
      1766912997,
      1766913023,
      1766913031
    ],
    "wof:geomhash": "cb20edaef93fa7438b19158a710b4d31",
    "wof:id": 2014418095,
    "wof:repo": "sfomuseum-data-flights-2025-12"
  },
  "bbox": [
    -122.35689,
    36.75382,
    -121.89633,
    37.61112
  ],
  "geometry": {"coordinates":[[-121.89633,36.75382],[-121.90089,36.76717],[-121.91849,36.83082],[-121.92919,36.86639],[-121.94827,36.93447],[-121.96081,36.97146],[-121.97577,37.01048],[-121.98783,37.04232],[-122.00317,37.08117],[-122.01556,37.11216],[-122.02715,37.1412],[-122.04146,37.17838],[-122.0538,37.20906],[-122.06502,37.23787],[-122.06874,37.24731],[-122.07841,37.27243],[-122.08257,37.28324],[-122.102,37.33248],[-122.11157,37.35653],[-122.12174,37.38269],[-122.13172,37.41294],[-122.14199,37.44323],[-122.15115,37.46536],[-122.16691,37.49333],[-122.18368,37.51727],[-122.19171,37.52857],[-122.20603,37.54565],[-122.25301,37.5674],[-122.25952,37.57024],[-122.29606,37.58553],[-122.32865,37.59914],[-122.35062,37.60846],[-122.35689,37.61112]],"type":"LineString"}
}
