{
  "id": 2014430861,
  "type": "Feature",
  "properties": {
    "geom:area": 0,
    "geom:bbox": "-122.360900,37.634450,-121.450340,38.505720",
    "geom:latitude": 38.06433075411321,
    "geom:longitude": -121.90159579010424,
    "src:alt_label": "swim-takeoff",
    "src:geom": "swim",
    "swim:elevations": [
      206,
      371,
      863,
      1138,
      1331,
      1818,
      1924,
      2469,
      2932,
      3284,
      3481,
      3534,
      4015,
      4468,
      4813,
      4842,
      5433,
      5693,
      5831,
      6207,
      6474,
      6748,
      6901,
      6986,
      7193,
      7443,
      7600,
      7808
    ],
    "swim:geom": "takeoff",
    "swim:timestamps": [
      1767045026,
      1767045040,
      1767045072,
      1767045113,
      1767045136,
      1767045175,
      1767045181,
      1767045214,
      1767045238,
      1767045266,
      1767045292,
      1767045300,
      1767045353,
      1767045386,
      1767045417,
      1767045420,
      1767045476,
      1767045501,
      1767045516,
      1767045560,
      1767045585,
      1767045609,
      1767045628,
      1767045637,
      1767045665,
      1767045697,
      1767045720,
      1767045752
    ],
    "wof:geomhash": "4fc268a7908f738a2aa733569090315e",
    "wof:id": 2014430861,
    "wof:repo": "sfomuseum-data-flights-2025-12"
  },
  "bbox": [
    -122.3609,
    37.63445,
    -121.45034,
    38.50572
  ],
  "geometry": {"coordinates":[[-122.3609,37.63445],[-122.35043,37.6417],[-122.3261,37.65582],[-122.29081,37.67627],[-122.2651,37.69112],[-122.21597,37.71911],[-122.20939,37.72475],[-122.17748,37.75952],[-122.15404,37.78425],[-122.12661,37.81403],[-122.09897,37.84432],[-122.09047,37.85361],[-122.02596,37.92514],[-121.98475,37.97139],[-121.94608,38.01457],[-121.94213,38.01883],[-121.86677,38.09975],[-121.83452,38.13546],[-121.81457,38.15774],[-121.7538,38.22444],[-121.71838,38.26306],[-121.68539,38.29889],[-121.65848,38.32818],[-121.64569,38.34201],[-121.60521,38.38567],[-121.55614,38.43522],[-121.51481,38.46593],[-121.45034,38.50572]],"type":"LineString"}
}
