{
  "id": 2014437869,
  "type": "Feature",
  "properties": {
    "geom:area": 0,
    "geom:bbox": "-122.385070,37.631890,-121.294300,38.395670",
    "geom:latitude": 38.074683376654036,
    "geom:longitude": -121.94897699795895,
    "src:alt_label": "swim-takeoff",
    "src:geom": "swim",
    "swim:elevations": [
      244,
      684,
      877,
      1273,
      1549,
      1700,
      2513,
      2932,
      3326,
      3412,
      4045,
      4310,
      4477,
      5096,
      5326,
      5441,
      5584,
      5867,
      6287,
      6531,
      6675,
      7078,
      7273,
      7450,
      7728,
      7952,
      8018,
      8310,
      8404
    ],
    "swim:geom": "takeoff",
    "swim:timestamps": [
      1767161391,
      1767161425,
      1767161448,
      1767161482,
      1767161506,
      1767161521,
      1767161575,
      1767161603,
      1767161638,
      1767161649,
      1767161696,
      1767161719,
      1767161731,
      1767161788,
      1767161811,
      1767161827,
      1767161842,
      1767161869,
      1767161908,
      1767161932,
      1767161945,
      1767161992,
      1767162022,
      1767162047,
      1767162086,
      1767162111,
      1767162126,
      1767162164,
      1767162189
    ],
    "wof:geomhash": "7d26c81a66a1c1f2a7887d2a7001efe3",
    "wof:id": 2014437869,
    "wof:repo": "sfomuseum-data-flights-2025-12"
  },
  "bbox": [
    -122.38507,
    37.63189,
    -121.2943,
    38.39567
  ],
  "geometry": {"coordinates":[[-122.36422,37.63189],[-122.34353,37.65104],[-122.32679,37.66531],[-122.31016,37.69644],[-122.3224,37.72235],[-122.33141,37.73851],[-122.36731,37.80725],[-122.38331,37.84358],[-122.38507,37.89653],[-122.38313,37.91255],[-122.32056,37.96629],[-122.27774,37.98355],[-122.25546,37.99244],[-122.14819,38.03543],[-122.10335,38.05346],[-122.07031,38.06669],[-122.04015,38.07873],[-121.98476,38.10086],[-121.90478,38.13273],[-121.85433,38.15283],[-121.82717,38.16361],[-121.72731,38.20317],[-121.66204,38.22899],[-121.60843,38.2501],[-121.51941,38.2853],[-121.4622,38.30751],[-121.42749,38.32049],[-121.34535,38.36361],[-121.2943,38.39567]],"type":"LineString"}
}
