{
  "id": 2014422217,
  "type": "Feature",
  "properties": {
    "geom:area": 0,
    "geom:bbox": "-122.497110,36.723440,-121.294890,37.712800",
    "geom:latitude": 37.221854728623185,
    "geom:longitude": -121.9959361748716,
    "src:alt_label": "swim-takeoff",
    "src:geom": "swim",
    "swim:elevations": [
      244,
      429,
      615,
      935,
      1012,
      1112,
      1141,
      1446,
      1836,
      2466,
      2699,
      3226,
      3298,
      3486,
      3640,
      4114,
      4532,
      4767,
      5011,
      5229,
      5369,
      5674,
      5922,
      6058,
      6260,
      6515,
      6611,
      6756,
      6955,
      7120,
      7393,
      7525,
      7825,
      7952,
      8083,
      8212,
      8245,
      8230
    ],
    "swim:geom": "takeoff",
    "swim:timestamps": [
      1766948128,
      1766948140,
      1766948152,
      1766948178,
      1766948191,
      1766948216,
      1766948225,
      1766948273,
      1766948294,
      1766948336,
      1766948351,
      1766948398,
      1766948409,
      1766948444,
      1766948465,
      1766948504,
      1766948543,
      1766948561,
      1766948582,
      1766948607,
      1766948621,
      1766948663,
      1766948692,
      1766948707,
      1766948728,
      1766948755,
      1766948768,
      1766948788,
      1766948817,
      1766948842,
      1766948875,
      1766948894,
      1766948930,
      1766948949,
      1766948972,
      1766948990,
      1766949017,
      1766949051
    ],
    "wof:geomhash": "419618d0795995406564895e3be9e9bb",
    "wof:id": 2014422217,
    "wof:repo": "sfomuseum-data-flights-2025-12"
  },
  "bbox": [
    -122.49711,
    36.72344,
    -121.29489,
    37.7128
  ],
  "geometry": {"coordinates":[[-122.36981,37.62886],[-122.36807,37.63644],[-122.36708,37.64395],[-122.36458,37.65908],[-122.36328,37.6667],[-122.36135,37.68342],[-122.3628,37.69074],[-122.41737,37.7128],[-122.44656,37.69798],[-122.47086,37.64629],[-122.47802,37.62549],[-122.49711,37.55972],[-122.49359,37.54307],[-122.45648,37.49513],[-122.42188,37.47212],[-122.35559,37.42833],[-122.287,37.3834],[-122.25515,37.3624],[-122.21772,37.33775],[-122.17191,37.30778],[-122.14639,37.29102],[-122.06636,37.23818],[-122.01253,37.20263],[-121.9836,37.18352],[-121.9429,37.15652],[-121.88976,37.12131],[-121.86371,37.10394],[-121.82447,37.07799],[-121.76748,37.04005],[-121.7176,37.00686],[-121.65105,36.96228],[-121.61255,36.93658],[-121.54006,36.88842],[-121.50403,36.86414],[-121.45597,36.83199],[-121.42016,36.80688],[-121.3641,36.77031],[-121.29489,36.72344]],"type":"LineString"}
}
