{
  "id": 2014443471,
  "type": "Feature",
  "properties": {
    "geom:area": 0,
    "geom:bbox": "-122.350640,37.453350,-121.245780,37.645330",
    "geom:latitude": 37.5544896038605,
    "geom:longitude": -121.81185093713727,
    "src:alt_label": "swim-approach",
    "src:geom": "swim",
    "swim:elevations": [
      4878,
      4741,
      4411,
      4218,
      4071,
      3943,
      3850,
      3654,
      3326,
      3074,
      3050,
      3069,
      3048,
      3048,
      3047,
      2935,
      2678,
      2665,
      2435,
      2438,
      2438,
      2096,
      2022,
      1855,
      1739,
      1478,
      1313,
      1114,
      917,
      870,
      700,
      518,
      392,
      271,
      140,
      40
    ],
    "swim:geom": "approach",
    "swim:timestamps": [
      1767172561,
      1767172581,
      1767172618,
      1767172639,
      1767172654,
      1767172681,
      1767172712,
      1767172752,
      1767172789,
      1767172824,
      1767172853,
      1767172886,
      1767172915,
      1767172945,
      1767172976,
      1767172995,
      1767173036,
      1767173040,
      1767173094,
      1767173117,
      1767173142,
      1767173186,
      1767173201,
      1767173228,
      1767173252,
      1767173306,
      1767173336,
      1767173357,
      1767173394,
      1767173405,
      1767173438,
      1767173477,
      1767173505,
      1767173537,
      1767173569,
      1767173587
    ],
    "wof:geomhash": "9096836bdaf0986d36aaa35c86599584",
    "wof:id": 2014443471,
    "wof:repo": "sfomuseum-data-flights-2025-12"
  },
  "bbox": [
    -122.35064,
    37.45335,
    -121.24578,
    37.64533
  ],
  "geometry": {"coordinates":[[-121.24578,37.59501],[-121.28323,37.59001],[-121.35295,37.5825],[-121.39259,37.57796],[-121.42047,37.57462],[-121.46899,37.56901],[-121.52142,37.56289],[-121.58288,37.55561],[-121.63862,37.54937],[-121.68325,37.57063],[-121.71391,37.59516],[-121.74886,37.62274],[-121.78296,37.6445],[-121.82507,37.64533],[-121.85579,37.62406],[-121.85945,37.60433],[-121.86542,37.56124],[-121.86595,37.55739],[-121.87367,37.50486],[-121.87688,37.48455],[-121.88593,37.46295],[-121.93894,37.454],[-121.9586,37.45335],[-121.99297,37.45812],[-122.02047,37.46887],[-122.08109,37.495],[-122.11453,37.50904],[-122.13877,37.51927],[-122.17918,37.5363],[-122.19016,37.54098],[-122.22293,37.55481],[-122.25893,37.56997],[-122.28271,37.57992],[-122.30925,37.59112],[-122.33536,37.60208],[-122.35064,37.6085]],"type":"LineString"}
}
