{
  "id": 2014433179,
  "type": "Feature",
  "properties": {
    "geom:area": 0,
    "geom:bbox": "-122.361030,37.491420,-121.263700,37.615590",
    "geom:latitude": 37.54633865995811,
    "geom:longitude": -121.81735848707646,
    "src:alt_label": "swim-approach",
    "src:geom": "swim",
    "swim:elevations": [
      4356,
      4096,
      3938,
      3804,
      3708,
      3456,
      3168,
      3137,
      2921,
      2711,
      2637,
      2505,
      2498,
      2302,
      2158,
      2061,
      1860,
      1684,
      1640,
      1519,
      1333,
      1248,
      963,
      820,
      614,
      559,
      469,
      335,
      264,
      89,
      0
    ],
    "swim:geom": "approach",
    "swim:timestamps": [
      1767129563,
      1767129596,
      1767129617,
      1767129632,
      1767129644,
      1767129674,
      1767129716,
      1767129726,
      1767129774,
      1767129807,
      1767129817,
      1767129838,
      1767129841,
      1767129891,
      1767129914,
      1767129937,
      1767129983,
      1767130016,
      1767130022,
      1767130040,
      1767130069,
      1767130083,
      1767130131,
      1767130155,
      1767130193,
      1767130205,
      1767130223,
      1767130250,
      1767130266,
      1767130307,
      1767130328
    ],
    "wof:geomhash": "239ef1fedf875e4f470f668eecf14826",
    "wof:id": 2014433179,
    "wof:repo": "sfomuseum-data-flights-2025-12"
  },
  "bbox": [
    -122.36103,
    37.49142,
    -121.2637,
    37.61559
  ],
  "geometry": {"coordinates":[[-121.2637,37.59259],[-121.32598,37.58541],[-121.36528,37.58097],[-121.39337,37.57777],[-121.41599,37.5751],[-121.47276,37.56859],[-121.551,37.55945],[-121.56836,37.55742],[-121.65001,37.54484],[-121.70383,37.5319],[-121.71889,37.52834],[-121.75206,37.52041],[-121.7568,37.51928],[-121.83084,37.50143],[-121.86545,37.49341],[-121.89997,37.49142],[-121.96959,37.49337],[-122.01694,37.50413],[-122.02523,37.50677],[-122.05075,37.51496],[-122.08935,37.52763],[-122.10768,37.53357],[-122.16793,37.55298],[-122.19756,37.56257],[-122.23865,37.57596],[-122.25143,37.58],[-122.27026,37.58576],[-122.29622,37.59318],[-122.30937,37.59725],[-122.34368,37.60811],[-122.36103,37.61559]],"type":"LineString"}
}
