{
  "id": 2014433243,
  "type": "Feature",
  "properties": {
    "geom:area": 0,
    "geom:bbox": "-122.362180,36.733440,-121.885420,37.613440",
    "geom:latitude": 37.22629023144491,
    "geom:longitude": -122.07173225463342,
    "src:alt_label": "swim-approach",
    "src:geom": "swim",
    "swim:elevations": [
      5288,
      5238,
      4763,
      4491,
      4213,
      3886,
      3723,
      3248,
      3138,
      3047,
      2939,
      2714,
      2542,
      2241,
      2024,
      1830,
      1829,
      1767,
      1493,
      1329,
      1210,
      1023,
      886,
      733,
      703,
      586,
      424,
      365,
      307,
      141,
      24,
      0
    ],
    "swim:geom": "approach",
    "swim:timestamps": [
      1767082437,
      1767082442,
      1767082488,
      1767082515,
      1767082542,
      1767082576,
      1767082593,
      1767082641,
      1767082659,
      1767082707,
      1767082724,
      1767082758,
      1767082785,
      1767082825,
      1767082858,
      1767082887,
      1767082902,
      1767082928,
      1767082978,
      1767083005,
      1767083035,
      1767083066,
      1767083094,
      1767083128,
      1767083141,
      1767083163,
      1767083206,
      1767083220,
      1767083235,
      1767083278,
      1767083305,
      1767083311
    ],
    "wof:geomhash": "13319656caa7c2a159c4b3cc89fcb243",
    "wof:id": 2014433243,
    "wof:repo": "sfomuseum-data-flights-2025-12"
  },
  "bbox": [
    -122.36218,
    36.73344,
    -121.88542,
    37.61344
  ],
  "geometry": {"coordinates":[[-121.88542,36.73344],[-121.88915,36.74002],[-121.91562,36.81813],[-121.92868,36.86486],[-121.94165,36.91029],[-121.9588,36.96615],[-121.96951,36.9939],[-121.99932,37.07051],[-122.01017,37.09796],[-122.03584,37.16409],[-122.04423,37.18561],[-122.06148,37.22982],[-122.0742,37.26251],[-122.09304,37.30925],[-122.10751,37.34639],[-122.12019,37.3786],[-122.12088,37.39459],[-122.11879,37.42098],[-122.11486,37.46698],[-122.11856,37.49147],[-122.13222,37.51525],[-122.16167,37.529],[-122.18761,37.53994],[-122.21666,37.55212],[-122.22798,37.55692],[-122.24618,37.56457],[-122.28078,37.57914],[-122.29162,37.58353],[-122.30335,37.58856],[-122.33689,37.60253],[-122.35752,37.61126],[-122.36218,37.61344]],"type":"LineString"}
}
