{
  "id": 2014430331,
  "type": "Feature",
  "properties": {
    "geom:area": 0,
    "geom:bbox": "-122.483440,36.722100,-121.441960,37.709470",
    "geom:latitude": 37.2181017313735,
    "geom:longitude": -122.0583367501431,
    "src:alt_label": "swim-takeoff",
    "src:geom": "swim",
    "swim:elevations": [
      183,
      357,
      607,
      1058,
      1256,
      1470,
      2191,
      2450,
      2964,
      3078,
      3213,
      3829,
      4235,
      4668,
      4864,
      5337,
      5585,
      6066,
      6454,
      6512,
      6913,
      7399,
      7745,
      7836,
      8195,
      8500,
      8655,
      8860,
      9035,
      9255,
      9542,
      9622,
      9752,
      9911
    ],
    "swim:geom": "takeoff",
    "swim:timestamps": [
      1767030598,
      1767030610,
      1767030641,
      1767030679,
      1767030700,
      1767030720,
      1767030769,
      1767030786,
      1767030833,
      1767030856,
      1767030883,
      1767030919,
      1767030948,
      1767030987,
      1767031003,
      1767031039,
      1767031067,
      1767031107,
      1767031138,
      1767031143,
      1767031186,
      1767031228,
      1767031257,
      1767031267,
      1767031300,
      1767031331,
      1767031353,
      1767031387,
      1767031420,
      1767031452,
      1767031497,
      1767031507,
      1767031528,
      1767031555
    ],
    "wof:geomhash": "eecade7073720c07ae384acbda3c7b6b",
    "wof:id": 2014430331,
    "wof:repo": "sfomuseum-data-flights-2025-12"
  },
  "bbox": [
    -122.48344,
    36.7221,
    -121.44196,
    37.70947
  ],
  "geometry": {"coordinates":[[-122.36831,37.63053],[-122.36482,37.63894],[-122.3632,37.66428],[-122.36948,37.69965],[-122.39471,37.70947],[-122.42079,37.70102],[-122.44449,37.64139],[-122.45073,37.61975],[-122.47181,37.5594],[-122.48344,37.52757],[-122.47574,37.48708],[-122.42529,37.4523],[-122.38324,37.42355],[-122.32784,37.38316],[-122.30396,37.36538],[-122.25071,37.32539],[-122.20871,37.29403],[-122.14754,37.24866],[-122.09908,37.21279],[-122.09181,37.20741],[-122.02322,37.15659],[-121.95635,37.10675],[-121.91114,37.07298],[-121.89553,37.06113],[-121.84625,37.02454],[-121.7995,36.9899],[-121.76694,36.9655],[-121.71261,36.9262],[-121.66109,36.88748],[-121.60954,36.84907],[-121.53712,36.7943],[-121.52019,36.78135],[-121.48666,36.75598],[-121.44196,36.7221]],"type":"LineString"}
}
