{
  "id": 2014439015,
  "type": "Feature",
  "properties": {
    "geom:area": 0,
    "geom:bbox": "-122.434360,37.317020,-121.273420,37.700810",
    "geom:latitude": 37.50982798662492,
    "geom:longitude": -121.92196116261871,
    "src:alt_label": "swim-takeoff",
    "src:geom": "swim",
    "swim:elevations": [
      122,
      604,
      645,
      968,
      1413,
      1817,
      2043,
      2586,
      3195,
      3437,
      3662,
      3715,
      4080,
      4473,
      4847,
      5057,
      5196,
      5229,
      5759,
      6013,
      6242,
      6545,
      6776,
      6875,
      7110,
      7461
    ],
    "swim:geom": "takeoff",
    "swim:timestamps": [
      1767136177,
      1767136227,
      1767136236,
      1767136263,
      1767136312,
      1767136336,
      1767136351,
      1767136388,
      1767136429,
      1767136453,
      1767136498,
      1767136509,
      1767136547,
      1767136580,
      1767136614,
      1767136635,
      1767136647,
      1767136650,
      1767136701,
      1767136725,
      1767136749,
      1767136792,
      1767136828,
      1767136838,
      1767136865,
      1767136901
    ],
    "wof:geomhash": "e16bf2dfa5f4b371e842327750a98d2f",
    "wof:id": 2014439015,
    "wof:repo": "sfomuseum-data-flights-2025-12"
  },
  "bbox": [
    -122.43436,
    37.31702,
    -121.27342,
    37.70081
  ],
  "geometry": {"coordinates":[[-122.37008,37.62731],[-122.36341,37.66576],[-122.36244,37.6744],[-122.3705,37.70081],[-122.43357,37.69599],[-122.43436,37.66742],[-122.4219,37.65213],[-122.36803,37.63198],[-122.30449,37.61459],[-122.2677,37.60393],[-122.18673,37.58079],[-122.16636,37.57503],[-122.08612,37.55239],[-122.01722,37.53267],[-121.94566,37.51195],[-121.89978,37.49883],[-121.8729,37.49113],[-121.86624,37.48923],[-121.7519,37.4563],[-121.69774,37.44061],[-121.64372,37.42501],[-121.54222,37.39546],[-121.45424,37.3699],[-121.43029,37.36289],[-121.36304,37.34329],[-121.27342,37.31702]],"type":"LineString"}
}
