{
  "id": 2014426385,
  "type": "Feature",
  "properties": {
    "geom:area": 0,
    "geom:bbox": "-122.347030,37.491360,-121.278850,37.609140",
    "geom:latitude": 37.54437989733145,
    "geom:longitude": -121.81747518355292,
    "src:alt_label": "swim-approach",
    "src:geom": "swim",
    "swim:elevations": [
      4205,
      3951,
      3775,
      3499,
      3411,
      3239,
      3034,
      2792,
      2693,
      2609,
      2276,
      2139,
      1981,
      1848,
      1829,
      1685,
      1540,
      1334,
      905,
      886,
      731,
      604,
      395,
      246,
      133,
      84
    ],
    "swim:geom": "approach",
    "swim:timestamps": [
      1767003558,
      1767003595,
      1767003620,
      1767003658,
      1767003675,
      1767003708,
      1767003735,
      1767003774,
      1767003800,
      1767003812,
      1767003863,
      1767003886,
      1767003915,
      1767003948,
      1767003975,
      1767004016,
      1767004035,
      1767004053,
      1767004104,
      1767004120,
      1767004150,
      1767004176,
      1767004224,
      1767004251,
      1767004279,
      1767004294
    ],
    "wof:geomhash": "923dafcc7adbcbd7882483d25e4ffcc7",
    "wof:id": 2014426385,
    "wof:repo": "sfomuseum-data-flights-2025-12"
  },
  "bbox": [
    -122.34703,
    37.49136,
    -121.27885,
    37.60914
  ],
  "geometry": {"coordinates":[[-121.27885,37.58976],[-121.35994,37.58051],[-121.41328,37.5746],[-121.49269,37.56541],[-121.52695,37.56168],[-121.59015,37.55452],[-121.63839,37.54703],[-121.70384,37.53135],[-121.74461,37.52162],[-121.76286,37.51725],[-121.83856,37.499],[-121.87295,37.49136],[-121.91554,37.49191],[-121.96496,37.49302],[-122.00377,37.50019],[-122.0551,37.51664],[-122.07887,37.52425],[-122.10242,37.53183],[-122.16529,37.55184],[-122.18273,37.55753],[-122.21536,37.56835],[-122.24266,37.57729],[-122.29114,37.59177],[-122.31332,37.59788],[-122.33586,37.60486],[-122.34703,37.60914]],"type":"LineString"}
}
