{
  "id": 2014435295,
  "type": "Feature",
  "properties": {
    "geom:area": 0,
    "geom:bbox": "-122.842480,37.457710,-122.162940,38.479620",
    "geom:latitude": 37.84593514602976,
    "geom:longitude": -122.5235843390805,
    "src:alt_label": "swim-approach",
    "src:geom": "swim",
    "swim:elevations": [
      7985,
      7606,
      7323,
      7034,
      6789,
      6406,
      6169,
      5973,
      5498,
      5417,
      5261,
      4715,
      4547,
      4257,
      4001,
      3588,
      3412,
      3414,
      3353,
      3353,
      3353,
      3353,
      3119,
      2982,
      2901,
      2741,
      2387,
      2135,
      2046,
      1947,
      1726,
      1505,
      1310,
      979,
      812,
      674,
      547,
      372,
      321,
      126,
      0
    ],
    "swim:geom": "approach",
    "swim:timestamps": [
      1767114534,
      1767114567,
      1767114598,
      1767114625,
      1767114647,
      1767114686,
      1767114709,
      1767114730,
      1767114778,
      1767114792,
      1767114810,
      1767114859,
      1767114877,
      1767114910,
      1767114938,
      1767114984,
      1767115016,
      1767115021,
      1767115055,
      1767115105,
      1767115112,
      1767115140,
      1767115194,
      1767115222,
      1767115234,
      1767115264,
      1767115316,
      1767115345,
      1767115356,
      1767115375,
      1767115405,
      1767115435,
      1767115456,
      1767115497,
      1767115525,
      1767115546,
      1767115577,
      1767115618,
      1767115630,
      1767115678,
      1767115707
    ],
    "wof:geomhash": "09f522bff6b07dcee116cf422968c9af",
    "wof:id": 2014435295,
    "wof:repo": "sfomuseum-data-flights-2025-12"
  },
  "bbox": [
    -122.84248,
    37.45771,
    -122.16294,
    38.47962
  ],
  "geometry": {"coordinates":[[-122.84248,38.47962],[-122.82614,38.42137],[-122.80997,38.36989],[-122.79643,38.32382],[-122.78566,38.28688],[-122.7674,38.22412],[-122.75665,38.18684],[-122.74672,38.15259],[-122.72489,38.07721],[-122.71862,38.05571],[-122.71083,38.02929],[-122.68946,37.95517],[-122.68164,37.92741],[-122.65522,37.88255],[-122.62109,37.85031],[-122.56625,37.79819],[-122.5296,37.76375],[-122.52451,37.75904],[-122.48848,37.72521],[-122.43838,37.67817],[-122.43122,37.67147],[-122.40325,37.64495],[-122.35733,37.59853],[-122.34266,37.57121],[-122.33765,37.55968],[-122.32196,37.53226],[-122.29302,37.48525],[-122.26315,37.46917],[-122.24921,37.46487],[-122.22772,37.45827],[-122.1908,37.45771],[-122.17088,37.48273],[-122.16294,37.5027],[-122.18538,37.53758],[-122.21182,37.54994],[-122.23104,37.55817],[-122.25723,37.56933],[-122.29089,37.5833],[-122.30063,37.58744],[-122.33956,37.60382],[-122.36171,37.61346]],"type":"LineString"}
}
