{
  "id": 2014446101,
  "type": "Feature",
  "properties": {
    "geom:area": 0,
    "geom:bbox": "-122.355890,37.638830,-121.438430,38.143760",
    "geom:latitude": 37.89009457938058,
    "geom:longitude": -121.89554700786948,
    "src:alt_label": "swim-takeoff",
    "src:geom": "swim",
    "swim:elevations": [
      576,
      829,
      1194,
      1318,
      1569,
      2048,
      2479,
      2736,
      3081,
      3290,
      3672,
      4104,
      4603,
      5212,
      5616,
      6133,
      6491,
      6714,
      6960,
      7329,
      7504,
      8156
    ],
    "swim:geom": "takeoff",
    "swim:timestamps": [
      1767251878,
      1767251903,
      1767251935,
      1767251947,
      1767251971,
      1767252005,
      1767252028,
      1767252042,
      1767252062,
      1767252082,
      1767252112,
      1767252133,
      1767252160,
      1767252198,
      1767252223,
      1767252255,
      1767252282,
      1767252315,
      1767252357,
      1767252378,
      1767252390,
      1767252447
    ],
    "wof:geomhash": "698df1079d335578fae2a336d77766be",
    "wof:id": 2014446101,
    "wof:repo": "sfomuseum-data-flights-2025-12"
  },
  "bbox": [
    -122.35589,
    37.63883,
    -121.43843,
    38.14376
  ],
  "geometry": {"coordinates":[[-122.35589,37.63883],[-122.33527,37.651],[-122.30532,37.66802],[-122.29243,37.67531],[-122.26393,37.69145],[-122.2174,37.71606],[-122.18475,37.73274],[-122.163,37.74374],[-122.13312,37.75955],[-122.10291,37.77506],[-122.0518,37.80119],[-122.01562,37.81939],[-121.96726,37.84098],[-121.89822,37.86875],[-121.85512,37.89194],[-121.80404,37.92772],[-121.76025,37.95834],[-121.70467,37.99727],[-121.62622,38.05157],[-121.58644,38.07932],[-121.56411,38.09493],[-121.43843,38.14376]],"type":"LineString"}
}
