{
  "id": 2014409431,
  "type": "Feature",
  "properties": {
    "geom:area": 0,
    "geom:bbox": "-122.361950,37.491630,-121.286460,37.614580",
    "geom:latitude": 37.54543435831872,
    "geom:longitude": -121.82893466812975,
    "src:alt_label": "swim-approach",
    "src:geom": "swim",
    "swim:elevations": [
      4511,
      4376,
      4216,
      4170,
      3807,
      3599,
      3200,
      3147,
      3045,
      2985,
      2894,
      2740,
      2640,
      2304,
      2139,
      1969,
      1829,
      1829,
      1829,
      1744,
      1649,
      1372,
      1289,
      1097,
      841,
      622,
      458,
      363,
      268,
      150,
      461
    ],
    "swim:geom": "approach",
    "swim:timestamps": [
      1766866917,
      1766866930,
      1766866946,
      1766866951,
      1766866989,
      1766867012,
      1766867062,
      1766867080,
      1766867101,
      1766867128,
      1766867149,
      1766867178,
      1766867193,
      1766867235,
      1766867260,
      1766867280,
      1766867332,
      1766867338,
      1766867341,
      1766867388,
      1766867406,
      1766867457,
      1766867469,
      1766867505,
      1766867538,
      1766867578,
      1766867608,
      1766867638,
      1766867659,
      1766867684,
      1766867724
    ],
    "wof:geomhash": "77712e9c4b4404238a3b460254ced777",
    "wof:id": 2014409431,
    "wof:repo": "sfomuseum-data-flights-2025-12"
  },
  "bbox": [
    -122.36195,
    37.49163,
    -121.28646,
    37.61458
  ],
  "geometry": {"coordinates":[[-121.28646,37.58974],[-121.31293,37.58687],[-121.34477,37.58334],[-121.35529,37.58211],[-121.42875,37.57372],[-121.4729,37.56863],[-121.56756,37.55763],[-121.60009,37.55375],[-121.63635,37.54791],[-121.68025,37.53753],[-121.71251,37.52989],[-121.75622,37.5194],[-121.77734,37.51432],[-121.83925,37.49956],[-121.87624,37.4919],[-121.90594,37.49163],[-121.98047,37.49414],[-121.98843,37.49547],[-121.99224,37.49635],[-122.04674,37.51375],[-122.06601,37.51993],[-122.11916,37.53723],[-122.13171,37.54135],[-122.16774,37.55289],[-122.2007,37.5637],[-122.23946,37.57615],[-122.26823,37.585],[-122.29424,37.59248],[-122.31147,37.59772],[-122.33142,37.60374],[-122.36195,37.61458]],"type":"LineString"}
}
