{
  "id": 2014409983,
  "type": "Feature",
  "properties": {
    "geom:area": 0,
    "geom:bbox": "-122.670600,37.563300,-122.137160,38.473060",
    "geom:latitude": 37.88207529583288,
    "geom:longitude": -122.48199426610125,
    "src:alt_label": "swim-approach",
    "src:geom": "swim",
    "swim:elevations": [
      6953,
      6673,
      6564,
      6147,
      5885,
      5676,
      5461,
      5204,
      4927,
      4607,
      4531,
      4281,
      3965,
      3786,
      3539,
      3379,
      3349,
      3353,
      3353,
      2980,
      2605,
      2237,
      1798,
      1532,
      1366,
      1272,
      1099,
      933,
      913,
      911,
      743,
      703,
      570,
      544,
      397,
      210,
      125,
      103,
      174
    ],
    "swim:geom": "approach",
    "swim:timestamps": [
      1766862567,
      1766862594,
      1766862606,
      1766862651,
      1766862680,
      1766862703,
      1766862729,
      1766862760,
      1766862795,
      1766862835,
      1766862844,
      1766862879,
      1766862924,
      1766862954,
      1766862980,
      1766863009,
      1766863020,
      1766863042,
      1766863075,
      1766863106,
      1766863132,
      1766863161,
      1766863193,
      1766863213,
      1766863227,
      1766863236,
      1766863283,
      1766863313,
      1766863320,
      1766863351,
      1766863398,
      1766863410,
      1766863433,
      1766863440,
      1766863472,
      1766863528,
      1766863553,
      1766863564,
      1766863582
    ],
    "wof:geomhash": "75e3a7b47523edf82ee995aa76f3d309",
    "wof:id": 2014409983,
    "wof:repo": "sfomuseum-data-flights-2025-12"
  },
  "bbox": [
    -122.6706,
    37.5633,
    -122.13716,
    38.47306
  ],
  "geometry": {"coordinates":[[-122.64693,38.47306],[-122.64887,38.41675],[-122.64985,38.393],[-122.65399,38.30322],[-122.65678,38.24824],[-122.6591,38.20506],[-122.66106,38.15779],[-122.66361,38.10195],[-122.66662,38.04097],[-122.6699,37.97362],[-122.6706,37.95905],[-122.66558,37.90313],[-122.6154,37.84428],[-122.57777,37.80875],[-122.55584,37.77479],[-122.52096,37.74276],[-122.50532,37.73277],[-122.47458,37.71578],[-122.4255,37.70206],[-122.38157,37.69035],[-122.34565,37.68134],[-122.3067,37.67203],[-122.26551,37.66241],[-122.2389,37.6559],[-122.22188,37.6517],[-122.21073,37.64865],[-122.1589,37.61981],[-122.13816,37.59305],[-122.13716,37.58681],[-122.15563,37.5633],[-122.20349,37.5658],[-122.21469,37.56907],[-122.23752,37.57516],[-122.24473,37.57685],[-122.27492,37.58419],[-122.31938,37.59771],[-122.33773,37.60536],[-122.34662,37.60906],[-122.36043,37.615]],"type":"LineString"}
}
