{
  "id": 2014409843,
  "type": "Feature",
  "properties": {
    "geom:area": 0,
    "geom:bbox": "-122.355810,37.491500,-121.256000,37.612750",
    "geom:latitude": 37.54595213952196,
    "geom:longitude": -121.81075320367596,
    "src:alt_label": "swim-approach",
    "src:geom": "swim",
    "swim:elevations": [
      4747,
      4398,
      4308,
      3927,
      3759,
      3419,
      3394,
      3003,
      2811,
      2650,
      2565,
      2265,
      2115,
      1952,
      1899,
      1767,
      1639,
      1416,
      1295,
      1095,
      943,
      854,
      819,
      580,
      405,
      292,
      219,
      60,
      89
    ],
    "swim:geom": "approach",
    "swim:timestamps": [
      1766860843,
      1766860886,
      1766860896,
      1766860943,
      1766860965,
      1766861007,
      1766861010,
      1766861066,
      1766861093,
      1766861121,
      1766861145,
      1766861179,
      1766861196,
      1766861246,
      1766861260,
      1766861287,
      1766861306,
      1766861337,
      1766861354,
      1766861387,
      1766861413,
      1766861453,
      1766861472,
      1766861510,
      1766861549,
      1766861577,
      1766861598,
      1766861637,
      1766861640
    ],
    "wof:geomhash": "926d0fa59885a575e138a7eb6f1766b2",
    "wof:id": 2014409843,
    "wof:repo": "sfomuseum-data-flights-2025-12"
  },
  "bbox": [
    -122.35581,
    37.4915,
    -121.256,
    37.61275
  ],
  "geometry": {"coordinates":[[-121.256,37.5935],[-121.34239,37.58313],[-121.36144,37.581],[-121.45449,37.57045],[-121.49694,37.56545],[-121.5751,37.55625],[-121.58116,37.55556],[-121.67497,37.53839],[-121.71909,37.52791],[-121.76259,37.51771],[-121.79893,37.50904],[-121.84871,37.49683],[-121.87338,37.4915],[-121.94324,37.49257],[-121.96282,37.49317],[-121.9991,37.49736],[-122.02287,37.50495],[-122.06092,37.51815],[-122.08158,37.52489],[-122.11992,37.53736],[-122.15003,37.54711],[-122.19354,37.56107],[-122.21187,37.56707],[-122.24906,37.57916],[-122.2833,37.58939],[-122.3061,37.59599],[-122.32234,37.60089],[-122.3534,37.61189],[-122.35581,37.61275]],"type":"LineString"}
}
