{
  "id": 2014413797,
  "type": "Feature",
  "properties": {
    "geom:area": 0,
    "geom:bbox": "-122.511220,37.217560,-121.248790,37.723100",
    "geom:latitude": 37.427887745483616,
    "geom:longitude": -122.00290984523582,
    "src:alt_label": "swim-takeoff",
    "src:geom": "swim",
    "swim:elevations": [
      213,
      777,
      1047,
      1160,
      1445,
      1878,
      2431,
      2618,
      3151,
      3544,
      3632,
      3958,
      4072,
      4664,
      4823,
      5333,
      5600,
      5858,
      6080,
      6388,
      6870,
      7166,
      7283,
      7539,
      7586,
      7711,
      7836,
      8007,
      8186,
      8450,
      8598,
      8797,
      9063
    ],
    "swim:geom": "takeoff",
    "swim:timestamps": [
      1766824299,
      1766824342,
      1766824366,
      1766824381,
      1766824419,
      1766824454,
      1766824491,
      1766824506,
      1766824548,
      1766824585,
      1766824592,
      1766824618,
      1766824627,
      1766824678,
      1766824690,
      1766824734,
      1766824764,
      1766824786,
      1766824808,
      1766824835,
      1766824885,
      1766824919,
      1766824931,
      1766824963,
      1766824969,
      1766824986,
      1766825001,
      1766825023,
      1766825046,
      1766825085,
      1766825108,
      1766825138,
      1766825182
    ],
    "wof:geomhash": "83a1e749fcb46facba82de053435d6dc",
    "wof:id": 2014413797,
    "wof:repo": "sfomuseum-data-flights-2025-12"
  },
  "bbox": [
    -122.51122,
    37.21756,
    -121.24879,
    37.7231
  ],
  "geometry": {"coordinates":[[-122.36631,37.63297],[-122.36285,37.666],[-122.36206,37.68492],[-122.36873,37.69593],[-122.41191,37.712],[-122.4612,37.7231],[-122.5068,37.6953],[-122.51122,37.67578],[-122.49369,37.61866],[-122.47368,37.56399],[-122.46995,37.55345],[-122.45424,37.51356],[-122.44589,37.50007],[-122.36002,37.46347],[-122.33557,37.45895],[-122.24888,37.44021],[-122.18805,37.42701],[-122.1412,37.41671],[-122.09631,37.4069],[-122.03887,37.39428],[-121.93218,37.3707],[-121.85994,37.35485],[-121.83269,37.3488],[-121.76206,37.33306],[-121.74853,37.33003],[-121.70939,37.32127],[-121.67559,37.31373],[-121.62546,37.30259],[-121.57289,37.2908],[-121.48088,37.27021],[-121.42746,37.25819],[-121.35633,37.24216],[-121.24879,37.21756]],"type":"LineString"}
}
