{
  "id": 2014437865,
  "type": "Feature",
  "properties": {
    "geom:area": 0,
    "geom:bbox": "-122.476810,36.729720,-121.418500,37.712280",
    "geom:latitude": 37.24693472687299,
    "geom:longitude": -122.02149538178469,
    "src:alt_label": "swim-takeoff",
    "src:geom": "swim",
    "swim:elevations": [
      122,
      183,
      568,
      652,
      799,
      930,
      1399,
      2134,
      2283,
      2755,
      3250,
      3418,
      3490,
      3993,
      4203,
      4733,
      5006,
      5285,
      5566,
      5887,
      6438,
      6757,
      7087,
      7288,
      7576,
      7764,
      7825,
      8197,
      8697,
      8701,
      8997,
      9130,
      9376
    ],
    "swim:geom": "takeoff",
    "swim:timestamps": [
      1767126268,
      1767126272,
      1767126308,
      1767126325,
      1767126347,
      1767126362,
      1767126396,
      1767126442,
      1767126451,
      1767126485,
      1767126534,
      1767126568,
      1767126577,
      1767126617,
      1767126633,
      1767126676,
      1767126697,
      1767126720,
      1767126750,
      1767126781,
      1767126834,
      1767126864,
      1767126898,
      1767126920,
      1767126954,
      1767126979,
      1767126990,
      1767127041,
      1767127077,
      1767127080,
      1767127106,
      1767127121,
      1767127154
    ],
    "wof:geomhash": "88dafbaa4c3d1b24af95eb0bfa5a5c5d",
    "wof:id": 2014437865,
    "wof:repo": "sfomuseum-data-flights-2025-12"
  },
  "bbox": [
    -122.47681,
    36.72972,
    -121.4185,
    37.71228
  ],
  "geometry": {"coordinates":[[-122.36883,37.62947],[-122.36703,37.6325],[-122.36314,37.65923],[-122.36197,37.67475],[-122.36611,37.6976],[-122.3803,37.71113],[-122.43146,37.71228],[-122.46099,37.66159],[-122.46504,37.65091],[-122.47681,37.61048],[-122.43148,37.56071],[-122.38599,37.52371],[-122.37321,37.51349],[-122.31655,37.46806],[-122.29285,37.44897],[-122.22812,37.39651],[-122.19734,37.37142],[-122.1603,37.34128],[-122.11311,37.3029],[-122.06377,37.26264],[-121.97668,37.19142],[-121.92624,37.1501],[-121.86823,37.10249],[-121.82988,37.07094],[-121.77246,37.02372],[-121.72726,36.98706],[-121.70893,36.97192],[-121.61555,36.89448],[-121.55064,36.84214],[-121.54615,36.83706],[-121.49992,36.79878],[-121.47347,36.77659],[-121.4185,36.72972]],"type":"LineString"}
}
