{
  "id": 2014430699,
  "type": "Feature",
  "properties": {
    "geom:area": 0,
    "geom:bbox": "-122.418760,37.199670,-121.257190,37.699850",
    "geom:latitude": 37.387886443300516,
    "geom:longitude": -121.95418052179465,
    "src:alt_label": "swim-takeoff",
    "src:geom": "swim",
    "swim:elevations": [
      214,
      257,
      938,
      1146,
      1251,
      1609,
      2042,
      2430,
      2706,
      3243,
      3731,
      3856,
      4358,
      4788,
      5105,
      5415,
      5764,
      5848,
      6082,
      6463,
      6594,
      6947,
      7177,
      7360,
      7748,
      8054,
      8257,
      8501,
      8661,
      8870,
      8952
    ],
    "swim:geom": "takeoff",
    "swim:timestamps": [
      1767033087,
      1767033090,
      1767033142,
      1767033173,
      1767033191,
      1767033227,
      1767033256,
      1767033284,
      1767033302,
      1767033340,
      1767033387,
      1767033399,
      1767033440,
      1767033476,
      1767033503,
      1767033535,
      1767033563,
      1767033572,
      1767033594,
      1767033628,
      1767033643,
      1767033677,
      1767033707,
      1767033722,
      1767033771,
      1767033808,
      1767033834,
      1767033867,
      1767033895,
      1767033928,
      1767033940
    ],
    "wof:geomhash": "1b16457e291a3a4d253c3b298c25050d",
    "wof:id": 2014430699,
    "wof:repo": "sfomuseum-data-flights-2025-12"
  },
  "bbox": [
    -122.41876,
    37.19967,
    -121.25719,
    37.69985
  ],
  "geometry": {"coordinates":[[-122.36845,37.63042],[-122.36747,37.63236],[-122.36301,37.66675],[-122.36293,37.68866],[-122.37458,37.69985],[-122.4156,37.6934],[-122.41876,37.66188],[-122.4134,37.62706],[-122.41045,37.60384],[-122.40644,37.55234],[-122.38932,37.48591],[-122.37352,37.47297],[-122.31093,37.43592],[-122.2485,37.40712],[-122.1954,37.3966],[-122.13209,37.38293],[-122.0745,37.37087],[-122.05621,37.3671],[-122.01303,37.35812],[-121.94278,37.34353],[-121.91018,37.33673],[-121.83994,37.32223],[-121.77605,37.30899],[-121.74386,37.30226],[-121.63731,37.27983],[-121.55732,37.26301],[-121.49696,37.25056],[-121.42483,37.23533],[-121.36037,37.2217],[-121.28491,37.20564],[-121.25719,37.19967]],"type":"LineString"}
}
