{
  "id": 2014417561,
  "type": "Feature",
  "properties": {
    "geom:area": 0,
    "geom:bbox": "-122.571560,37.407340,-121.280320,37.680530",
    "geom:latitude": 37.53860942135259,
    "geom:longitude": -122.10909730874512,
    "src:alt_label": "swim-approach",
    "src:geom": "swim",
    "swim:elevations": [
      4391,
      4271,
      4039,
      3537,
      3322,
      3116,
      3005,
      2929,
      2735,
      2490,
      2375,
      2212,
      2163,
      2106,
      1915,
      1882,
      1620,
      1539,
      1249,
      1098,
      899,
      832,
      595,
      449,
      378,
      246,
      678,
      878,
      914,
      914,
      1118,
      1465,
      1524,
      1524,
      1524,
      1524,
      1524,
      1524,
      1524,
      1524,
      1826,
      1829,
      1829,
      1829,
      1829,
      1829,
      1829,
      1829,
      1787,
      1295,
      1217,
      1219,
      1119,
      951,
      792,
      663,
      534,
      517,
      332,
      129,
      67,
      0
    ],
    "swim:geom": "approach",
    "swim:timestamps": [
      1766930540,
      1766930553,
      1766930580,
      1766930636,
      1766930660,
      1766930685,
      1766930718,
      1766930733,
      1766930764,
      1766930811,
      1766930837,
      1766930875,
      1766930882,
      1766930895,
      1766930938,
      1766930948,
      1766930992,
      1766931003,
      1766931056,
      1766931079,
      1766931109,
      1766931123,
      1766931170,
      1766931201,
      1766931215,
      1766931244,
      1766931291,
      1766931318,
      1766931358,
      1766931362,
      1766931403,
      1766931442,
      1766931470,
      1766931484,
      1766931541,
      1766931581,
      1766931609,
      1766931664,
      1766931703,
      1766931724,
      1766931775,
      1766931802,
      1766931835,
      1766931840,
      1766931872,
      1766931903,
      1766931950,
      1766931974,
      1766931992,
      1766932047,
      1766932063,
      1766932089,
      1766932119,
      1766932144,
      1766932187,
      1766932227,
      1766932255,
      1766932260,
      1766932301,
      1766932347,
      1766932366,
      1766932380
    ],
    "wof:geomhash": "041cae470cfc3fb339aa04318a79065d",
    "wof:id": 2014417561,
    "wof:repo": "sfomuseum-data-flights-2025-12"
  },
  "bbox": [
    -122.57156,
    37.40734,
    -121.28032,
    37.68053
  ],
  "geometry": {"coordinates":[[-121.28032,37.59031],[-121.30694,37.58722],[-121.35922,37.58143],[-121.46599,37.56945],[-121.5106,37.5642],[-121.55566,37.55883],[-121.6149,37.55174],[-121.63831,37.54754],[-121.68938,37.53527],[-121.76203,37.51799],[-121.80049,37.50898],[-121.85772,37.49522],[-121.86825,37.49305],[-121.88834,37.49136],[-121.95204,37.49288],[-121.96704,37.49325],[-122.02644,37.50727],[-122.04102,37.51197],[-122.11082,37.53458],[-122.14018,37.54378],[-122.17561,37.5554],[-122.19151,37.56063],[-122.24261,37.57713],[-122.27273,37.58633],[-122.28545,37.59003],[-122.31062,37.59762],[-122.35263,37.61149],[-122.37809,37.62174],[-122.41609,37.63631],[-122.42003,37.63771],[-122.46016,37.65264],[-122.49776,37.66604],[-122.52483,37.67587],[-122.53765,37.68053],[-122.57156,37.65165],[-122.56904,37.61383],[-122.56723,37.58787],[-122.56312,37.53579],[-122.55997,37.49923],[-122.55835,37.47892],[-122.54617,37.43164],[-122.51755,37.42217],[-122.48077,37.41242],[-122.47584,37.41115],[-122.44057,37.40734],[-122.40586,37.40831],[-122.35427,37.41289],[-122.32848,37.41718],[-122.30881,37.42026],[-122.26106,37.43875],[-122.2517,37.4497],[-122.23728,37.46692],[-122.22035,37.48652],[-122.20697,37.50399],[-122.2184,37.53819],[-122.23827,37.56346],[-122.26135,37.57319],[-122.2658,37.5751],[-122.29907,37.58903],[-122.33581,37.60457],[-122.35015,37.6106],[-122.36189,37.61547]],"type":"LineString"}
}
