{
  "id": 2014409597,
  "type": "Feature",
  "properties": {
    "geom:area": 0,
    "geom:bbox": "-122.360380,36.733170,-121.886940,37.612410",
    "geom:latitude": 37.21569452537639,
    "geom:longitude": -122.07260409040626,
    "src:alt_label": "swim-approach",
    "src:geom": "swim",
    "swim:elevations": [
      4830,
      4530,
      4308,
      4010,
      3715,
      3449,
      3221,
      3191,
      3139,
      3111,
      2876,
      2676,
      2484,
      2443,
      2438,
      2438,
      2307,
      2126,
      1827,
      1753,
      1588,
      1525,
      1523,
      1444,
      1126,
      989,
      836,
      689,
      639,
      505,
      417,
      295,
      199,
      116,
      0
    ],
    "swim:geom": "approach",
    "swim:timestamps": [
      1766870665,
      1766870698,
      1766870720,
      1766870754,
      1766870787,
      1766870818,
      1766870847,
      1766870856,
      1766870877,
      1766870886,
      1766870929,
      1766870962,
      1766870996,
      1766871005,
      1766871056,
      1766871078,
      1766871113,
      1766871134,
      1766871178,
      1766871192,
      1766871219,
      1766871237,
      1766871243,
      1766871261,
      1766871294,
      1766871312,
      1766871351,
      1766871386,
      1766871394,
      1766871426,
      1766871447,
      1766871473,
      1766871501,
      1766871527,
      1766871552
    ],
    "wof:geomhash": "f93c64726f9c444c0f8b0dcd57a4b5b6",
    "wof:id": 2014409597,
    "wof:repo": "sfomuseum-data-flights-2025-12"
  },
  "bbox": [
    -122.36038,
    36.73317,
    -121.88694,
    37.61241
  ],
  "geometry": {"coordinates":[[-121.88694,36.73317],[-121.90444,36.77948],[-121.91359,36.81245],[-121.92751,36.86216],[-121.94082,36.9099],[-121.95347,36.95392],[-121.96874,36.99316],[-121.9734,37.00497],[-121.98348,37.03072],[-121.98761,37.04137],[-122.00779,37.0933],[-122.02306,37.13224],[-122.0378,37.17177],[-122.04194,37.18291],[-122.06532,37.24079],[-122.07526,37.26545],[-122.09147,37.30579],[-122.10096,37.32969],[-122.11967,37.37818],[-122.12475,37.39355],[-122.13447,37.423],[-122.14131,37.44191],[-122.14359,37.44791],[-122.15106,37.46514],[-122.16892,37.49544],[-122.18019,37.51094],[-122.20113,37.54098],[-122.23073,37.55703],[-122.23879,37.56078],[-122.26725,37.57359],[-122.28521,37.58024],[-122.30457,37.58838],[-122.32356,37.59699],[-122.34221,37.6049],[-122.36038,37.61241]],"type":"LineString"}
}
