{
  "id": 2014424329,
  "type": "Feature",
  "properties": {
    "geom:area": 0,
    "geom:bbox": "-122.852070,37.432190,-122.115390,38.511870",
    "geom:latitude": 37.83411364428985,
    "geom:longitude": -122.50442051532568,
    "src:alt_label": "swim-approach",
    "src:geom": "swim",
    "swim:elevations": [
      7642,
      7257,
      7080,
      6748,
      6499,
      6172,
      5827,
      5638,
      5437,
      5206,
      5029,
      4553,
      4267,
      4121,
      3725,
      3504,
      3403,
      3353,
      3353,
      3353,
      3353,
      3320,
      3190,
      3002,
      2681,
      2553,
      2260,
      2153,
      1895,
      1719,
      1380,
      1241,
      1173,
      1062,
      943,
      756,
      655,
      457,
      395,
      213,
      98,
      40
    ],
    "swim:geom": "approach",
    "swim:timestamps": [
      1767007667,
      1767007699,
      1767007719,
      1767007752,
      1767007779,
      1767007815,
      1767007857,
      1767007879,
      1767007908,
      1767007936,
      1767007951,
      1767008002,
      1767008032,
      1767008049,
      1767008093,
      1767008116,
      1767008139,
      1767008187,
      1767008205,
      1767008248,
      1767008265,
      1767008295,
      1767008326,
      1767008360,
      1767008417,
      1767008445,
      1767008481,
      1767008499,
      1767008536,
      1767008559,
      1767008600,
      1767008637,
      1767008646,
      1767008661,
      1767008680,
      1767008718,
      1767008737,
      1767008778,
      1767008795,
      1767008841,
      1767008865,
      1767008885
    ],
    "wof:geomhash": "51179f257d7b0a8c58d21e6ee3782398",
    "wof:id": 2014424329,
    "wof:repo": "sfomuseum-data-flights-2025-12"
  },
  "bbox": [
    -122.85207,
    37.43219,
    -122.11539,
    38.51187
  ],
  "geometry": {"coordinates":[[-122.85207,38.51187],[-122.83401,38.45096],[-122.8229,38.41406],[-122.80507,38.35375],[-122.79095,38.30497],[-122.7725,38.24196],[-122.75174,38.16984],[-122.74091,38.13218],[-122.72736,38.08573],[-122.71404,38.04046],[-122.70676,38.01539],[-122.68333,37.93428],[-122.66033,37.88884],[-122.64017,37.86842],[-122.58526,37.81631],[-122.55724,37.79011],[-122.52955,37.764],[-122.47731,37.71439],[-122.45811,37.69636],[-122.41251,37.65379],[-122.39408,37.63634],[-122.36523,37.60821],[-122.34602,37.5761],[-122.32754,37.54172],[-122.29218,37.48371],[-122.26208,37.46619],[-122.21781,37.45042],[-122.19599,37.4427],[-122.15034,37.43219],[-122.12604,37.44514],[-122.11539,37.48622],[-122.1396,37.51488],[-122.14653,37.52034],[-122.16071,37.5282],[-122.17813,37.5361],[-122.2162,37.55198],[-122.23506,37.55981],[-122.27097,37.57497],[-122.2851,37.58093],[-122.32301,37.59687],[-122.34302,37.60529],[-122.35946,37.61231]],"type":"LineString"}
}
