{
  "id": 2014417947,
  "type": "Feature",
  "properties": {
    "geom:area": 0,
    "geom:bbox": "-122.357020,36.741520,-121.890940,37.611060",
    "geom:latitude": 37.21869088384679,
    "geom:longitude": -122.07357794915133,
    "src:alt_label": "swim-approach",
    "src:geom": "swim",
    "swim:elevations": [
      5799,
      5573,
      5363,
      4936,
      4541,
      4486,
      4111,
      3690,
      3427,
      3132,
      3045,
      2957,
      2618,
      2467,
      2330,
      2085,
      1926,
      1883,
      1676,
      1619,
      1395,
      1352,
      1079,
      895,
      845,
      639,
      474,
      324,
      266,
      178,
      13
    ],
    "swim:geom": "approach",
    "swim:timestamps": [
      1766942127,
      1766942147,
      1766942174,
      1766942211,
      1766942246,
      1766942252,
      1766942287,
      1766942329,
      1766942356,
      1766942397,
      1766942428,
      1766942442,
      1766942488,
      1766942516,
      1766942541,
      1766942577,
      1766942601,
      1766942610,
      1766942661,
      1766942671,
      1766942726,
      1766942732,
      1766942782,
      1766942817,
      1766942828,
      1766942867,
      1766942902,
      1766942937,
      1766942949,
      1766942971,
      1766943004
    ],
    "wof:geomhash": "fa44af97ba1c76d97013d915499e3cbd",
    "wof:id": 2014417947,
    "wof:repo": "sfomuseum-data-flights-2025-12"
  },
  "bbox": [
    -122.35702,
    36.74152,
    -121.89094,
    37.61106
  ],
  "geometry": {"coordinates":[[-121.89094,36.74152],[-121.90219,36.77042],[-121.91352,36.81058],[-121.92855,36.86473],[-121.9426,36.91511],[-121.94541,36.92495],[-121.96167,36.97364],[-121.98428,37.03167],[-121.99825,37.06815],[-122.01987,37.12293],[-122.03482,37.1614],[-122.0409,37.17699],[-122.06246,37.23185],[-122.0755,37.26486],[-122.0867,37.29362],[-122.10239,37.33354],[-122.11248,37.35906],[-122.1167,37.36967],[-122.13389,37.41914],[-122.13664,37.4272],[-122.15395,37.47134],[-122.15595,37.476],[-122.18068,37.51296],[-122.1982,37.53781],[-122.20495,37.54526],[-122.24158,37.56252],[-122.27413,37.57637],[-122.30248,37.58819],[-122.31289,37.5926],[-122.33062,37.60001],[-122.35702,37.61106]],"type":"LineString"}
}
