{
  "id": 2014442807,
  "type": "Feature",
  "properties": {
    "geom:area": 0,
    "geom:bbox": "-122.364250,37.492170,-121.246830,37.616260",
    "geom:latitude": 37.54360144234411,
    "geom:longitude": -121.81262811111009,
    "src:alt_label": "swim-approach",
    "src:geom": "swim",
    "swim:elevations": [
      4485,
      4344,
      3912,
      3651,
      3460,
      3198,
      3106,
      3057,
      2763,
      2468,
      2427,
      2339,
      2157,
      1948,
      1888,
      1827,
      1800,
      1591,
      1249,
      1218,
      1047,
      942,
      781,
      612,
      478,
      325,
      155,
      61,
      0
    ],
    "swim:geom": "approach",
    "swim:timestamps": [
      1767178493,
      1767178508,
      1767178556,
      1767178585,
      1767178606,
      1767178645,
      1767178666,
      1767178680,
      1767178711,
      1767178744,
      1767178794,
      1767178815,
      1767178849,
      1767178888,
      1767178897,
      1767178912,
      1767178936,
      1767178961,
      1767179004,
      1767179027,
      1767179068,
      1767179087,
      1767179113,
      1767179142,
      1767179166,
      1767179202,
      1767179242,
      1767179262,
      1767179283
    ],
    "wof:geomhash": "b9824f590f133fa8d3918ac4262db62b",
    "wof:id": 2014442807,
    "wof:repo": "sfomuseum-data-flights-2025-12"
  },
  "bbox": [
    -122.36425,
    37.49217,
    -121.24683,
    37.61626
  ],
  "geometry": {"coordinates":[[-121.24683,37.59517],[-121.27896,37.59098],[-121.37594,37.57993],[-121.43515,37.57319],[-121.47638,37.56829],[-121.55349,37.55924],[-121.59173,37.55485],[-121.6181,37.5517],[-121.66944,37.54015],[-121.72446,37.52665],[-121.79574,37.51012],[-121.82495,37.50329],[-121.872,37.49217],[-121.92878,37.49352],[-121.94094,37.49439],[-121.96295,37.49597],[-121.99657,37.49808],[-122.03112,37.50004],[-122.09182,37.50451],[-122.11975,37.51404],[-122.1664,37.53316],[-122.18669,37.54179],[-122.21515,37.55387],[-122.24582,37.5667],[-122.27002,37.57687],[-122.30151,37.59013],[-122.33245,37.60318],[-122.34837,37.60983],[-122.36425,37.61626]],"type":"LineString"}
}
