{
  "id": 2014417959,
  "type": "Feature",
  "properties": {
    "geom:area": 0,
    "geom:bbox": "-122.668660,37.537250,-122.091040,38.505630",
    "geom:latitude": 37.87420942667145,
    "geom:longitude": -122.45045802049158,
    "src:alt_label": "swim-approach",
    "src:geom": "swim",
    "swim:elevations": [
      7102,
      6817,
      6413,
      6153,
      6100,
      5907,
      5620,
      5537,
      5215,
      4990,
      4791,
      4502,
      4350,
      4212,
      4012,
      3815,
      3679,
      3535,
      3492,
      3414,
      3353,
      3101,
      2899,
      2779,
      2449,
      2281,
      2202,
      2080,
      1986,
      1859,
      1829,
      1829,
      1553,
      1524,
      1416,
      1248,
      1098,
      973,
      863,
      653,
      573,
      384,
      246,
      91,
      29
    ],
    "swim:geom": "approach",
    "swim:timestamps": [
      1766950614,
      1766950636,
      1766950677,
      1766950706,
      1766950712,
      1766950732,
      1766950764,
      1766950773,
      1766950819,
      1766950843,
      1766950867,
      1766950900,
      1766950918,
      1766950934,
      1766950955,
      1766950987,
      1766951022,
      1766951058,
      1766951068,
      1766951094,
      1766951115,
      1766951157,
      1766951185,
      1766951205,
      1766951248,
      1766951276,
      1766951288,
      1766951305,
      1766951323,
      1766951360,
      1766951398,
      1766951404,
      1766951458,
      1766951467,
      1766951484,
      1766951513,
      1766951548,
      1766951570,
      1766951587,
      1766951622,
      1766951635,
      1766951665,
      1766951694,
      1766951727,
      1766951742
    ],
    "wof:geomhash": "f9dcce2a0570d48c8bc0259c8eedf7a5",
    "wof:id": 2014417959,
    "wof:repo": "sfomuseum-data-flights-2025-12"
  },
  "bbox": [
    -122.66866,
    37.53725,
    -122.09104,
    38.50563
  ],
  "geometry": {"coordinates":[[-122.59732,38.50563],[-122.60327,38.45813],[-122.61396,38.37388],[-122.62136,38.31527],[-122.62283,38.30333],[-122.62767,38.26394],[-122.63548,38.2012],[-122.63751,38.18506],[-122.64842,38.09805],[-122.65391,38.05238],[-122.65953,38.00823],[-122.66679,37.94936],[-122.66866,37.91676],[-122.65905,37.8902],[-122.63481,37.8634],[-122.59542,37.82601],[-122.55572,37.78881],[-122.51817,37.75334],[-122.50908,37.74483],[-122.47781,37.72846],[-122.45112,37.71891],[-122.39868,37.69971],[-122.36374,37.68689],[-122.33913,37.6781],[-122.28512,37.65911],[-122.25062,37.64712],[-122.23593,37.64191],[-122.2156,37.63476],[-122.19339,37.62716],[-122.14801,37.61179],[-122.10637,37.59733],[-122.10021,37.59511],[-122.09104,37.55133],[-122.09736,37.54405],[-122.11465,37.53725],[-122.14633,37.5441],[-122.18108,37.55736],[-122.20385,37.56486],[-122.22005,37.56993],[-122.25115,37.57995],[-122.26263,37.58378],[-122.29013,37.59131],[-122.31527,37.5989],[-122.34293,37.60769],[-122.35534,37.61262]],"type":"LineString"}
}
