{
  "id": 2014414153,
  "type": "Feature",
  "properties": {
    "geom:area": 0,
    "geom:bbox": "-123.335570,37.627750,-122.396670,38.513550",
    "geom:latitude": 38.02931007150919,
    "geom:longitude": -122.89930042457271,
    "src:alt_label": "swim-takeoff",
    "src:geom": "swim",
    "swim:elevations": [
      183,
      559,
      854,
      1014,
      1203,
      1338,
      1402,
      1989,
      2152,
      2772,
      3043,
      3174,
      3362,
      3651,
      3811,
      4170,
      4687,
      5022,
      5071,
      5304,
      5415,
      5732,
      6021,
      6316,
      6706,
      6888,
      7107
    ],
    "swim:geom": "takeoff",
    "swim:timestamps": [
      1766838357,
      1766838381,
      1766838415,
      1766838436,
      1766838478,
      1766838504,
      1766838512,
      1766838559,
      1766838573,
      1766838626,
      1766838648,
      1766838661,
      1766838691,
      1766838738,
      1766838752,
      1766838784,
      1766838832,
      1766838866,
      1766838871,
      1766838897,
      1766838911,
      1766838948,
      1766838980,
      1766839017,
      1766839068,
      1766839092,
      1766839121
    ],
    "wof:geomhash": "422ddf062feb1ba6ed78abeffa6cff15",
    "wof:id": 2014414153,
    "wof:repo": "sfomuseum-data-flights-2025-12"
  },
  "bbox": [
    -123.33557,
    37.62775,
    -122.39667,
    38.51355
  ],
  "geometry": {"coordinates":[[-122.39667,37.62775],[-122.42052,37.63793],[-122.45339,37.65246],[-122.47519,37.6624],[-122.52125,37.68532],[-122.55301,37.70419],[-122.56363,37.71058],[-122.62581,37.74723],[-122.64575,37.7585],[-122.71868,37.80176],[-122.74974,37.82167],[-122.76573,37.83502],[-122.7968,37.87022],[-122.84878,37.93443],[-122.86505,37.95409],[-122.90312,38.00014],[-122.96048,38.06881],[-123.00195,38.11854],[-123.00791,38.12564],[-123.04025,38.16435],[-123.05893,38.18655],[-123.10594,38.24248],[-123.14641,38.2909],[-123.19564,38.34927],[-123.26289,38.4285],[-123.2955,38.46667],[-123.33557,38.51355]],"type":"LineString"}
}
