{
  "id": 2014414663,
  "type": "Feature",
  "properties": {
    "geom:area": 0,
    "geom:bbox": "-122.348290,37.491600,-121.247090,37.609780",
    "geom:latitude": 37.54621636879183,
    "geom:longitude": -121.80234525031022,
    "src:alt_label": "swim-approach",
    "src:geom": "swim",
    "swim:elevations": [
      4565,
      4392,
      4248,
      4062,
      3748,
      3617,
      3366,
      3223,
      2972,
      2781,
      2706,
      2559,
      2335,
      2214,
      2063,
      2010,
      1920,
      1739,
      1627,
      1496,
      1463,
      1129,
      998,
      731,
      676,
      549,
      508,
      376,
      252,
      164,
      68
    ],
    "swim:geom": "approach",
    "swim:timestamps": [
      1766957695,
      1766957717,
      1766957732,
      1766957755,
      1766957786,
      1766957804,
      1766957846,
      1766957867,
      1766957908,
      1766957938,
      1766957952,
      1766957978,
      1766958015,
      1766958038,
      1766958067,
      1766958076,
      1766958101,
      1766958133,
      1766958145,
      1766958176,
      1766958186,
      1766958236,
      1766958251,
      1766958296,
      1766958305,
      1766958341,
      1766958377,
      1766958404,
      1766958440,
      1766958461,
      1766958488
    ],
    "wof:geomhash": "ed41282969b4af8ac8bc9d8a55e3f771",
    "wof:id": 2014414663,
    "wof:repo": "sfomuseum-data-flights-2025-12"
  },
  "bbox": [
    -122.34829,
    37.4916,
    -121.24709,
    37.60978
  ],
  "geometry": {"coordinates":[[-121.24709,37.59467],[-121.29105,37.5889],[-121.32034,37.58573],[-121.36362,37.58105],[-121.42321,37.57417],[-121.4565,37.57035],[-121.53302,37.56147],[-121.57048,37.55707],[-121.64132,37.54677],[-121.69234,37.5344],[-121.71529,37.52903],[-121.75811,37.51882],[-121.81884,37.50427],[-121.85554,37.49548],[-121.90221,37.4916],[-121.91654,37.49212],[-121.9542,37.49299],[-121.99942,37.49859],[-122.01524,37.50372],[-122.05493,37.5166],[-122.06624,37.52022],[-122.1213,37.5379],[-122.1374,37.54314],[-122.18528,37.55889],[-122.19429,37.56174],[-122.22892,37.57275],[-122.26128,37.58313],[-122.28291,37.58927],[-122.31107,37.59772],[-122.32754,37.60247],[-122.34829,37.60978]],"type":"LineString"}
}
