{
  "id": 2014429795,
  "type": "Feature",
  "properties": {
    "geom:area": 0,
    "geom:bbox": "-123.325110,37.629080,-122.399560,38.502310",
    "geom:latitude": 38.024775755407944,
    "geom:longitude": -122.89533019906057,
    "src:alt_label": "swim-takeoff",
    "src:geom": "swim",
    "swim:elevations": [
      274,
      493,
      906,
      1115,
      1322,
      1555,
      2016,
      2690,
      3073,
      3166,
      3263,
      3469,
      3787,
      4215,
      4523,
      4808,
      5071,
      5447,
      5683,
      6031,
      6238,
      6548,
      6858,
      6889,
      7254
    ],
    "swim:geom": "takeoff",
    "swim:timestamps": [
      1767013791,
      1767013808,
      1767013843,
      1767013867,
      1767013906,
      1767013924,
      1767013956,
      1767014006,
      1767014036,
      1767014045,
      1767014071,
      1767014113,
      1767014144,
      1767014180,
      1767014207,
      1767014229,
      1767014254,
      1767014293,
      1767014328,
      1767014363,
      1767014381,
      1767014415,
      1767014456,
      1767014463,
      1767014511
    ],
    "wof:geomhash": "87acf2930033a0c7945e7a96c2b6596d",
    "wof:id": 2014429795,
    "wof:repo": "sfomuseum-data-flights-2025-12"
  },
  "bbox": [
    -123.32511,
    37.62908,
    -122.39956,
    38.50231
  ],
  "geometry": {"coordinates":[[-122.39956,37.62908],[-122.4149,37.63579],[-122.44774,37.65066],[-122.47154,37.66092],[-122.51605,37.68189],[-122.53892,37.69552],[-122.58074,37.71999],[-122.6466,37.75896],[-122.68735,37.7832],[-122.7004,37.7909],[-122.74005,37.8149],[-122.79403,37.86896],[-122.8321,37.91475],[-122.87799,37.97004],[-122.91142,38.01011],[-122.94039,38.0448],[-122.97211,38.08283],[-123.02467,38.14552],[-123.07095,38.20078],[-123.11919,38.25813],[-123.14387,38.28767],[-123.19049,38.34307],[-123.24758,38.41019],[-123.25776,38.42207],[-123.32511,38.50231]],"type":"LineString"}
}
