{
  "id": 2014420565,
  "type": "Feature",
  "properties": {
    "geom:area": 0,
    "geom:bbox": "-122.385710,37.634680,-121.249680,38.422930",
    "geom:latitude": 38.0866813847524,
    "geom:longitude": -121.92631013356115,
    "src:alt_label": "swim-takeoff",
    "src:geom": "swim",
    "swim:elevations": [
      515,
      749,
      982,
      1138,
      1386,
      2226,
      2626,
      3026,
      3339,
      3599,
      4018,
      4620,
      4864,
      4942,
      5187,
      5451,
      5562,
      5997,
      6239,
      6585,
      6842,
      6986,
      7078,
      7312,
      7533,
      7674,
      8038,
      8254,
      8330,
      8546,
      8822,
      8854,
      9013
    ],
    "swim:geom": "takeoff",
    "swim:timestamps": [
      1766988536,
      1766988563,
      1766988592,
      1766988605,
      1766988631,
      1766988680,
      1766988704,
      1766988731,
      1766988763,
      1766988794,
      1766988822,
      1766988868,
      1766988892,
      1766988900,
      1766988923,
      1766988954,
      1766988972,
      1766989017,
      1766989038,
      1766989077,
      1766989104,
      1766989124,
      1766989137,
      1766989169,
      1766989195,
      1766989210,
      1766989253,
      1766989283,
      1766989295,
      1766989335,
      1766989378,
      1766989384,
      1766989411
    ],
    "wof:geomhash": "4d0b174c7b6f95b8546a07cdf31eb0b5",
    "wof:id": 2014420565,
    "wof:repo": "sfomuseum-data-flights-2025-12"
  },
  "bbox": [
    -122.38571,
    37.63468,
    -121.24968,
    38.42293
  ],
  "geometry": {"coordinates":[[-122.36132,37.63468],[-122.3447,37.64966],[-122.32195,37.66914],[-122.31214,37.68059],[-122.31588,37.71056],[-122.34789,37.76928],[-122.3623,37.79792],[-122.37892,37.8309],[-122.38571,37.87319],[-122.38121,37.91962],[-122.35079,37.95272],[-122.2742,37.98499],[-122.23285,38.00152],[-122.21875,38.00721],[-122.17947,38.02297],[-122.12371,38.04536],[-122.09136,38.0583],[-122.00748,38.09184],[-121.96859,38.10736],[-121.89532,38.13659],[-121.84366,38.15711],[-121.80483,38.17252],[-121.77912,38.1827],[-121.71771,38.20703],[-121.66446,38.22807],[-121.63469,38.23977],[-121.54914,38.27338],[-121.48977,38.29677],[-121.46599,38.30616],[-121.38771,38.33845],[-121.30882,38.38629],[-121.29812,38.39305],[-121.24968,38.42293]],"type":"LineString"}
}
