{
  "id": 2014428189,
  "type": "Feature",
  "properties": {
    "geom:area": 0,
    "geom:bbox": "-123.500570,36.770010,-122.400500,37.661990",
    "geom:latitude": 37.25860411262613,
    "geom:longitude": -122.96763593105847,
    "src:alt_label": "swim-takeoff",
    "src:geom": "swim",
    "swim:elevations": [
      175,
      330,
      478,
      941,
      1240,
      1576,
      1838,
      2257,
      2542,
      2741,
      3005,
      3140,
      3287,
      3439,
      3598,
      3905,
      4153,
      4315,
      4599,
      4706,
      4952,
      5068,
      5228,
      5483,
      5578,
      5639,
      5944,
      6187,
      6329,
      6445
    ],
    "swim:geom": "takeoff",
    "swim:timestamps": [
      1767039756,
      1767039770,
      1767039783,
      1767039818,
      1767039866,
      1767039898,
      1767039918,
      1767039954,
      1767039988,
      1767040017,
      1767040047,
      1767040062,
      1767040094,
      1767040127,
      1767040155,
      1767040193,
      1767040226,
      1767040244,
      1767040286,
      1767040301,
      1767040329,
      1767040345,
      1767040369,
      1767040402,
      1767040429,
      1767040444,
      1767040483,
      1767040519,
      1767040546,
      1767040565
    ],
    "wof:geomhash": "006aa5469e8adc1b6292ed08c51c808b",
    "wof:id": 2014428189,
    "wof:repo": "sfomuseum-data-flights-2025-12"
  },
  "bbox": [
    -123.50057,
    36.77001,
    -122.4005,
    37.66199
  ],
  "geometry": {"coordinates":[[-122.4005,37.62951],[-122.41434,37.63534],[-122.42721,37.64107],[-122.46233,37.65702],[-122.522,37.66199],[-122.56084,37.63823],[-122.58648,37.62169],[-122.63062,37.59302],[-122.67251,37.56552],[-122.70859,37.53879],[-122.74749,37.50999],[-122.76827,37.49435],[-122.80528,37.45658],[-122.84378,37.41455],[-122.87959,37.37561],[-122.92819,37.32319],[-122.97198,37.27624],[-122.99737,37.24879],[-123.05417,37.1874],[-123.07493,37.16448],[-123.1141,37.12117],[-123.13692,37.096],[-123.17013,37.05914],[-123.21696,37.00678],[-123.25671,36.96267],[-123.26934,36.94863],[-123.3355,36.87539],[-123.41242,36.83092],[-123.46297,36.79395],[-123.50057,36.77001]],"type":"LineString"}
}
