{
  "id": 2014435173,
  "type": "Feature",
  "properties": {
    "geom:area": 0,
    "geom:bbox": "-122.358010,36.727600,-121.883080,37.611460",
    "geom:latitude": 37.210638917166655,
    "geom:longitude": -122.07091498665511,
    "src:alt_label": "swim-approach",
    "src:geom": "swim",
    "swim:elevations": [
      4627,
      4309,
      3884,
      3639,
      3363,
      3255,
      3076,
      2800,
      2625,
      2524,
      2438,
      2438,
      2438,
      2438,
      2438,
      2243,
      2044,
      1710,
      1587,
      1574,
      1465,
      1259,
      1049,
      858,
      532,
      488,
      250,
      213,
      117,
      19
    ],
    "swim:geom": "approach",
    "swim:timestamps": [
      1767124608,
      1767124634,
      1767124676,
      1767124700,
      1767124736,
      1767124745,
      1767124782,
      1767124823,
      1767124845,
      1767124860,
      1767124913,
      1767124928,
      1767124940,
      1767124964,
      1767124993,
      1767125027,
      1767125051,
      1767125090,
      1767125120,
      1767125126,
      1767125151,
      1767125180,
      1767125206,
      1767125228,
      1767125267,
      1767125289,
      1767125336,
      1767125348,
      1767125382,
      1767125402
    ],
    "wof:geomhash": "4dfaf4153b315b77e8c015a4a4841308",
    "wof:id": 2014435173,
    "wof:repo": "sfomuseum-data-flights-2025-12"
  },
  "bbox": [
    -122.35801,
    36.7276,
    -121.88308,
    37.61146
  ],
  "geometry": {"coordinates":[[-121.88308,36.7276],[-121.90189,36.76932],[-121.92145,36.8391],[-121.93237,36.87817],[-121.94854,36.93538],[-121.9528,36.94948],[-121.97405,37.00522],[-121.99532,37.05985],[-122.00631,37.08819],[-122.01431,37.10846],[-122.04153,37.1783],[-122.04944,37.1987],[-122.05586,37.21501],[-122.06821,37.24629],[-122.08315,37.28421],[-122.09952,37.32588],[-122.1114,37.35667],[-122.12906,37.40512],[-122.14121,37.44064],[-122.14353,37.44737],[-122.1557,37.47389],[-122.17426,37.50229],[-122.19501,37.52615],[-122.21385,37.54471],[-122.25426,37.56713],[-122.27479,37.57621],[-122.31123,37.59197],[-122.31981,37.59555],[-122.34343,37.6055],[-122.35801,37.61146]],"type":"LineString"}
}
