{
  "id": 2014447843,
  "type": "Feature",
  "properties": {
    "geom:area": 0,
    "geom:bbox": "-123.499060,37.028170,-122.412480,37.665320",
    "geom:latitude": 37.37413620915312,
    "geom:longitude": -122.96219219004584,
    "src:alt_label": "swim-takeoff",
    "src:geom": "swim",
    "swim:elevations": [
      334,
      643,
      965,
      1034,
      1225,
      1614,
      1957,
      2117,
      2411,
      2900,
      3293,
      3474,
      3880,
      4265,
      4434,
      4710,
      4887,
      5180,
      5345,
      5695,
      6106,
      6317,
      6430,
      6551,
      6706,
      6934
    ],
    "swim:geom": "takeoff",
    "swim:timestamps": [
      1767228170,
      1767228194,
      1767228236,
      1767228242,
      1767228278,
      1767228321,
      1767228351,
      1767228363,
      1767228390,
      1767228431,
      1767228470,
      1767228496,
      1767228532,
      1767228567,
      1767228591,
      1767228627,
      1767228649,
      1767228683,
      1767228707,
      1767228737,
      1767228773,
      1767228806,
      1767228830,
      1767228861,
      1767228887,
      1767228905
    ],
    "wof:geomhash": "21ad9c0d8076d7dded4a0f9f1630d75f",
    "wof:id": 2014447843,
    "wof:repo": "sfomuseum-data-flights-2025-12"
  },
  "bbox": [
    -123.49906,
    37.02817,
    -122.41248,
    37.66532
  ],
  "geometry": {"coordinates":[[-122.41248,37.63373],[-122.43723,37.64437],[-122.48293,37.66432],[-122.49023,37.66532],[-122.53245,37.65632],[-122.57784,37.62625],[-122.61327,37.60418],[-122.62758,37.5952],[-122.66064,37.57375],[-122.71363,37.53967],[-122.76505,37.50672],[-122.80142,37.48305],[-122.85515,37.44907],[-122.90679,37.41507],[-122.94386,37.39114],[-123.00134,37.35342],[-123.03702,37.33042],[-123.09539,37.29237],[-123.13735,37.26541],[-123.19037,37.2309],[-123.25357,37.18952],[-123.31048,37.15203],[-123.35443,37.12332],[-123.41322,37.08475],[-123.46647,37.04992],[-123.49906,37.02817]],"type":"LineString"}
}
