{
  "id": 2014442143,
  "type": "Feature",
  "properties": {
    "geom:area": 0,
    "geom:bbox": "-122.358410,37.279480,-122.098180,37.613830",
    "geom:latitude": 37.455932142562006,
    "geom:longitude": -122.20399430725807,
    "src:alt_label": "swim-approach",
    "src:geom": "swim",
    "swim:elevations": [
      2468,
      2438,
      2231,
      1804,
      892,
      338,
      0
    ],
    "swim:geom": "approach",
    "swim:timestamps": [
      1767196536,
      1767196568,
      1767196603,
      1767196715,
      1767196896,
      1767196998,
      1767197082
    ],
    "wof:geomhash": "2bb3618769fcd0f4970522e3b375e2bd",
    "wof:id": 2014442143,
    "wof:repo": "sfomuseum-data-flights-2025-12"
  },
  "bbox": [
    -122.35841,
    37.27948,
    -122.09818,
    37.61383
  ],
  "geometry": {"coordinates":[[-122.27773,37.27948],[-122.23543,37.29027],[-122.21329,37.32939],[-122.09818,37.41858],[-122.19769,37.54646],[-122.29703,37.58828],[-122.35841,37.61383]],"type":"LineString"}
}
