{
  "id": 2014409689,
  "type": "Feature",
  "properties": {
    "geom:area": 0,
    "geom:bbox": "-122.347420,37.492030,-121.268760,37.609430",
    "geom:latitude": 37.54668448266686,
    "geom:longitude": -121.81238606023923,
    "src:alt_label": "swim-approach",
    "src:geom": "swim",
    "swim:elevations": [
      4562,
      4346,
      4164,
      3877,
      3587,
      3210,
      3167,
      3119,
      2729,
      2620,
      2440,
      2209,
      2072,
      2011,
      1917,
      1828,
      1851,
      1822,
      1329,
      1111,
      973,
      791,
      601,
      453,
      370,
      307,
      216,
      134,
      73
    ],
    "swim:geom": "approach",
    "swim:timestamps": [
      1766822725,
      1766822749,
      1766822767,
      1766822797,
      1766822830,
      1766822877,
      1766822898,
      1766822911,
      1766822962,
      1766822977,
      1766823025,
      1766823058,
      1766823084,
      1766823100,
      1766823141,
      1766823173,
      1766823202,
      1766823211,
      1766823267,
      1766823293,
      1766823312,
      1766823351,
      1766823385,
      1766823417,
      1766823439,
      1766823454,
      1766823472,
      1766823498,
      1766823514
    ],
    "wof:geomhash": "c69e9ab2f354f0f6b0e3edd12aba269c",
    "wof:id": 2014409689,
    "wof:repo": "sfomuseum-data-flights-2025-12"
  },
  "bbox": [
    -122.34742,
    37.49203,
    -121.26876,
    37.60943
  ],
  "geometry": {"coordinates":[[-121.26876,37.59209],[-121.31721,37.58614],[-121.35362,37.58229],[-121.41362,37.57552],[-121.47846,37.56795],[-121.56869,37.55716],[-121.6061,37.55308],[-121.62993,37.54959],[-121.71402,37.52966],[-121.73772,37.52377],[-121.8094,37.50664],[-121.85629,37.49545],[-121.8937,37.49203],[-121.91598,37.49643],[-121.97077,37.50855],[-122.01143,37.51749],[-122.04712,37.52536],[-122.05798,37.52779],[-122.12464,37.54241],[-122.15258,37.54866],[-122.17202,37.55293],[-122.21105,37.5614],[-122.24561,37.56901],[-122.2749,37.57888],[-122.29165,37.58633],[-122.30317,37.59155],[-122.31609,37.59642],[-122.33535,37.60441],[-122.34742,37.60943]],"type":"LineString"}
}
