{
  "id": 2014431999,
  "type": "Feature",
  "properties": {
    "geom:area": 0,
    "geom:bbox": "-122.360240,36.836690,-121.920810,37.612480",
    "geom:latitude": 37.2659475430146,
    "geom:longitude": -122.09236148761904,
    "src:alt_label": "swim-approach",
    "src:geom": "swim",
    "swim:elevations": [
      4420,
      4206,
      3922,
      3807,
      3517,
      3327,
      3148,
      2976,
      2901,
      2679,
      2539,
      2194,
      1968,
      1912,
      1666,
      1560,
      1298,
      1044,
      888,
      716,
      701,
      623,
      540,
      366,
      311,
      132,
      157
    ],
    "swim:geom": "approach",
    "swim:timestamps": [
      1767125749,
      1767125777,
      1767125818,
      1767125833,
      1767125876,
      1767125903,
      1767125936,
      1767125966,
      1767125976,
      1767126013,
      1767126036,
      1767126086,
      1767126116,
      1767126125,
      1767126174,
      1767126195,
      1767126228,
      1767126258,
      1767126277,
      1767126302,
      1767126328,
      1767126347,
      1767126371,
      1767126415,
      1767126427,
      1767126474,
      1767126507
    ],
    "wof:geomhash": "86860432b8106f4edd30be90d8451d18",
    "wof:id": 2014431999,
    "wof:repo": "sfomuseum-data-flights-2025-12"
  },
  "bbox": [
    -122.36024,
    36.83669,
    -121.92081,
    37.61248
  ],
  "geometry": {"coordinates":[[-121.92081,36.83669],[-121.93381,36.8834],[-121.95286,36.95058],[-121.962,36.97507],[-121.98657,37.03941],[-122.00175,37.07812],[-122.01974,37.12278],[-122.03502,37.16161],[-122.04057,37.17511],[-122.05918,37.22246],[-122.07067,37.2521],[-122.09523,37.315],[-122.10988,37.35172],[-122.11374,37.36191],[-122.13373,37.41837],[-122.14134,37.44135],[-122.15602,37.47582],[-122.17442,37.50398],[-122.18575,37.52018],[-122.19947,37.5396],[-122.22062,37.55318],[-122.23668,37.56015],[-122.25597,37.56856],[-122.29015,37.58316],[-122.29959,37.58702],[-122.33576,37.60212],[-122.36024,37.61248]],"type":"LineString"}
}
