{
  "id": 2014413503,
  "type": "Feature",
  "properties": {
    "geom:area": 0,
    "geom:bbox": "-122.466240,36.733710,-121.319330,37.705180",
    "geom:latitude": 37.20512870143182,
    "geom:longitude": -121.98851982150202,
    "src:alt_label": "swim-takeoff",
    "src:geom": "swim",
    "swim:elevations": [
      527,
      846,
      1066,
      1209,
      1431,
      1639,
      1840,
      2582,
      2937,
      3026,
      3380,
      3559,
      3741,
      4057,
      4155,
      4600,
      4785,
      5214,
      5436,
      5410,
      5852,
      6068,
      6092,
      6560,
      6667,
      6765,
      7040,
      7221,
      7272,
      7415,
      7531,
      7592
    ],
    "swim:geom": "takeoff",
    "swim:timestamps": [
      1766880058,
      1766880085,
      1766880103,
      1766880133,
      1766880177,
      1766880198,
      1766880213,
      1766880267,
      1766880294,
      1766880302,
      1766880353,
      1766880375,
      1766880390,
      1766880434,
      1766880452,
      1766880506,
      1766880521,
      1766880561,
      1766880597,
      1766880603,
      1766880658,
      1766880688,
      1766880691,
      1766880748,
      1766880763,
      1766880781,
      1766880832,
      1766880861,
      1766880871,
      1766880897,
      1766880922,
      1766880934
    ],
    "wof:geomhash": "216ae82b077da6ad5cada1c942dc9969",
    "wof:id": 2014413503,
    "wof:repo": "sfomuseum-data-flights-2025-12"
  },
  "bbox": [
    -122.46624,
    36.73371,
    -121.31933,
    37.70518
  ],
  "geometry": {"coordinates":[[-122.35992,37.65279],[-122.36201,37.67457],[-122.36453,37.6882],[-122.38878,37.70518],[-122.43359,37.6772],[-122.43796,37.64988],[-122.44042,37.62968],[-122.45678,37.55715],[-122.46624,37.5202],[-122.4662,37.51007],[-122.41194,37.45015],[-122.37643,37.42862],[-122.35229,37.41311],[-122.27952,37.36552],[-122.2477,37.34535],[-122.14985,37.28125],[-122.12214,37.2632],[-122.04884,37.21576],[-121.98116,37.1719],[-121.96978,37.16458],[-121.8659,37.09676],[-121.80803,37.05839],[-121.80222,37.05453],[-121.69175,36.98104],[-121.66262,36.96171],[-121.62748,36.93835],[-121.52628,36.87139],[-121.46647,36.83176],[-121.4482,36.81962],[-121.39504,36.78418],[-121.34393,36.75012],[-121.31933,36.73371]],"type":"LineString"}
}
