{
  "id": 2014422063,
  "type": "Feature",
  "properties": {
    "geom:area": 0,
    "geom:bbox": "-122.362470,37.633690,-121.451530,38.505080",
    "geom:latitude": 38.063348013894164,
    "geom:longitude": -121.90280866196224,
    "src:alt_label": "swim-takeoff",
    "src:geom": "swim",
    "swim:elevations": [
      213,
      547,
      669,
      1106,
      1261,
      1544,
      1993,
      2150,
      2696,
      3285,
      3520,
      3937,
      4217,
      4714,
      4960,
      5253,
      5510,
      5709,
      6094,
      6140,
      6470,
      6816,
      7141,
      7377,
      7540,
      7654,
      7783,
      7994
    ],
    "swim:geom": "takeoff",
    "swim:timestamps": [
      1766938828,
      1766938854,
      1766938864,
      1766938915,
      1766938940,
      1766938971,
      1766939008,
      1766939019,
      1766939060,
      1766939121,
      1766939150,
      1766939185,
      1766939206,
      1766939248,
      1766939271,
      1766939300,
      1766939334,
      1766939354,
      1766939396,
      1766939403,
      1766939444,
      1766939482,
      1766939510,
      1766939537,
      1766939569,
      1766939598,
      1766939628,
      1766939661
    ],
    "wof:geomhash": "703a48d00212e4ddd5d7daf518b8fbcd",
    "wof:id": 2014422063,
    "wof:repo": "sfomuseum-data-flights-2025-12"
  },
  "bbox": [
    -122.36247,
    37.63369,
    -121.45153,
    38.50508
  ],
  "geometry": {"coordinates":[[-122.36247,37.63369],[-122.34317,37.64748],[-122.33505,37.65169],[-122.29285,37.67515],[-122.26902,37.68876],[-122.23356,37.70713],[-122.19531,37.73786],[-122.18552,37.74898],[-122.14992,37.78841],[-122.09216,37.85261],[-122.06127,37.88604],[-122.02294,37.92847],[-122.00109,37.95296],[-121.95611,38.00371],[-121.93037,38.03149],[-121.89859,38.06667],[-121.86083,38.10769],[-121.83838,38.13225],[-121.79158,38.1832],[-121.7839,38.19156],[-121.7356,38.24414],[-121.69107,38.29251],[-121.65851,38.328],[-121.62765,38.36145],[-121.59036,38.40177],[-121.55384,38.43778],[-121.50753,38.47075],[-121.45153,38.50508]],"type":"LineString"}
}
