{
  "id": 2014434033,
  "type": "Feature",
  "properties": {
    "geom:area": 0,
    "geom:bbox": "-122.361790,36.725790,-121.881670,37.613470",
    "geom:latitude": 37.21167845366952,
    "geom:longitude": -122.07156813046718,
    "src:alt_label": "swim-approach",
    "src:geom": "swim",
    "swim:elevations": [
      5050,
      4655,
      4602,
      4388,
      4299,
      4142,
      3978,
      3731,
      3681,
      3461,
      3328,
      3173,
      3064,
      3048,
      3048,
      2784,
      2731,
      2375,
      2313,
      2151,
      1991,
      1853,
      1612,
      1533,
      1320,
      1177,
      1098,
      887,
      700,
      693,
      539,
      394,
      227,
      210,
      145,
      0
    ],
    "swim:geom": "approach",
    "swim:timestamps": [
      1767122565,
      1767122604,
      1767122610,
      1767122632,
      1767122649,
      1767122682,
      1767122725,
      1767122757,
      1767122761,
      1767122784,
      1767122796,
      1767122815,
      1767122835,
      1767122869,
      1767122893,
      1767122936,
      1767122941,
      1767122987,
      1767123005,
      1767123027,
      1767123050,
      1767123073,
      1767123112,
      1767123123,
      1767123174,
      1767123195,
      1767123207,
      1767123238,
      1767123265,
      1767123270,
      1767123317,
      1767123347,
      1767123387,
      1767123390,
      1767123407,
      1767123447
    ],
    "wof:geomhash": "19cef24df82b7d41e41d00dd36d27fc9",
    "wof:id": 2014434033,
    "wof:repo": "sfomuseum-data-flights-2025-12"
  },
  "bbox": [
    -122.36179,
    36.72579,
    -121.88167,
    37.61347
  ],
  "geometry": {"coordinates":[[-121.88167,36.72579],[-121.90763,36.78924],[-121.91034,36.79942],[-121.92081,36.83749],[-121.92846,36.86496],[-121.94209,36.91373],[-121.96037,36.9706],[-121.97544,37.00975],[-121.97739,37.01477],[-121.98774,37.04121],[-121.99331,37.05528],[-122.00216,37.07831],[-122.01096,37.10068],[-122.02634,37.14031],[-122.03738,37.16839],[-122.05669,37.21769],[-122.05885,37.22321],[-122.07891,37.27387],[-122.08683,37.29417],[-122.09713,37.32041],[-122.10726,37.34625],[-122.11738,37.37184],[-122.13201,37.414],[-122.13619,37.42602],[-122.15651,37.47684],[-122.16595,37.49516],[-122.17446,37.50456],[-122.1972,37.52746],[-122.21564,37.54623],[-122.21926,37.54961],[-122.26196,37.57117],[-122.28929,37.5826],[-122.31884,37.5952],[-122.3209,37.5961],[-122.33318,37.60115],[-122.36179,37.61347]],"type":"LineString"}
}
