{
  "id": 2014426919,
  "type": "Feature",
  "properties": {
    "geom:area": 0,
    "geom:bbox": "-123.043970,37.374820,-122.121390,38.444780",
    "geom:latitude": 37.82227462392947,
    "geom:longitude": -122.51975024152674,
    "src:alt_label": "swim-approach",
    "src:geom": "swim",
    "swim:elevations": [
      7620,
      7529,
      7056,
      6798,
      6542,
      6339,
      6261,
      6000,
      5688,
      5438,
      5173,
      4698,
      4476,
      4353,
      4045,
      3763,
      3649,
      3536,
      3456,
      3353,
      3321,
      3257,
      3113,
      2852,
      2744,
      2736,
      2540,
      2417,
      2072,
      1899,
      1819,
      1646,
      1544,
      1418,
      1287,
      1240,
      1008,
      942,
      914,
      868,
      687,
      631,
      442,
      368,
      206,
      171
    ],
    "swim:geom": "approach",
    "swim:timestamps": [
      1767073970,
      1767073980,
      1767074035,
      1767074068,
      1767074095,
      1767074123,
      1767074135,
      1767074163,
      1767074197,
      1767074225,
      1767074251,
      1767074305,
      1767074329,
      1767074344,
      1767074376,
      1767074424,
      1767074454,
      1767074484,
      1767074516,
      1767074537,
      1767074576,
      1767074592,
      1767074619,
      1767074663,
      1767074692,
      1767074713,
      1767074746,
      1767074767,
      1767074814,
      1767074835,
      1767074865,
      1767074898,
      1767074926,
      1767074953,
      1767074992,
      1767075010,
      1767075052,
      1767075064,
      1767075117,
      1767075145,
      1767075172,
      1767075181,
      1767075229,
      1767075244,
      1767075280,
      1767075328
    ],
    "wof:geomhash": "b8f2a86606c20c69c3e0719780d684e6",
    "wof:id": 2014426919,
    "wof:repo": "sfomuseum-data-flights-2025-12"
  },
  "bbox": [
    -123.04397,
    37.37482,
    -122.12139,
    38.44478
  ],
  "geometry": {"coordinates":[[-123.04397,38.44478],[-123.02879,38.43266],[-122.94249,38.36441],[-122.89164,38.32391],[-122.85067,38.29132],[-122.80847,38.2575],[-122.79117,38.24302],[-122.76184,38.2019],[-122.74466,38.1459],[-122.73077,38.09819],[-122.71829,38.05467],[-122.69324,37.96894],[-122.68209,37.93058],[-122.67263,37.90748],[-122.63648,37.86479],[-122.57761,37.80917],[-122.5438,37.77742],[-122.51221,37.74757],[-122.48059,37.71761],[-122.46061,37.69889],[-122.42427,37.66472],[-122.40967,37.65095],[-122.38478,37.62754],[-122.35049,37.58598],[-122.33326,37.55662],[-122.32087,37.53516],[-122.30134,37.50172],[-122.28906,37.48057],[-122.2617,37.43418],[-122.24848,37.41303],[-122.22753,37.38352],[-122.18542,37.37482],[-122.16156,37.39517],[-122.14769,37.41887],[-122.12924,37.45058],[-122.12139,37.46464],[-122.12153,37.50019],[-122.12548,37.51038],[-122.1753,37.53696],[-122.20213,37.5483],[-122.22936,37.55963],[-122.23791,37.56344],[-122.27929,37.58086],[-122.29179,37.58613],[-122.32201,37.59879],[-122.35941,37.61413]],"type":"LineString"}
}
