{
  "id": 2014430909,
  "type": "Feature",
  "properties": {
    "geom:area": 0,
    "geom:bbox": "-122.385170,37.647200,-121.446970,38.507590",
    "geom:latitude": 38.124486628621334,
    "geom:longitude": -122.0146586589731,
    "src:alt_label": "swim-takeoff",
    "src:geom": "swim",
    "swim:elevations": [
      508,
      552,
      781,
      1083,
      1219,
      1519,
      1850,
      2359,
      2531,
      3015,
      3323,
      3370,
      3614,
      3861,
      4173,
      4405,
      4732,
      5077,
      5344,
      5430,
      5608,
      5933,
      6088,
      6464,
      6687,
      6902,
      7073,
      7189
    ],
    "swim:geom": "takeoff",
    "swim:timestamps": [
      1767056456,
      1767056460,
      1767056475,
      1767056510,
      1767056534,
      1767056567,
      1767056594,
      1767056636,
      1767056651,
      1767056687,
      1767056726,
      1767056735,
      1767056783,
      1767056816,
      1767056846,
      1767056867,
      1767056897,
      1767056934,
      1767056967,
      1767056988,
      1767057014,
      1767057053,
      1767057071,
      1767057111,
      1767057143,
      1767057173,
      1767057203,
      1767057222
    ],
    "wof:geomhash": "73d6367bd9f328d56759d1f3ede3c2ac",
    "wof:id": 2014430909,
    "wof:repo": "sfomuseum-data-flights-2025-12"
  },
  "bbox": [
    -122.38517,
    37.6472,
    -121.44697,
    38.50759
  ],
  "geometry": {"coordinates":[[-122.35031,37.6472],[-122.34816,37.6489],[-122.33779,37.65677],[-122.31452,37.67826],[-122.31244,37.701],[-122.33083,37.73465],[-122.34675,37.76484],[-122.37121,37.81433],[-122.38054,37.83316],[-122.38517,37.88194],[-122.37663,37.93648],[-122.36778,37.94804],[-122.29255,37.99684],[-122.23428,38.03254],[-122.1796,38.06524],[-122.14134,38.08866],[-122.08647,38.12208],[-122.01714,38.16356],[-121.9548,38.20111],[-121.9145,38.2255],[-121.86287,38.2568],[-121.78542,38.30356],[-121.74958,38.32512],[-121.67164,38.37188],[-121.60651,38.41087],[-121.54529,38.4474],[-121.48447,38.48453],[-121.44697,38.50759]],"type":"LineString"}
}
