{
  "id": 2014433283,
  "type": "Feature",
  "properties": {
    "geom:area": 0,
    "geom:bbox": "-122.851460,37.459750,-122.143860,38.508930",
    "geom:latitude": 37.85168245145323,
    "geom:longitude": -122.52060955846802,
    "src:alt_label": "swim-approach",
    "src:geom": "swim",
    "swim:elevations": [
      8055,
      7875,
      7632,
      7508,
      7056,
      6853,
      6445,
      6295,
      6034,
      5877,
      5557,
      5250,
      4966,
      4603,
      4483,
      4214,
      4018,
      3773,
      3553,
      3408,
      3353,
      3353,
      3361,
      3355,
      3353,
      3353,
      3353,
      3040,
      2687,
      2497,
      2180,
      1940,
      1885,
      1640,
      1561,
      1280,
      1029,
      995,
      912,
      949,
      860,
      698,
      609,
      461,
      366,
      249,
      172,
      29
    ],
    "swim:geom": "approach",
    "swim:timestamps": [
      1767084969,
      1767084987,
      1767085008,
      1767085021,
      1767085066,
      1767085085,
      1767085126,
      1767085141,
      1767085166,
      1767085184,
      1767085215,
      1767085255,
      1767085282,
      1767085318,
      1767085331,
      1767085358,
      1767085378,
      1767085402,
      1767085426,
      1767085457,
      1767085495,
      1767085506,
      1767085525,
      1767085544,
      1767085556,
      1767085588,
      1767085592,
      1767085631,
      1767085676,
      1767085702,
      1767085738,
      1767085765,
      1767085776,
      1767085826,
      1767085840,
      1767085883,
      1767085916,
      1767085925,
      1767085946,
      1767085963,
      1767085997,
      1767086025,
      1767086044,
      1767086072,
      1767086095,
      1767086128,
      1767086147,
      1767086180
    ],
    "wof:geomhash": "0def226b6ede0578fc9fe6f68b52c71b",
    "wof:id": 2014433283,
    "wof:repo": "sfomuseum-data-flights-2025-12"
  },
  "bbox": [
    -122.85146,
    37.45975,
    -122.14386,
    38.50893
  ],
  "geometry": {"coordinates":[[-122.85146,38.50893],[-122.84161,38.47692],[-122.83032,38.43786],[-122.82305,38.41463],[-122.79949,38.33429],[-122.78984,38.30135],[-122.76921,38.23061],[-122.7617,38.20514],[-122.74944,38.1625],[-122.74105,38.13343],[-122.72606,38.08158],[-122.70779,38.01861],[-122.69586,37.97738],[-122.67889,37.92053],[-122.67028,37.90317],[-122.64068,37.86924],[-122.61495,37.84479],[-122.58577,37.81705],[-122.55655,37.78944],[-122.51983,37.75451],[-122.47935,37.71621],[-122.4689,37.70652],[-122.45089,37.68978],[-122.43412,37.67421],[-122.42369,37.66443],[-122.39621,37.6385],[-122.39275,37.63521],[-122.36042,37.60206],[-122.3379,37.55826],[-122.32295,37.53383],[-122.30091,37.50164],[-122.26963,37.4885],[-122.25568,37.48374],[-122.20122,37.46477],[-122.18673,37.45975],[-122.14392,37.4622],[-122.14386,37.49101],[-122.14817,37.49845],[-122.15799,37.51505],[-122.17047,37.52639],[-122.19861,37.54416],[-122.22547,37.55612],[-122.24386,37.56378],[-122.26913,37.57423],[-122.28783,37.58203],[-122.3145,37.59338],[-122.32976,37.59978],[-122.35613,37.61078]],"type":"LineString"}
}
