{
  "id": 2014430567,
  "type": "Feature",
  "properties": {
    "geom:area": 0,
    "geom:bbox": "-122.368810,37.624720,-122.025760,37.908010",
    "geom:latitude": 37.759271309579574,
    "geom:longitude": -122.19180185724225,
    "src:alt_label": "swim-takeoff",
    "src:geom": "swim",
    "swim:elevations": [
      152,
      349,
      742,
      979,
      1160,
      1588,
      1861,
      2187,
      2628,
      2836,
      3314,
      3448,
      3539
    ],
    "swim:geom": "takeoff",
    "swim:timestamps": [
      1767079095,
      1767079110,
      1767079146,
      1767079172,
      1767079201,
      1767079258,
      1767079283,
      1767079311,
      1767079348,
      1767079364,
      1767079408,
      1767079429,
      1767079444
    ],
    "wof:geomhash": "fd6dd0155b9cb598f0acae40f04bb17a",
    "wof:id": 2014430567,
    "wof:repo": "sfomuseum-data-flights-2025-12"
  },
  "bbox": [
    -122.36881,
    37.62472,
    -122.02576,
    37.90801
  ],
  "geometry": {"coordinates":[[-122.36881,37.62472],[-122.36108,37.63383],[-122.33598,37.6501],[-122.31621,37.66131],[-122.29083,37.67603],[-122.22639,37.71207],[-122.19939,37.73387],[-122.17348,37.76261],[-122.13714,37.80321],[-122.12095,37.82122],[-122.0763,37.87068],[-122.04846,37.89342],[-122.02576,37.90801]],"type":"LineString"}
}
