{
  "id": 2014428747,
  "type": "Feature",
  "properties": {
    "geom:area": 0,
    "geom:bbox": "-122.554220,36.729040,-121.308840,37.672050",
    "geom:latitude": 37.211476905180675,
    "geom:longitude": -122.01249740384803,
    "src:alt_label": "swim-takeoff",
    "src:geom": "swim",
    "swim:elevations": [
      152,
      301,
      697,
      1208,
      1361,
      1712,
      2103,
      2516,
      3051,
      3292,
      3393,
      3519,
      4266,
      4491,
      4780,
      5233,
      5424,
      5741,
      6052,
      6125,
      6536,
      6840,
      7048,
      7244,
      7475,
      7782,
      7983,
      8175,
      8419,
      8508,
      8663,
      8884
    ],
    "swim:geom": "takeoff",
    "swim:timestamps": [
      1767004309,
      1767004321,
      1767004365,
      1767004405,
      1767004419,
      1767004448,
      1767004480,
      1767004508,
      1767004553,
      1767004580,
      1767004600,
      1767004623,
      1767004676,
      1767004695,
      1767004725,
      1767004765,
      1767004787,
      1767004827,
      1767004856,
      1767004863,
      1767004906,
      1767004943,
      1767004967,
      1767004992,
      1767005019,
      1767005064,
      1767005094,
      1767005122,
      1767005149,
      1767005180,
      1767005200,
      1767005231
    ],
    "wof:geomhash": "c8eadb5d90c8b899b4f3940ca208ef09",
    "wof:id": 2014428747,
    "wof:repo": "sfomuseum-data-flights-2025-12"
  },
  "bbox": [
    -122.55422,
    36.72904,
    -121.30884,
    37.67205
  ],
  "geometry": {"coordinates":[[-122.39533,37.62733],[-122.40805,37.63263],[-122.45749,37.65421],[-122.51197,37.67205],[-122.53175,37.66794],[-122.55422,37.64048],[-122.54129,37.60287],[-122.5215,37.57084],[-122.48857,37.51699],[-122.46384,37.4855],[-122.43756,37.46482],[-122.40228,37.44204],[-122.31497,37.38736],[-122.28453,37.36786],[-122.23551,37.33614],[-122.1683,37.29245],[-122.13123,37.26828],[-122.0604,37.22247],[-122.01006,37.18971],[-121.99675,37.18104],[-121.9198,37.13102],[-121.85356,37.08783],[-121.80869,37.05846],[-121.76364,37.02892],[-121.71325,36.99586],[-121.62886,36.94089],[-121.5709,36.90274],[-121.51779,36.86769],[-121.46489,36.83306],[-121.40626,36.79384],[-121.3672,36.76839],[-121.30884,36.72904]],"type":"LineString"}
}
