{
  "id": 2014435635,
  "type": "Feature",
  "properties": {
    "geom:area": 0,
    "geom:bbox": "-122.362860,37.449650,-121.249300,37.615240",
    "geom:latitude": 37.5459779345803,
    "geom:longitude": -121.81296969438509,
    "src:alt_label": "swim-approach",
    "src:geom": "swim",
    "swim:elevations": [
      4826,
      4617,
      4403,
      4237,
      3729,
      3515,
      3410,
      3336,
      3179,
      3047,
      3022,
      2876,
      2798,
      2429,
      2373,
      2222,
      2150,
      2071,
      1920,
      1886,
      1816,
      1635,
      1563,
      1256,
      1055,
      936,
      704,
      619,
      478,
      447,
      270,
      202,
      86,
      117
    ],
    "swim:geom": "approach",
    "swim:timestamps": [
      1767104265,
      1767104287,
      1767104318,
      1767104341,
      1767104398,
      1767104435,
      1767104462,
      1767104512,
      1767104546,
      1767104572,
      1767104596,
      1767104629,
      1767104640,
      1767104690,
      1767104701,
      1767104726,
      1767104741,
      1767104777,
      1767104812,
      1767104827,
      1767104853,
      1767104878,
      1767104885,
      1767104925,
      1767104965,
      1767104986,
      1767105028,
      1767105050,
      1767105087,
      1767105095,
      1767105146,
      1767105167,
      1767105198,
      1767105222
    ],
    "wof:geomhash": "074817d1cbc00fa4e65b0dbeb120baf6",
    "wof:id": 2014435635,
    "wof:repo": "sfomuseum-data-flights-2025-12"
  },
  "bbox": [
    -122.36286,
    37.44965,
    -121.2493,
    37.61524
  ],
  "geometry": {"coordinates":[[-121.2493,37.5945],[-121.28884,37.58927],[-121.34344,37.58333],[-121.38225,37.5791],[-121.47867,37.56792],[-121.53899,37.56086],[-121.5823,37.55581],[-121.65732,37.54654],[-121.70533,37.56065],[-121.7414,37.57296],[-121.77638,37.58142],[-121.81432,37.56375],[-121.81863,37.55209],[-121.82548,37.49975],[-121.82694,37.48792],[-121.83458,37.46213],[-121.84744,37.45096],[-121.8957,37.44965],[-121.93859,37.47052],[-121.95692,37.47987],[-121.98756,37.49445],[-122.01739,37.50467],[-122.02608,37.50748],[-122.07631,37.52359],[-122.12278,37.53848],[-122.14607,37.54586],[-122.19234,37.56084],[-122.21534,37.56826],[-122.25475,37.58119],[-122.26225,37.5836],[-122.30505,37.59583],[-122.32119,37.60039],[-122.34474,37.6082],[-122.36286,37.61524]],"type":"LineString"}
}
