{
  "id": 2014429145,
  "type": "Feature",
  "properties": {
    "geom:area": 0,
    "geom:bbox": "-122.473360,37.369220,-122.020520,37.717190",
    "geom:latitude": 37.52680932268322,
    "geom:longitude": -122.31928121000433,
    "src:alt_label": "swim-takeoff",
    "src:geom": "swim",
    "swim:elevations": [
      278,
      568,
      964,
      1087,
      1846,
      2022,
      2772,
      2948,
      3510,
      3722,
      4068,
      4507,
      4665,
      5213,
      5360,
      5832,
      6352,
      6423
    ],
    "swim:geom": "takeoff",
    "swim:timestamps": [
      1767018740,
      1767018760,
      1767018802,
      1767018818,
      1767018867,
      1767018879,
      1767018923,
      1767018934,
      1767018987,
      1767019009,
      1767019046,
      1767019076,
      1767019091,
      1767019135,
      1767019147,
      1767019189,
      1767019228,
      1767019232
    ],
    "wof:geomhash": "d0acdafb67b83f3ce43e086a9fbf904c",
    "wof:id": 2014429145,
    "wof:repo": "sfomuseum-data-flights-2025-12"
  },
  "bbox": [
    -122.47336,
    37.36922,
    -122.02052,
    37.71719
  ],
  "geometry": {"coordinates":[[-122.36439,37.63677],[-122.36503,37.65257],[-122.36288,37.69102],[-122.37375,37.70605],[-122.44174,37.71719],[-122.45635,37.70778],[-122.47336,37.65468],[-122.47332,37.64048],[-122.45405,37.57066],[-122.43634,37.54157],[-122.38555,37.49797],[-122.34274,37.46224],[-122.31819,37.44321],[-122.23188,37.41329],[-122.20652,37.40822],[-122.1153,37.38915],[-122.02932,37.37106],[-122.02052,37.36922]],"type":"LineString"}
}
