{
  "id": 2014426871,
  "type": "Feature",
  "properties": {
    "geom:area": 0,
    "geom:bbox": "-122.354140,37.491550,-121.244270,37.612180",
    "geom:latitude": 37.54679907229896,
    "geom:longitude": -121.80403475355939,
    "src:alt_label": "swim-approach",
    "src:geom": "swim",
    "swim:elevations": [
      4375,
      3944,
      3873,
      3535,
      3450,
      3152,
      2958,
      2789,
      2592,
      2438,
      2439,
      2136,
      2055,
      1948,
      1801,
      1465,
      1363,
      1090,
      983,
      820,
      641,
      537,
      517,
      322,
      240,
      97,
      46
    ],
    "swim:geom": "approach",
    "swim:timestamps": [
      1767015805,
      1767015862,
      1767015870,
      1767015922,
      1767015934,
      1767015984,
      1767016017,
      1767016044,
      1767016077,
      1767016108,
      1767016113,
      1767016166,
      1767016186,
      1767016224,
      1767016253,
      1767016288,
      1767016299,
      1767016339,
      1767016359,
      1767016392,
      1767016438,
      1767016465,
      1767016473,
      1767016524,
      1767016547,
      1767016585,
      1767016599
    ],
    "wof:geomhash": "ef53443b4deba3e9f64850f263d83fc3",
    "wof:id": 2014426871,
    "wof:repo": "sfomuseum-data-flights-2025-12"
  },
  "bbox": [
    -122.35414,
    37.49155,
    -121.24427,
    37.61218
  ],
  "geometry": {"coordinates":[[-121.24427,37.59526],[-121.36772,37.58057],[-121.38421,37.57876],[-121.48754,37.5669],[-121.51068,37.56423],[-121.59921,37.55379],[-121.65374,37.54395],[-121.6975,37.5336],[-121.74742,37.52154],[-121.79635,37.50972],[-121.80395,37.50791],[-121.88366,37.49159],[-121.91423,37.49155],[-121.96906,37.4933],[-122.00721,37.5009],[-122.04991,37.51476],[-122.06234,37.51886],[-122.11131,37.53478],[-122.13392,37.5421],[-122.16954,37.55372],[-122.21734,37.56903],[-122.24333,37.57738],[-122.24988,37.5795],[-122.29585,37.59332],[-122.31439,37.59856],[-122.34392,37.6081],[-122.35414,37.61218]],"type":"LineString"}
}
