{
  "id": 2014426587,
  "type": "Feature",
  "properties": {
    "geom:area": 0,
    "geom:bbox": "-123.090940,37.400450,-122.081530,38.391500",
    "geom:latitude": 37.791965207926495,
    "geom:longitude": -122.52878109467035,
    "src:alt_label": "swim-approach",
    "src:geom": "swim",
    "swim:elevations": [
      7529,
      7189,
      7053,
      6807,
      6580,
      6282,
      5804,
      5547,
      5413,
      5191,
      4862,
      4838,
      4398,
      4213,
      3871,
      3767,
      3443,
      3413,
      3354,
      3353,
      3353,
      3353,
      3343,
      3054,
      3018,
      2988,
      2710,
      2596,
      2219,
      1824,
      1595,
      1530,
      1524,
      1524,
      1428,
      1369,
      1157,
      947,
      913,
      914,
      626,
      547,
      378,
      314,
      219,
      92,
      27
    ],
    "swim:geom": "approach",
    "swim:timestamps": [
      1767042830,
      1767042860,
      1767042872,
      1767042891,
      1767042913,
      1767042941,
      1767042987,
      1767043011,
      1767043025,
      1767043046,
      1767043077,
      1767043080,
      1767043121,
      1767043160,
      1767043198,
      1767043208,
      1767043256,
      1767043268,
      1767043304,
      1767043328,
      1767043351,
      1767043385,
      1767043418,
      1767043460,
      1767043466,
      1767043473,
      1767043523,
      1767043536,
      1767043569,
      1767043618,
      1767043646,
      1767043665,
      1767043692,
      1767043728,
      1767043757,
      1767043774,
      1767043821,
      1767043857,
      1767043884,
      1767043899,
      1767043948,
      1767043963,
      1767044004,
      1767044013,
      1767044040,
      1767044068,
      1767044086
    ],
    "wof:geomhash": "43f74eaa75ad47f62283ac2ea4f4dae8",
    "wof:id": 2014426587,
    "wof:repo": "sfomuseum-data-flights-2025-12"
  },
  "bbox": [
    -123.09094,
    37.40045,
    -122.08153,
    38.3915
  ],
  "geometry": {"coordinates":[[-123.09094,38.3915],[-123.04815,38.34179],[-123.03183,38.32248],[-123.00669,38.29279],[-122.97672,38.25758],[-122.93939,38.21366],[-122.8793,38.14325],[-122.84805,38.1061],[-122.83046,38.08529],[-122.80305,38.05333],[-122.76353,38.00662],[-122.75975,38.0021],[-122.70863,37.94135],[-122.66082,37.88786],[-122.61259,37.84225],[-122.60017,37.83061],[-122.5415,37.77519],[-122.52806,37.76239],[-122.48962,37.72603],[-122.46411,37.70207],[-122.43938,37.67894],[-122.40286,37.64453],[-122.37138,37.61467],[-122.3432,37.57254],[-122.33946,37.56611],[-122.3348,37.55813],[-122.30395,37.50536],[-122.29635,37.49225],[-122.27672,37.45891],[-122.21985,37.4265],[-122.18231,37.41326],[-122.15739,37.40408],[-122.12013,37.40045],[-122.08877,37.42829],[-122.08153,37.45412],[-122.09037,37.46687],[-122.12055,37.49879],[-122.14581,37.52148],[-122.17101,37.53308],[-122.18563,37.53918],[-122.23327,37.559],[-122.2488,37.56559],[-122.28881,37.58238],[-122.29643,37.58572],[-122.31865,37.59503],[-122.34158,37.60466],[-122.35589,37.61067]],"type":"LineString"}
}
