{
  "id": 2014447803,
  "type": "Feature",
  "properties": {
    "geom:area": 0,
    "geom:bbox": "-122.525810,37.625190,-122.116650,38.475730",
    "geom:latitude": 38.020887687627386,
    "geom:longitude": -122.33218459299562,
    "src:alt_label": "swim-takeoff",
    "src:geom": "swim",
    "swim:elevations": [
      122,
      384,
      712,
      850,
      1099,
      1238,
      1500,
      2029,
      2405,
      2477,
      2698,
      3156,
      3234,
      3386,
      3545,
      3731,
      4211,
      4452,
      4803,
      5081,
      5208,
      5588,
      5637,
      5922
    ],
    "swim:geom": "takeoff",
    "swim:timestamps": [
      1767189536,
      1767189558,
      1767189598,
      1767189614,
      1767189650,
      1767189678,
      1767189706,
      1767189748,
      1767189775,
      1767189781,
      1767189801,
      1767189838,
      1767189851,
      1767189884,
      1767189906,
      1767189934,
      1767189988,
      1767190011,
      1767190045,
      1767190074,
      1767190087,
      1767190137,
      1767190144,
      1767190170
    ],
    "wof:geomhash": "ff638e9d2d0d56eab4be08cd45f3a678",
    "wof:id": 2014447803,
    "wof:repo": "sfomuseum-data-flights-2025-12"
  },
  "bbox": [
    -122.52581,
    37.62519,
    -122.11665,
    38.47573
  ],
  "geometry": {"coordinates":[[-122.39053,37.62519],[-122.41056,37.63377],[-122.4494,37.65094],[-122.46646,37.65811],[-122.50729,37.67752],[-122.5255,37.70744],[-122.52581,37.74474],[-122.51805,37.80055],[-122.49232,37.83272],[-122.48694,37.83989],[-122.469,37.86395],[-122.43468,37.90982],[-122.4225,37.926],[-122.38831,37.97148],[-122.36315,38.00449],[-122.33074,38.04752],[-122.26404,38.13627],[-122.23463,38.17511],[-122.19136,38.23192],[-122.15344,38.282],[-122.13715,38.30384],[-122.11665,38.40499],[-122.11805,38.41975],[-122.12246,38.47573]],"type":"LineString"}
}
