{
  "id": 2014437487,
  "type": "Feature",
  "properties": {
    "geom:area": 0,
    "geom:bbox": "-122.364470,37.631780,-122.101050,38.519170",
    "geom:latitude": 38.040989639350144,
    "geom:longitude": -122.17612692391097,
    "src:alt_label": "swim-takeoff",
    "src:geom": "swim",
    "swim:elevations": [
      183,
      257,
      561,
      887,
      977,
      1211,
      1628,
      2178,
      2536,
      3093,
      3352,
      3732,
      3772,
      4364,
      4676,
      5130,
      5461,
      5978,
      6295,
      6370,
      6901,
      7280
    ],
    "swim:geom": "takeoff",
    "swim:timestamps": [
      1767113968,
      1767113974,
      1767114008,
      1767114053,
      1767114061,
      1767114091,
      1767114128,
      1767114166,
      1767114187,
      1767114229,
      1767114266,
      1767114297,
      1767114300,
      1767114346,
      1767114368,
      1767114406,
      1767114434,
      1767114478,
      1767114503,
      1767114510,
      1767114555,
      1767114594
    ],
    "wof:geomhash": "2ea9948de0bd507aa5af2a6d5ea7c456",
    "wof:id": 2014437487,
    "wof:repo": "sfomuseum-data-flights-2025-12"
  },
  "bbox": [
    -122.36447,
    37.63178,
    -122.10105,
    38.51917
  ],
  "geometry": {"coordinates":[[-122.36447,37.63178],[-122.36189,37.63536],[-122.33607,37.65148],[-122.29239,37.67599],[-122.28383,37.68112],[-122.24781,37.70092],[-122.20848,37.7341],[-122.201,37.78471],[-122.19811,37.8139],[-122.1894,37.87099],[-122.18028,37.925],[-122.17253,37.97272],[-122.17168,37.97788],[-122.15898,38.05602],[-122.15293,38.09317],[-122.14198,38.15972],[-122.13342,38.21095],[-122.12244,38.29403],[-122.11813,38.33994],[-122.11678,38.35474],[-122.10856,38.4417],[-122.10105,38.51917]],"type":"LineString"}
}
