{
  "id": 2014409513,
  "type": "Feature",
  "properties": {
    "geom:area": 0,
    "geom:bbox": "-122.356200,37.491270,-121.245130,37.613000",
    "geom:latitude": 37.546752482208234,
    "geom:longitude": -121.80547964773653,
    "src:alt_label": "swim-approach",
    "src:geom": "swim",
    "swim:elevations": [
      5076,
      4923,
      4545,
      4289,
      4033,
      3902,
      3763,
      3449,
      3362,
      2970,
      2918,
      2688,
      2581,
      2458,
      2421,
      2170,
      2083,
      1981,
      1896,
      1801,
      1411,
      1205,
      1017,
      964,
      845,
      720,
      606,
      486,
      369,
      228,
      190,
      0
    ],
    "swim:geom": "approach",
    "swim:timestamps": [
      1766870892,
      1766870917,
      1766870965,
      1766870990,
      1766871017,
      1766871050,
      1766871081,
      1766871116,
      1766871125,
      1766871170,
      1766871178,
      1766871203,
      1766871225,
      1766871246,
      1766871252,
      1766871294,
      1766871312,
      1766871339,
      1766871360,
      1766871394,
      1766871441,
      1766871473,
      1766871501,
      1766871512,
      1766871558,
      1766871581,
      1766871605,
      1766871630,
      1766871654,
      1766871688,
      1766871698,
      1766871735
    ],
    "wof:geomhash": "fbea2e9ffc3d2773e234ccd60b51f6d9",
    "wof:id": 2014409513,
    "wof:repo": "sfomuseum-data-flights-2025-12"
  },
  "bbox": [
    -122.3562,
    37.49127,
    -121.24513,
    37.613
  ],
  "geometry": {"coordinates":[[-121.24513,37.59516],[-121.29121,37.58896],[-121.37696,37.57954],[-121.41974,37.57453],[-121.46798,37.56902],[-121.52254,37.56247],[-121.57001,37.55698],[-121.62104,37.55092],[-121.63404,37.5485],[-121.69722,37.53332],[-121.70746,37.53087],[-121.74271,37.52248],[-121.77269,37.51529],[-121.80153,37.50839],[-121.80963,37.50642],[-121.86603,37.49296],[-121.89062,37.49127],[-121.92775,37.49228],[-121.95651,37.49292],[-122.00005,37.49884],[-122.05834,37.51754],[-122.09809,37.53035],[-122.13133,37.54118],[-122.14356,37.54518],[-122.19377,37.56127],[-122.21698,37.56901],[-122.24111,37.57671],[-122.26609,37.58457],[-122.28857,37.59095],[-122.31708,37.59973],[-122.32637,37.60258],[-122.3562,37.613]],"type":"LineString"}
}
