{
  "id": 2014447505,
  "type": "Feature",
  "properties": {
    "geom:area": 0,
    "geom:bbox": "-122.367530,37.626360,-121.270220,37.960920",
    "geom:latitude": 37.834909186816596,
    "geom:longitude": -121.83392125452771,
    "src:alt_label": "swim-takeoff",
    "src:geom": "swim",
    "swim:elevations": [
      152,
      386,
      892,
      998,
      1267,
      1344,
      1589,
      2081,
      2141,
      2794,
      3286,
      3554,
      4230,
      4313,
      4723,
      5138,
      5453,
      5780,
      6080,
      6452,
      6712,
      6781,
      7013,
      7134,
      7198
    ],
    "swim:geom": "takeoff",
    "swim:timestamps": [
      1767186023,
      1767186040,
      1767186084,
      1767186096,
      1767186147,
      1767186157,
      1767186177,
      1767186206,
      1767186210,
      1767186250,
      1767186288,
      1767186313,
      1767186354,
      1767186360,
      1767186398,
      1767186432,
      1767186458,
      1767186490,
      1767186524,
      1767186564,
      1767186592,
      1767186602,
      1767186644,
      1767186676,
      1767186690
    ],
    "wof:geomhash": "cc37c2cf3aad21ba20787b7b85c14c1c",
    "wof:id": 2014447505,
    "wof:repo": "sfomuseum-data-flights-2025-12"
  },
  "bbox": [
    -122.36753,
    37.62636,
    -121.27022,
    37.96092
  ],
  "geometry": {"coordinates":[[-122.36753,37.62636],[-122.35809,37.63557],[-122.32773,37.6541],[-122.31946,37.65875],[-122.27208,37.68604],[-122.26036,37.69278],[-122.23463,37.70615],[-122.19598,37.72605],[-122.19022,37.72899],[-122.13514,37.75788],[-122.08237,37.78555],[-122.04248,37.80617],[-121.97155,37.83167],[-121.96039,37.83376],[-121.88711,37.84767],[-121.82201,37.85994],[-121.76936,37.86983],[-121.70488,37.88175],[-121.63494,37.89464],[-121.55274,37.90968],[-121.49113,37.92096],[-121.47044,37.92471],[-121.37795,37.94144],[-121.30209,37.95516],[-121.27022,37.96092]],"type":"LineString"}
}
