{
  "id": 2014413781,
  "type": "Feature",
  "properties": {
    "geom:area": 0,
    "geom:bbox": "-122.385520,37.630970,-121.243200,38.427250",
    "geom:latitude": 38.08679657954273,
    "geom:longitude": -121.9251156323245,
    "src:alt_label": "swim-takeoff",
    "src:geom": "swim",
    "swim:elevations": [
      244,
      924,
      1175,
      1367,
      1424,
      1533,
      2056,
      2448,
      2918,
      3350,
      3446,
      3567,
      3702,
      3894,
      4114,
      4473,
      4906,
      5151,
      5487,
      5496,
      5740,
      5997,
      6257,
      6529,
      6768,
      6986,
      7212,
      7390,
      7456,
      7685,
      7781
    ],
    "swim:geom": "takeoff",
    "swim:timestamps": [
      1766899087,
      1766899131,
      1766899162,
      1766899195,
      1766899207,
      1766899231,
      1766899265,
      1766899296,
      1766899335,
      1766899375,
      1766899390,
      1766899413,
      1766899437,
      1766899455,
      1766899473,
      1766899509,
      1766899554,
      1766899584,
      1766899618,
      1766899635,
      1766899665,
      1766899701,
      1766899731,
      1766899764,
      1766899791,
      1766899815,
      1766899845,
      1766899887,
      1766899896,
      1766899942,
      1766899962
    ],
    "wof:geomhash": "6f3bb9c741eedeaa9b470ca4e36c95e4",
    "wof:id": 2014413781,
    "wof:repo": "sfomuseum-data-flights-2025-12"
  },
  "bbox": [
    -122.38552,
    37.63097,
    -121.2432,
    38.42725
  ],
  "geometry": {"coordinates":[[-122.36494,37.63097],[-122.33796,37.65549],[-122.31921,37.67139],[-122.30993,37.69698],[-122.31558,37.70786],[-122.32859,37.7325],[-122.34882,37.76987],[-122.36538,37.80378],[-122.38552,37.84977],[-122.38425,37.90146],[-122.38096,37.92177],[-122.35813,37.94923],[-122.31624,37.96743],[-122.28328,37.98074],[-122.25005,37.99405],[-122.18298,38.02139],[-122.09664,38.05624],[-122.037,38.08024],[-121.96869,38.10765],[-121.93475,38.12119],[-121.87242,38.14606],[-121.7961,38.17632],[-121.73154,38.20187],[-121.65996,38.23019],[-121.60118,38.25335],[-121.54916,38.27374],[-121.48427,38.29933],[-121.39281,38.33707],[-121.37432,38.34675],[-121.28378,38.40242],[-121.2432,38.42725]],"type":"LineString"}
}
