{
  "id": 2014430581,
  "type": "Feature",
  "properties": {
    "geom:area": 0,
    "geom:bbox": "-122.668750,36.723580,-121.587200,37.672190",
    "geom:latitude": 37.24713353076647,
    "geom:longitude": -122.20684980641349,
    "src:alt_label": "swim-takeoff",
    "src:geom": "swim",
    "swim:elevations": [
      122,
      244,
      605,
      914,
      1449,
      1626,
      2054,
      2427,
      3119,
      3364,
      3740,
      4030,
      4383,
      4924,
      5278,
      5395,
      5636,
      6018,
      6262,
      6562,
      6930,
      7219,
      7518,
      7684,
      7841,
      8204,
      8426,
      8860,
      9156,
      9235,
      9339,
      9480,
      9708
    ],
    "swim:geom": "takeoff",
    "swim:timestamps": [
      1767009297,
      1767009307,
      1767009333,
      1767009365,
      1767009417,
      1767009437,
      1767009498,
      1767009520,
      1767009562,
      1767009581,
      1767009618,
      1767009642,
      1767009668,
      1767009711,
      1767009738,
      1767009760,
      1767009795,
      1767009827,
      1767009850,
      1767009881,
      1767009917,
      1767009947,
      1767009983,
      1767010005,
      1767010028,
      1767010062,
      1767010085,
      1767010133,
      1767010162,
      1767010172,
      1767010212,
      1767010239,
      1767010279
    ],
    "wof:geomhash": "45f822fea69fe3c3713018ee1abb1676",
    "wof:id": 2014430581,
    "wof:repo": "sfomuseum-data-flights-2025-12"
  },
  "bbox": [
    -122.66875,
    36.72358,
    -121.5872,
    37.67219
  ],
  "geometry": {"coordinates":[[-122.38744,37.624],[-122.396,37.62764],[-122.41764,37.63677],[-122.44482,37.64893],[-122.49193,37.67115],[-122.51551,37.67219],[-122.59354,37.64881],[-122.62319,37.637],[-122.66875,37.60157],[-122.66605,37.57866],[-122.62581,37.54193],[-122.59519,37.51908],[-122.5609,37.49267],[-122.50409,37.44833],[-122.46617,37.41876],[-122.43488,37.39451],[-122.38212,37.3534],[-122.33304,37.31491],[-122.29657,37.28641],[-122.24665,37.24728],[-122.18994,37.20275],[-122.14133,37.16447],[-122.08199,37.11789],[-122.04595,37.08927],[-122.00767,37.05818],[-121.95049,37.01332],[-121.91264,36.98397],[-121.83244,36.92142],[-121.78387,36.88301],[-121.76745,36.86963],[-121.70173,36.81595],[-121.65561,36.7783],[-121.5872,36.72358]],"type":"LineString"}
}
