{
  "id": 2014407325,
  "type": "Feature",
  "properties": {
    "geom:area": 0,
    "geom:bbox": "-122.821120,37.425310,-122.119730,38.492650",
    "geom:latitude": 37.82436838228208,
    "geom:longitude": -122.49574932327505,
    "src:alt_label": "swim-approach",
    "src:geom": "swim",
    "swim:elevations": [
      7466,
      7372,
      7008,
      6677,
      6261,
      6033,
      5702,
      5585,
      5302,
      4834,
      4678,
      4431,
      4296,
      4040,
      3825,
      3564,
      3443,
      3351,
      3327,
      3212,
      3022,
      2833,
      2649,
      2530,
      2216,
      1839,
      1829,
      1829,
      1796,
      1545,
      1211,
      1188,
      1097,
      945,
      945,
      858,
      640,
      576,
      352,
      335,
      182,
      43
    ],
    "swim:geom": "approach",
    "swim:timestamps": [
      1766830431,
      1766830440,
      1766830476,
      1766830508,
      1766830552,
      1766830574,
      1766830612,
      1766830627,
      1766830660,
      1766830706,
      1766830721,
      1766830756,
      1766830776,
      1766830808,
      1766830848,
      1766830889,
      1766830916,
      1766830947,
      1766830975,
      1766830992,
      1766831018,
      1766831055,
      1766831082,
      1766831109,
      1766831143,
      1766831188,
      1766831204,
      1766831232,
      1766831260,
      1766831284,
      1766831336,
      1766831362,
      1766831379,
      1766831413,
      1766831430,
      1766831465,
      1766831509,
      1766831526,
      1766831575,
      1766831581,
      1766831620,
      1766831655
    ],
    "wof:geomhash": "096e772bb2dcbd96b35f380b3c758cc5",
    "wof:id": 2014407325,
    "wof:repo": "sfomuseum-data-flights-2025-12"
  },
  "bbox": [
    -122.82112,
    37.42531,
    -122.11973,
    38.49265
  ],
  "geometry": {"coordinates":[[-122.82112,38.49265],[-122.81666,38.47489],[-122.79949,38.40569],[-122.78396,38.34393],[-122.7635,38.26241],[-122.75342,38.22218],[-122.73617,38.15275],[-122.72969,38.12689],[-122.71497,38.06877],[-122.69562,37.99009],[-122.6891,37.96375],[-122.67134,37.90614],[-122.65081,37.87868],[-122.61294,37.84231],[-122.56607,37.79822],[-122.52182,37.75637],[-122.49281,37.72924],[-122.46155,37.69973],[-122.43409,37.67406],[-122.41809,37.65892],[-122.39286,37.63505],[-122.35973,37.60104],[-122.34376,37.57052],[-122.3283,37.54259],[-122.3078,37.50919],[-122.27967,37.46594],[-122.26143,37.45642],[-122.22689,37.44425],[-122.19268,37.43207],[-122.16214,37.42531],[-122.12018,37.4612],[-122.11973,37.48406],[-122.12759,37.4967],[-122.14666,37.52078],[-122.16139,37.52864],[-122.19398,37.54265],[-122.23514,37.55986],[-122.25119,37.56668],[-122.29255,37.58404],[-122.29668,37.58576],[-122.32625,37.59822],[-122.35348,37.60962]],"type":"LineString"}
}
