{
  "id": 2014406723,
  "type": "Feature",
  "properties": {
    "geom:area": 0,
    "geom:bbox": "-123.102140,37.531530,-122.092310,38.491280",
    "geom:latitude": 37.91253674045156,
    "geom:longitude": -122.55660651350007,
    "src:alt_label": "swim-approach",
    "src:geom": "swim",
    "swim:elevations": [
      7590,
      7361,
      7161,
      6751,
      6673,
      6303,
      5979,
      5922,
      5672,
      5321,
      4991,
      4805,
      4700,
      4197,
      3927,
      3680,
      3412,
      3353,
      3353,
      3353,
      3353,
      3134,
      2847,
      2631,
      2270,
      2052,
      2002,
      1643,
      1414,
      1310,
      985,
      911,
      891,
      637,
      599,
      395,
      237,
      82,
      0
    ],
    "swim:geom": "approach",
    "swim:timestamps": [
      1766837695,
      1766837718,
      1766837742,
      1766837788,
      1766837798,
      1766837839,
      1766837876,
      1766837885,
      1766837912,
      1766837957,
      1766837996,
      1766838018,
      1766838030,
      1766838088,
      1766838113,
      1766838138,
      1766838174,
      1766838238,
      1766838258,
      1766838297,
      1766838304,
      1766838340,
      1766838381,
      1766838403,
      1766838444,
      1766838478,
      1766838486,
      1766838537,
      1766838559,
      1766838570,
      1766838626,
      1766838657,
      1766838661,
      1766838711,
      1766838722,
      1766838763,
      1766838799,
      1766838837,
      1766838853
    ],
    "wof:geomhash": "3a11b106517186647b847cb8ae515f88",
    "wof:id": 2014406723,
    "wof:repo": "sfomuseum-data-flights-2025-12"
  },
  "bbox": [
    -123.10214,
    37.53153,
    -122.09231,
    38.49128
  ],
  "geometry": {"coordinates":[[-123.10214,38.49128],[-123.06278,38.4592],[-123.0213,38.42712],[-122.94329,38.36516],[-122.92697,38.35216],[-122.85862,38.29741],[-122.79898,38.24965],[-122.78652,38.23789],[-122.75911,38.19404],[-122.73511,38.11436],[-122.71587,38.04659],[-122.70453,38.00741],[-122.69846,37.98681],[-122.66141,37.89086],[-122.62967,37.85799],[-122.59436,37.82467],[-122.54664,37.77998],[-122.4649,37.71886],[-122.43472,37.70853],[-122.37938,37.68902],[-122.36949,37.68556],[-122.31908,37.67208],[-122.25998,37.65752],[-122.22926,37.65015],[-122.17151,37.63473],[-122.13153,37.61356],[-122.12241,37.60873],[-122.09231,37.57178],[-122.09786,37.55252],[-122.10207,37.54271],[-122.15966,37.53153],[-122.19086,37.54391],[-122.1947,37.54553],[-122.24302,37.56553],[-122.25352,37.56994],[-122.28892,37.5849],[-122.31797,37.59703],[-122.3475,37.60951],[-122.36001,37.61487]],"type":"LineString"}
}
