{
  "id": 2014413545,
  "type": "Feature",
  "properties": {
    "geom:area": 0,
    "geom:bbox": "-122.423460,37.257080,-121.277190,37.681170",
    "geom:latitude": 37.43745147754401,
    "geom:longitude": -121.93981410929446,
    "src:alt_label": "swim-takeoff",
    "src:geom": "swim",
    "swim:elevations": [
      183,
      719,
      914,
      1047,
      1441,
      1570,
      2208,
      2655,
      2990,
      3322,
      3857,
      3886,
      4599,
      4937,
      5212,
      5627,
      5933,
      6076,
      6513,
      6622,
      6885,
      7256,
      7401,
      7569,
      7809,
      8068
    ],
    "swim:geom": "takeoff",
    "swim:timestamps": [
      1766835969,
      1766836015,
      1766836035,
      1766836050,
      1766836106,
      1766836119,
      1766836160,
      1766836193,
      1766836213,
      1766836233,
      1766836286,
      1766836290,
      1766836345,
      1766836375,
      1766836397,
      1766836434,
      1766836464,
      1766836480,
      1766836526,
      1766836537,
      1766836572,
      1766836616,
      1766836636,
      1766836656,
      1766836685,
      1766836723
    ],
    "wof:geomhash": "10dd5b6989701ee0a2a253250184210e",
    "wof:id": 2014413545,
    "wof:repo": "sfomuseum-data-flights-2025-12"
  },
  "bbox": [
    -122.42346,
    37.25708,
    -121.27719,
    37.68117
  ],
  "geometry": {"coordinates":[[-122.36931,37.62817],[-122.36285,37.65791],[-122.36191,37.67091],[-122.3638,37.68117],[-122.41745,37.67525],[-122.42346,37.66131],[-122.42325,37.61223],[-122.41668,37.5679],[-122.40385,37.54245],[-122.3795,37.52432],[-122.28301,37.50217],[-122.27652,37.50094],[-122.16093,37.47354],[-122.09582,37.45769],[-122.04638,37.44584],[-121.9654,37.42647],[-121.89803,37.41029],[-121.86202,37.40153],[-121.75423,37.37524],[-121.72934,37.36915],[-121.64634,37.34877],[-121.5412,37.32279],[-121.49176,37.31055],[-121.44238,37.29829],[-121.37171,37.28073],[-121.27719,37.25708]],"type":"LineString"}
}
