{
  "id": 2014411699,
  "type": "Feature",
  "properties": {
    "geom:area": 0,
    "geom:bbox": "-122.362620,37.633920,-122.110630,38.502120",
    "geom:latitude": 38.03377247060827,
    "geom:longitude": -122.17701289149163,
    "src:alt_label": "swim-takeoff",
    "src:geom": "swim",
    "swim:elevations": [
      246,
      601,
      1019,
      1275,
      1598,
      2013,
      2134,
      2134,
      2559,
      2974,
      3319,
      3380,
      3902,
      3964,
      4538,
      4959,
      5328,
      5420,
      5758,
      5860,
      6296,
      6520,
      6794
    ],
    "swim:geom": "takeoff",
    "swim:timestamps": [
      1766842390,
      1766842434,
      1766842468,
      1766842488,
      1766842513,
      1766842545,
      1766842586,
      1766842598,
      1766842642,
      1766842670,
      1766842705,
      1766842718,
      1766842766,
      1766842770,
      1766842820,
      1766842854,
      1766842888,
      1766842898,
      1766842940,
      1766842951,
      1766842998,
      1766843022,
      1766843053
    ],
    "wof:geomhash": "e4a818604891e379d53312eafcce11c3",
    "wof:id": 2014411699,
    "wof:repo": "sfomuseum-data-flights-2025-12"
  },
  "bbox": [
    -122.36262,
    37.63392,
    -122.11063,
    38.50212
  ],
  "geometry": {"coordinates":[[-122.36262,37.63392],[-122.32626,37.65638],[-122.29017,37.6769],[-122.26675,37.69065],[-122.23558,37.70677],[-122.20857,37.73727],[-122.20285,37.78726],[-122.20111,37.80228],[-122.19225,37.85634],[-122.18639,37.89118],[-122.17843,37.93604],[-122.17536,37.95354],[-122.16346,38.02764],[-122.1625,38.03355],[-122.14978,38.11248],[-122.14105,38.16589],[-122.13187,38.22111],[-122.12914,38.23752],[-122.11757,38.30704],[-122.1149,38.3245],[-122.11263,38.40624],[-122.11177,38.449],[-122.11063,38.50212]],"type":"LineString"}
}
