{
  "id": 2014418359,
  "type": "Feature",
  "properties": {
    "geom:area": 0,
    "geom:bbox": "-122.360120,37.492320,-121.258860,37.615120",
    "geom:latitude": 37.54661044937012,
    "geom:longitude": -121.81441930240022,
    "src:alt_label": "swim-approach",
    "src:geom": "swim",
    "swim:elevations": [
      4422,
      4292,
      3994,
      3676,
      3488,
      3261,
      3083,
      3000,
      2796,
      2727,
      2466,
      2333,
      2185,
      1981,
      1944,
      1717,
      1578,
      1486,
      1225,
      1025,
      855,
      765,
      660,
      545,
      303,
      271,
      60,
      0
    ],
    "swim:geom": "approach",
    "swim:timestamps": [
      1766939308,
      1766939322,
      1766939357,
      1766939396,
      1766939417,
      1766939444,
      1766939478,
      1766939510,
      1766939541,
      1766939552,
      1766939598,
      1766939624,
      1766939652,
      1766939697,
      1766939706,
      1766939752,
      1766939775,
      1766939793,
      1766939830,
      1766939872,
      1766939904,
      1766939924,
      1766939946,
      1766939970,
      1766940022,
      1766940032,
      1766940079,
      1766940091
    ],
    "wof:geomhash": "7f680df8ce98bf3cdf85666feb3d17f2",
    "wof:id": 2014418359,
    "wof:repo": "sfomuseum-data-flights-2025-12"
  },
  "bbox": [
    -122.36012,
    37.49232,
    -121.25886,
    37.61512
  ],
  "geometry": {"coordinates":[[-121.25886,37.59355],[-121.28545,37.58991],[-121.35529,37.58182],[-121.42871,37.57368],[-121.46845,37.56939],[-121.52066,37.56314],[-121.58392,37.55551],[-121.63958,37.54713],[-121.69038,37.53501],[-121.70785,37.53087],[-121.78172,37.51329],[-121.82035,37.50399],[-121.86291,37.49386],[-121.93002,37.49232],[-121.94371,37.49278],[-122.00771,37.50106],[-122.03889,37.51123],[-122.06263,37.51857],[-122.10702,37.5331],[-122.15409,37.5486],[-122.18808,37.55986],[-122.2085,37.56618],[-122.23098,37.57345],[-122.255,37.58095],[-122.30367,37.59545],[-122.31182,37.59767],[-122.35119,37.61092],[-122.36012,37.61512]],"type":"LineString"}
}
