{
  "id": 2014418129,
  "type": "Feature",
  "properties": {
    "geom:area": 0,
    "geom:bbox": "-122.659110,37.397950,-122.125830,38.512310",
    "geom:latitude": 37.82525866645623,
    "geom:longitude": -122.42415030202132,
    "src:alt_label": "swim-approach",
    "src:geom": "swim",
    "swim:elevations": [
      7234,
      7151,
      6971,
      6804,
      6556,
      6179,
      5984,
      5895,
      5493,
      5386,
      5220,
      4784,
      4542,
      4338,
      3930,
      3618,
      3534,
      3348,
      3353,
      3353,
      3353,
      3230,
      3070,
      2817,
      2680,
      2585,
      2375,
      2185,
      1935,
      1705,
      1471,
      1256,
      1219,
      1219,
      1194,
      1135,
      1039,
      941,
      914,
      914,
      809,
      628,
      462,
      357,
      272,
      92,
      38
    ],
    "swim:geom": "approach",
    "swim:timestamps": [
      1766943626,
      1766943636,
      1766943656,
      1766943674,
      1766943700,
      1766943734,
      1766943752,
      1766943761,
      1766943805,
      1766943824,
      1766943843,
      1766943897,
      1766943922,
      1766943945,
      1766943982,
      1766944015,
      1766944024,
      1766944076,
      1766944106,
      1766944120,
      1766944154,
      1766944197,
      1766944220,
      1766944251,
      1766944277,
      1766944298,
      1766944335,
      1766944364,
      1766944399,
      1766944431,
      1766944466,
      1766944497,
      1766944526,
      1766944532,
      1766944563,
      1766944580,
      1766944607,
      1766944638,
      1766944677,
      1766944694,
      1766944737,
      1766944763,
      1766944792,
      1766944820,
      1766944839,
      1766944886,
      1766944901
    ],
    "wof:geomhash": "6ff65211b3c00f4e66dfe4615eb0e777",
    "wof:id": 2014418129,
    "wof:repo": "sfomuseum-data-flights-2025-12"
  },
  "bbox": [
    -122.65911,
    37.39795,
    -122.12583,
    38.51231
  ],
  "geometry": {"coordinates":[[-122.43686,38.51231],[-122.4463,38.49226],[-122.46188,38.45097],[-122.4761,38.41448],[-122.49681,38.36227],[-122.52241,38.29577],[-122.53608,38.25975],[-122.54287,38.24197],[-122.57476,38.15793],[-122.58838,38.12208],[-122.60216,38.08557],[-122.63911,37.9897],[-122.65579,37.94577],[-122.65911,37.90501],[-122.62231,37.85202],[-122.57896,37.81027],[-122.56733,37.79915],[-122.50319,37.73855],[-122.46885,37.70658],[-122.45321,37.69205],[-122.41452,37.65569],[-122.37053,37.61411],[-122.35111,37.591],[-122.33295,37.55721],[-122.3199,37.52949],[-122.30767,37.50922],[-122.28739,37.47562],[-122.27192,37.44999],[-122.25305,37.41882],[-122.2272,37.39795],[-122.19028,37.39871],[-122.15794,37.40003],[-122.13958,37.41728],[-122.13725,37.42175],[-122.12661,37.44557],[-122.12583,37.45941],[-122.13031,37.47968],[-122.15083,37.49843],[-122.17807,37.52181],[-122.19017,37.53185],[-122.22416,37.55429],[-122.24729,37.56345],[-122.2703,37.57418],[-122.29228,37.58393],[-122.30786,37.59031],[-122.34527,37.60615],[-122.35722,37.61095]],"type":"LineString"}
}
