{
  "id": 2014418185,
  "type": "Feature",
  "properties": {
    "geom:area": 0,
    "geom:bbox": "-122.353230,37.491960,-121.253380,37.611870",
    "geom:latitude": 37.54642354978258,
    "geom:longitude": -121.80806153115348,
    "src:alt_label": "swim-approach",
    "src:geom": "swim",
    "swim:elevations": [
      4378,
      3996,
      3757,
      3455,
      3299,
      3086,
      3022,
      2766,
      2574,
      2515,
      2315,
      2263,
      2010,
      1935,
      1756,
      1542,
      1459,
      1346,
      1157,
      998,
      895,
      729,
      553,
      421,
      342,
      236,
      156,
      48
    ],
    "swim:geom": "approach",
    "swim:timestamps": [
      1766961046,
      1766961083,
      1766961110,
      1766961147,
      1766961165,
      1766961205,
      1766961233,
      1766961266,
      1766961292,
      1766961313,
      1766961356,
      1766961365,
      1766961414,
      1766961436,
      1766961475,
      1766961505,
      1766961526,
      1766961547,
      1766961580,
      1766961610,
      1766961633,
      1766961664,
      1766961700,
      1766961730,
      1766961746,
      1766961773,
      1766961791,
      1766961814
    ],
    "wof:geomhash": "3d77f1f00b380f6f5aaa588ee6f36e0e",
    "wof:id": 2014418185,
    "wof:repo": "sfomuseum-data-flights-2025-12"
  },
  "bbox": [
    -122.35323,
    37.49196,
    -121.25338,
    37.61187
  ],
  "geometry": {"coordinates":[[-121.25338,37.5939],[-121.33716,37.58396],[-121.3961,37.57743],[-121.47177,37.56861],[-121.50777,37.5645],[-121.58449,37.55557],[-121.6343,37.54845],[-121.68999,37.5352],[-121.73397,37.52478],[-121.76892,37.51639],[-121.83492,37.50052],[-121.84828,37.49731],[-121.91991,37.49196],[-121.95053,37.49288],[-122.00385,37.49971],[-122.0412,37.51184],[-122.06615,37.51987],[-122.08953,37.52759],[-122.12599,37.53947],[-122.15828,37.55],[-122.18314,37.55798],[-122.21543,37.56837],[-122.25181,37.58009],[-122.27948,37.58833],[-122.29358,37.59252],[-122.31718,37.5995],[-122.33291,37.60421],[-122.35323,37.61187]],"type":"LineString"}
}
