{
  "id": 2014420579,
  "type": "Feature",
  "properties": {
    "geom:area": 0,
    "geom:bbox": "-122.355870,37.641960,-122.111170,38.511150",
    "geom:latitude": 38.06198462041141,
    "geom:longitude": -122.1922507149386,
    "src:alt_label": "swim-takeoff",
    "src:geom": "swim",
    "swim:elevations": [
      472,
      588,
      766,
      883,
      1008,
      1281,
      1453,
      2017,
      2632,
      2872,
      3326,
      3471,
      3559,
      4345,
      4721,
      4943,
      5429,
      5754,
      5901,
      6466,
      6710,
      6937,
      7181
    ],
    "swim:geom": "takeoff",
    "swim:timestamps": [
      1766988832,
      1766988849,
      1766988883,
      1766988905,
      1766988920,
      1766988948,
      1766988966,
      1766989002,
      1766989044,
      1766989059,
      1766989107,
      1766989133,
      1766989143,
      1766989189,
      1766989223,
      1766989241,
      1766989283,
      1766989314,
      1766989325,
      1766989373,
      1766989396,
      1766989417,
      1766989441
    ],
    "wof:geomhash": "b6834f0867896c8d0c299c03cd85af51",
    "wof:id": 2014420579,
    "wof:repo": "sfomuseum-data-flights-2025-12"
  },
  "bbox": [
    -122.35587,
    37.64196,
    -122.11117,
    38.51115
  ],
  "geometry": {"coordinates":[[-122.35587,37.64196],[-122.34527,37.65045],[-122.31963,37.6721],[-122.30797,37.69257],[-122.30031,37.70876],[-122.28466,37.74104],[-122.27392,37.76311],[-122.25203,37.80694],[-122.23126,37.85793],[-122.22678,37.87694],[-122.21113,37.94],[-122.20178,37.97772],[-122.19759,37.99486],[-122.18006,38.0663],[-122.1662,38.12106],[-122.1586,38.15125],[-122.14022,38.22341],[-122.12667,38.27673],[-122.12182,38.29674],[-122.11375,38.38284],[-122.1128,38.4263],[-122.11195,38.46568],[-122.11117,38.51115]],"type":"LineString"}
}
