{
  "id": 2014447421,
  "type": "Feature",
  "properties": {
    "geom:area": 0,
    "geom:bbox": "-122.465880,36.732960,-121.318600,37.719310",
    "geom:latitude": 37.21834264419434,
    "geom:longitude": -122.00035617107332,
    "src:alt_label": "swim-takeoff",
    "src:geom": "swim",
    "swim:elevations": [
      152,
      353,
      581,
      927,
      1208,
      1413,
      1642,
      2000,
      2211,
      2767,
      3297,
      3461,
      3866,
      4060,
      4389,
      4729,
      4986,
      5318,
      5616,
      5982,
      6227,
      6534,
      6837,
      6999,
      7281,
      7518,
      7621,
      7877,
      8042,
      8292,
      8535,
      8750,
      8787,
      9020,
      9087,
      9114,
      9145
    ],
    "swim:geom": "takeoff",
    "swim:timestamps": [
      1767245186,
      1767245203,
      1767245227,
      1767245263,
      1767245302,
      1767245332,
      1767245358,
      1767245391,
      1767245403,
      1767245445,
      1767245484,
      1767245499,
      1767245547,
      1767245577,
      1767245607,
      1767245634,
      1767245658,
      1767245688,
      1767245712,
      1767245751,
      1767245781,
      1767245811,
      1767245844,
      1767245860,
      1767245896,
      1767245926,
      1767245941,
      1767245974,
      1767246005,
      1767246042,
      1767246078,
      1767246114,
      1767246120,
      1767246167,
      1767246203,
      1767246215,
      1767246242
    ],
    "wof:geomhash": "0751346a0f9259ebec864d14ca074231",
    "wof:id": 2014447421,
    "wof:repo": "sfomuseum-data-flights-2025-12"
  },
  "bbox": [
    -122.46588,
    36.73296,
    -121.3186,
    37.71931
  ],
  "geometry": {"coordinates":[[-122.36844,37.62989],[-122.36217,37.6419],[-122.36233,37.66118],[-122.36184,37.69332],[-122.38814,37.71931],[-122.41554,37.70853],[-122.4291,37.68609],[-122.43902,37.65237],[-122.44165,37.63918],[-122.45226,37.59263],[-122.4618,37.54639],[-122.46588,37.52853],[-122.44712,37.47141],[-122.40601,37.44311],[-122.36073,37.41486],[-122.31916,37.38977],[-122.28281,37.36682],[-122.23771,37.33668],[-122.20172,37.31226],[-122.14067,37.27425],[-122.0931,37.24392],[-122.04539,37.21293],[-121.99244,37.17834],[-121.96733,37.162],[-121.90957,37.12417],[-121.86088,37.09243],[-121.83635,37.07648],[-121.78242,37.04072],[-121.73093,37.00678],[-121.66865,36.96607],[-121.60862,36.92643],[-121.54738,36.88599],[-121.5371,36.87921],[-121.45443,36.82396],[-121.39062,36.78134],[-121.36889,36.76673],[-121.3186,36.73296]],"type":"LineString"}
}
