{
  "id": 2014415881,
  "type": "Feature",
  "properties": {
    "geom:area": 0,
    "geom:bbox": "-122.758180,37.437030,-122.109640,38.518910",
    "geom:latitude": 37.871526822020435,
    "geom:longitude": -122.4789792897829,
    "src:alt_label": "swim-approach",
    "src:geom": "swim",
    "swim:elevations": [
      8184,
      8015,
      7892,
      7627,
      7046,
      6740,
      6584,
      6102,
      5883,
      5491,
      5411,
      5060,
      4936,
      4638,
      4511,
      4260,
      4084,
      3713,
      3655,
      3466,
      3353,
      3353,
      3353,
      3353,
      3172,
      2963,
      2894,
      2659,
      2601,
      2377,
      2133,
      1969,
      1854,
      1618,
      1506,
      1461,
      1169,
      1130,
      945,
      915,
      629,
      587,
      423,
      251,
      148,
      69
    ],
    "swim:geom": "approach",
    "swim:timestamps": [
      1766969938,
      1766969965,
      1766969978,
      1766970002,
      1766970058,
      1766970086,
      1766970101,
      1766970146,
      1766970169,
      1766970208,
      1766970226,
      1766970265,
      1766970283,
      1766970319,
      1766970339,
      1766970372,
      1766970397,
      1766970448,
      1766970454,
      1766970481,
      1766970518,
      1766970545,
      1766970581,
      1766970623,
      1766970653,
      1766970686,
      1766970704,
      1766970743,
      1766970752,
      1766970793,
      1766970832,
      1766970862,
      1766970883,
      1766970925,
      1766970958,
      1766970967,
      1766971018,
      1766971024,
      1766971069,
      1766971081,
      1766971132,
      1766971144,
      1766971180,
      1766971222,
      1766971246,
      1766971264
    ],
    "wof:geomhash": "07f6c7dd9a3bb707275a477902ec44f3",
    "wof:id": 2014415881,
    "wof:repo": "sfomuseum-data-flights-2025-12"
  },
  "bbox": [
    -122.75818,
    37.43703,
    -122.10964,
    38.51891
  ],
  "geometry": {"coordinates":[[-122.46502,38.51891],[-122.50789,38.47771],[-122.52878,38.45765],[-122.56439,38.42266],[-122.64698,38.34185],[-122.6885,38.30177],[-122.7106,38.28052],[-122.75818,38.21064],[-122.75181,38.17226],[-122.73413,38.10898],[-122.72593,38.08026],[-122.70814,38.01911],[-122.70022,37.99165],[-122.68445,37.93651],[-122.67383,37.90707],[-122.63993,37.86801],[-122.61274,37.84245],[-122.55667,37.78937],[-122.55026,37.7833],[-122.52173,37.75624],[-122.48372,37.72053],[-122.45846,37.69657],[-122.42593,37.66617],[-122.38849,37.63106],[-122.3625,37.60562],[-122.34157,37.57321],[-122.33354,37.55477],[-122.31296,37.51766],[-122.30778,37.50924],[-122.27153,37.48178],[-122.22819,37.46508],[-122.19553,37.45325],[-122.17302,37.44495],[-122.12656,37.43703],[-122.10964,37.46144],[-122.11213,37.46926],[-122.14716,37.50549],[-122.1514,37.50977],[-122.18393,37.53957],[-122.19541,37.54499],[-122.24247,37.56538],[-122.25227,37.56947],[-122.28141,37.58157],[-122.31497,37.59582],[-122.33406,37.6038],[-122.34753,37.6095]],"type":"LineString"}
}
