{
  "id": 2014435631,
  "type": "Feature",
  "properties": {
    "geom:area": 0,
    "geom:bbox": "-122.354310,37.491430,-121.257480,37.612300",
    "geom:latitude": 37.546262666660766,
    "geom:longitude": -121.81063364481136,
    "src:alt_label": "swim-approach",
    "src:geom": "swim",
    "swim:elevations": [
      4632,
      4261,
      3985,
      3810,
      3597,
      3354,
      3143,
      3028,
      2732,
      2528,
      2462,
      2340,
      2196,
      2092,
      1917,
      1689,
      1540,
      1329,
      1295,
      1105,
      809,
      687,
      610,
      333,
      312,
      124,
      30
    ],
    "swim:geom": "approach",
    "swim:timestamps": [
      1767112115,
      1767112149,
      1767112177,
      1767112197,
      1767112215,
      1767112241,
      1767112267,
      1767112303,
      1767112344,
      1767112375,
      1767112400,
      1767112425,
      1767112450,
      1767112475,
      1767112513,
      1767112558,
      1767112582,
      1767112616,
      1767112622,
      1767112654,
      1767112702,
      1767112728,
      1767112741,
      1767112798,
      1767112805,
      1767112851,
      1767112870
    ],
    "wof:geomhash": "b3d156e7eb6153228d4a44005749445f",
    "wof:id": 2014435631,
    "wof:repo": "sfomuseum-data-flights-2025-12"
  },
  "bbox": [
    -122.35431,
    37.49143,
    -121.25748,
    37.6123
  ],
  "geometry": {"coordinates":[[-121.25748,37.59333],[-121.32625,37.58506],[-121.38197,37.57911],[-121.4209,37.57472],[-121.45722,37.57043],[-121.50793,37.56451],[-121.55863,37.55872],[-121.62415,37.55063],[-121.69219,37.53466],[-121.74212,37.52277],[-121.7821,37.51315],[-121.82095,37.50379],[-121.85713,37.49522],[-121.8952,37.49143],[-121.95095,37.49288],[-122.01311,37.50276],[-122.04607,37.51359],[-122.09044,37.52796],[-122.09752,37.5302],[-122.13876,37.54339],[-122.19717,37.56234],[-122.22549,37.5717],[-122.23895,37.57612],[-122.29434,37.5926],[-122.30031,37.59447],[-122.33843,37.60611],[-122.35431,37.6123]],"type":"LineString"}
}
