{
  "id": 2014430639,
  "type": "Feature",
  "properties": {
    "geom:area": 0,
    "geom:bbox": "-122.523440,37.629140,-121.322770,37.954340",
    "geom:latitude": 37.827778259506076,
    "geom:longitude": -121.99365280447121,
    "src:alt_label": "swim-takeoff",
    "src:geom": "swim",
    "swim:elevations": [
      183,
      459,
      878,
      964,
      1273,
      1702,
      2040,
      2562,
      3010,
      3401,
      3433,
      3893,
      3957,
      4266,
      4294,
      4755,
      5010,
      5110,
      5189,
      5430,
      5647,
      5740,
      6020,
      6121,
      6407,
      6611,
      6811
    ],
    "swim:geom": "takeoff",
    "swim:timestamps": [
      1767002937,
      1767002958,
      1767002992,
      1767003000,
      1767003034,
      1767003082,
      1767003100,
      1767003135,
      1767003171,
      1767003207,
      1767003212,
      1767003267,
      1767003276,
      1767003328,
      1767003332,
      1767003387,
      1767003416,
      1767003429,
      1767003438,
      1767003465,
      1767003507,
      1767003518,
      1767003555,
      1767003570,
      1767003615,
      1767003644,
      1767003671
    ],
    "wof:geomhash": "f8065583de4ffca317fe1416f05fb427",
    "wof:id": 2014430639,
    "wof:repo": "sfomuseum-data-flights-2025-12"
  },
  "bbox": [
    -122.52344,
    37.62914,
    -121.32277,
    37.95434
  ],
  "geometry": {"coordinates":[[-122.39939,37.62914],[-122.421,37.63836],[-122.45671,37.6539],[-122.46536,37.65768],[-122.50366,37.67413],[-122.52344,37.72747],[-122.50685,37.74512],[-122.45648,37.75763],[-122.40032,37.76738],[-122.34242,37.77766],[-122.33419,37.7791],[-122.23537,37.79691],[-122.2189,37.7997],[-122.11378,37.8184],[-122.10548,37.8199],[-121.98483,37.84095],[-121.92207,37.85183],[-121.89217,37.85692],[-121.87283,37.86023],[-121.81031,37.87093],[-121.71346,37.88761],[-121.68881,37.89182],[-121.60287,37.90659],[-121.56759,37.91267],[-121.45853,37.93127],[-121.38995,37.94297],[-121.32277,37.95434]],"type":"LineString"}
}
