{
  "id": 2014441681,
  "type": "Feature",
  "properties": {
    "geom:area": 0,
    "geom:bbox": "-122.847390,37.451740,-122.111320,38.496690",
    "geom:latitude": 37.8345157961341,
    "geom:longitude": -122.50391646572626,
    "src:alt_label": "swim-approach",
    "src:geom": "swim",
    "swim:elevations": [
      7423,
      7279,
      7133,
      7054,
      6807,
      6706,
      6468,
      6028,
      5874,
      5343,
      5055,
      4846,
      4605,
      4234,
      3978,
      3613,
      3382,
      3354,
      3353,
      3353,
      3313,
      3054,
      3047,
      2889,
      2775,
      2654,
      2398,
      2237,
      2001,
      1887,
      1632,
      1493,
      1466,
      1330,
      1269,
      1029,
      851,
      718,
      457,
      365,
      219,
      82,
      0
    ],
    "swim:geom": "approach",
    "swim:timestamps": [
      1767211402,
      1767211430,
      1767211458,
      1767211473,
      1767211521,
      1767211541,
      1767211569,
      1767211612,
      1767211627,
      1767211678,
      1767211706,
      1767211726,
      1767211751,
      1767211787,
      1767211811,
      1767211849,
      1767211885,
      1767211906,
      1767211921,
      1767211960,
      1767211989,
      1767212037,
      1767212040,
      1767212067,
      1767212097,
      1767212119,
      1767212158,
      1767212182,
      1767212212,
      1767212224,
      1767212273,
      1767212305,
      1767212317,
      1767212366,
      1767212375,
      1767212414,
      1767212447,
      1767212472,
      1767212518,
      1767212539,
      1767212569,
      1767212606,
      1767212624
    ],
    "wof:geomhash": "7fb9ad98fb75ed5e3d6936188053cf5b",
    "wof:id": 2014441681,
    "wof:repo": "sfomuseum-data-flights-2025-12"
  },
  "bbox": [
    -122.84739,
    37.45174,
    -122.11132,
    38.49669
  ],
  "geometry": {"coordinates":[[-122.84739,38.49669],[-122.83316,38.44828],[-122.81934,38.40134],[-122.812,38.37627],[-122.78852,38.29671],[-122.77892,38.26361],[-122.76516,38.21637],[-122.74501,38.14672],[-122.73789,38.12239],[-122.7139,38.04048],[-122.70108,37.99582],[-122.69182,37.96361],[-122.68048,37.92438],[-122.64683,37.87461],[-122.61481,37.84435],[-122.56717,37.79908],[-122.52332,37.75791],[-122.49941,37.73544],[-122.48325,37.72028],[-122.44533,37.6845],[-122.41953,37.66034],[-122.37748,37.62068],[-122.37493,37.61823],[-122.35675,37.59388],[-122.34223,37.56529],[-122.33037,37.54567],[-122.30314,37.51385],[-122.28017,37.49839],[-122.25109,37.47931],[-122.23808,37.47344],[-122.17938,37.45852],[-122.14329,37.45174],[-122.12946,37.45515],[-122.11132,37.50057],[-122.1183,37.50794],[-122.16046,37.52836],[-122.19605,37.54349],[-122.22299,37.55489],[-122.27188,37.57526],[-122.29183,37.58366],[-122.31734,37.59451],[-122.3469,37.60685],[-122.36082,37.61266]],"type":"LineString"}
}
