{
  "id": 2014435259,
  "type": "Feature",
  "properties": {
    "date:cessation_lower": "2025-12-30",
    "date:cessation_upper": "2025-12-30",
    "date:inception_lower": "1970-01-01",
    "date:inception_upper": "1970-01-01",
    "edtf:cessation": "2025-12-30T00:44:03-08:00",
    "edtf:inception": "1970-01-01T00:00:00Z",
    "flysfo:actual_timestamp": -1,
    "flysfo:airline": "UA",
    "flysfo:base_airline": "",
    "flysfo:base_flight_number": "9045",
    "flysfo:date": "2025-12-30",
    "flysfo:estimated_timestamp": 1767113280,
    "flysfo:event": "A",
    "flysfo:flight_number": "UA2153",
    "flysfo:gate": "D6",
    "flysfo:journey": "CLE-SFO",
    "flysfo:scheduled_timestamp": 1767114180,
    "flysfo:timestamp": 1767114180,
    "geom:area": 0,
    "geom:bbox": "-122.370943,37.617990,-81.835629,41.406844",
    "geom:latitude": 39.512417,
    "geom:longitude": -102.103286,
    "iata:airline": "UA",
    "iata:base_airline": "",
    "icao:aircraft": "B38M",
    "icao:airline": "UAL",
    "icao:base_airline": "ANZ",
    "lbl:latitude": 37.616838,
    "lbl:longitude": -122.380969,
    "sfomuseum:aircraft_id": 1528104575,
    "sfomuseum:airline_id": 1159285413,
    "sfomuseum:arrival_id": 102527513,
    "sfomuseum:base_flight_id": "20251230-A-ANZ-9045",
    "sfomuseum:departure_id": 102534019,
    "sfomuseum:flight_id": "20251230-A-UAL-2153",
    "sfomuseum:flight_number": [
      "UAL2153",
      "UA2153"
    ],
    "sfomuseum:placetype": "flight",
    "src:geom": "flysfo",
    "src:geom_alt": [
      "swim-approach"
    ],
    "swim:tail_number": "N17344",
    "wof:belongsto": [
      1947304067,
      102527513,
      1947304595,
      102191575,
      85633793,
      102087579,
      85922583,
      554784711,
      85688637,
      1947304621,
      1947304591,
      102085387
    ],
    "wof:country": "US",
    "wof:created": 1767197305,
    "wof:geomhash": "b9e617aa80dabb56896871b70acf102e",
    "wof:hierarchy": [
      {
        "building_id": 1947304067,
        "campus_id": 102527513,
        "concourse_id": 1947304595,
        "continent_id": 102191575,
        "country_id": 85633793,
        "county_id": 102087579,
        "custom_id": 2014435259,
        "flight_id": 2014435259,
        "locality_id": 85922583,
        "postalcode_id": 554784711,
        "region_id": 85688637,
        "venue_id": 1947304621,
        "wing_id": 1947304591
      },
      {
        "building_id": 1947304067,
        "campus_id": 102527513,
        "concourse_id": 1947304595,
        "continent_id": 102191575,
        "country_id": 85633793,
        "county_id": 102085387,
        "custom_id": 2014435259,
        "flight_id": 2014435259,
        "region_id": 85688637,
        "venue_id": 1947304621,
        "wing_id": 1947304591
      }
    ],
    "wof:id": 2014435259,
    "wof:involves": [
      1947304621,
      1159283697,
      1528104575,
      102527513,
      102534019,
      1159285413
    ],
    "wof:lastmodified": 1767197894,
    "wof:name": "UA2153 (CLE-SFO)",
    "wof:parent_id": 1947304621,
    "wof:placetype": "custom",
    "wof:placetype_alt": [
      "flight"
    ],
    "wof:repo": "sfomuseum-data-flights-2025-12",
    "wof:superseded_by": [],
    "wof:supersedes": []
  },
  "bbox": [
    -122.370943,
    37.61799,
    -81.835629,
    41.406844
  ],
  "geometry": {"coordinates":[[-81.835629,41.406844],[-122.370943,37.61799]],"type":"MultiPoint"}
}
