{
  "id": 2014408061,
  "type": "Feature",
  "properties": {
    "geom:area": 0,
    "geom:bbox": "-122.762010,37.443460,-122.108180,38.500850",
    "geom:latitude": 37.83187111148985,
    "geom:longitude": -122.48634508698663,
    "src:alt_label": "swim-approach",
    "src:geom": "swim",
    "swim:elevations": [
      6854,
      6791,
      6674,
      6485,
      6324,
      6274,
      6087,
      5680,
      5526,
      5297,
      4971,
      4665,
      4515,
      4153,
      3897,
      3737,
      3444,
      3354,
      3353,
      3353,
      3353,
      3276,
      3048,
      2716,
      2432,
      2227,
      2061,
      1705,
      1457,
      1240,
      1219,
      1219,
      1212,
      1084,
      1038,
      806,
      791,
      729,
      555,
      354,
      217,
      143,
      72,
      0
    ],
    "swim:geom": "approach",
    "swim:timestamps": [
      1766823193,
      1766823208,
      1766823229,
      1766823267,
      1766823297,
      1766823309,
      1766823336,
      1766823379,
      1766823397,
      1766823439,
      1766823472,
      1766823505,
      1766823523,
      1766823564,
      1766823595,
      1766823617,
      1766823656,
      1766823675,
      1766823699,
      1766823742,
      1766823778,
      1766823790,
      1766823816,
      1766823856,
      1766823894,
      1766823918,
      1766823937,
      1766823975,
      1766824018,
      1766824045,
      1766824078,
      1766824097,
      1766824130,
      1766824164,
      1766824171,
      1766824226,
      1766824232,
      1766824266,
      1766824295,
      1766824339,
      1766824375,
      1766824400,
      1766824414,
      1766824434
    ],
    "wof:geomhash": "c3960b52b60c9b2ddd6d756cb42eb49a",
    "wof:id": 2014408061,
    "wof:repo": "sfomuseum-data-flights-2025-12"
  },
  "bbox": [
    -122.76201,
    37.44346,
    -122.10818,
    38.50085
  ],
  "geometry": {"coordinates":[[-122.67677,38.50085],[-122.68607,38.47253],[-122.69901,38.43321],[-122.72209,38.3631],[-122.74066,38.30653],[-122.7477,38.28499],[-122.76201,38.2344],[-122.74734,38.15473],[-122.73796,38.12268],[-122.71687,38.04998],[-122.7,37.99185],[-122.6833,37.93418],[-122.67143,37.90444],[-122.62069,37.84963],[-122.58196,37.81325],[-122.55605,37.78878],[-122.51204,37.74721],[-122.49126,37.72755],[-122.46644,37.70437],[-122.42412,37.66458],[-122.38879,37.63128],[-122.37706,37.62019],[-122.35599,37.5942],[-122.33048,37.55074],[-122.30759,37.51141],[-122.29156,37.48848],[-122.27007,37.47817],[-122.22389,37.46208],[-122.17237,37.44354],[-122.14391,37.44346],[-122.12566,37.46797],[-122.11608,37.4827],[-122.10818,37.50809],[-122.13764,37.52342],[-122.14415,37.52586],[-122.19556,37.5459],[-122.20074,37.5479],[-122.2322,37.56084],[-122.26005,37.57271],[-122.29611,37.58788],[-122.32127,37.59843],[-122.33708,37.60508],[-122.34697,37.60918],[-122.35997,37.61469]],"type":"LineString"}
}
