{
  "id": 2014416761,
  "type": "Feature",
  "properties": {
    "geom:area": 0,
    "geom:bbox": "-123.103110,37.551520,-122.082340,38.455140",
    "geom:latitude": 37.88178428759937,
    "geom:longitude": -122.56634148672683,
    "src:alt_label": "swim-approach",
    "src:geom": "swim",
    "swim:elevations": [
      7529,
      7346,
      6938,
      6631,
      6226,
      5987,
      5751,
      5506,
      5419,
      5191,
      5003,
      4561,
      4245,
      4012,
      3992,
      3836,
      3723,
      3591,
      3324,
      3194,
      3131,
      2833,
      2737,
      2609,
      2348,
      2131,
      1972,
      1905,
      1726,
      1617,
      1455,
      1316,
      1187,
      960,
      930,
      794,
      700,
      593,
      518,
      363,
      313,
      89,
      0
    ],
    "swim:geom": "approach",
    "swim:timestamps": [
      1766910825,
      1766910844,
      1766910885,
      1766910915,
      1766910954,
      1766910977,
      1766911004,
      1766911030,
      1766911041,
      1766911066,
      1766911081,
      1766911121,
      1766911153,
      1766911198,
      1766911204,
      1766911227,
      1766911242,
      1766911266,
      1766911317,
      1766911343,
      1766911353,
      1766911400,
      1766911414,
      1766911432,
      1766911467,
      1766911494,
      1766911522,
      1766911532,
      1766911558,
      1766911573,
      1766911597,
      1766911614,
      1766911632,
      1766911673,
      1766911681,
      1766911725,
      1766911747,
      1766911787,
      1766911812,
      1766911847,
      1766911860,
      1766911910,
      1766911936
    ],
    "wof:geomhash": "7aaa54cf804bf2910250d41ffd1df1ba",
    "wof:id": 2014416761,
    "wof:repo": "sfomuseum-data-flights-2025-12"
  },
  "bbox": [
    -123.10311,
    37.55152,
    -122.08234,
    38.45514
  ],
  "geometry": {"coordinates":[[-123.10311,38.45514],[-123.07553,38.41981],[-123.01879,38.34686],[-122.97751,38.29384],[-122.92562,38.22694],[-122.89512,38.18715],[-122.86037,38.14245],[-122.82628,38.09856],[-122.81273,38.081],[-122.78023,38.03889],[-122.76172,38.01494],[-122.71298,37.95089],[-122.67515,37.90234],[-122.61605,37.84556],[-122.60855,37.83841],[-122.57984,37.81123],[-122.56142,37.794],[-122.53306,37.76707],[-122.47469,37.71401],[-122.43866,37.7013],[-122.42456,37.69744],[-122.36127,37.68002],[-122.3436,37.67544],[-122.31946,37.66913],[-122.27326,37.65688],[-122.23746,37.64766],[-122.20135,37.63865],[-122.18895,37.63547],[-122.15554,37.62591],[-122.138,37.61866],[-122.10883,37.60664],[-122.09152,37.59749],[-122.08234,37.58003],[-122.11442,37.55152],[-122.12499,37.55234],[-122.17726,37.55713],[-122.19964,37.56353],[-122.23753,37.57564],[-122.25946,37.58262],[-122.28966,37.59137],[-122.30052,37.5945],[-122.34294,37.60754],[-122.36325,37.61634]],"type":"LineString"}
}
