{
  "id": 2014436171,
  "type": "Feature",
  "properties": {
    "geom:area": 0,
    "geom:bbox": "-122.366440,37.628470,-121.260360,37.962820",
    "geom:latitude": 37.836639740565786,
    "geom:longitude": -121.82864325774553,
    "src:alt_label": "swim-takeoff",
    "src:geom": "swim",
    "swim:elevations": [
      91,
      339,
      609,
      920,
      973,
      1619,
      2192,
      2645,
      3150,
      3292,
      3359,
      3881,
      3961,
      4480,
      4797,
      5162,
      5310,
      5666,
      5699,
      6233,
      6402,
      6589,
      6683
    ],
    "swim:geom": "takeoff",
    "swim:timestamps": [
      1767099355,
      1767099371,
      1767099412,
      1767099447,
      1767099451,
      1767099498,
      1767099534,
      1767099566,
      1767099599,
      1767099623,
      1767099635,
      1767099687,
      1767099695,
      1767099742,
      1767099774,
      1767099808,
      1767099821,
      1767099867,
      1767099871,
      1767099928,
      1767099955,
      1767099983,
      1767099996
    ],
    "wof:geomhash": "5b91c555cb8b459a7b421518b67defbd",
    "wof:id": 2014436171,
    "wof:repo": "sfomuseum-data-flights-2025-12"
  },
  "bbox": [
    -122.36644,
    37.62847,
    -121.26036,
    37.96282
  ],
  "geometry": {"coordinates":[[-122.36644,37.62847],[-122.35839,37.63891],[-122.32006,37.66048],[-122.27883,37.68385],[-122.27381,37.68674],[-122.2112,37.71976],[-122.16112,37.74543],[-122.11646,37.76848],[-122.07175,37.79135],[-122.03691,37.80924],[-122.01781,37.81827],[-121.92006,37.84182],[-121.9045,37.8448],[-121.8122,37.86191],[-121.74585,37.87423],[-121.67643,37.88697],[-121.64765,37.89231],[-121.55005,37.9103],[-121.54139,37.91188],[-121.41577,37.93473],[-121.35589,37.94547],[-121.29288,37.95688],[-121.26036,37.96282]],"type":"LineString"}
}
