{
  "id": 2014407437,
  "type": "Feature",
  "properties": {
    "geom:area": 0,
    "geom:bbox": "-122.363280,36.753110,-121.896830,37.613220",
    "geom:latitude": 37.22947886116076,
    "geom:longitude": -122.07773929464742,
    "src:alt_label": "swim-approach",
    "src:geom": "swim",
    "swim:elevations": [
      5490,
      5345,
      4988,
      4814,
      4691,
      4490,
      4257,
      4136,
      3905,
      3661,
      3451,
      3267,
      3185,
      3069,
      2866,
      2734,
      2646,
      2320,
      2135,
      2003,
      1708,
      1577,
      1459,
      1227,
      1175,
      913,
      794,
      670,
      547,
      458,
      258,
      211,
      36,
      271
    ],
    "swim:geom": "approach",
    "swim:timestamps": [
      1766876754,
      1766876776,
      1766876812,
      1766876833,
      1766876852,
      1766876876,
      1766876906,
      1766876924,
      1766876953,
      1766876985,
      1766877023,
      1766877049,
      1766877064,
      1766877082,
      1766877114,
      1766877139,
      1766877152,
      1766877202,
      1766877230,
      1766877251,
      1766877296,
      1766877320,
      1766877343,
      1766877383,
      1766877395,
      1766877448,
      1766877476,
      1766877501,
      1766877526,
      1766877547,
      1766877598,
      1766877612,
      1766877658,
      1766877670
    ],
    "wof:geomhash": "1b510667a210c57d827282e3a08f8c02",
    "wof:id": 2014407437,
    "wof:repo": "sfomuseum-data-flights-2025-12"
  },
  "bbox": [
    -122.36328,
    36.75311,
    -121.89683,
    37.61322
  ],
  "geometry": {"coordinates":[[-121.89683,36.75311],[-121.90608,36.78375],[-121.92006,36.83371],[-121.92785,36.86206],[-121.93459,36.8871],[-121.94308,36.91714],[-121.9547,36.95583],[-121.96353,36.97804],[-121.97731,37.01322],[-121.99205,37.05193],[-122.00945,37.09635],[-122.02086,37.12571],[-122.02747,37.14257],[-122.03528,37.16241],[-122.04912,37.19773],[-122.05937,37.22434],[-122.06436,37.23737],[-122.08633,37.2926],[-122.09871,37.32359],[-122.10748,37.34644],[-122.12578,37.39451],[-122.1342,37.41955],[-122.14189,37.44252],[-122.15528,37.48073],[-122.15923,37.49205],[-122.18033,37.53643],[-122.20749,37.54813],[-122.23114,37.5583],[-122.25436,37.56802],[-122.27206,37.57546],[-122.31026,37.59151],[-122.32058,37.59589],[-122.35403,37.6099],[-122.36328,37.61322]],"type":"LineString"}
}
