{
  "id": 2014415783,
  "type": "Feature",
  "properties": {
    "geom:area": 0,
    "geom:bbox": "-122.355760,36.717960,-121.875370,37.612950",
    "geom:latitude": 37.20468719419927,
    "geom:longitude": -122.068156970319,
    "src:alt_label": "swim-approach",
    "src:geom": "swim",
    "swim:elevations": [
      5692,
      5531,
      5357,
      4862,
      4515,
      4268,
      4043,
      3670,
      3477,
      3057,
      2881,
      2768,
      2580,
      2529,
      2421,
      2139,
      2014,
      1741,
      1532,
      1523,
      1524,
      1524,
      1325,
      1124,
      944,
      772,
      495,
      254,
      122,
      0
    ],
    "swim:geom": "approach",
    "swim:timestamps": [
      1766960573,
      1766960589,
      1766960627,
      1766960663,
      1766960693,
      1766960714,
      1766960734,
      1766960771,
      1766960792,
      1766960840,
      1766960869,
      1766960892,
      1766960937,
      1766960948,
      1766960985,
      1766961021,
      1766961043,
      1766961083,
      1766961115,
      1766961122,
      1766961147,
      1766961171,
      1766961205,
      1766961230,
      1766961260,
      1766961285,
      1766961316,
      1766961353,
      1766961386,
      1766961407
    ],
    "wof:geomhash": "b0491e289973d9f904c72776fcb17bef",
    "wof:id": 2014415783,
    "wof:repo": "sfomuseum-data-flights-2025-12"
  },
  "bbox": [
    -122.35576,
    36.71796,
    -121.87537,
    37.61295
  ],
  "geometry": {"coordinates":[[-121.87537,36.71796],[-121.88989,36.74012],[-121.90885,36.79449],[-121.92362,36.84793],[-121.93654,36.89388],[-121.94567,36.92633],[-121.95529,36.95758],[-121.97718,37.01302],[-121.98919,37.04434],[-122.01597,37.11336],[-122.03134,37.1529],[-122.04327,37.1829],[-122.0641,37.23578],[-122.06891,37.24828],[-122.08502,37.28934],[-122.10083,37.32995],[-122.11053,37.3547],[-122.12688,37.39778],[-122.13835,37.43252],[-122.14108,37.44066],[-122.15174,37.46708],[-122.16327,37.49148],[-122.19054,37.51834],[-122.21131,37.53702],[-122.23426,37.55715],[-122.25539,37.57016],[-122.28323,37.58185],[-122.31316,37.59496],[-122.33928,37.60611],[-122.35576,37.61295]],"type":"LineString"}
}
