{
  "id": 2014429867,
  "type": "Feature",
  "properties": {
    "geom:area": 0,
    "geom:bbox": "-122.386030,37.632780,-121.260890,37.996100",
    "geom:latitude": 37.93546492398358,
    "geom:longitude": -121.94498949398837,
    "src:alt_label": "swim-takeoff",
    "src:geom": "swim",
    "swim:elevations": [
      274,
      452,
      642,
      796,
      924,
      1492,
      2008,
      2361,
      2411,
      2900,
      3187,
      3291,
      3554,
      3886,
      4009,
      4152,
      4491,
      4911,
      5094,
      5441,
      5659,
      5911,
      6080,
      6211,
      6582,
      6659,
      6811,
      7063,
      7249
    ],
    "swim:geom": "takeoff",
    "swim:timestamps": [
      1767075718,
      1767075739,
      1767075772,
      1767075799,
      1767075816,
      1767075855,
      1767075892,
      1767075928,
      1767075934,
      1767075973,
      1767076000,
      1767076020,
      1767076068,
      1767076105,
      1767076114,
      1767076129,
      1767076156,
      1767076192,
      1767076213,
      1767076249,
      1767076284,
      1767076315,
      1767076337,
      1767076356,
      1767076408,
      1767076420,
      1767076440,
      1767076480,
      1767076515
    ],
    "wof:geomhash": "b961fae929ca443d564c862248bc4d87",
    "wof:id": 2014429867,
    "wof:repo": "sfomuseum-data-flights-2025-12"
  },
  "bbox": [
    -122.38603,
    37.63278,
    -121.26089,
    37.9961
  ],
  "geometry": {"coordinates":[[-122.36328,37.63278],[-122.35003,37.64505],[-122.32506,37.66583],[-122.3094,37.69042],[-122.31406,37.70915],[-122.33978,37.75281],[-122.36218,37.79517],[-122.38351,37.83882],[-122.38603,37.84672],[-122.38502,37.90047],[-122.36982,37.93473],[-122.34094,37.95006],[-122.251,37.96691],[-122.17705,37.98161],[-122.15855,37.9852],[-122.12687,37.98804],[-122.0694,37.98838],[-121.99204,37.9885],[-121.94766,37.98876],[-121.87055,37.98922],[-121.79469,37.98964],[-121.72655,37.98997],[-121.67491,37.9901],[-121.63275,37.99024],[-121.51496,37.99072],[-121.48707,37.99078],[-121.43885,37.99092],[-121.34466,37.99102],[-121.26089,37.9961]],"type":"LineString"}
}
