{
  "id": 2014443185,
  "type": "Feature",
  "properties": {
    "geom:area": 0,
    "geom:bbox": "-122.360870,36.719590,-121.876650,37.613060",
    "geom:latitude": 37.21065004978272,
    "geom:longitude": -122.07018329466922,
    "src:alt_label": "swim-approach",
    "src:geom": "swim",
    "swim:elevations": [
      5304,
      4924,
      4640,
      4390,
      4252,
      3731,
      3640,
      3369,
      3108,
      2840,
      2818,
      2538,
      2415,
      2214,
      1963,
      1765,
      1632,
      1366,
      1019,
      979,
      672,
      545,
      397,
      293,
      107,
      0
    ],
    "swim:geom": "approach",
    "swim:timestamps": [
      1767185630,
      1767185666,
      1767185697,
      1767185722,
      1767185735,
      1767185786,
      1767185797,
      1767185824,
      1767185852,
      1767185906,
      1767185922,
      1767185962,
      1767185992,
      1767186018,
      1767186052,
      1767186074,
      1767186092,
      1767186128,
      1767186177,
      1767186183,
      1767186235,
      1767186259,
      1767186285,
      1767186310,
      1767186357,
      1767186381
    ],
    "wof:geomhash": "b9e0a89e5d73ff817ed532d7b1126587",
    "wof:id": 2014443185,
    "wof:repo": "sfomuseum-data-flights-2025-12"
  },
  "bbox": [
    -122.36087,
    36.71959,
    -121.87665,
    37.61306
  ],
  "geometry": {"coordinates":[[-121.87665,36.71959],[-121.90534,36.78199],[-121.92108,36.83707],[-121.93309,36.88019],[-121.93965,36.90403],[-121.96793,36.98958],[-121.97455,37.00677],[-121.9914,37.04982],[-122.00884,37.09475],[-122.03935,37.17258],[-122.04764,37.19378],[-122.0679,37.24577],[-122.08311,37.28439],[-122.0959,37.31674],[-122.11321,37.3604],[-122.12334,37.38689],[-122.13107,37.41042],[-122.14644,37.45566],[-122.1682,37.51848],[-122.17103,37.52577],[-122.2302,37.55739],[-122.25513,37.56848],[-122.28068,37.57906],[-122.30383,37.58884],[-122.34224,37.60499],[-122.36087,37.61306]],"type":"LineString"}
}
