{
  "id": 2014417119,
  "type": "Feature",
  "properties": {
    "geom:area": 0,
    "geom:bbox": "-122.361660,37.491300,-121.250610,37.614380",
    "geom:latitude": 37.546682602992895,
    "geom:longitude": -121.81093841336089,
    "src:alt_label": "swim-approach",
    "src:geom": "swim",
    "swim:elevations": [
      4621,
      4551,
      4325,
      4073,
      3844,
      3571,
      3438,
      3350,
      3251,
      3028,
      2867,
      2714,
      2486,
      2423,
      2438,
      2214,
      2073,
      2039,
      1831,
      1751,
      1388,
      1226,
      1090,
      918,
      895,
      735,
      632,
      520,
      375,
      249,
      112,
      0
    ],
    "swim:geom": "approach",
    "swim:timestamps": [
      1766968166,
      1766968172,
      1766968196,
      1766968226,
      1766968253,
      1766968287,
      1766968302,
      1766968314,
      1766968325,
      1766968355,
      1766968372,
      1766968384,
      1766968407,
      1766968425,
      1766968454,
      1766968496,
      1766968525,
      1766968531,
      1766968579,
      1766968600,
      1766968630,
      1766968657,
      1766968690,
      1766968735,
      1766968750,
      1766968777,
      1766968798,
      1766968816,
      1766968849,
      1766968879,
      1766968912,
      1766968942
    ],
    "wof:geomhash": "09020418574a579028fbc48ec8342740",
    "wof:id": 2014417119,
    "wof:repo": "sfomuseum-data-flights-2025-12"
  },
  "bbox": [
    -122.36166,
    37.4913,
    -121.25061,
    37.61438
  ],
  "geometry": {"coordinates":[[-121.25061,37.59453],[-121.26406,37.59268],[-121.31728,37.58581],[-121.38155,37.578],[-121.4369,37.572],[-121.50362,37.56417],[-121.53174,37.56097],[-121.5541,37.55859],[-121.57435,37.55644],[-121.62912,37.54969],[-121.65868,37.54271],[-121.67919,37.53751],[-121.71693,37.52829],[-121.74582,37.52148],[-121.79068,37.51092],[-121.85457,37.49568],[-121.89915,37.4913],[-121.90837,37.49166],[-121.98052,37.4938],[-122.00957,37.50174],[-122.04801,37.51431],[-122.08155,37.52527],[-122.11914,37.53728],[-122.16865,37.5534],[-122.18489,37.55861],[-122.21481,37.56818],[-122.23697,37.57529],[-122.25558,37.58139],[-122.2867,37.59049],[-122.31198,37.59799],[-122.33892,37.606],[-122.36166,37.61438]],"type":"LineString"}
}
