{
  "id": 2014424441,
  "type": "Feature",
  "properties": {
    "geom:area": 0,
    "geom:bbox": "-122.352740,37.491430,-121.248490,37.611680",
    "geom:latitude": 37.54647772000841,
    "geom:longitude": -121.8054120642156,
    "src:alt_label": "swim-approach",
    "src:geom": "swim",
    "swim:elevations": [
      4507,
      4147,
      3833,
      3737,
      3310,
      3111,
      3075,
      2858,
      2663,
      2517,
      2466,
      2161,
      2062,
      1888,
      1857,
      1742,
      1520,
      1410,
      1165,
      1079,
      1028,
      946,
      792,
      669,
      543,
      409,
      323,
      209,
      49
    ],
    "swim:geom": "approach",
    "swim:timestamps": [
      1767029982,
      1767030021,
      1767030053,
      1767030064,
      1767030109,
      1767030140,
      1767030161,
      1767030203,
      1767030228,
      1767030255,
      1767030273,
      1767030319,
      1767030336,
      1767030385,
      1767030396,
      1767030420,
      1767030460,
      1767030484,
      1767030534,
      1767030555,
      1767030567,
      1767030586,
      1767030622,
      1767030647,
      1767030679,
      1767030708,
      1767030728,
      1767030750,
      1767030789
    ],
    "wof:geomhash": "0b70d6890597e45546d4e48926a9df2e",
    "wof:id": 2014424441,
    "wof:repo": "sfomuseum-data-flights-2025-12"
  },
  "bbox": [
    -122.35274,
    37.49143,
    -121.24849,
    37.61168
  ],
  "geometry": {"coordinates":[[-121.24849,37.59474],[-121.33198,37.58489],[-121.40173,37.57692],[-121.42305,37.57434],[-121.51749,37.56329],[-121.57915,37.55611],[-121.61814,37.5515],[-121.68908,37.53565],[-121.73185,37.52521],[-121.77495,37.5149],[-121.80211,37.50835],[-121.87033,37.4928],[-121.89605,37.49143],[-121.96471,37.49325],[-121.9797,37.49419],[-122.00822,37.50112],[-122.05177,37.51526],[-122.07676,37.52366],[-122.12441,37.5389],[-122.14291,37.54492],[-122.15362,37.54843],[-122.16998,37.55372],[-122.20273,37.56424],[-122.22608,37.572],[-122.25529,37.58134],[-122.28164,37.58884],[-122.30021,37.59433],[-122.32003,37.60027],[-122.35274,37.61168]],"type":"LineString"}
}
