{
  "id": 2014407465,
  "type": "Feature",
  "properties": {
    "geom:area": 0,
    "geom:bbox": "-123.502850,37.260560,-122.120400,37.609330",
    "geom:latitude": 37.35631147596211,
    "geom:longitude": -122.70170448826259,
    "src:alt_label": "swim-approach",
    "src:geom": "swim",
    "swim:elevations": [
      6214,
      5908,
      5721,
      5589,
      5490,
      5003,
      4678,
      4246,
      4171,
      4008,
      3730,
      3373,
      3263,
      3047,
      3048,
      3048,
      3048,
      3048,
      2991,
      2923,
      2834,
      2774,
      2703,
      2439,
      2432,
      2302,
      2024,
      1945,
      1784,
      1541,
      1464,
      1330,
      1295,
      1245,
      1126,
      1035,
      943,
      889,
      764,
      715,
      530,
      394,
      217,
      157,
      57
    ],
    "swim:geom": "approach",
    "swim:timestamps": [
      1766875816,
      1766875847,
      1766875865,
      1766875880,
      1766875892,
      1766875939,
      1766875965,
      1766876006,
      1766876012,
      1766876030,
      1766876058,
      1766876092,
      1766876104,
      1766876131,
      1766876162,
      1766876200,
      1766876221,
      1766876265,
      1766876307,
      1766876322,
      1766876358,
      1766876380,
      1766876401,
      1766876456,
      1766876466,
      1766876484,
      1766876514,
      1766876533,
      1766876552,
      1766876582,
      1766876606,
      1766876636,
      1766876645,
      1766876651,
      1766876684,
      1766876715,
      1766876757,
      1766876788,
      1766876812,
      1766876824,
      1766876867,
      1766876895,
      1766876936,
      1766876953,
      1766876979
    ],
    "wof:geomhash": "18a5c0790fae2a091c26d300ff1f4760",
    "wof:id": 2014407465,
    "wof:repo": "sfomuseum-data-flights-2025-12"
  },
  "bbox": [
    -123.50285,
    37.26056,
    -122.1204,
    37.60933
  ],
  "geometry": {"coordinates":[[-123.50285,37.30557],[-123.43557,37.30062],[-123.3979,37.29784],[-123.3669,37.29563],[-123.34244,37.29378],[-123.24726,37.28694],[-123.19223,37.28269],[-123.10765,37.27631],[-123.09537,37.27534],[-123.05898,37.2725],[-123.00395,37.26846],[-122.93584,37.26317],[-122.91241,37.26138],[-122.86022,37.26056],[-122.80357,37.27162],[-122.73629,37.28707],[-122.69843,37.29598],[-122.61786,37.31494],[-122.54639,37.33151],[-122.52258,37.33703],[-122.47013,37.34917],[-122.43962,37.35615],[-122.41168,37.36258],[-122.33945,37.37915],[-122.32723,37.382],[-122.30455,37.38729],[-122.26566,37.39612],[-122.24171,37.40149],[-122.21784,37.40673],[-122.18082,37.41513],[-122.15257,37.42153],[-122.1275,37.43697],[-122.12253,37.44326],[-122.1204,37.44785],[-122.12815,37.47454],[-122.13944,37.49806],[-122.16175,37.52596],[-122.18805,37.54005],[-122.21015,37.54947],[-122.22027,37.55371],[-122.26057,37.57062],[-122.28486,37.58079],[-122.31876,37.59493],[-122.33207,37.60051],[-122.35254,37.60933]],"type":"LineString"}
}
