{
  "id": 2014447543,
  "type": "Feature",
  "properties": {
    "geom:area": 0,
    "geom:bbox": "-122.364610,37.630920,-121.262830,37.962430",
    "geom:latitude": 37.83700119579573,
    "geom:longitude": -121.82827224372741,
    "src:alt_label": "swim-takeoff",
    "src:geom": "swim",
    "swim:elevations": [
      183,
      465,
      684,
      1106,
      1181,
      1736,
      1954,
      2198,
      2374,
      3324,
      3512,
      3881,
      4279,
      4948,
      5059,
      5515,
      5789,
      5914,
      6184,
      6549,
      6685,
      6917,
      7010,
      7010
    ],
    "swim:geom": "takeoff",
    "swim:timestamps": [
      1767208708,
      1767208729,
      1767208750,
      1767208789,
      1767208801,
      1767208852,
      1767208866,
      1767208881,
      1767208890,
      1767208948,
      1767208969,
      1767208996,
      1767209025,
      1767209068,
      1767209076,
      1767209112,
      1767209146,
      1767209180,
      1767209207,
      1767209248,
      1767209267,
      1767209294,
      1767209331,
      1767209342
    ],
    "wof:geomhash": "0e9aea9e1f522cad14e0c049e3aaccc8",
    "wof:id": 2014447543,
    "wof:repo": "sfomuseum-data-flights-2025-12"
  },
  "bbox": [
    -122.36461,
    37.63092,
    -121.26283,
    37.96243
  ],
  "geometry": {"coordinates":[[-122.36461,37.63092],[-122.35243,37.64209],[-122.33601,37.6509],[-122.30365,37.66864],[-122.29177,37.67532],[-122.22876,37.71028],[-122.20879,37.7206],[-122.18766,37.7313],[-122.17488,37.73788],[-122.09228,37.7805],[-122.05947,37.79763],[-122.01538,37.81967],[-121.96206,37.83464],[-121.8765,37.85014],[-121.86145,37.85285],[-121.79044,37.86597],[-121.72147,37.8788],[-121.64806,37.89219],[-121.58552,37.90384],[-121.49058,37.92105],[-121.4453,37.92935],[-121.38024,37.9412],[-121.29005,37.95751],[-121.26283,37.96243]],"type":"LineString"}
}
