{
  "id": 2014430325,
  "type": "Feature",
  "properties": {
    "geom:area": 0,
    "geom:bbox": "-122.366440,37.628530,-121.246980,37.964970",
    "geom:latitude": 37.8382657371385,
    "geom:longitude": -121.82178054621538,
    "src:alt_label": "swim-takeoff",
    "src:geom": "swim",
    "swim:elevations": [
      152,
      460,
      836,
      1051,
      1354,
      1598,
      1743,
      1976,
      2486,
      2574,
      3216,
      3372,
      3627,
      3877,
      4029,
      4699,
      4768,
      5451,
      5600,
      6122,
      6168,
      6418,
      6767,
      7100,
      7409,
      7628,
      7740
    ],
    "swim:geom": "takeoff",
    "swim:timestamps": [
      1767037503,
      1767037533,
      1767037582,
      1767037599,
      1767037637,
      1767037662,
      1767037674,
      1767037699,
      1767037735,
      1767037741,
      1767037797,
      1767037819,
      1767037839,
      1767037858,
      1767037868,
      1767037918,
      1767037923,
      1767037976,
      1767037993,
      1767038036,
      1767038040,
      1767038063,
      1767038097,
      1767038128,
      1767038158,
      1767038180,
      1767038193
    ],
    "wof:geomhash": "4b2c5c4b1aecf525e96db993f76e073f",
    "wof:id": 2014430325,
    "wof:repo": "sfomuseum-data-flights-2025-12"
  },
  "bbox": [
    -122.36644,
    37.62853,
    -121.24698,
    37.96497
  ],
  "geometry": {"coordinates":[[-122.36644,37.62853],[-122.34702,37.64465],[-122.30202,37.66971],[-122.28393,37.68016],[-122.24053,37.70484],[-122.2098,37.72053],[-122.19304,37.72911],[-122.15988,37.74604],[-122.10926,37.77223],[-122.10096,37.77651],[-122.02371,37.81609],[-121.98793,37.8286],[-121.94989,37.83606],[-121.91617,37.84252],[-121.89668,37.84617],[-121.80472,37.8633],[-121.79498,37.86509],[-121.69161,37.88422],[-121.65908,37.89021],[-121.57242,37.90611],[-121.5649,37.90752],[-121.51834,37.91599],[-121.44812,37.9288],[-121.38347,37.94051],[-121.32065,37.95195],[-121.27522,37.96017],[-121.24698,37.96497]],"type":"LineString"}
}
