{
  "id": 2014435115,
  "type": "Feature",
  "properties": {
    "geom:area": 0,
    "geom:bbox": "-122.366930,36.747340,-121.892530,37.614030",
    "geom:latitude": 37.225594808644416,
    "geom:longitude": -122.07750954958826,
    "src:alt_label": "swim-approach",
    "src:geom": "swim",
    "swim:elevations": [
      4791,
      4743,
      4296,
      4117,
      3982,
      3680,
      3510,
      3359,
      3162,
      3138,
      3027,
      2798,
      2654,
      2439,
      2397,
      2113,
      1918,
      1662,
      1427,
      1141,
      1065,
      801,
      710,
      610,
      488,
      282,
      255,
      190,
      47,
      700
    ],
    "swim:geom": "approach",
    "swim:timestamps": [
      1767127318,
      1767127325,
      1767127378,
      1767127400,
      1767127416,
      1767127454,
      1767127474,
      1767127492,
      1767127521,
      1767127533,
      1767127569,
      1767127604,
      1767127622,
      1767127673,
      1767127688,
      1767127731,
      1767127748,
      1767127778,
      1767127820,
      1767127854,
      1767127871,
      1767127918,
      1767127940,
      1767127959,
      1767127988,
      1767128028,
      1767128036,
      1767128048,
      1767128087,
      1767128102
    ],
    "wof:geomhash": "14f5e1d2462c50626fcbf7dfd795cab1",
    "wof:id": 2014435115,
    "wof:repo": "sfomuseum-data-flights-2025-12"
  },
  "bbox": [
    -122.36693,
    36.74734,
    -121.89253,
    37.61403
  ],
  "geometry": {"coordinates":[[-121.89253,36.74734],[-121.89731,36.75806],[-121.9237,36.84653],[-121.93353,36.88275],[-121.94082,36.90872],[-121.95966,36.96916],[-121.9721,37.00142],[-121.98316,37.02938],[-122.00057,37.07377],[-122.00739,37.09119],[-122.02742,37.14243],[-122.04624,37.1906],[-122.05575,37.21482],[-122.0824,37.28282],[-122.08999,37.30196],[-122.11168,37.35642],[-122.11985,37.3776],[-122.13232,37.41501],[-122.14964,37.46232],[-122.16792,37.49546],[-122.1782,37.50976],[-122.20622,37.54758],[-122.22824,37.55777],[-122.2484,37.5647],[-122.27649,37.57733],[-122.30945,37.59103],[-122.31583,37.59368],[-122.32485,37.59754],[-122.35403,37.60992],[-122.36693,37.61403]],"type":"LineString"}
}
