{
  "id": 2014426317,
  "type": "Feature",
  "properties": {
    "geom:area": 0,
    "geom:bbox": "-122.360740,37.492230,-121.248050,37.614930",
    "geom:latitude": 37.54699926805569,
    "geom:longitude": -121.80937889529285,
    "src:alt_label": "swim-approach",
    "src:geom": "swim",
    "swim:elevations": [
      4402,
      4107,
      3812,
      3624,
      3484,
      3194,
      3067,
      3009,
      2756,
      2669,
      2453,
      2219,
      2166,
      1982,
      1864,
      1777,
      1736,
      1511,
      1294,
      1251,
      1018,
      883,
      777,
      704,
      667,
      514,
      323,
      214,
      57,
      0
    ],
    "swim:geom": "approach",
    "swim:timestamps": [
      1766997171,
      1766997207,
      1766997238,
      1766997261,
      1766997276,
      1766997307,
      1766997352,
      1766997367,
      1766997405,
      1766997421,
      1766997465,
      1766997507,
      1766997514,
      1766997557,
      1766997587,
      1766997608,
      1766997614,
      1766997649,
      1766997684,
      1766997692,
      1766997731,
      1766997755,
      1766997770,
      1766997788,
      1766997794,
      1766997824,
      1766997865,
      1766997892,
      1766997923,
      1766997939
    ],
    "wof:geomhash": "9f55a624ccd4a071bd72d2b4299e32e4",
    "wof:id": 2014426317,
    "wof:repo": "sfomuseum-data-flights-2025-12"
  },
  "bbox": [
    -122.36074,
    37.49223,
    -121.24805,
    37.61493
  ],
  "geometry": {"coordinates":[[-121.24805,37.59475],[-121.3264,37.58544],[-121.39387,37.5778],[-121.44048,37.57235],[-121.47185,37.5687],[-121.53713,37.56108],[-121.62118,37.55101],[-121.64651,37.54554],[-121.70882,37.53083],[-121.73333,37.525],[-121.80219,37.50833],[-121.86207,37.49402],[-121.87297,37.49245],[-121.93298,37.49223],[-121.97323,37.49356],[-122.00034,37.49862],[-122.0079,37.50113],[-122.05322,37.51575],[-122.09732,37.53005],[-122.10668,37.53313],[-122.1548,37.54887],[-122.18443,37.55829],[-122.20154,37.56378],[-122.22123,37.57025],[-122.22754,37.5723],[-122.25861,37.58231],[-122.29687,37.59357],[-122.32092,37.60059],[-122.34819,37.60966],[-122.36074,37.61493]],"type":"LineString"}
}
