{
  "id": 2014439493,
  "type": "Feature",
  "properties": {
    "geom:area": 0,
    "geom:bbox": "-122.364470,37.631640,-121.246340,37.957460",
    "geom:latitude": 37.81720594936593,
    "geom:longitude": -121.8143310364183,
    "src:alt_label": "swim-takeoff",
    "src:geom": "swim",
    "swim:elevations": [
      152,
      704,
      912,
      1112,
      1212,
      1445,
      1939,
      2216,
      2340,
      2725,
      3281,
      3475,
      3636,
      3662,
      3766,
      3843,
      4211,
      4257,
      4666,
      4932,
      5223,
      5387,
      5585,
      5640
    ],
    "swim:geom": "takeoff",
    "swim:timestamps": [
      1767130423,
      1767130465,
      1767130494,
      1767130518,
      1767130536,
      1767130565,
      1767130613,
      1767130640,
      1767130652,
      1767130683,
      1767130731,
      1767130764,
      1767130798,
      1767130804,
      1767130828,
      1767130843,
      1767130886,
      1767130892,
      1767130934,
      1767130967,
      1767131006,
      1767131026,
      1767131063,
      1767131072
    ],
    "wof:geomhash": "5bcadfc60060619d4ee23b8b1cbdfc96",
    "wof:id": 2014439493,
    "wof:repo": "sfomuseum-data-flights-2025-12"
  },
  "bbox": [
    -122.36447,
    37.63164,
    -121.24634,
    37.95746
  ],
  "geometry": {"coordinates":[[-122.36447,37.63164],[-122.33429,37.65328],[-122.30931,37.66635],[-122.28842,37.67855],[-122.27077,37.68843],[-122.23892,37.70499],[-122.18002,37.7331],[-122.13961,37.74271],[-122.12116,37.74725],[-122.07208,37.76001],[-121.99363,37.77942],[-121.93624,37.79319],[-121.87051,37.80876],[-121.85848,37.81169],[-121.81007,37.82326],[-121.77773,37.83109],[-121.68021,37.85474],[-121.66663,37.85801],[-121.57182,37.8806],[-121.49574,37.89855],[-121.40471,37.92006],[-121.35654,37.93144],[-121.26822,37.95226],[-121.24634,37.95746]],"type":"LineString"}
}
