{
  "id": 2014417913,
  "type": "Feature",
  "properties": {
    "geom:area": 0,
    "geom:bbox": "-122.358100,37.492350,-121.242360,37.613840",
    "geom:latitude": 37.54695177986527,
    "geom:longitude": -121.80513517757592,
    "src:alt_label": "swim-approach",
    "src:geom": "swim",
    "swim:elevations": [
      4729,
      4430,
      4328,
      4015,
      3561,
      3515,
      3216,
      3185,
      2856,
      2692,
      2596,
      2527,
      2315,
      2172,
      2024,
      1856,
      1856,
      1505,
      1215,
      1046,
      1035,
      899,
      762,
      619,
      549,
      336,
      210,
      110,
      63,
      0
    ],
    "swim:geom": "approach",
    "swim:timestamps": [
      1766910739,
      1766910769,
      1766910783,
      1766910815,
      1766910866,
      1766910872,
      1766910924,
      1766910938,
      1766910983,
      1766911007,
      1766911020,
      1766911046,
      1766911078,
      1766911099,
      1766911135,
      1766911167,
      1766911170,
      1766911219,
      1766911255,
      1766911287,
      1766911290,
      1766911321,
      1766911372,
      1766911404,
      1766911421,
      1766911467,
      1766911497,
      1766911527,
      1766911538,
      1766911551
    ],
    "wof:geomhash": "16863bf8681c2e20385ccce2978ae634",
    "wof:id": 2014417913,
    "wof:repo": "sfomuseum-data-flights-2025-12"
  },
  "bbox": [
    -122.3581,
    37.49235,
    -121.24236,
    37.61384
  ],
  "geometry": {"coordinates":[[-121.24236,37.5953],[-121.30242,37.58753],[-121.32832,37.58477],[-121.39037,37.5778],[-121.4864,37.56677],[-121.49852,37.56537],[-121.59277,37.55442],[-121.61593,37.55166],[-121.69034,37.53469],[-121.72779,37.52593],[-121.7492,37.52089],[-121.78923,37.51124],[-121.83654,37.4999],[-121.86793,37.49263],[-121.9214,37.49235],[-121.96962,37.49333],[-121.97419,37.49348],[-122.03862,37.51137],[-122.08271,37.52539],[-122.1205,37.53763],[-122.12388,37.53869],[-122.15696,37.54934],[-122.20534,37.56504],[-122.23624,37.57505],[-122.25289,37.58042],[-122.29354,37.59254],[-122.31758,37.59963],[-122.33999,37.60641],[-122.34841,37.60992],[-122.3581,37.61384]],"type":"LineString"}
}
