{
  "id": 2014409593,
  "type": "Feature",
  "properties": {
    "geom:area": 0,
    "geom:bbox": "-123.121580,37.405670,-122.143850,38.484420",
    "geom:latitude": 37.84690585126867,
    "geom:longitude": -122.57839185404202,
    "src:alt_label": "swim-approach",
    "src:geom": "swim",
    "swim:elevations": [
      7051,
      6805,
      6514,
      6471,
      6338,
      6270,
      5960,
      5747,
      5540,
      5410,
      5115,
      5049,
      4660,
      4572,
      4247,
      4181,
      3893,
      3660,
      3571,
      3523,
      3440,
      3394,
      3353,
      3353,
      3353,
      3319,
      3063,
      2906,
      2447,
      2241,
      2125,
      1890,
      1717,
      1597,
      1527,
      1433,
      1306,
      1126,
      964,
      877,
      836,
      758,
      685,
      507,
      430,
      353,
      235,
      56,
      0
    ],
    "swim:geom": "approach",
    "swim:timestamps": [
      1766870787,
      1766870811,
      1766870844,
      1766870850,
      1766870871,
      1766870883,
      1766870932,
      1766870962,
      1766870993,
      1766871009,
      1766871056,
      1766871062,
      1766871113,
      1766871125,
      1766871167,
      1766871173,
      1766871200,
      1766871222,
      1766871231,
      1766871240,
      1766871267,
      1766871285,
      1766871327,
      1766871357,
      1766871383,
      1766871405,
      1766871435,
      1766871453,
      1766871508,
      1766871536,
      1766871549,
      1766871590,
      1766871614,
      1766871633,
      1766871654,
      1766871676,
      1766871702,
      1766871742,
      1766871768,
      1766871789,
      1766871796,
      1766871834,
      1766871858,
      1766871897,
      1766871918,
      1766871938,
      1766871968,
      1766872013,
      1766872022
    ],
    "wof:geomhash": "02fb3b06d24e58851d8a749885adcce4",
    "wof:id": 2014409593,
    "wof:repo": "sfomuseum-data-flights-2025-12"
  },
  "bbox": [
    -123.12158,
    37.40567,
    -122.14385,
    38.48442
  ],
  "geometry": {"coordinates":[[-123.12158,38.48442],[-123.09126,38.44387],[-123.04992,38.3909],[-123.04241,38.38117],[-123.01623,38.34731],[-123.00151,38.32826],[-122.94209,38.25123],[-122.90642,38.20442],[-122.87045,38.15754],[-122.85192,38.13343],[-122.7964,38.06099],[-122.78945,38.05186],[-122.7316,37.97632],[-122.71835,37.95863],[-122.67057,37.89881],[-122.66307,37.89074],[-122.62703,37.85587],[-122.59714,37.82746],[-122.58523,37.81621],[-122.57341,37.80509],[-122.5392,37.77288],[-122.51777,37.75266],[-122.46967,37.7074],[-122.43536,37.67521],[-122.40721,37.64868],[-122.38417,37.62693],[-122.35652,37.59724],[-122.34435,37.57728],[-122.30825,37.51568],[-122.2911,37.48583],[-122.28308,37.47211],[-122.25028,37.43304],[-122.22065,37.41959],[-122.19669,37.40954],[-122.16879,37.40567],[-122.147,37.41785],[-122.14385,37.44272],[-122.15764,37.47758],[-122.16761,37.49981],[-122.17499,37.51625],[-122.17758,37.52182],[-122.20002,37.54568],[-122.22395,37.55403],[-122.25987,37.57009],[-122.27724,37.57735],[-122.29289,37.58411],[-122.31638,37.59405],[-122.35132,37.60876],[-122.35819,37.61159]],"type":"LineString"}
}
