{
  "id": 2014410431,
  "type": "Feature",
  "properties": {
    "geom:area": 0,
    "geom:bbox": "-122.386160,37.642680,-121.264580,38.413420",
    "geom:latitude": 38.08688520695954,
    "geom:longitude": -121.92958773584962,
    "src:alt_label": "swim-takeoff",
    "src:geom": "swim",
    "swim:elevations": [
      428,
      547,
      671,
      1103,
      1295,
      1921,
      2315,
      2611,
      2732,
      3107,
      3299,
      3507,
      3596,
      4152,
      4363,
      4661,
      5080,
      5431,
      5521,
      5871,
      6094,
      6228,
      6699,
      6764,
      6943,
      7074,
      7243,
      7533,
      7629,
      7710,
      7779,
      7957,
      8055
    ],
    "swim:geom": "takeoff",
    "swim:timestamps": [
      1766875847,
      1766875865,
      1766875883,
      1766875917,
      1766875935,
      1766875973,
      1766876000,
      1766876021,
      1766876030,
      1766876058,
      1766876086,
      1766876128,
      1766876137,
      1766876185,
      1766876206,
      1766876229,
      1766876270,
      1766876307,
      1766876322,
      1766876361,
      1766876389,
      1766876404,
      1766876456,
      1766876462,
      1766876487,
      1766876505,
      1766876529,
      1766876573,
      1766876591,
      1766876603,
      1766876615,
      1766876642,
      1766876660
    ],
    "wof:geomhash": "192f70123924b7c2a0a6804dd9a4f34b",
    "wof:id": 2014410431,
    "wof:repo": "sfomuseum-data-flights-2025-12"
  },
  "bbox": [
    -122.38616,
    37.64268,
    -121.26458,
    38.41342
  ],
  "geometry": {"coordinates":[[-122.35394,37.64268],[-122.34065,37.65375],[-122.32542,37.66647],[-122.3128,37.69964],[-122.32176,37.71921],[-122.34433,37.76165],[-122.35976,37.79196],[-122.37182,37.81588],[-122.37706,37.82624],[-122.38616,37.86018],[-122.38497,37.89851],[-122.34907,37.95359],[-122.33252,37.96074],[-122.24255,37.99742],[-122.20193,38.01395],[-122.15574,38.03253],[-122.07485,38.06488],[-121.99917,38.09505],[-121.96871,38.10722],[-121.88965,38.13872],[-121.83331,38.16117],[-121.80179,38.17369],[-121.69132,38.2174],[-121.67866,38.22239],[-121.62671,38.24294],[-121.58826,38.2581],[-121.53655,38.2785],[-121.44039,38.31622],[-121.40097,38.33255],[-121.3761,38.34507],[-121.35229,38.35898],[-121.29985,38.39158],[-121.26458,38.41342]],"type":"LineString"}
}
