{
  "id": 2014421731,
  "type": "Feature",
  "properties": {
    "geom:area": 0,
    "geom:bbox": "-122.372900,37.626500,-121.251310,37.977790",
    "geom:latitude": 37.88888658110411,
    "geom:longitude": -121.9166375024008,
    "src:alt_label": "swim-takeoff",
    "src:geom": "swim",
    "swim:elevations": [
      122,
      305,
      819,
      912,
      1137,
      1379,
      1922,
      2517,
      2631,
      3214,
      3357,
      3842,
      4167,
      4417,
      4725,
      5056,
      5415,
      5481,
      5870,
      5984,
      6228,
      6460,
      6714,
      6728,
      7046,
      7311,
      7586,
      7764,
      7847
    ],
    "swim:geom": "takeoff",
    "swim:timestamps": [
      1766991355,
      1766991366,
      1766991416,
      1766991433,
      1766991457,
      1766991488,
      1766991524,
      1766991562,
      1766991570,
      1766991616,
      1766991644,
      1766991689,
      1766991716,
      1766991741,
      1766991768,
      1766991797,
      1766991833,
      1766991850,
      1766991892,
      1766991903,
      1766991931,
      1766991958,
      1766991988,
      1766991991,
      1766992032,
      1766992069,
      1766992108,
      1766992129,
      1766992141
    ],
    "wof:geomhash": "0c7e61bbbd97b7f4b00157cb65c86912",
    "wof:id": 2014421731,
    "wof:repo": "sfomuseum-data-flights-2025-12"
  },
  "bbox": [
    -122.3729,
    37.6265,
    -121.25131,
    37.97779
  ],
  "geometry": {"coordinates":[[-122.36753,37.6265],[-122.36217,37.63403],[-122.33006,37.65997],[-122.31837,37.67151],[-122.30029,37.69177],[-122.31343,37.72415],[-122.34525,37.76267],[-122.36821,37.80865],[-122.3729,37.81831],[-122.35348,37.87065],[-122.30662,37.88119],[-122.22243,37.88974],[-122.17093,37.89469],[-122.12223,37.89948],[-122.06734,37.90472],[-122.00799,37.91025],[-121.93349,37.91713],[-121.89805,37.92036],[-121.81126,37.9284],[-121.78627,37.93066],[-121.72578,37.93622],[-121.66714,37.94153],[-121.6012,37.94749],[-121.59455,37.94809],[-121.50266,37.95626],[-121.41836,37.96366],[-121.32911,37.97152],[-121.27936,37.97549],[-121.25131,37.97779]],"type":"LineString"}
}
