{
  "id": 2014443445,
  "type": "Feature",
  "properties": {
    "geom:area": 0,
    "geom:bbox": "-122.940520,37.428610,-122.141820,38.506190",
    "geom:latitude": 37.85228200974155,
    "geom:longitude": -122.52806779656575,
    "src:alt_label": "swim-approach",
    "src:geom": "swim",
    "swim:elevations": [
      7053,
      6920,
      6812,
      6643,
      6472,
      6351,
      6222,
      6047,
      5960,
      5828,
      5577,
      5481,
      5169,
      4847,
      4723,
      4469,
      4358,
      4229,
      4172,
      3886,
      3831,
      3660,
      3355,
      3353,
      3353,
      3353,
      3184,
      2867,
      2855,
      2525,
      2351,
      2070,
      1719,
      1538,
      1471,
      1215,
      990,
      848,
      794,
      792,
      725,
      547,
      453,
      275,
      141,
      53,
      133
    ],
    "swim:geom": "approach",
    "swim:timestamps": [
      1767171028,
      1767171057,
      1767171078,
      1767171112,
      1767171146,
      1767171166,
      1767171194,
      1767171227,
      1767171245,
      1767171271,
      1767171320,
      1767171341,
      1767171383,
      1767171418,
      1767171433,
      1767171461,
      1767171481,
      1767171511,
      1767171551,
      1767171597,
      1767171605,
      1767171630,
      1767171687,
      1767171718,
      1767171745,
      1767171751,
      1767171787,
      1767171838,
      1767171841,
      1767171884,
      1767171905,
      1767171945,
      1767171988,
      1767172014,
      1767172021,
      1767172055,
      1767172087,
      1767172133,
      1767172151,
      1767172171,
      1767172191,
      1767172228,
      1767172247,
      1767172283,
      1767172318,
      1767172347,
      1767172352
    ],
    "wof:geomhash": "40c4713d2f38604891ef311cc7df700c",
    "wof:id": 2014443445,
    "wof:repo": "sfomuseum-data-flights-2025-12"
  },
  "bbox": [
    -122.94052,
    37.42861,
    -122.14182,
    38.50619
  ],
  "geometry": {"coordinates":[[-122.94052,38.50619],[-122.91472,38.4648],[-122.8961,38.43463],[-122.86632,38.38604],[-122.8375,38.33903],[-122.82001,38.31039],[-122.79595,38.27109],[-122.76917,38.22508],[-122.76006,38.19866],[-122.74871,38.15945],[-122.72781,38.0883],[-122.71914,38.05831],[-122.70162,37.99744],[-122.68706,37.94709],[-122.68076,37.92571],[-122.66175,37.88944],[-122.64,37.86832],[-122.60747,37.83724],[-122.56889,37.80091],[-122.52784,37.76225],[-122.52073,37.75558],[-122.49966,37.73558],[-122.45053,37.68946],[-122.42431,37.66476],[-122.40111,37.6428],[-122.39602,37.63793],[-122.36558,37.60863],[-122.33832,37.5605],[-122.33699,37.55764],[-122.30835,37.52102],[-122.28851,37.50696],[-122.25043,37.47952],[-122.21177,37.44996],[-122.18907,37.43223],[-122.18227,37.42861],[-122.14499,37.43628],[-122.14182,37.46992],[-122.16763,37.51459],[-122.17923,37.53071],[-122.19796,37.54415],[-122.21856,37.55275],[-122.2564,37.5688],[-122.27471,37.57651],[-122.30536,37.58945],[-122.33296,37.60111],[-122.35627,37.61106],[-122.35797,37.61269]],"type":"LineString"}
}
