{
  "id": 2014417933,
  "type": "Feature",
  "properties": {
    "geom:area": 0,
    "geom:bbox": "-122.714020,38.276780,-122.470660,38.512200",
    "geom:latitude": 38.39473768983446,
    "geom:longitude": -122.5925751182115,
    "src:alt_label": "swim-approach",
    "src:geom": "swim",
    "swim:elevations": [
      7243,
      7219,
      6961,
      6498,
      6450,
      6061
    ],
    "swim:geom": "approach",
    "swim:timestamps": [
      1766932737,
      1766932742,
      1766932772,
      1766932827,
      1766932834,
      1766932881
    ],
    "wof:geomhash": "93df951f99d7e790a3d5ecf483e09bda",
    "wof:id": 2014417933,
    "wof:repo": "sfomuseum-data-flights-2025-12"
  },
  "bbox": [
    -122.71402,
    38.27678,
    -122.47066,
    38.5122
  ],
  "geometry": {"coordinates":[[-122.47066,38.5122],[-122.47801,38.5056],[-122.53237,38.45326],[-122.62611,38.36229],[-122.63745,38.35129],[-122.71402,38.27678]],"type":"LineString"}
}
