{
  "id": 2014433171,
  "type": "Feature",
  "properties": {
    "geom:area": 0,
    "geom:bbox": "-122.850340,37.414890,-122.125250,38.507830",
    "geom:latitude": 37.82613659526052,
    "geom:longitude": -122.50139383273527,
    "src:alt_label": "swim-approach",
    "src:geom": "swim",
    "swim:elevations": [
      8378,
      8006,
      7703,
      7226,
      7032,
      6416,
      6147,
      5969,
      5647,
      5392,
      5049,
      4764,
      4266,
      4126,
      3675,
      3421,
      3354,
      3353,
      3353,
      3353,
      3353,
      3353,
      3089,
      2829,
      2664,
      2363,
      2287,
      2008,
      1761,
      1608,
      1250,
      1221,
      1219,
      1187,
      1155,
      982,
      944,
      750,
      681,
      490,
      349,
      273,
      171,
      40,
      315
    ],
    "swim:geom": "approach",
    "swim:timestamps": [
      1767136865,
      1767136898,
      1767136925,
      1767136967,
      1767136985,
      1767137038,
      1767137065,
      1767137080,
      1767137113,
      1767137142,
      1767137170,
      1767137194,
      1767137240,
      1767137253,
      1767137303,
      1767137336,
      1767137360,
      1767137393,
      1767137402,
      1767137456,
      1767137476,
      1767137516,
      1767137542,
      1767137574,
      1767137594,
      1767137627,
      1767137636,
      1767137663,
      1767137687,
      1767137705,
      1767137753,
      1767137771,
      1767137795,
      1767137845,
      1767137855,
      1767137907,
      1767137920,
      1767137961,
      1767137977,
      1767138011,
      1767138039,
      1767138057,
      1767138082,
      1767138109,
      1767138121
    ],
    "wof:geomhash": "4ed9eb794b888a8a1c2b6566453b4828",
    "wof:id": 2014433171,
    "wof:repo": "sfomuseum-data-flights-2025-12"
  },
  "bbox": [
    -122.85034,
    37.41489,
    -122.12525,
    38.50783
  ],
  "geometry": {"coordinates":[[-122.85034,38.50783],[-122.83313,38.44813],[-122.81904,38.39954],[-122.79698,38.32527],[-122.78783,38.29379],[-122.76079,38.20185],[-122.74788,38.15721],[-122.74065,38.13197],[-122.72443,38.07654],[-122.71107,38.03033],[-122.69811,37.98539],[-122.68664,37.94595],[-122.65137,37.87911],[-122.63435,37.8631],[-122.57343,37.80531],[-122.53419,37.76802],[-122.50811,37.74339],[-122.47275,37.71008],[-122.46376,37.70164],[-122.41409,37.65514],[-122.39676,37.63875],[-122.36316,37.6054],[-122.34836,37.58054],[-122.33182,37.54888],[-122.32018,37.5298],[-122.30146,37.49884],[-122.2965,37.49051],[-122.2818,37.46611],[-122.26304,37.4465],[-122.24135,37.43933],[-122.18438,37.42139],[-122.16374,37.41489],[-122.13512,37.41568],[-122.12525,37.46294],[-122.13183,37.47277],[-122.1653,37.52328],[-122.17438,37.53523],[-122.21886,37.55526],[-122.23562,37.56246],[-122.27057,37.57713],[-122.29508,37.58742],[-122.3095,37.59345],[-122.32929,37.60179],[-122.35119,37.6111],[-122.36032,37.61458]],"type":"LineString"}
}
