{
  "id": 2014430881,
  "type": "Feature",
  "properties": {
    "geom:area": 0,
    "geom:bbox": "-123.492520,37.493170,-122.400430,37.669870",
    "geom:latitude": 37.599247172248035,
    "geom:longitude": -122.94942819080008,
    "src:alt_label": "swim-takeoff",
    "src:geom": "swim",
    "swim:elevations": [
      289,
      701,
      898,
      1145,
      1263,
      1592,
      2096,
      2469,
      2728,
      2834,
      3252,
      3334,
      3642,
      3878,
      4243,
      4590,
      4895,
      5268,
      5441,
      5514,
      5907,
      5985
    ],
    "swim:geom": "takeoff",
    "swim:timestamps": [
      1767017660,
      1767017696,
      1767017712,
      1767017747,
      1767017764,
      1767017805,
      1767017848,
      1767017876,
      1767017904,
      1767017912,
      1767017955,
      1767017971,
      1767018025,
      1767018055,
      1767018086,
      1767018117,
      1767018145,
      1767018178,
      1767018206,
      1767018215,
      1767018265,
      1767018275
    ],
    "wof:geomhash": "f1036f1ce29111dab9f2b1fa2da59da2",
    "wof:id": 2014430881,
    "wof:repo": "sfomuseum-data-flights-2025-12"
  },
  "bbox": [
    -123.49252,
    37.49317,
    -122.40043,
    37.66987
  ],
  "geometry": {"coordinates":[[-122.40043,37.62932],[-122.43284,37.64354],[-122.44788,37.65028],[-122.48221,37.66541],[-122.50274,37.66987],[-122.55147,37.64636],[-122.60228,37.61178],[-122.63924,37.59031],[-122.6867,37.58585],[-122.70117,37.58619],[-122.7784,37.58906],[-122.80993,37.59016],[-122.92449,37.59583],[-122.99598,37.59948],[-123.06969,37.60258],[-123.14536,37.60504],[-123.21249,37.60682],[-123.29627,37.60564],[-123.36129,37.58652],[-123.37946,37.57692],[-123.47423,37.50723],[-123.49252,37.49317]],"type":"LineString"}
}
