{
  "id": 2014438951,
  "type": "Feature",
  "properties": {
    "geom:area": 0,
    "geom:bbox": "-123.489640,37.631630,-122.400560,38.476860",
    "geom:latitude": 38.05201547201045,
    "geom:longitude": -122.94631489459356,
    "src:alt_label": "swim-takeoff",
    "src:geom": "swim",
    "swim:elevations": [
      239,
      522,
      615,
      722,
      925,
      1060,
      1368,
      1580,
      1705,
      1918,
      2297,
      2658,
      2898,
      3000,
      3429,
      3562,
      4082,
      4291,
      4633,
      4893,
      5022,
      5240,
      5326,
      5407,
      5838,
      6005,
      6218,
      6401,
      6523
    ],
    "swim:geom": "takeoff",
    "swim:timestamps": [
      1767092098,
      1767092121,
      1767092148,
      1767092168,
      1767092198,
      1767092210,
      1767092241,
      1767092259,
      1767092282,
      1767092327,
      1767092362,
      1767092396,
      1767092421,
      1767092434,
      1767092478,
      1767092490,
      1767092533,
      1767092553,
      1767092603,
      1767092634,
      1767092649,
      1767092680,
      1767092692,
      1767092700,
      1767092755,
      1767092786,
      1767092812,
      1767092843,
      1767092860
    ],
    "wof:geomhash": "939e134f21ea567d5f369fd8f5a104be",
    "wof:id": 2014438951,
    "wof:repo": "sfomuseum-data-flights-2025-12"
  },
  "bbox": [
    -123.48964,
    37.63163,
    -122.40056,
    38.47686
  ],
  "geometry": {"coordinates":[[-122.40056,37.63163],[-122.42335,37.64087],[-122.4516,37.65272],[-122.4747,37.66262],[-122.51285,37.6798],[-122.52811,37.68898],[-122.56672,37.71213],[-122.5888,37.72502],[-122.61998,37.74339],[-122.68804,37.78343],[-122.74495,37.81685],[-122.7878,37.85988],[-122.8156,37.89461],[-122.82974,37.91185],[-122.88318,37.97607],[-122.89747,37.99319],[-122.94977,38.05602],[-122.97364,38.08467],[-123.03494,38.1579],[-123.07488,38.20562],[-123.09461,38.22911],[-123.13502,38.27723],[-123.1524,38.29532],[-123.16635,38.3056],[-123.27628,38.36196],[-123.33867,38.39567],[-123.39144,38.42397],[-123.45453,38.45831],[-123.48964,38.47686]],"type":"LineString"}
}
