{
  "id": 2014443493,
  "type": "Feature",
  "properties": {
    "geom:area": 0,
    "geom:bbox": "-123.444850,36.953740,-122.106650,37.610450",
    "geom:latitude": 37.29404927386142,
    "geom:longitude": -122.6773393739663,
    "src:alt_label": "swim-approach",
    "src:geom": "swim",
    "swim:elevations": [
      5717,
      5536,
      5304,
      5132,
      4953,
      4660,
      4487,
      4185,
      4058,
      3866,
      3714,
      3601,
      3401,
      3200,
      3049,
      3048,
      3048,
      2924,
      2861,
      2835,
      2527,
      2437,
      2438,
      2438,
      2241,
      2173,
      2111,
      1850,
      1829,
      1829,
      1829,
      1829,
      1829,
      1766,
      1633,
      1524,
      1524,
      1382,
      1244,
      952,
      802,
      640,
      426,
      343,
      243,
      60
    ],
    "swim:geom": "approach",
    "swim:timestamps": [
      1767214165,
      1767214189,
      1767214223,
      1767214246,
      1767214272,
      1767214312,
      1767214336,
      1767214378,
      1767214396,
      1767214420,
      1767214438,
      1767214455,
      1767214483,
      1767214511,
      1767214555,
      1767214581,
      1767214593,
      1767214636,
      1767214662,
      1767214680,
      1767214731,
      1767214767,
      1767214793,
      1767214811,
      1767214847,
      1767214856,
      1767214865,
      1767214907,
      1767214940,
      1767214958,
      1767214984,
      1767215024,
      1767215044,
      1767215065,
      1767215089,
      1767215122,
      1767215133,
      1767215170,
      1767215203,
      1767215245,
      1767215268,
      1767215298,
      1767215329,
      1767215346,
      1767215372,
      1767215415
    ],
    "wof:geomhash": "a38c3822bd417baa9bde3cf1ec023030",
    "wof:id": 2014443493,
    "wof:repo": "sfomuseum-data-flights-2025-12"
  },
  "bbox": [
    -123.44485,
    36.95374,
    -122.10665,
    37.61045
  ],
  "geometry": {"coordinates":[[-123.44485,36.95374],[-123.40488,36.9742],[-123.35161,37.00231],[-123.31635,37.02135],[-123.27631,37.04233],[-123.21467,37.07455],[-123.17807,37.09375],[-123.11398,37.12732],[-123.08661,37.14158],[-123.05017,37.16073],[-123.02276,37.17487],[-122.99713,37.18818],[-122.95548,37.20992],[-122.91348,37.23178],[-122.84906,37.26075],[-122.80732,37.27085],[-122.78884,37.27524],[-122.72272,37.29049],[-122.68342,37.29969],[-122.65529,37.30632],[-122.57759,37.32439],[-122.52338,37.33697],[-122.48805,37.3451],[-122.46398,37.34973],[-122.41643,37.34647],[-122.40465,37.34512],[-122.39286,37.34368],[-122.33727,37.3424],[-122.31425,37.3735],[-122.31558,37.39408],[-122.30135,37.42125],[-122.24927,37.42762],[-122.22335,37.42421],[-122.19602,37.42066],[-122.16492,37.41739],[-122.12809,37.43786],[-122.1215,37.44966],[-122.10665,37.49137],[-122.13406,37.51962],[-122.1858,37.54143],[-122.21209,37.55254],[-122.24576,37.56668],[-122.27889,37.58059],[-122.29571,37.58771],[-122.31774,37.59701],[-122.34993,37.61045]],"type":"LineString"}
}
