{
  "id": 2014447907,
  "type": "Feature",
  "properties": {
    "geom:area": 0,
    "geom:bbox": "-122.440360,36.741000,-121.343350,37.696850",
    "geom:latitude": 37.20771612760414,
    "geom:longitude": -121.97406011923476,
    "src:alt_label": "swim-takeoff",
    "src:geom": "swim",
    "swim:elevations": [
      403,
      489,
      663,
      707,
      1000,
      1101,
      1419,
      1694,
      1904,
      2448,
      2992,
      3506,
      3827,
      4091,
      4260,
      4433,
      4710,
      4907,
      5311,
      5545,
      5775,
      5975,
      6198,
      6501,
      6731,
      6909,
      7221,
      7477,
      7596,
      7752,
      7990,
      8310,
      8467
    ],
    "swim:geom": "takeoff",
    "swim:timestamps": [
      1767187707,
      1767187712,
      1767187731,
      1767187741,
      1767187790,
      1767187817,
      1767187850,
      1767187876,
      1767187892,
      1767187921,
      1767187963,
      1767188002,
      1767188037,
      1767188066,
      1767188094,
      1767188115,
      1767188142,
      1767188174,
      1767188218,
      1767188246,
      1767188267,
      1767188291,
      1767188316,
      1767188354,
      1767188384,
      1767188409,
      1767188458,
      1767188478,
      1767188495,
      1767188521,
      1767188555,
      1767188605,
      1767188618
    ],
    "wof:geomhash": "a5d832d5d2cb7027fbce1cbd2a733299",
    "wof:id": 2014447907,
    "wof:repo": "sfomuseum-data-flights-2025-12"
  },
  "bbox": [
    -122.44036,
    36.741,
    -121.34335,
    37.69685
  ],
  "geometry": {"coordinates":[[-122.36492,37.63913],[-122.36438,37.64257],[-122.36323,37.65593],[-122.36275,37.66279],[-122.37927,37.69685],[-122.40524,37.68729],[-122.41187,37.65642],[-122.42035,37.62895],[-122.42687,37.61185],[-122.44036,37.57926],[-122.43052,37.53262],[-122.3878,37.49723],[-122.34735,37.46362],[-122.3082,37.43303],[-122.26891,37.40259],[-122.23921,37.37916],[-122.1992,37.34681],[-122.15041,37.30801],[-122.07844,37.25145],[-122.03152,37.21641],[-121.99397,37.19077],[-121.95113,37.16139],[-121.90646,37.13083],[-121.83684,37.08295],[-121.78159,37.04486],[-121.7351,37.01273],[-121.64259,36.94875],[-121.60511,36.92283],[-121.57329,36.90073],[-121.52544,36.86787],[-121.46151,36.82336],[-121.36805,36.75858],[-121.34335,36.741]],"type":"LineString"}
}
