{
  "id": 2014417961,
  "type": "Feature",
  "properties": {
    "geom:area": 0,
    "geom:bbox": "-122.363070,37.491480,-121.248610,37.616960",
    "geom:latitude": 37.54724386146814,
    "geom:longitude": -121.81096322599026,
    "src:alt_label": "swim-approach",
    "src:geom": "swim",
    "swim:elevations": [
      4681,
      4459,
      4231,
      3827,
      3708,
      3257,
      3090,
      3048,
      2899,
      2692,
      2503,
      2435,
      2199,
      2073,
      2012,
      1888,
      1829,
      1777,
      1375,
      1224,
      946,
      767,
      650,
      603,
      369,
      283,
      139,
      118
    ],
    "swim:geom": "approach",
    "swim:timestamps": [
      1766915486,
      1766915510,
      1766915534,
      1766915576,
      1766915589,
      1766915638,
      1766915665,
      1766915687,
      1766915723,
      1766915752,
      1766915787,
      1766915812,
      1766915843,
      1766915871,
      1766915885,
      1766915915,
      1766915959,
      1766915973,
      1766916027,
      1766916041,
      1766916085,
      1766916115,
      1766916139,
      1766916151,
      1766916203,
      1766916221,
      1766916259,
      1766916292
    ],
    "wof:geomhash": "7ed99c1dbe6cad4457fc75c2f0cb56e7",
    "wof:id": 2014417961,
    "wof:repo": "sfomuseum-data-flights-2025-12"
  },
  "bbox": [
    -122.36307,
    37.49148,
    -121.24861,
    37.61696
  ],
  "geometry": {"coordinates":[[-121.24861,37.59489],[-121.29575,37.58855],[-121.34227,37.58357],[-121.4238,37.57427],[-121.44861,37.57139],[-121.54032,37.56072],[-121.58822,37.55504],[-121.62435,37.55049],[-121.67929,37.53778],[-121.72306,37.52729],[-121.77475,37.51492],[-121.81123,37.50614],[-121.85604,37.49539],[-121.8978,37.49148],[-121.91981,37.49218],[-121.96283,37.49324],[-122.02273,37.50611],[-122.03949,37.51137],[-122.10443,37.53221],[-122.12109,37.53774],[-122.17224,37.55425],[-122.20423,37.56486],[-122.22868,37.57254],[-122.24044,37.57633],[-122.28731,37.59097],[-122.30249,37.5955],[-122.33502,37.60507],[-122.36307,37.61696]],"type":"LineString"}
}
