{
  "id": 2014446053,
  "type": "Feature",
  "properties": {
    "geom:area": 0,
    "geom:bbox": "-123.337170,37.627560,-122.397470,38.517030",
    "geom:latitude": 38.030780591774466,
    "geom:longitude": -122.90076639929218,
    "src:alt_label": "swim-takeoff",
    "src:geom": "swim",
    "swim:elevations": [
      213,
      520,
      816,
      844,
      1050,
      1403,
      1960,
      2184,
      2624,
      2900,
      3205,
      3329,
      3746,
      3843,
      4280,
      4522,
      4834,
      5032,
      5243,
      5409,
      5809,
      6015,
      6278,
      6403,
      6725,
      6888,
      6980
    ],
    "swim:geom": "takeoff",
    "swim:timestamps": [
      1767219228,
      1767219251,
      1767219297,
      1767219305,
      1767219344,
      1767219376,
      1767219416,
      1767219434,
      1767219477,
      1767219502,
      1767219537,
      1767219550,
      1767219591,
      1767219600,
      1767219654,
      1767219679,
      1767219716,
      1767219740,
      1767219764,
      1767219788,
      1767219834,
      1767219866,
      1767219897,
      1767219914,
      1767219953,
      1767219978,
      1767219990
    ],
    "wof:geomhash": "0c6e0de81b48dcf1e7a6b2698d00b292",
    "wof:id": 2014446053,
    "wof:repo": "sfomuseum-data-flights-2025-12"
  },
  "bbox": [
    -123.33717,
    37.62756,
    -122.39747,
    38.51703
  ],
  "geometry": {"coordinates":[[-122.39747,37.62756],[-122.41991,37.63684],[-122.46624,37.65808],[-122.47594,37.66248],[-122.52747,37.688],[-122.57041,37.71389],[-122.62434,37.74587],[-122.64892,37.7604],[-122.7083,37.79529],[-122.74459,37.81663],[-122.78467,37.85614],[-122.79814,37.87313],[-122.84107,37.92536],[-122.85082,37.93706],[-122.91066,38.00903],[-122.94016,38.04443],[-122.98401,38.09695],[-123.0131,38.13173],[-123.04288,38.16734],[-123.07278,38.20302],[-123.13022,38.27145],[-123.17178,38.32077],[-123.213,38.36967],[-123.23611,38.39685],[-123.28781,38.45745],[-123.32106,38.49828],[-123.33717,38.51703]],"type":"LineString"}
}
