{
  "id": 2014430705,
  "type": "Feature",
  "properties": {
    "geom:area": 0,
    "geom:bbox": "-122.526290,37.627080,-121.262880,37.973650",
    "geom:latitude": 37.866778252729084,
    "geom:longitude": -121.99203004071681,
    "src:alt_label": "swim-takeoff",
    "src:geom": "swim",
    "swim:elevations": [
      183,
      764,
      978,
      1392,
      1691,
      2151,
      2566,
      2894,
      2959,
      3048,
      3048,
      3202,
      3697,
      4089,
      4282,
      4647,
      5209,
      5434,
      5752,
      6195,
      6421,
      6973,
      7221,
      7678,
      8117,
      8158,
      8553
    ],
    "swim:geom": "takeoff",
    "swim:timestamps": [
      1767014920,
      1767014963,
      1767014979,
      1767015025,
      1767015050,
      1767015085,
      1767015112,
      1767015138,
      1767015152,
      1767015204,
      1767015214,
      1767015252,
      1767015295,
      1767015321,
      1767015334,
      1767015363,
      1767015413,
      1767015430,
      1767015464,
      1767015506,
      1767015521,
      1767015564,
      1767015591,
      1767015628,
      1767015687,
      1767015696,
      1767015744
    ],
    "wof:geomhash": "198cb856e6d66335c4b6676385194d9c",
    "wof:id": 2014430705,
    "wof:repo": "sfomuseum-data-flights-2025-12"
  },
  "bbox": [
    -122.52629,
    37.62708,
    -121.26288,
    37.97365
  ],
  "geometry": {"coordinates":[[-122.39483,37.62708],[-122.43581,37.64441],[-122.45155,37.65146],[-122.49991,37.67299],[-122.5227,37.69512],[-122.52629,37.73861],[-122.52555,37.77316],[-122.51177,37.80391],[-122.4952,37.81603],[-122.41447,37.8395],[-122.39825,37.84171],[-122.32877,37.85013],[-122.24724,37.86046],[-122.19521,37.86667],[-122.17139,37.86953],[-122.1122,37.87664],[-122.00914,37.88931],[-121.97094,37.89396],[-121.89879,37.902],[-121.80597,37.91296],[-121.77123,37.91706],[-121.67703,37.92782],[-121.61534,37.93491],[-121.5321,37.94415],[-121.3989,37.95882],[-121.37736,37.96118],[-121.26288,37.97365]],"type":"LineString"}
}
