{
  "id": 2014422373,
  "type": "Feature",
  "properties": {
    "geom:area": 0,
    "geom:bbox": "-122.450700,36.742040,-121.254570,37.719330",
    "geom:latitude": 37.232342646495105,
    "geom:longitude": -121.9463312159135,
    "src:alt_label": "swim-takeoff",
    "src:geom": "swim",
    "swim:elevations": [
      290,
      879,
      1003,
      1183,
      1418,
      1810,
      2108,
      2667,
      3035,
      3202,
      3297,
      3816,
      4094,
      4406,
      4620,
      4815,
      5465,
      5901,
      6092,
      6723,
      7447,
      7703,
      7766,
      7832,
      8003,
      8131,
      8410,
      8554,
      8630,
      8684
    ],
    "swim:geom": "takeoff",
    "swim:timestamps": [
      1766967409,
      1766967448,
      1766967476,
      1766967503,
      1766967523,
      1766967567,
      1766967584,
      1766967626,
      1766967652,
      1766967683,
      1766967714,
      1766967748,
      1766967774,
      1766967798,
      1766967819,
      1766967842,
      1766967914,
      1766967952,
      1766967970,
      1766968046,
      1766968136,
      1766968166,
      1766968181,
      1766968196,
      1766968226,
      1766968247,
      1766968284,
      1766968302,
      1766968314,
      1766968320
    ],
    "wof:geomhash": "b80ae91fbed7696d8dfc97c24539173a",
    "wof:id": 2014422373,
    "wof:repo": "sfomuseum-data-flights-2025-12"
  },
  "bbox": [
    -122.4507,
    36.74204,
    -121.25457,
    37.71933
  ],
  "geometry": {"coordinates":[[-122.36506,37.63653],[-122.36388,37.66426],[-122.36097,37.68549],[-122.3727,37.71059],[-122.39916,37.71933],[-122.444,37.68199],[-122.44401,37.65991],[-122.44978,37.60372],[-122.4507,37.56842],[-122.42419,37.53145],[-122.37554,37.49882],[-122.32127,37.46271],[-122.27838,37.43297],[-122.23912,37.40547],[-122.20401,37.38199],[-122.16414,37.3559],[-122.03516,37.26987],[-121.96759,37.22443],[-121.93438,37.20225],[-121.79464,37.10846],[-121.62442,36.99346],[-121.56642,36.95442],[-121.53726,36.93478],[-121.50765,36.9147],[-121.44754,36.8739],[-121.40513,36.84492],[-121.32895,36.7925],[-121.29198,36.76733],[-121.26729,36.75051],[-121.25457,36.74204]],"type":"LineString"}
}
