{
  "id": 2014439425,
  "type": "Feature",
  "properties": {
    "geom:area": 0,
    "geom:bbox": "-122.447480,36.727090,-121.402420,37.695450",
    "geom:latitude": 37.24086363604032,
    "geom:longitude": -121.98947229445444,
    "src:alt_label": "swim-takeoff",
    "src:geom": "swim",
    "swim:elevations": [
      122,
      368,
      905,
      1033,
      1060,
      1421,
      1906,
      2196,
      2776,
      3301,
      3390,
      3529,
      3689,
      4135,
      4326,
      4715,
      4966,
      5295,
      5644,
      5911,
      6096,
      6362,
      6512,
      6848,
      7104,
      7259,
      7449,
      7495,
      7649,
      7758,
      8080,
      8108,
      8138
    ],
    "swim:geom": "takeoff",
    "swim:timestamps": [
      1767135477,
      1767135491,
      1767135538,
      1767135565,
      1767135571,
      1767135624,
      1767135645,
      1767135663,
      1767135699,
      1767135745,
      1767135762,
      1767135787,
      1767135802,
      1767135837,
      1767135852,
      1767135891,
      1767135919,
      1767135945,
      1767135984,
      1767136014,
      1767136035,
      1767136068,
      1767136093,
      1767136133,
      1767136164,
      1767136189,
      1767136218,
      1767136230,
      1767136257,
      1767136272,
      1767136315,
      1767136330,
      1767136358
    ],
    "wof:geomhash": "ea2879d3ea67f9a13d0227b93ab9b2a9",
    "wof:id": 2014439425,
    "wof:repo": "sfomuseum-data-flights-2025-12"
  },
  "bbox": [
    -122.44748,
    36.72709,
    -121.40242,
    37.69545
  ],
  "geometry": {"coordinates":[[-122.37206,37.62461],[-122.36772,37.63414],[-122.36294,37.66697],[-122.36392,37.68942],[-122.36708,37.69452],[-122.43406,37.69545],[-122.44748,37.67213],[-122.4464,37.65031],[-122.435,37.60737],[-122.38394,37.5623],[-122.36347,37.5451],[-122.32956,37.51659],[-122.30774,37.4983],[-122.25709,37.45579],[-122.23516,37.43735],[-122.17732,37.38856],[-122.13469,37.35254],[-122.09422,37.3183],[-122.03399,37.26742],[-121.98649,37.22716],[-121.95282,37.19855],[-121.89926,37.15289],[-121.85649,37.11642],[-121.7907,37.06038],[-121.73791,37.01531],[-121.69443,36.97808],[-121.64518,36.93588],[-121.62462,36.91822],[-121.57899,36.87927],[-121.55304,36.85703],[-121.47783,36.79302],[-121.45234,36.77022],[-121.40242,36.72709]],"type":"LineString"}
}
