{
  "id": 2014413719,
  "type": "Feature",
  "properties": {
    "geom:area": 0,
    "geom:bbox": "-122.356990,37.641230,-121.282410,37.958870",
    "geom:latitude": 37.837007238647395,
    "geom:longitude": -121.83241921648316,
    "src:alt_label": "swim-takeoff",
    "src:geom": "swim",
    "swim:elevations": [
      353,
      386,
      1060,
      1133,
      1319,
      2042,
      2338,
      3038,
      3197,
      3415,
      3604,
      4094,
      4372,
      4694,
      5145,
      5450,
      5831,
      6221,
      6550,
      6624,
      7144,
      7313
    ],
    "swim:geom": "takeoff",
    "swim:timestamps": [
      1766872378,
      1766872381,
      1766872429,
      1766872440,
      1766872474,
      1766872524,
      1766872542,
      1766872586,
      1766872601,
      1766872643,
      1766872664,
      1766872703,
      1766872726,
      1766872748,
      1766872783,
      1766872806,
      1766872845,
      1766872884,
      1766872916,
      1766872922,
      1766872973,
      1766872994
    ],
    "wof:geomhash": "2aa7efd243a03d4e8e52af78a03ce0aa",
    "wof:id": 2014413719,
    "wof:repo": "sfomuseum-data-flights-2025-12"
  },
  "bbox": [
    -122.35699,
    37.64123,
    -121.28241,
    37.95887
  ],
  "geometry": {"coordinates":[[-122.35699,37.64123],[-122.35476,37.64292],[-122.31547,37.66277],[-122.30597,37.66821],[-122.2715,37.68812],[-122.2077,37.72123],[-122.18411,37.7334],[-122.1249,37.76399],[-122.10554,37.77403],[-122.04041,37.80765],[-122.00278,37.82381],[-121.92273,37.84114],[-121.87358,37.85039],[-121.82696,37.85911],[-121.75148,37.87305],[-121.70097,37.88248],[-121.6164,37.89807],[-121.53121,37.91373],[-121.45845,37.92701],[-121.44487,37.92942],[-121.32922,37.95045],[-121.28241,37.95887]],"type":"LineString"}
}
