{
  "id": 2014420201,
  "type": "Feature",
  "properties": {
    "geom:area": 0,
    "geom:bbox": "-122.366920,37.627560,-122.114470,38.499980",
    "geom:latitude": 38.02986814872117,
    "geom:longitude": -122.17997917395907,
    "src:alt_label": "swim-takeoff",
    "src:geom": "swim",
    "swim:elevations": [
      122,
      459,
      615,
      990,
      1381,
      1799,
      2117,
      2390,
      2794,
      2874,
      3359,
      3575,
      3902,
      4768,
      4946,
      5730,
      6144,
      6308,
      6733,
      7235,
      7580,
      8024,
      8285,
      8629,
      8842,
      9145
    ],
    "swim:geom": "takeoff",
    "swim:timestamps": [
      1766940508,
      1766940536,
      1766940563,
      1766940597,
      1766940623,
      1766940655,
      1766940675,
      1766940690,
      1766940717,
      1766940723,
      1766940761,
      1766940791,
      1766940811,
      1766940860,
      1766940870,
      1766940926,
      1766940952,
      1766940961,
      1766940982,
      1766941011,
      1766941037,
      1766941070,
      1766941084,
      1766941130,
      1766941151,
      1766941182
    ],
    "wof:geomhash": "e5406dd3592e207511956d3b3e463bee",
    "wof:id": 2014420201,
    "wof:repo": "sfomuseum-data-flights-2025-12"
  },
  "bbox": [
    -122.36692,
    37.62756,
    -122.11447,
    38.49998
  ],
  "geometry": {"coordinates":[[-122.36692,37.62756],[-122.34991,37.6423],[-122.32583,37.65599],[-122.28825,37.6783],[-122.25897,37.69501],[-122.22097,37.71681],[-122.21114,37.73974],[-122.20862,37.75722],[-122.20325,37.78978],[-122.202,37.79715],[-122.19469,37.84481],[-122.18698,37.88743],[-122.18141,37.91905],[-122.16923,37.99283],[-122.16705,38.00824],[-122.15297,38.09702],[-122.14592,38.13878],[-122.14353,38.15275],[-122.13803,38.18513],[-122.13087,38.2307],[-122.12434,38.27026],[-122.11572,38.32147],[-122.11447,38.34335],[-122.11874,38.41596],[-122.12089,38.44962],[-122.12459,38.49998]],"type":"LineString"}
}
