{
  "id": 2014430653,
  "type": "Feature",
  "properties": {
    "geom:area": 0,
    "geom:bbox": "-122.454220,37.240650,-121.258250,37.703060",
    "geom:latitude": 37.43181247350851,
    "geom:longitude": -121.96244265207554,
    "src:alt_label": "swim-takeoff",
    "src:geom": "swim",
    "swim:elevations": [
      183,
      248,
      323,
      892,
      1138,
      1287,
      1738,
      2053,
      2214,
      2567,
      2816,
      3161,
      3306,
      3621,
      4051,
      4414,
      4783,
      4821,
      5259,
      5459,
      5908,
      6024,
      6223,
      6316,
      6472,
      6807,
      7006,
      7285,
      7622,
      7858,
      8041,
      8135,
      8291
    ],
    "swim:geom": "takeoff",
    "swim:timestamps": [
      1767043072,
      1767043077,
      1767043083,
      1767043127,
      1767043163,
      1767043191,
      1767043227,
      1767043249,
      1767043262,
      1767043287,
      1767043307,
      1767043339,
      1767043363,
      1767043395,
      1767043433,
      1767043463,
      1767043496,
      1767043502,
      1767043544,
      1767043574,
      1767043618,
      1767043631,
      1767043651,
      1767043662,
      1767043680,
      1767043718,
      1767043746,
      1767043778,
      1767043818,
      1767043857,
      1767043887,
      1767043899,
      1767043929
    ],
    "wof:geomhash": "8a255d4b90bd7f27d5310d3bc360e967",
    "wof:id": 2014430653,
    "wof:repo": "sfomuseum-data-flights-2025-12"
  },
  "bbox": [
    -122.45422,
    37.24065,
    -121.25825,
    37.70306
  ],
  "geometry": {"coordinates":[[-122.36783,37.63119],[-122.36565,37.63479],[-122.36377,37.63919],[-122.36288,37.67201],[-122.37142,37.69911],[-122.40506,37.70306],[-122.4318,37.66649],[-122.43608,37.63989],[-122.43952,37.62354],[-122.44729,37.59182],[-122.45422,37.56633],[-122.4474,37.52526],[-122.41377,37.5065],[-122.35361,37.49832],[-122.28355,37.48508],[-122.22766,37.47103],[-122.16376,37.4556],[-122.15219,37.45291],[-122.07092,37.43416],[-122.01126,37.4203],[-121.921,37.39902],[-121.89508,37.39289],[-121.85412,37.38324],[-121.83178,37.37795],[-121.79459,37.36912],[-121.71478,37.35016],[-121.65509,37.33593],[-121.58807,37.32],[-121.50231,37.29949],[-121.41697,37.27891],[-121.3514,37.26305],[-121.32414,37.25665],[-121.25825,37.24065]],"type":"LineString"}
}
