{
  "id": 2014426511,
  "type": "Feature",
  "properties": {
    "geom:area": 0,
    "geom:bbox": "-122.353970,37.491890,-121.249190,37.612210",
    "geom:latitude": 37.546631261488,
    "geom:longitude": -121.8064572239963,
    "src:alt_label": "swim-approach",
    "src:geom": "swim",
    "swim:elevations": [
      5011,
      4690,
      4264,
      3899,
      3772,
      3602,
      3438,
      3357,
      3017,
      2813,
      2620,
      2403,
      2072,
      2012,
      1859,
      1686,
      1523,
      1405,
      1309,
      1084,
      945,
      884,
      801,
      585,
      465,
      306,
      198,
      98,
      39
    ],
    "swim:geom": "approach",
    "swim:timestamps": [
      1767053056,
      1767053083,
      1767053120,
      1767053158,
      1767053171,
      1767053206,
      1767053241,
      1767053256,
      1767053301,
      1767053336,
      1767053360,
      1767053385,
      1767053426,
      1767053439,
      1767053481,
      1767053507,
      1767053528,
      1767053577,
      1767053586,
      1767053607,
      1767053630,
      1767053661,
      1767053686,
      1767053725,
      1767053749,
      1767053786,
      1767053815,
      1767053845,
      1767053857
    ],
    "wof:geomhash": "2bb5eb30b431fbc82bde0b3e869e1044",
    "wof:id": 2014426511,
    "wof:repo": "sfomuseum-data-flights-2025-12"
  },
  "bbox": [
    -122.35397,
    37.49189,
    -121.24919,
    37.61221
  ],
  "geometry": {"coordinates":[[-121.24919,37.59498],[-121.30878,37.58741],[-121.39018,37.57849],[-121.46845,37.5694],[-121.49612,37.56613],[-121.56561,37.55787],[-121.62796,37.55],[-121.65284,37.54431],[-121.72467,37.52693],[-121.77844,37.51412],[-121.81221,37.5061],[-121.84604,37.49803],[-121.90079,37.49189],[-121.91723,37.49238],[-121.97298,37.49376],[-122.00627,37.50102],[-122.03189,37.5093],[-122.0858,37.5263],[-122.09474,37.52918],[-122.11642,37.53657],[-122.14133,37.54445],[-122.1731,37.55494],[-122.19983,37.56349],[-122.24148,37.57646],[-122.26586,37.58355],[-122.29907,37.59197],[-122.3223,37.59917],[-122.34506,37.60838],[-122.35397,37.61221]],"type":"LineString"}
}
