{
  "id": 2014447319,
  "type": "Feature",
  "properties": {
    "geom:area": 0,
    "geom:bbox": "-122.368300,37.631310,-121.269010,38.147370",
    "geom:latitude": 37.95680890021568,
    "geom:longitude": -121.91530022365014,
    "src:alt_label": "swim-takeoff",
    "src:geom": "swim",
    "swim:elevations": [
      122,
      469,
      702,
      795,
      1209,
      1290,
      1692,
      1938,
      2311,
      2622,
      3013,
      3358,
      3479,
      3814,
      3960,
      4561,
      4727,
      4994,
      5289,
      5652,
      5790,
      5791,
      5791,
      5891,
      6199,
      6463,
      6544
    ],
    "swim:geom": "takeoff",
    "swim:timestamps": [
      1767250618,
      1767250643,
      1767250670,
      1767250682,
      1767250735,
      1767250747,
      1767250780,
      1767250801,
      1767250841,
      1767250870,
      1767250894,
      1767250939,
      1767250962,
      1767251003,
      1767251017,
      1767251064,
      1767251079,
      1767251106,
      1767251137,
      1767251179,
      1767251209,
      1767251236,
      1767251266,
      1767251302,
      1767251331,
      1767251358,
      1767251371
    ],
    "wof:geomhash": "d5f7254f70e2736b5113ce4fbd182147",
    "wof:id": 2014447319,
    "wof:repo": "sfomuseum-data-flights-2025-12"
  },
  "bbox": [
    -122.3683,
    37.63131,
    -121.26901,
    38.14737
  ],
  "geometry": {"coordinates":[[-122.36439,37.63131],[-122.34914,37.64728],[-122.32758,37.66369],[-122.31876,37.67228],[-122.32273,37.72307],[-122.32944,37.73578],[-122.34955,37.77279],[-122.36157,37.79745],[-122.3683,37.84976],[-122.33123,37.87701],[-122.29024,37.88425],[-122.21283,37.90365],[-122.16789,37.91532],[-122.0845,37.93671],[-122.05595,37.94431],[-121.95554,37.97105],[-121.92305,37.97968],[-121.86569,37.99472],[-121.79924,38.01182],[-121.706,38.03706],[-121.63781,38.05455],[-121.57655,38.0698],[-121.50746,38.08696],[-121.42601,38.10771],[-121.35977,38.12461],[-121.29864,38.14],[-121.26901,38.14737]],"type":"LineString"}
}
