{
  "id": 2014439873,
  "type": "Feature",
  "properties": {
    "geom:area": 0,
    "geom:bbox": "-123.328440,37.627000,-122.395000,38.505620",
    "geom:latitude": 38.024756287838564,
    "geom:longitude": -122.8949948456154,
    "src:alt_label": "swim-takeoff",
    "src:geom": "swim",
    "swim:elevations": [
      152,
      644,
      775,
      947,
      1204,
      1510,
      1958,
      2322,
      2578,
      2671,
      2987,
      3048,
      3048,
      3048,
      3048,
      3411,
      3592,
      4202,
      4375,
      4786,
      4978,
      5310,
      5536,
      5934,
      6167,
      6223
    ],
    "swim:geom": "takeoff",
    "swim:timestamps": [
      1767102639,
      1767102676,
      1767102694,
      1767102726,
      1767102754,
      1767102791,
      1767102824,
      1767102852,
      1767102872,
      1767102879,
      1767102914,
      1767102939,
      1767102961,
      1767103006,
      1767103026,
      1767103075,
      1767103088,
      1767103137,
      1767103152,
      1767103192,
      1767103209,
      1767103240,
      1767103271,
      1767103314,
      1767103344,
      1767103352
    ],
    "wof:geomhash": "090d06b799c6c38ae90fe2552ec50b14",
    "wof:id": 2014439873,
    "wof:repo": "sfomuseum-data-flights-2025-12"
  },
  "bbox": [
    -123.32844,
    37.627,
    -122.395,
    38.50562
  ],
  "geometry": {"coordinates":[[-122.395,37.627],[-122.43322,37.6438],[-122.45189,37.65211],[-122.49045,37.66898],[-122.52522,37.68721],[-122.57515,37.71674],[-122.62263,37.74462],[-122.66213,37.76778],[-122.69052,37.78458],[-122.70072,37.79054],[-122.75275,37.8227],[-122.78149,37.85258],[-122.80503,37.88151],[-122.86056,37.94887],[-122.88664,37.98033],[-122.94902,38.05528],[-122.96611,38.07573],[-123.0294,38.15143],[-123.04972,38.17567],[-123.10329,38.23951],[-123.12665,38.26725],[-123.16936,38.31818],[-123.21206,38.36877],[-123.27338,38.44153],[-123.31679,38.49183],[-123.32844,38.50562]],"type":"LineString"}
}
