{
  "id": 2014430685,
  "type": "Feature",
  "properties": {
    "geom:area": 0,
    "geom:bbox": "-122.469080,36.721230,-121.441140,37.708100",
    "geom:latitude": 37.21709849125334,
    "geom:longitude": -122.05486339107783,
    "src:alt_label": "swim-takeoff",
    "src:geom": "swim",
    "swim:elevations": [
      274,
      643,
      971,
      1070,
      1542,
      1602,
      1746,
      1977,
      2282,
      2700,
      3200,
      3391,
      3492,
      4085,
      4491,
      4772,
      5294,
      5340,
      5660,
      6098,
      6446,
      6759,
      6932,
      7227,
      7376,
      7781,
      7808,
      8039,
      8411,
      8665,
      8775,
      8869,
      9012,
      9260
    ],
    "swim:geom": "takeoff",
    "swim:timestamps": [
      1767000942,
      1767000964,
      1767000999,
      1767001024,
      1767001071,
      1767001076,
      1767001085,
      1767001106,
      1767001129,
      1767001160,
      1767001196,
      1767001220,
      1767001235,
      1767001280,
      1767001311,
      1767001336,
      1767001379,
      1767001382,
      1767001423,
      1767001461,
      1767001495,
      1767001528,
      1767001549,
      1767001585,
      1767001602,
      1767001647,
      1767001650,
      1767001683,
      1767001736,
      1767001768,
      1767001796,
      1767001809,
      1767001832,
      1767001879
    ],
    "wof:geomhash": "0b220053ac41b9df3eb855b8144a6810",
    "wof:id": 2014430685,
    "wof:repo": "sfomuseum-data-flights-2025-12"
  },
  "bbox": [
    -122.46908,
    36.72123,
    -121.44114,
    37.7081
  ],
  "geometry": {"coordinates":[[-122.36731,37.63283],[-122.36527,37.64802],[-122.36235,37.67402],[-122.36568,37.69588],[-122.42174,37.7081],[-122.42737,37.70474],[-122.43541,37.69664],[-122.44289,37.67303],[-122.4486,37.64378],[-122.4554,37.60336],[-122.46348,37.55465],[-122.46908,37.52028],[-122.466,37.49744],[-122.41266,37.44446],[-122.36818,37.41142],[-122.33169,37.38477],[-122.269,37.33873],[-122.26324,37.33458],[-122.20113,37.2891],[-122.14242,37.2454],[-122.08992,37.20635],[-122.03739,37.16731],[-122.00358,37.14242],[-121.94536,37.09906],[-121.91732,37.07807],[-121.84373,37.02266],[-121.8384,37.0188],[-121.78226,36.97703],[-121.69121,36.91032],[-121.63571,36.86866],[-121.58669,36.83184],[-121.56421,36.8147],[-121.52461,36.7843],[-121.44114,36.72123]],"type":"LineString"}
}
