{
  "id": 2014420189,
  "type": "Feature",
  "properties": {
    "geom:area": 0,
    "geom:bbox": "-122.356160,37.639960,-122.212600,38.512100",
    "geom:latitude": 38.042949589383504,
    "geom:longitude": -122.2363500331132,
    "src:alt_label": "swim-takeoff",
    "src:geom": "swim",
    "swim:elevations": [
      405,
      457,
      891,
      1063,
      1267,
      1642,
      2015,
      2532,
      2629,
      3126,
      3202,
      3260,
      3446,
      3888,
      4194,
      4686,
      5076,
      5464,
      5830,
      6205,
      6461,
      6724,
      7001,
      7299,
      7496
    ],
    "swim:geom": "takeoff",
    "swim:timestamps": [
      1766950827,
      1766950835,
      1766950882,
      1766950903,
      1766950918,
      1766950944,
      1766950970,
      1766951005,
      1766951014,
      1766951052,
      1766951068,
      1766951074,
      1766951112,
      1766951145,
      1766951163,
      1766951197,
      1766951227,
      1766951255,
      1766951291,
      1766951331,
      1766951356,
      1766951384,
      1766951412,
      1766951440,
      1766951464
    ],
    "wof:geomhash": "b28289695934fe1c998f29dba90d952c",
    "wof:id": 2014420189,
    "wof:repo": "sfomuseum-data-flights-2025-12"
  },
  "bbox": [
    -122.35616,
    37.63996,
    -122.2126,
    38.5121
  ],
  "geometry": {"coordinates":[[-122.35616,37.63996],[-122.35006,37.64351],[-122.30622,37.66717],[-122.2843,37.68024],[-122.26691,37.6907],[-122.23603,37.70669],[-122.2126,37.73149],[-122.21344,37.77324],[-122.21476,37.78461],[-122.21752,37.83288],[-122.21792,37.85311],[-122.21809,37.86237],[-122.21962,37.91913],[-122.22123,37.97313],[-122.22212,38.00212],[-122.2236,38.05711],[-122.22477,38.106],[-122.22611,38.15155],[-122.22766,38.21026],[-122.2294,38.27699],[-122.23063,38.32126],[-122.23325,38.36875],[-122.23843,38.41847],[-122.24359,38.46901],[-122.2481,38.5121]],"type":"LineString"}
}
