{
  "id": 2014409947,
  "type": "Feature",
  "properties": {
    "geom:area": 0,
    "geom:bbox": "-123.099030,37.444200,-122.126960,38.487640",
    "geom:latitude": 37.862829665348194,
    "geom:longitude": -122.57468262285391,
    "src:alt_label": "swim-approach",
    "src:geom": "swim",
    "swim:elevations": [
      7590,
      7126,
      6995,
      6625,
      6259,
      5978,
      5754,
      5463,
      5325,
      4872,
      4738,
      4334,
      4290,
      3920,
      3549,
      3411,
      3351,
      3353,
      3380,
      3321,
      3141,
      2947,
      2764,
      2466,
      2309,
      2106,
      1961,
      1755,
      1534,
      1379,
      1101,
      1034,
      1036,
      972,
      753,
      639,
      430,
      289,
      243,
      71
    ],
    "swim:geom": "approach",
    "swim:timestamps": [
      1766831552,
      1766831607,
      1766831620,
      1766831655,
      1766831693,
      1766831724,
      1766831744,
      1766831776,
      1766831792,
      1766831841,
      1766831856,
      1766831901,
      1766831913,
      1766831953,
      1766831992,
      1766832029,
      1766832051,
      1766832080,
      1766832106,
      1766832139,
      1766832168,
      1766832192,
      1766832218,
      1766832260,
      1766832289,
      1766832325,
      1766832344,
      1766832372,
      1766832405,
      1766832427,
      1766832473,
      1766832496,
      1766832521,
      1766832541,
      1766832577,
      1766832600,
      1766832643,
      1766832677,
      1766832690,
      1766832728
    ],
    "wof:geomhash": "b3a8458b7ff0f896f8eb3bf343aad280",
    "wof:id": 2014409947,
    "wof:repo": "sfomuseum-data-flights-2025-12"
  },
  "bbox": [
    -123.09903,
    37.4442,
    -122.12696,
    38.48764
  ],
  "geometry": {"coordinates":[[-123.09903,38.48764],[-123.01449,38.40475],[-122.99866,38.38245],[-122.95825,38.32263],[-122.91641,38.2604],[-122.88126,38.2083],[-122.85926,38.17558],[-122.82462,38.12446],[-122.80713,38.09868],[-122.75405,38.01974],[-122.73793,37.99578],[-122.69028,37.92497],[-122.67727,37.90769],[-122.62541,37.85435],[-122.57264,37.80454],[-122.52531,37.76001],[-122.4985,37.7346],[-122.46476,37.70275],[-122.43739,37.67702],[-122.40526,37.64692],[-122.37755,37.62087],[-122.35812,37.59774],[-122.34438,37.56946],[-122.31512,37.52507],[-122.2825,37.50576],[-122.24221,37.48387],[-122.22033,37.47194],[-122.18858,37.45512],[-122.14945,37.4442],[-122.12696,37.45654],[-122.13471,37.49725],[-122.15238,37.51418],[-122.1716,37.5311],[-122.18822,37.5418],[-122.22255,37.55656],[-122.24372,37.5659],[-122.2817,37.58182],[-122.30777,37.5928],[-122.31786,37.59697],[-122.34679,37.60916]],"type":"LineString"}
}
