{
  "id": 2014426429,
  "type": "Feature",
  "properties": {
    "geom:area": 0,
    "geom:bbox": "-122.366010,36.734330,-121.886440,37.614880",
    "geom:latitude": 37.21833071729903,
    "geom:longitude": -122.0746550086678,
    "src:alt_label": "swim-approach",
    "src:geom": "swim",
    "swim:elevations": [
      5277,
      4992,
      4752,
      4629,
      4224,
      4011,
      3928,
      3680,
      3556,
      3355,
      3135,
      2821,
      2680,
      2531,
      2434,
      2183,
      2163,
      1850,
      1766,
      1642,
      1471,
      1241,
      1064,
      943,
      769,
      636,
      573,
      472,
      306,
      184,
      31,
      0
    ],
    "swim:geom": "approach",
    "swim:timestamps": [
      1767033597,
      1767033619,
      1767033647,
      1767033661,
      1767033710,
      1767033747,
      1767033768,
      1767033805,
      1767033819,
      1767033848,
      1767033883,
      1767033924,
      1767033952,
      1767033982,
      1767034011,
      1767034047,
      1767034053,
      1767034100,
      1767034114,
      1767034147,
      1767034187,
      1767034220,
      1767034253,
      1767034273,
      1767034303,
      1767034331,
      1767034346,
      1767034367,
      1767034401,
      1767034433,
      1767034465,
      1767034477
    ],
    "wof:geomhash": "23c7be08d5f93cfe60fcd145568c4dd4",
    "wof:id": 2014426429,
    "wof:repo": "sfomuseum-data-flights-2025-12"
  },
  "bbox": [
    -122.36601,
    36.73433,
    -121.88644,
    37.61488
  ],
  "geometry": {"coordinates":[[-121.88644,36.73433],[-121.90161,36.77001],[-121.91362,36.81578],[-121.91987,36.83777],[-121.94188,36.91296],[-121.95908,36.967],[-121.9701,36.99518],[-121.98828,37.04198],[-121.99537,37.06044],[-122.00945,37.09647],[-122.02671,37.1403],[-122.04586,37.18936],[-122.05812,37.22107],[-122.07103,37.25347],[-122.08341,37.28384],[-122.0982,37.32212],[-122.10055,37.3285],[-122.11908,37.3769],[-122.12444,37.3911],[-122.13586,37.42417],[-122.15081,37.46263],[-122.16554,37.49124],[-122.18392,37.51749],[-122.19503,37.53221],[-122.21468,37.55062],[-122.24082,37.56237],[-122.25525,37.56861],[-122.27499,37.57669],[-122.30402,37.5889],[-122.3297,37.59961],[-122.35559,37.61056],[-122.36601,37.61488]],"type":"LineString"}
}
