{
  "id": 2014438999,
  "type": "Feature",
  "properties": {
    "geom:area": 0,
    "geom:bbox": "-122.363670,37.632500,-121.245270,37.959400",
    "geom:latitude": 37.822460129648,
    "geom:longitude": -121.81456216803699,
    "src:alt_label": "swim-takeoff",
    "src:geom": "swim",
    "swim:elevations": [
      213,
      511,
      565,
      1009,
      1154,
      1466,
      1702,
      2617,
      2901,
      3613,
      3917,
      4146,
      4518,
      4603,
      4890,
      5152,
      5518,
      5575,
      6256,
      6473,
      6891,
      7050,
      7343
    ],
    "swim:geom": "takeoff",
    "swim:timestamps": [
      1767114985,
      1767115016,
      1767115030,
      1767115069,
      1767115091,
      1767115121,
      1767115140,
      1767115189,
      1767115204,
      1767115257,
      1767115288,
      1767115312,
      1767115348,
      1767115353,
      1767115375,
      1767115397,
      1767115435,
      1767115440,
      1767115493,
      1767115513,
      1767115550,
      1767115564,
      1767115596
    ],
    "wof:geomhash": "7b9849df82e2283b3bb7fd48c0d0e171",
    "wof:id": 2014438999,
    "wof:repo": "sfomuseum-data-flights-2025-12"
  },
  "bbox": [
    -122.36367,
    37.6325,
    -121.24527,
    37.9594
  ],
  "geometry": {"coordinates":[[-122.36367,37.6325],[-122.34085,37.64777],[-122.32852,37.65439],[-122.289,37.67718],[-122.26409,37.69159],[-122.22683,37.71091],[-122.20152,37.72385],[-122.13201,37.75679],[-122.10841,37.7629],[-122.02134,37.78228],[-121.96535,37.79526],[-121.9175,37.80659],[-121.84096,37.82415],[-121.82852,37.82701],[-121.78142,37.83755],[-121.73135,37.84899],[-121.64192,37.86949],[-121.62958,37.87232],[-121.50248,37.90138],[-121.45322,37.91257],[-121.36079,37.93352],[-121.32581,37.94132],[-121.24527,37.9594]],"type":"LineString"}
}
