{
  "id": 2014413533,
  "type": "Feature",
  "properties": {
    "geom:area": 0,
    "geom:bbox": "-122.360340,37.634230,-121.274360,37.934710",
    "geom:latitude": 37.76044950914827,
    "geom:longitude": -121.81428837492571,
    "src:alt_label": "swim-takeoff",
    "src:geom": "swim",
    "swim:elevations": [
      367,
      739,
      1266,
      1423,
      1609,
      1970,
      2474,
      2709,
      2970,
      3228,
      3568,
      3665,
      3936,
      4193,
      4565,
      4711,
      5008,
      5294,
      5447,
      5823,
      6115,
      6430,
      6660,
      6825
    ],
    "swim:geom": "takeoff",
    "swim:timestamps": [
      1766904716,
      1766904735,
      1766904770,
      1766904788,
      1766904818,
      1766904854,
      1766904887,
      1766904905,
      1766904923,
      1766904941,
      1766904977,
      1766904995,
      1766905034,
      1766905055,
      1766905091,
      1766905108,
      1766905134,
      1766905165,
      1766905195,
      1766905228,
      1766905249,
      1766905282,
      1766905313,
      1766905337
    ],
    "wof:geomhash": "b7188e8e78d4daa624805ba21b3cc870",
    "wof:id": 2014413533,
    "wof:repo": "sfomuseum-data-flights-2025-12"
  },
  "bbox": [
    -122.36034,
    37.63423,
    -121.27436,
    37.93471
  ],
  "geometry": {"coordinates":[[-122.36034,37.6346],[-122.34341,37.64244],[-122.30769,37.64619],[-122.28623,37.64375],[-122.24696,37.63983],[-122.19083,37.63423],[-122.14033,37.64428],[-122.11336,37.65288],[-122.08629,37.662],[-122.05942,37.67115],[-122.00337,37.69021],[-121.97313,37.70046],[-121.90229,37.72458],[-121.86217,37.73801],[-121.79218,37.76156],[-121.7581,37.77306],[-121.70448,37.79114],[-121.6406,37.8126],[-121.57676,37.83403],[-121.50595,37.85768],[-121.46126,37.8725],[-121.39204,37.89565],[-121.32624,37.9175],[-121.27436,37.93471]],"type":"LineString"}
}
