{
  "id": 2014444427,
  "type": "Feature",
  "properties": {
    "geom:area": 0,
    "geom:bbox": "-122.367860,37.626170,-121.262700,37.984610",
    "geom:latitude": 37.907798401581516,
    "geom:longitude": -121.87806056007867,
    "src:alt_label": "swim-takeoff",
    "src:geom": "swim",
    "swim:elevations": [
      152,
      667,
      775,
      1175,
      1539,
      1833,
      2697,
      2778,
      3381,
      3825,
      4187,
      4660,
      4725,
      5383,
      5728,
      6146,
      6433,
      6610,
      6993,
      7306,
      7492,
      7772,
      7984,
      8276
    ],
    "swim:geom": "takeoff",
    "swim:timestamps": [
      1767190338,
      1767190377,
      1767190398,
      1767190431,
      1767190454,
      1767190470,
      1767190525,
      1767190530,
      1767190578,
      1767190617,
      1767190644,
      1767190677,
      1767190682,
      1767190730,
      1767190753,
      1767190791,
      1767190818,
      1767190842,
      1767190881,
      1767190917,
      1767190938,
      1767190971,
      1767190993,
      1767191031
    ],
    "wof:geomhash": "bd033bb3292c11b3c1aeaecb468a5e47",
    "wof:id": 2014444427,
    "wof:repo": "sfomuseum-data-flights-2025-12"
  },
  "bbox": [
    -122.36786,
    37.62617,
    -121.2627,
    37.98461
  ],
  "geometry": {"coordinates":[[-122.36786,37.62617],[-122.34174,37.64756],[-122.32135,37.65917],[-122.28485,37.68081],[-122.26456,37.70583],[-122.25838,37.72711],[-122.24004,37.80132],[-122.23783,37.80932],[-122.2195,37.87819],[-122.17777,37.92996],[-122.12721,37.94751],[-122.0606,37.95172],[-122.05134,37.95211],[-121.95077,37.95641],[-121.90331,37.95847],[-121.82395,37.96187],[-121.76631,37.96435],[-121.7138,37.96652],[-121.62499,37.97044],[-121.54149,37.97381],[-121.49147,37.97589],[-121.41235,37.9791],[-121.35825,37.98093],[-121.2627,37.98461]],"type":"LineString"}
}
