{
  "id": 2014430577,
  "type": "Feature",
  "properties": {
    "geom:area": 0,
    "geom:bbox": "-122.457810,37.265340,-121.243890,37.705170",
    "geom:latitude": 37.437059004547336,
    "geom:longitude": -121.96006775543181,
    "src:alt_label": "swim-takeoff",
    "src:geom": "swim",
    "swim:elevations": [
      183,
      513,
      906,
      988,
      1151,
      1221,
      1666,
      2196,
      2553,
      2995,
      3216,
      3468,
      3772,
      3949,
      4284,
      4615,
      4934,
      5209,
      5443,
      5695,
      5804,
      6051,
      6252,
      6559,
      6867,
      7080,
      7192,
      7419,
      7627,
      7726
    ],
    "swim:geom": "takeoff",
    "swim:timestamps": [
      1767056365,
      1767056393,
      1767056425,
      1767056433,
      1767056460,
      1767056472,
      1767056513,
      1767056546,
      1767056567,
      1767056602,
      1767056621,
      1767056654,
      1767056696,
      1767056717,
      1767056747,
      1767056783,
      1767056816,
      1767056846,
      1767056876,
      1767056901,
      1767056913,
      1767056946,
      1767056970,
      1767057011,
      1767057053,
      1767057083,
      1767057098,
      1767057135,
      1767057176,
      1767057191
    ],
    "wof:geomhash": "6b1f85b7649b0ad4763031e28eafdfc9",
    "wof:id": 2014430577,
    "wof:repo": "sfomuseum-data-flights-2025-12"
  },
  "bbox": [
    -122.45781,
    37.26534,
    -121.24389,
    37.70517
  ],
  "geometry": {"coordinates":[[-122.36811,37.63019],[-122.36382,37.65094],[-122.36207,37.67454],[-122.36145,37.68063],[-122.37253,37.70008],[-122.3859,37.70517],[-122.43139,37.67992],[-122.43718,37.63773],[-122.44282,37.61132],[-122.45433,37.56761],[-122.45781,37.54228],[-122.4277,37.50499],[-122.3489,37.49268],[-122.30704,37.48447],[-122.24638,37.47049],[-122.17223,37.45276],[-122.1021,37.43694],[-122.03679,37.42434],[-121.97093,37.41184],[-121.91556,37.40111],[-121.88914,37.39559],[-121.81586,37.38041],[-121.76162,37.36961],[-121.66656,37.35093],[-121.56937,37.33153],[-121.49955,37.31751],[-121.46461,37.31037],[-121.37906,37.29294],[-121.27997,37.27273],[-121.24389,37.26534]],"type":"LineString"}
}
