{
  "id": 2014412447,
  "type": "Feature",
  "properties": {
    "geom:area": 0,
    "geom:bbox": "-122.559900,36.719800,-122.168940,37.733990",
    "geom:latitude": 37.26681395541323,
    "geom:longitude": -122.4495409695756,
    "src:alt_label": "swim-takeoff",
    "src:geom": "swim",
    "swim:elevations": [
      152,
      506,
      562,
      1135,
      1357,
      2080,
      2635,
      2733,
      2906,
      3165,
      3483,
      3546,
      3839,
      4241,
      4676,
      4794,
      5310,
      5652,
      6004,
      6279,
      6662,
      6837,
      6950,
      7142,
      7344,
      7598,
      8009,
      8300
    ],
    "swim:geom": "takeoff",
    "swim:timestamps": [
      1766828782,
      1766828816,
      1766828825,
      1766828875,
      1766828886,
      1766828930,
      1766828963,
      1766828969,
      1766828980,
      1766828995,
      1766829028,
      1766829051,
      1766829084,
      1766829116,
      1766829143,
      1766829152,
      1766829193,
      1766829228,
      1766829264,
      1766829292,
      1766829328,
      1766829346,
      1766829362,
      1766829385,
      1766829417,
      1766829445,
      1766829478,
      1766829505
    ],
    "wof:geomhash": "c83bf904aa818d3b294c3a91d8aa74b1",
    "wof:id": 2014412447,
    "wof:repo": "sfomuseum-data-flights-2025-12"
  },
  "bbox": [
    -122.5599,
    36.7198,
    -122.16894,
    37.73399
  ],
  "geometry": {"coordinates":[[-122.37206,37.62428],[-122.36508,37.64595],[-122.36429,37.65282],[-122.36178,37.70244],[-122.36795,37.71382],[-122.42702,37.73399],[-122.47535,37.71615],[-122.48318,37.7109],[-122.49549,37.69785],[-122.50887,37.68094],[-122.5415,37.63836],[-122.55514,37.60135],[-122.55639,37.53759],[-122.55594,37.47487],[-122.55653,37.41929],[-122.55686,37.40046],[-122.55853,37.31529],[-122.5599,37.24259],[-122.55764,37.16415],[-122.53168,37.10504],[-122.47421,37.04312],[-122.44293,37.01021],[-122.41702,36.98276],[-122.37726,36.94049],[-122.32164,36.8815],[-122.27387,36.83098],[-122.21499,36.76864],[-122.16894,36.7198]],"type":"LineString"}
}
