{
  "id": 2014431155,
  "type": "Feature",
  "properties": {
    "geom:area": 0,
    "geom:bbox": "-122.462400,37.158380,-121.251530,37.707240",
    "geom:latitude": 37.3610518810391,
    "geom:longitude": -121.9807113316308,
    "src:alt_label": "swim-takeoff",
    "src:geom": "swim",
    "swim:elevations": [
      152,
      274,
      690,
      1052,
      1082,
      1240,
      1782,
      2405,
      2538,
      3109,
      3828,
      3958,
      4195,
      4326,
      4554,
      4798,
      5413,
      5699,
      6087,
      6265,
      6578,
      6916,
      7235,
      7695,
      7837,
      8134,
      8254,
      8631,
      8908,
      9146,
      9406,
      9449
    ],
    "swim:geom": "takeoff",
    "swim:timestamps": [
      1767028041,
      1767028050,
      1767028077,
      1767028108,
      1767028117,
      1767028140,
      1767028188,
      1767028221,
      1767028230,
      1767028270,
      1767028315,
      1767028339,
      1767028368,
      1767028380,
      1767028398,
      1767028417,
      1767028468,
      1767028494,
      1767028527,
      1767028544,
      1767028571,
      1767028602,
      1767028632,
      1767028678,
      1767028695,
      1767028738,
      1767028750,
      1767028787,
      1767028814,
      1767028841,
      1767028875,
      1767028905
    ],
    "wof:geomhash": "9614a8b91796b80d9d118a864c32651e",
    "wof:id": 2014431155,
    "wof:repo": "sfomuseum-data-flights-2025-12"
  },
  "bbox": [
    -122.4624,
    37.15838,
    -121.25153,
    37.70724
  ],
  "geometry": {"coordinates":[[-122.36811,37.63008],[-122.36411,37.63653],[-122.36213,37.65777],[-122.36131,37.68035],[-122.36189,37.688],[-122.37532,37.70724],[-122.43896,37.70178],[-122.45887,37.66233],[-122.4624,37.65095],[-122.44936,37.59936],[-122.41964,37.54312],[-122.40254,37.51037],[-122.37716,37.46784],[-122.3612,37.4532],[-122.33555,37.43151],[-122.30718,37.40693],[-122.23049,37.34322],[-122.17934,37.32434],[-122.10962,37.31285],[-122.07279,37.3063],[-122.01202,37.29544],[-121.94377,37.28329],[-121.87656,37.27135],[-121.7744,37.25318],[-121.73483,37.24619],[-121.6354,37.22814],[-121.60734,37.22282],[-121.52084,37.20732],[-121.46051,37.19668],[-121.39802,37.18506],[-121.3201,37.17096],[-121.25153,37.15838]],"type":"LineString"}
}
