{
  "id": 2014439439,
  "type": "Feature",
  "properties": {
    "geom:area": 0,
    "geom:bbox": "-123.503140,37.026080,-122.392920,37.667730",
    "geom:latitude": 37.37779279532056,
    "geom:longitude": -122.95450313886117,
    "src:alt_label": "swim-takeoff",
    "src:geom": "swim",
    "swim:elevations": [
      183,
      621,
      909,
      1057,
      1158,
      1203,
      1444,
      1757,
      2195,
      2543,
      2997,
      3149,
      3418,
      3632,
      3840,
      4381,
      4530,
      4925,
      5236,
      5467,
      5772,
      5987,
      6227,
      6479,
      6723,
      6848,
      7037
    ],
    "swim:geom": "takeoff",
    "swim:timestamps": [
      1767094042,
      1767094078,
      1767094102,
      1767094132,
      1767094149,
      1767094155,
      1767094185,
      1767094213,
      1767094246,
      1767094271,
      1767094315,
      1767094330,
      1767094377,
      1767094395,
      1767094411,
      1767094459,
      1767094475,
      1767094509,
      1767094540,
      1767094579,
      1767094617,
      1767094639,
      1767094664,
      1767094699,
      1767094735,
      1767094760,
      1767094788
    ],
    "wof:geomhash": "7409a11d375e07c2f9222f436e1beb4e",
    "wof:id": 2014439439,
    "wof:repo": "sfomuseum-data-flights-2025-12"
  },
  "bbox": [
    -123.50314,
    37.02608,
    -122.39292,
    37.66773
  ],
  "geometry": {"coordinates":[[-122.39292,37.62633],[-122.42804,37.64151],[-122.45123,37.65182],[-122.48201,37.66525],[-122.50428,37.66773],[-122.5125,37.66636],[-122.54791,37.64704],[-122.58128,37.62505],[-122.62266,37.59839],[-122.65415,37.57829],[-122.71266,37.54058],[-122.73357,37.52718],[-122.80332,37.48212],[-122.83351,37.46252],[-122.8592,37.44595],[-122.9366,37.39587],[-122.96175,37.37955],[-123.01906,37.3428],[-123.06953,37.31012],[-123.13612,37.26701],[-123.20119,37.22373],[-123.23902,37.19869],[-123.28102,37.17111],[-123.34394,37.13034],[-123.40635,37.0893],[-123.4507,37.06014],[-123.50314,37.02608]],"type":"LineString"}
}
