{
  "id": 2014409075,
  "type": "Feature",
  "properties": {
    "geom:area": 0,
    "geom:bbox": "-122.357200,37.473850,-121.242450,37.613650",
    "geom:latitude": 37.547061096489294,
    "geom:longitude": -121.80381357084612,
    "src:alt_label": "swim-approach",
    "src:geom": "swim",
    "swim:elevations": [
      4850,
      4643,
      4564,
      4096,
      3876,
      3755,
      3588,
      3381,
      3316,
      3228,
      3176,
      2929,
      2786,
      2550,
      2407,
      2336,
      2134,
      2134,
      2134,
      2134,
      2074,
      2073,
      1951,
      1853,
      1734,
      1529,
      1197,
      1049,
      940,
      823,
      672,
      571,
      358,
      301,
      126,
      63,
      0
    ],
    "swim:geom": "approach",
    "swim:timestamps": [
      1766870723,
      1766870754,
      1766870768,
      1766870818,
      1766870841,
      1766870853,
      1766870871,
      1766870905,
      1766870937,
      1766870959,
      1766870970,
      1766871021,
      1766871044,
      1766871086,
      1766871113,
      1766871128,
      1766871170,
      1766871178,
      1766871200,
      1766871219,
      1766871237,
      1766871243,
      1766871267,
      1766871288,
      1766871306,
      1766871333,
      1766871383,
      1766871414,
      1766871438,
      1766871461,
      1766871494,
      1766871519,
      1766871563,
      1766871578,
      1766871618,
      1766871633,
      1766871645
    ],
    "wof:geomhash": "1c120c3b379254a868d16ccce8a8c27a",
    "wof:id": 2014409075,
    "wof:repo": "sfomuseum-data-flights-2025-12"
  },
  "bbox": [
    -122.3572,
    37.47385,
    -121.24245,
    37.61365
  ],
  "geometry": {"coordinates":[[-121.24245,37.59539],[-121.30269,37.58766],[-121.32797,37.58494],[-121.41855,37.57506],[-121.45825,37.57035],[-121.47883,37.56777],[-121.50966,37.56418],[-121.567,37.5576],[-121.61748,37.5518],[-121.65045,37.55641],[-121.66552,37.56059],[-121.73378,37.57],[-121.75756,37.55102],[-121.78175,37.50598],[-121.80143,37.47965],[-121.82065,37.47385],[-121.8769,37.48034],[-121.88692,37.4816],[-121.91757,37.48538],[-121.94346,37.48852],[-121.96734,37.49157],[-121.97491,37.49251],[-122.00265,37.49929],[-122.02484,37.50648],[-122.04283,37.51234],[-122.06947,37.52125],[-122.11772,37.53677],[-122.14788,37.54669],[-122.17112,37.5541],[-122.19391,37.56147],[-122.22585,37.57186],[-122.24857,37.57911],[-122.28922,37.5911],[-122.30198,37.5949],[-122.33557,37.60498],[-122.34769,37.60952],[-122.3572,37.61365]],"type":"LineString"}
}
