{
  "id": 2014447659,
  "type": "Feature",
  "properties": {
    "geom:area": 0,
    "geom:bbox": "-122.362890,37.634000,-121.243440,38.426020",
    "geom:latitude": 38.0399686105819,
    "geom:longitude": -121.81256901216335,
    "src:alt_label": "swim-takeoff",
    "src:geom": "swim",
    "swim:elevations": [
      183,
      619,
      1093,
      1330,
      1601,
      1877,
      2280,
      3076,
      3157,
      3517,
      3851,
      3908,
      4155,
      4495,
      4846,
      5349,
      5521,
      6198,
      6390,
      6920,
      7325,
      7390,
      7669,
      7748,
      8257,
      8322,
      8522
    ],
    "swim:geom": "takeoff",
    "swim:timestamps": [
      1767171382,
      1767171410,
      1767171446,
      1767171474,
      1767171503,
      1767171521,
      1767171551,
      1767171597,
      1767171602,
      1767171651,
      1767171687,
      1767171696,
      1767171748,
      1767171770,
      1767171794,
      1767171829,
      1767171841,
      1767171890,
      1767171905,
      1767171950,
      1767171982,
      1767171988,
      1767172011,
      1767172021,
      1767172078,
      1767172087,
      1767172112
    ],
    "wof:geomhash": "bccd32f8c6002a663f9a095c6a14f9e5",
    "wof:id": 2014447659,
    "wof:repo": "sfomuseum-data-flights-2025-12"
  },
  "bbox": [
    -122.36289,
    37.634,
    -121.24344,
    38.42602
  ],
  "geometry": {"coordinates":[[-122.36289,37.634],[-122.34578,37.65095],[-122.31304,37.66705],[-122.28519,37.68113],[-122.25136,37.69805],[-122.22813,37.71035],[-122.19423,37.73847],[-122.14894,37.7901],[-122.14391,37.79567],[-122.08796,37.85746],[-122.03172,37.90469],[-122.01656,37.91494],[-121.92981,37.97361],[-121.89252,37.99878],[-121.85163,38.02646],[-121.79058,38.0675],[-121.76777,38.0828],[-121.68106,38.14115],[-121.65326,38.15992],[-121.56959,38.21611],[-121.50736,38.25759],[-121.49583,38.26534],[-121.45098,38.29529],[-121.43145,38.30821],[-121.3166,38.38209],[-121.29693,38.39423],[-121.24344,38.42602]],"type":"LineString"}
}
