{
  "id": 2014429201,
  "type": "Feature",
  "properties": {
    "geom:area": 0,
    "geom:bbox": "-122.359180,37.637900,-121.256230,37.955820",
    "geom:latitude": 37.81917608316846,
    "geom:longitude": -121.81607326083207,
    "src:alt_label": "swim-takeoff",
    "src:geom": "swim",
    "swim:elevations": [
      470,
      636,
      810,
      835,
      1086,
      1756,
      2122,
      2415,
      2865,
      3070,
      3185,
      3361,
      3597,
      3845,
      4081,
      4309,
      4563,
      4700,
      4866,
      5175,
      5446,
      5622,
      5944,
      6160,
      6545
    ],
    "swim:geom": "takeoff",
    "swim:timestamps": [
      1766995645,
      1766995672,
      1766995705,
      1766995712,
      1766995740,
      1766995793,
      1766995814,
      1766995835,
      1766995868,
      1766995886,
      1766995910,
      1766995944,
      1766995972,
      1766995990,
      1766996005,
      1766996023,
      1766996046,
      1766996058,
      1766996076,
      1766996106,
      1766996146,
      1766996168,
      1766996201,
      1766996232,
      1766996276
    ],
    "wof:geomhash": "04d643dfe8ea7f1d087e3d862813d93f",
    "wof:id": 2014429201,
    "wof:repo": "sfomuseum-data-flights-2025-12"
  },
  "bbox": [
    -122.35918,
    37.6379,
    -121.25623,
    37.95582
  ],
  "geometry": {"coordinates":[[-122.35918,37.6379],[-122.33919,37.64889],[-122.30882,37.66568],[-122.30218,37.66954],[-122.27015,37.68836],[-122.20069,37.72466],[-122.17199,37.73825],[-122.14084,37.74678],[-122.0903,37.75981],[-122.06237,37.76672],[-122.02183,37.77643],[-121.9587,37.79148],[-121.90331,37.80424],[-121.86681,37.8128],[-121.83645,37.81993],[-121.80026,37.82842],[-121.75361,37.83935],[-121.72901,37.8451],[-121.69187,37.85403],[-121.62905,37.86904],[-121.5445,37.88888],[-121.49662,37.9],[-121.4241,37.91712],[-121.3552,37.93277],[-121.25623,37.95582]],"type":"LineString"}
}
