{
  "id": 2014426301,
  "type": "Feature",
  "properties": {
    "geom:area": 0,
    "geom:bbox": "-122.350130,37.491520,-121.266100,37.610510",
    "geom:latitude": 37.54535144523239,
    "geom:longitude": -121.81273362431419,
    "src:alt_label": "swim-approach",
    "src:geom": "swim",
    "swim:elevations": [
      4596,
      4421,
      3994,
      3859,
      3779,
      3780,
      3701,
      3519,
      3340,
      3041,
      2908,
      2607,
      2350,
      2110,
      1869,
      1822,
      1793,
      1620,
      1508,
      1355,
      1295,
      778,
      757,
      546,
      416,
      297,
      154,
      63
    ],
    "swim:geom": "approach",
    "swim:timestamps": [
      1767006207,
      1767006225,
      1767006264,
      1767006282,
      1767006323,
      1767006332,
      1767006380,
      1767006417,
      1767006436,
      1767006477,
      1767006490,
      1767006528,
      1767006559,
      1767006588,
      1767006619,
      1767006657,
      1767006665,
      1767006690,
      1767006732,
      1767006771,
      1767006781,
      1767006836,
      1767006840,
      1767006880,
      1767006906,
      1767006945,
      1767006976,
      1767007005
    ],
    "wof:geomhash": "158f23d0ab848b61001d9b0f39a9175f",
    "wof:id": 2014426301,
    "wof:repo": "sfomuseum-data-flights-2025-12"
  },
  "bbox": [
    -122.35013,
    37.49152,
    -121.2661,
    37.61051
  ],
  "geometry": {"coordinates":[[-121.2661,37.59194],[-121.30605,37.5869],[-121.39215,37.57754],[-121.43209,37.57301],[-121.51373,37.56337],[-121.53211,37.56117],[-121.61569,37.55149],[-121.67259,37.53881],[-121.70086,37.53228],[-121.75953,37.51839],[-121.7785,37.51383],[-121.83179,37.50115],[-121.87368,37.49152],[-121.9144,37.49191],[-121.95666,37.49287],[-122.00683,37.50114],[-122.01714,37.50473],[-122.04688,37.51409],[-122.09951,37.53079],[-122.14249,37.54467],[-122.15182,37.54764],[-122.20594,37.56516],[-122.20971,37.56636],[-122.25033,37.5795],[-122.27321,37.58674],[-122.30465,37.59548],[-122.32855,37.60282],[-122.35013,37.61051]],"type":"LineString"}
}
