{
  "id": 2014445171,
  "type": "Feature",
  "properties": {
    "geom:area": 0,
    "geom:bbox": "-123.506220,37.088110,-122.401970,37.664910",
    "geom:latitude": 37.39303096104108,
    "geom:longitude": -122.95327859949224,
    "src:alt_label": "swim-takeoff",
    "src:geom": "swim",
    "swim:elevations": [
      213,
      465,
      918,
      1071,
      1272,
      1462,
      1949,
      2109,
      2433,
      2759,
      3097,
      3224,
      3296,
      3349,
      3401,
      3558,
      3718,
      3987,
      4089,
      4359,
      4667,
      4956,
      5119,
      5245,
      5443,
      5608
    ],
    "swim:geom": "takeoff",
    "swim:timestamps": [
      1767212868,
      1767212888,
      1767212932,
      1767212961,
      1767212989,
      1767213004,
      1767213047,
      1767213062,
      1767213095,
      1767213132,
      1767213176,
      1767213203,
      1767213221,
      1767213233,
      1767213248,
      1767213296,
      1767213323,
      1767213357,
      1767213371,
      1767213405,
      1767213434,
      1767213475,
      1767213500,
      1767213521,
      1767213561,
      1767213586
    ],
    "wof:geomhash": "3d5776abdc3919b487af81314041853d",
    "wof:id": 2014445171,
    "wof:repo": "sfomuseum-data-flights-2025-12"
  },
  "bbox": [
    -123.50622,
    37.08811,
    -122.40197,
    37.66491
  ],
  "geometry": {"coordinates":[[-122.40197,37.62981],[-122.42136,37.63839],[-122.4671,37.65897],[-122.50565,37.66491],[-122.54083,37.65088],[-122.55851,37.63926],[-122.60921,37.60682],[-122.6278,37.59496],[-122.66946,37.56832],[-122.71797,37.53721],[-122.77537,37.50012],[-122.81271,37.47605],[-122.83902,37.45896],[-122.85699,37.44742],[-122.87989,37.43255],[-122.95744,37.38243],[-123.00427,37.35335],[-123.06757,37.31872],[-123.09407,37.30451],[-123.15823,37.27004],[-123.21239,37.24137],[-123.29017,37.20015],[-123.33851,37.17509],[-123.37922,37.15402],[-123.45753,37.11351],[-123.50622,37.08811]],"type":"LineString"}
}
