{
  "id": 2014417159,
  "type": "Feature",
  "properties": {
    "geom:area": 0,
    "geom:bbox": "-122.759770,37.414870,-122.123880,38.506540",
    "geom:latitude": 37.82276718728664,
    "geom:longitude": -122.48771214925851,
    "src:alt_label": "swim-approach",
    "src:geom": "swim",
    "swim:elevations": [
      6902,
      6568,
      6405,
      6266,
      5856,
      5706,
      5543,
      5245,
      4932,
      4627,
      4253,
      4196,
      4111,
      3842,
      3600,
      3354,
      3355,
      3353,
      3353,
      3157,
      3087,
      2989,
      2871,
      2807,
      2536,
      2157,
      2004,
      1586,
      1519,
      1371,
      1281,
      1187,
      1141,
      945,
      787,
      719,
      631,
      401,
      298,
      258,
      37,
      0
    ],
    "swim:geom": "approach",
    "swim:timestamps": [
      1766920690,
      1766920732,
      1766920754,
      1766920770,
      1766920820,
      1766920847,
      1766920870,
      1766920913,
      1766920943,
      1766920972,
      1766921005,
      1766921013,
      1766921042,
      1766921081,
      1766921114,
      1766921155,
      1766921168,
      1766921201,
      1766921229,
      1766921266,
      1766921276,
      1766921293,
      1766921324,
      1766921342,
      1766921384,
      1766921420,
      1766921432,
      1766921481,
      1766921497,
      1766921528,
      1766921556,
      1766921599,
      1766921611,
      1766921654,
      1766921683,
      1766921699,
      1766921716,
      1766921757,
      1766921787,
      1766921792,
      1766921847,
      1766921857
    ],
    "wof:geomhash": "729c700da90522e6774d328d2d937097",
    "wof:id": 2014417159,
    "wof:repo": "sfomuseum-data-flights-2025-12"
  },
  "bbox": [
    -122.75977,
    37.41487,
    -122.12388,
    38.50654
  ],
  "geometry": {"coordinates":[[-122.68858,38.50654],[-122.71343,38.418],[-122.72593,38.3733],[-122.73508,38.3407],[-122.75977,38.24043],[-122.75595,38.18625],[-122.74339,38.14187],[-122.7199,38.05971],[-122.70342,38.00462],[-122.68836,37.95244],[-122.66481,37.89333],[-122.6589,37.87914],[-122.627,37.83449],[-122.56502,37.79136],[-122.51757,37.75265],[-122.46487,37.70281],[-122.44922,37.68805],[-122.41174,37.6529],[-122.38127,37.62428],[-122.34748,37.58281],[-122.34052,37.57057],[-122.32879,37.5498],[-122.30815,37.51294],[-122.29621,37.49148],[-122.26863,37.44445],[-122.22577,37.42265],[-122.20813,37.41799],[-122.14431,37.41487],[-122.13372,37.42668],[-122.12523,37.45085],[-122.12388,37.47323],[-122.15099,37.50329],[-122.15905,37.5108],[-122.19283,37.53454],[-122.21879,37.54801],[-122.23242,37.55474],[-122.24757,37.56272],[-122.28267,37.57909],[-122.30683,37.59],[-122.3114,37.59197],[-122.356,37.6107],[-122.36332,37.61396]],"type":"LineString"}
}
