{
  "id": 2014424439,
  "type": "Feature",
  "properties": {
    "geom:area": 0,
    "geom:bbox": "-122.360270,37.461520,-121.244930,37.612550",
    "geom:latitude": 37.53826064622673,
    "geom:longitude": -121.81178357568395,
    "src:alt_label": "swim-approach",
    "src:geom": "swim",
    "swim:elevations": [
      4504,
      4203,
      4167,
      3697,
      3431,
      3238,
      3199,
      3057,
      2766,
      2586,
      2459,
      2213,
      2134,
      2072,
      1827,
      1829,
      1622,
      1352,
      1253,
      1198,
      1008,
      795,
      628,
      472,
      384,
      307,
      102,
      0
    ],
    "swim:geom": "approach",
    "swim:timestamps": [
      1767006296,
      1767006327,
      1767006332,
      1767006388,
      1767006417,
      1767006440,
      1767006450,
      1767006483,
      1767006528,
      1767006559,
      1767006588,
      1767006627,
      1767006639,
      1767006665,
      1767006718,
      1767006732,
      1767006765,
      1767006803,
      1767006813,
      1767006846,
      1767006877,
      1767006920,
      1767006953,
      1767006984,
      1767007008,
      1767007024,
      1767007075,
      1767007096
    ],
    "wof:geomhash": "d4d43ee0d0e707def182a00d7ed00c4a",
    "wof:id": 2014424439,
    "wof:repo": "sfomuseum-data-flights-2025-12"
  },
  "bbox": [
    -122.36027,
    37.46152,
    -121.24493,
    37.61255
  ],
  "geometry": {"coordinates":[[-121.24493,37.59503],[-121.31405,37.58669],[-121.32565,37.58545],[-121.44421,37.57228],[-121.50414,37.5654],[-121.54992,37.5601],[-121.56883,37.55781],[-121.62891,37.54937],[-121.7035,37.53183],[-121.75227,37.52029],[-121.79734,37.50896],[-121.85492,37.49528],[-121.87304,37.49102],[-121.91061,37.48169],[-121.97946,37.46312],[-121.99804,37.46152],[-122.03733,37.47616],[-122.08177,37.49499],[-122.09367,37.50002],[-122.13158,37.51636],[-122.16487,37.53034],[-122.20839,37.54852],[-122.24106,37.56239],[-122.26893,37.57414],[-122.28771,37.58198],[-122.30085,37.58755],[-122.34268,37.60515],[-122.36027,37.61255]],"type":"LineString"}
}
