{
  "id": 2014407791,
  "type": "Feature",
  "properties": {
    "geom:area": 0,
    "geom:bbox": "-123.178360,37.399860,-122.096890,38.493830",
    "geom:latitude": 37.866553558877975,
    "geom:longitude": -122.56234937733618,
    "src:alt_label": "swim-approach",
    "src:geom": "swim",
    "swim:elevations": [
      7590,
      7431,
      7257,
      7065,
      6838,
      6639,
      6410,
      6241,
      6063,
      5711,
      5582,
      5566,
      5376,
      5156,
      4862,
      4778,
      4213,
      3847,
      3756,
      3537,
      3385,
      3354,
      3353,
      3353,
      3353,
      3306,
      3050,
      2931,
      2656,
      2572,
      2248,
      1946,
      1858,
      1582,
      1530,
      1469,
      1458,
      1205,
      1118,
      1082,
      958,
      795,
      642,
      516,
      364,
      306,
      89,
      63
    ],
    "swim:geom": "approach",
    "swim:timestamps": [
      1766828671,
      1766828705,
      1766828740,
      1766828783,
      1766828816,
      1766828843,
      1766828875,
      1766828897,
      1766828921,
      1766828969,
      1766828988,
      1766828995,
      1766829025,
      1766829056,
      1766829084,
      1766829094,
      1766829140,
      1766829169,
      1766829180,
      1766829205,
      1766829228,
      1766829240,
      1766829277,
      1766829328,
      1766829358,
      1766829385,
      1766829417,
      1766829435,
      1766829473,
      1766829485,
      1766829529,
      1766829568,
      1766829580,
      1766829622,
      1766829633,
      1766829686,
      1766829690,
      1766829744,
      1766829765,
      1766829806,
      1766829835,
      1766829861,
      1766829893,
      1766829919,
      1766829953,
      1766829968,
      1766830018,
      1766830025
    ],
    "wof:geomhash": "d11d45bf63c604d4bef9f7c6c0290c9e",
    "wof:id": 2014407791,
    "wof:repo": "sfomuseum-data-flights-2025-12"
  },
  "bbox": [
    -123.17836,
    37.39986,
    -122.09689,
    38.49383
  ],
  "geometry": {"coordinates":[[-123.17836,38.49383],[-123.11098,38.44934],[-123.04687,38.40843],[-122.96989,38.35798],[-122.91333,38.32083],[-122.86869,38.29138],[-122.81477,38.25591],[-122.78215,38.2309],[-122.75895,38.19474],[-122.73547,38.11594],[-122.72673,38.08496],[-122.72327,38.07308],[-122.70936,38.02444],[-122.6956,37.97623],[-122.68268,37.93166],[-122.67815,37.91775],[-122.62957,37.85798],[-122.59406,37.8244],[-122.58152,37.81283],[-122.55077,37.7842],[-122.5248,37.75984],[-122.5107,37.74646],[-122.46875,37.7066],[-122.41048,37.6517],[-122.37797,37.62099],[-122.35472,37.59327],[-122.33621,37.55488],[-122.32501,37.53482],[-122.29859,37.49138],[-122.29022,37.47829],[-122.26045,37.43132],[-122.2188,37.40556],[-122.20333,37.40234],[-122.14727,37.39986],[-122.13298,37.40471],[-122.0981,37.44658],[-122.09689,37.45006],[-122.11574,37.49191],[-122.12984,37.50658],[-122.16148,37.53105],[-122.1887,37.54252],[-122.21348,37.55315],[-122.24314,37.5656],[-122.26609,37.57524],[-122.29352,37.58682],[-122.30457,37.59139],[-122.34412,37.60804],[-122.34919,37.61019]],"type":"LineString"}
}
