{
  "id": 2014419511,
  "type": "Feature",
  "properties": {
    "geom:area": 0,
    "geom:bbox": "-122.523490,36.727190,-122.113110,37.711900",
    "geom:latitude": 37.2336081137483,
    "geom:longitude": -122.39146167152694,
    "src:alt_label": "swim-takeoff",
    "src:geom": "swim",
    "swim:elevations": [
      122,
      355,
      580,
      1096,
      1295,
      1996,
      2205,
      3019,
      3232,
      3460,
      4120,
      4361,
      4704,
      4937,
      5143,
      5380,
      5445,
      5548,
      5912,
      6285,
      6472,
      6824,
      6962,
      7334,
      7498,
      7591
    ],
    "swim:geom": "takeoff",
    "swim:timestamps": [
      1766924871,
      1766924890,
      1766924919,
      1766924965,
      1766924979,
      1766925026,
      1766925039,
      1766925101,
      1766925123,
      1766925152,
      1766925208,
      1766925227,
      1766925259,
      1766925281,
      1766925304,
      1766925333,
      1766925342,
      1766925371,
      1766925405,
      1766925443,
      1766925461,
      1766925500,
      1766925519,
      1766925568,
      1766925587,
      1766925601
    ],
    "wof:geomhash": "ecb2e7551ddbfb70d54493749e5f5664",
    "wof:id": 2014419511,
    "wof:repo": "sfomuseum-data-flights-2025-12"
  },
  "bbox": [
    -122.52349,
    36.72719,
    -122.11311,
    37.7119
  ],
  "geometry": {"coordinates":[[-122.36836,37.62994],[-122.36255,37.64407],[-122.36376,37.67076],[-122.38866,37.71102],[-122.40935,37.7119],[-122.4469,37.66334],[-122.4497,37.64572],[-122.46307,37.55985],[-122.4683,37.52776],[-122.47587,37.48208],[-122.49321,37.39041],[-122.49929,37.3578],[-122.50956,37.30265],[-122.51654,37.26405],[-122.52349,37.22386],[-122.50671,37.17126],[-122.49459,37.15726],[-122.45426,37.11354],[-122.40441,37.05751],[-122.34958,36.99532],[-122.32337,36.9657],[-122.26751,36.90244],[-122.2395,36.87062],[-122.16409,36.78518],[-122.13494,36.75213],[-122.11311,36.72719]],"type":"LineString"}
}
