{
  "id": 2014438989,
  "type": "Feature",
  "properties": {
    "geom:area": 0,
    "geom:bbox": "-122.539880,36.731330,-122.181030,37.719230",
    "geom:latitude": 37.24464552827155,
    "geom:longitude": -122.4286977083023,
    "src:alt_label": "swim-takeoff",
    "src:geom": "swim",
    "swim:elevations": [
      213,
      530,
      805,
      1038,
      1443,
      1738,
      2399,
      2608,
      3201,
      3354,
      3477,
      3729,
      4377,
      4486,
      5114,
      5186,
      5322,
      5518,
      5967,
      6083,
      6360,
      6703,
      6892,
      7171,
      7389,
      7583,
      7737,
      8087,
      8199
    ],
    "swim:geom": "takeoff",
    "swim:timestamps": [
      1767127427,
      1767127454,
      1767127492,
      1767127508,
      1767127539,
      1767127572,
      1767127616,
      1767127628,
      1767127676,
      1767127706,
      1767127731,
      1767127751,
      1767127796,
      1767127805,
      1767127857,
      1767127862,
      1767127874,
      1767127898,
      1767127945,
      1767127956,
      1767127984,
      1767128019,
      1767128036,
      1767128067,
      1767128090,
      1767128111,
      1767128133,
      1767128188,
      1767128200
    ],
    "wof:geomhash": "99e61ae7e410cf4b4c0f2e4efc39ef17",
    "wof:id": 2014438989,
    "wof:repo": "sfomuseum-data-flights-2025-12"
  },
  "bbox": [
    -122.53988,
    36.73133,
    -122.18103,
    37.71923
  ],
  "geometry": {"coordinates":[[-122.36592,37.63397],[-122.36309,37.6548],[-122.36244,37.69125],[-122.3715,37.70587],[-122.40924,37.71923],[-122.44965,37.69934],[-122.46477,37.64634],[-122.46707,37.63166],[-122.47634,37.57123],[-122.48287,37.5291],[-122.48889,37.49054],[-122.49402,37.45822],[-122.50525,37.38612],[-122.50749,37.3715],[-122.521,37.28455],[-122.52241,37.27539],[-122.52561,37.25493],[-122.53183,37.21483],[-122.53988,37.1306],[-122.53223,37.11123],[-122.49586,37.0683],[-122.44684,37.01622],[-122.42225,36.98999],[-122.3786,36.94349],[-122.34434,36.90703],[-122.3135,36.87425],[-122.28194,36.84023],[-122.19996,36.75155],[-122.18103,36.73133]],"type":"LineString"}
}
