{
  "id": 2014418443,
  "type": "Feature",
  "properties": {
    "geom:area": 0,
    "geom:bbox": "-123.216310,37.553730,-122.134860,38.514110",
    "geom:latitude": 37.932753157227516,
    "geom:longitude": -122.64121245365881,
    "src:alt_label": "swim-approach",
    "src:geom": "swim",
    "swim:elevations": [
      8077,
      7878,
      7417,
      7257,
      6980,
      6601,
      6105,
      5981,
      5799,
      5486,
      5475,
      5181,
      4924,
      4765,
      4422,
      4327,
      4170,
      3893,
      3710,
      3621,
      3354,
      3370,
      3355,
      3269,
      3152,
      2673,
      2516,
      2127,
      1956,
      1741,
      1548,
      1413,
      1336,
      1258,
      1165,
      882,
      761,
      541,
      364,
      226,
      131,
      0
    ],
    "swim:geom": "approach",
    "swim:timestamps": [
      1766990484,
      1766990501,
      1766990543,
      1766990560,
      1766990587,
      1766990621,
      1766990668,
      1766990680,
      1766990697,
      1766990724,
      1766990730,
      1766990757,
      1766990782,
      1766990796,
      1766990828,
      1766990850,
      1766990886,
      1766990920,
      1766990938,
      1766990947,
      1766990992,
      1766991028,
      1766991058,
      1766991073,
      1766991095,
      1766991148,
      1766991165,
      1766991207,
      1766991233,
      1766991267,
      1766991298,
      1766991320,
      1766991337,
      1766991357,
      1766991377,
      1766991410,
      1766991425,
      1766991457,
      1766991491,
      1766991527,
      1766991550,
      1766991577
    ],
    "wof:geomhash": "cfda32384d5ab48a9864e267c948a753",
    "wof:id": 2014418443,
    "wof:repo": "sfomuseum-data-flights-2025-12"
  },
  "bbox": [
    -123.21631,
    37.55373,
    -122.13486,
    38.51411
  ],
  "geometry": {"coordinates":[[-123.21631,38.51411],[-123.18891,38.48376],[-123.1255,38.4122],[-123.10093,38.38434],[-123.06052,38.33888],[-123.0109,38.28295],[-122.94453,38.20785],[-122.92884,38.19012],[-122.90425,38.16227],[-122.86734,38.12036],[-122.85916,38.11104],[-122.82216,38.06916],[-122.78839,38.03072],[-122.77113,38.01105],[-122.72771,37.96156],[-122.7005,37.93041],[-122.65592,37.88293],[-122.6116,37.84137],[-122.58871,37.81975],[-122.57736,37.8091],[-122.52205,37.75694],[-122.48313,37.7201],[-122.44503,37.70309],[-122.42539,37.697],[-122.39771,37.68873],[-122.33035,37.67009],[-122.30777,37.66531],[-122.25411,37.65392],[-122.22221,37.64711],[-122.18074,37.63459],[-122.15061,37.61344],[-122.13486,37.59482],[-122.13629,37.57888],[-122.14561,37.56132],[-122.16661,37.55373],[-122.20234,37.56335],[-122.21822,37.56891],[-122.25151,37.57986],[-122.28636,37.58988],[-122.3186,37.59892],[-122.33825,37.60569],[-122.35957,37.61499]],"type":"LineString"}
}
