{
  "id": 2014433189,
  "type": "Feature",
  "properties": {
    "geom:area": 0,
    "geom:bbox": "-123.499010,36.969200,-122.191370,37.608650",
    "geom:latitude": 37.27557392589302,
    "geom:longitude": -122.76248303958653,
    "src:alt_label": "swim-approach",
    "src:geom": "swim",
    "swim:elevations": [
      6552,
      6509,
      6001,
      5620,
      5546,
      5331,
      4952,
      4573,
      4154,
      3714,
      3464,
      3314,
      3049,
      3048,
      3048,
      3048,
      3021,
      2735,
      2628,
      2371,
      2218,
      2017,
      1867,
      1829,
      1829,
      1802,
      1748,
      1434,
      1322,
      1124,
      987,
      702,
      520,
      386,
      217,
      92,
      56
    ],
    "swim:geom": "approach",
    "swim:timestamps": [
      1767101608,
      1767101611,
      1767101658,
      1767101698,
      1767101707,
      1767101732,
      1767101762,
      1767101794,
      1767101832,
      1767101874,
      1767101905,
      1767101917,
      1767101965,
      1767101992,
      1767102024,
      1767102036,
      1767102066,
      1767102115,
      1767102127,
      1767102177,
      1767102199,
      1767102227,
      1767102251,
      1767102297,
      1767102309,
      1767102325,
      1767102333,
      1767102378,
      1767102403,
      1767102435,
      1767102462,
      1767102508,
      1767102537,
      1767102565,
      1767102598,
      1767102627,
      1767102635
    ],
    "wof:geomhash": "e457e588e11eb0fddce83ed4bf58ff29",
    "wof:id": 2014433189,
    "wof:repo": "sfomuseum-data-flights-2025-12"
  },
  "bbox": [
    -123.49901,
    36.9692,
    -122.19137,
    37.60865
  ],
  "geometry": {"coordinates":[[-123.49901,36.9692],[-123.49235,36.9726],[-123.39249,37.01756],[-123.31139,37.05479],[-123.29372,37.06296],[-123.24507,37.08506],[-123.18498,37.11213],[-123.12296,37.14039],[-123.05076,37.17298],[-122.97517,37.20721],[-122.92297,37.23074],[-122.90325,37.23964],[-122.82325,37.26685],[-122.77968,37.27708],[-122.72523,37.28975],[-122.70452,37.29461],[-122.65373,37.30673],[-122.57695,37.32428],[-122.55782,37.32875],[-122.48202,37.3463],[-122.45081,37.35345],[-122.41012,37.36303],[-122.3761,37.37082],[-122.3116,37.38546],[-122.29581,37.38908],[-122.27409,37.39546],[-122.26523,37.40099],[-122.22853,37.4482],[-122.21065,37.47342],[-122.19137,37.50708],[-122.19798,37.53795],[-122.2419,37.56099],[-122.27034,37.57445],[-122.29507,37.58512],[-122.32161,37.5961],[-122.34488,37.606],[-122.35111,37.60865]],"type":"LineString"}
}
