{
  "id": 2014413761,
  "type": "Feature",
  "properties": {
    "geom:area": 0,
    "geom:bbox": "-122.349260,37.644390,-121.318530,37.946100",
    "geom:latitude": 37.82295736502688,
    "geom:longitude": -121.84388368959897,
    "src:alt_label": "swim-takeoff",
    "src:geom": "swim",
    "swim:elevations": [
      467,
      662,
      1121,
      1454,
      1787,
      2284,
      2537,
      3212,
      3560,
      3591,
      3824,
      4248,
      4680,
      4958,
      5092,
      5633,
      5937,
      6129,
      6659,
      6909,
      6960
    ],
    "swim:geom": "takeoff",
    "swim:timestamps": [
      1766831968,
      1766831981,
      1766832021,
      1766832053,
      1766832072,
      1766832106,
      1766832121,
      1766832175,
      1766832206,
      1766832212,
      1766832244,
      1766832283,
      1766832325,
      1766832348,
      1766832360,
      1766832412,
      1766832437,
      1766832452,
      1766832506,
      1766832536,
      1766832541
    ],
    "wof:geomhash": "85cb5a10ea57f4fed2b6088dd8d44ed6",
    "wof:id": 2014413761,
    "wof:repo": "sfomuseum-data-flights-2025-12"
  },
  "bbox": [
    -122.34926,
    37.64439,
    -121.31853,
    37.9461
  ],
  "geometry": {"coordinates":[[-122.34926,37.64439],[-122.33887,37.65017],[-122.30412,37.66892],[-122.27068,37.68792],[-122.24907,37.69933],[-122.2083,37.72035],[-122.1901,37.72959],[-122.11931,37.76613],[-122.07184,37.78473],[-122.06063,37.78729],[-122.00082,37.7998],[-121.92028,37.81684],[-121.82955,37.83663],[-121.77559,37.84853],[-121.74841,37.8544],[-121.62863,37.88021],[-121.57069,37.89264],[-121.53463,37.90028],[-121.4037,37.92811],[-121.33002,37.9437],[-121.31853,37.9461]],"type":"LineString"}
}
