{
  "id": 2014413691,
  "type": "Feature",
  "properties": {
    "geom:area": 0,
    "geom:bbox": "-122.386140,37.637320,-121.248100,37.991300",
    "geom:latitude": 37.93667027126549,
    "geom:longitude": -121.93789828977783,
    "src:alt_label": "swim-takeoff",
    "src:geom": "swim",
    "swim:elevations": [
      331,
      500,
      825,
      966,
      1178,
      1383,
      1702,
      1847,
      2258,
      2594,
      2773,
      3232,
      3430,
      3645,
      3993,
      4241,
      4771,
      4940,
      5127,
      5475,
      5728,
      5846,
      6194,
      6639,
      6890,
      7071,
      7359,
      7538,
      7699
    ],
    "swim:geom": "takeoff",
    "swim:timestamps": [
      1766880259,
      1766880270,
      1766880298,
      1766880311,
      1766880347,
      1766880381,
      1766880414,
      1766880437,
      1766880470,
      1766880497,
      1766880512,
      1766880553,
      1766880591,
      1766880616,
      1766880655,
      1766880685,
      1766880718,
      1766880742,
      1766880760,
      1766880793,
      1766880829,
      1766880842,
      1766880877,
      1766880928,
      1766880955,
      1766880976,
      1766881012,
      1766881033,
      1766881052
    ],
    "wof:geomhash": "3154c399f94a2eaa7df83bfa6ab07fc5",
    "wof:id": 2014413691,
    "wof:repo": "sfomuseum-data-flights-2025-12"
  },
  "bbox": [
    -122.38614,
    37.63732,
    -121.2481,
    37.9913
  ],
  "geometry": {"coordinates":[[-122.36008,37.63732],[-122.35402,37.64335],[-122.33631,37.65761],[-122.32908,37.66366],[-122.30668,37.68436],[-122.31713,37.71366],[-122.335,37.7438],[-122.34791,37.76808],[-122.36622,37.80517],[-122.38154,37.83629],[-122.38614,37.8548],[-122.38422,37.907],[-122.34852,37.94916],[-122.3008,37.95979],[-122.2225,37.97316],[-122.15691,37.98538],[-122.08283,37.98878],[-122.02719,37.989],[-121.98453,37.98916],[-121.90538,37.98953],[-121.81776,37.99001],[-121.78556,37.99015],[-121.6996,37.9905],[-121.57082,37.99091],[-121.50205,37.99104],[-121.44806,37.99112],[-121.35442,37.99129],[-121.29876,37.9913],[-121.2481,37.99121]],"type":"LineString"}
}
