{
  "id": 2014409753,
  "type": "Feature",
  "properties": {
    "geom:area": 0,
    "geom:bbox": "-122.360450,37.456990,-121.253610,37.614840",
    "geom:latitude": 37.53985023760899,
    "geom:longitude": -121.81116890527419,
    "src:alt_label": "swim-approach",
    "src:geom": "swim",
    "swim:elevations": [
      4619,
      4481,
      4407,
      4222,
      4166,
      4082,
      3972,
      3616,
      3381,
      3187,
      3138,
      3067,
      2911,
      2722,
      2614,
      2499,
      2423,
      2259,
      2152,
      1981,
      1887,
      1829,
      1800,
      1676,
      1618,
      1536,
      1341,
      1216,
      1066,
      937,
      826,
      676,
      665,
      566,
      450,
      396,
      274,
      103,
      0
    ],
    "swim:geom": "approach",
    "swim:timestamps": [
      1766863005,
      1766863016,
      1766863024,
      1766863045,
      1766863057,
      1766863080,
      1766863110,
      1766863155,
      1766863185,
      1766863213,
      1766863224,
      1766863256,
      1766863286,
      1766863316,
      1766863340,
      1766863364,
      1766863382,
      1766863410,
      1766863433,
      1766863466,
      1766863485,
      1766863528,
      1766863556,
      1766863574,
      1766863582,
      1766863603,
      1766863636,
      1766863670,
      1766863707,
      1766863737,
      1766863761,
      1766863796,
      1766863800,
      1766863824,
      1766863848,
      1766863863,
      1766863892,
      1766863930,
      1766863955
    ],
    "wof:geomhash": "a7da6409c0a34bff25371e44ccde8099",
    "wof:id": 2014409753,
    "wof:repo": "sfomuseum-data-flights-2025-12"
  },
  "bbox": [
    -122.36045,
    37.45699,
    -121.25361,
    37.61484
  ],
  "geometry": {"coordinates":[[-121.25361,37.59398],[-121.27419,37.59118],[-121.28832,37.5894],[-121.32511,37.58532],[-121.34593,37.58309],[-121.3844,37.57885],[-121.42927,37.57356],[-121.4967,37.56566],[-121.54114,37.56067],[-121.5817,37.55592],[-121.59681,37.55412],[-121.6417,37.54692],[-121.68369,37.53682],[-121.72123,37.51998],[-121.74457,37.50069],[-121.76785,37.48031],[-121.78555,37.4654],[-121.82172,37.45699],[-121.85075,37.46503],[-121.89306,37.47648],[-121.91734,37.48132],[-121.97178,37.49073],[-122.00273,37.49831],[-122.02235,37.50497],[-122.03025,37.50763],[-122.05212,37.51484],[-122.08567,37.52528],[-122.11599,37.53542],[-122.14782,37.54619],[-122.17411,37.55485],[-122.19538,37.56173],[-122.22628,37.57195],[-122.22939,37.573],[-122.25066,37.57961],[-122.27109,37.58593],[-122.28361,37.58959],[-122.30879,37.59707],[-122.33974,37.60645],[-122.36045,37.61484]],"type":"LineString"}
}
