{
  "id": 2014439507,
  "type": "Feature",
  "properties": {
    "geom:area": 0,
    "geom:bbox": "-122.386190,37.630000,-122.116460,38.514130",
    "geom:latitude": 38.06305551859024,
    "geom:longitude": -122.26343951210542,
    "src:alt_label": "swim-takeoff",
    "src:geom": "swim",
    "swim:elevations": [
      152,
      620,
      698,
      1068,
      1205,
      1602,
      2127,
      2239,
      2857,
      3281,
      3406,
      3661,
      4156,
      4605,
      4758,
      5242,
      5550,
      5900,
      6026,
      6559,
      6700,
      6943,
      7149
    ],
    "swim:geom": "takeoff",
    "swim:timestamps": [
      1767145315,
      1767145348,
      1767145357,
      1767145396,
      1767145417,
      1767145460,
      1767145493,
      1767145502,
      1767145547,
      1767145587,
      1767145603,
      1767145622,
      1767145664,
      1767145700,
      1767145712,
      1767145754,
      1767145793,
      1767145826,
      1767145838,
      1767145886,
      1767145901,
      1767145928,
      1767145952
    ],
    "wof:geomhash": "8b6880f8f21357d6f15732fdd05388bd",
    "wof:id": 2014439507,
    "wof:repo": "sfomuseum-data-flights-2025-12"
  },
  "bbox": [
    -122.38619,
    37.63,
    -122.11646,
    38.51413
  ],
  "geometry": {"coordinates":[[-122.3655,37.63],[-122.34637,37.64983],[-122.34054,37.65466],[-122.31577,37.67978],[-122.31308,37.70038],[-122.337,37.74689],[-122.3576,37.78644],[-122.36295,37.79754],[-122.38619,37.85651],[-122.3848,37.91402],[-122.37986,37.93984],[-122.36511,37.96839],[-122.323,38.02897],[-122.28561,38.08336],[-122.27293,38.10155],[-122.2297,38.16605],[-122.18728,38.22802],[-122.15021,38.28137],[-122.13679,38.30112],[-122.11646,38.38834],[-122.11859,38.41654],[-122.12155,38.46794],[-122.1246,38.51413]],"type":"LineString"}
}
