{
  "id": 2014409865,
  "type": "Feature",
  "properties": {
    "geom:area": 0,
    "geom:bbox": "-123.503210,37.064910,-122.130340,37.614690",
    "geom:latitude": 37.311242899557946,
    "geom:longitude": -122.71355359732775,
    "src:alt_label": "swim-approach",
    "src:geom": "swim",
    "swim:elevations": [
      5622,
      5434,
      5261,
      5114,
      4935,
      4755,
      4600,
      4515,
      4142,
      3911,
      3786,
      3555,
      3290,
      3191,
      3046,
      3048,
      3048,
      3048,
      3048,
      3048,
      3048,
      3048,
      2996,
      2830,
      2382,
      2104,
      1842,
      1560,
      1484,
      1336,
      1264,
      1132,
      1065,
      1036,
      877,
      637,
      593,
      373,
      331,
      160,
      334
    ],
    "swim:geom": "approach",
    "swim:timestamps": [
      1766829084,
      1766829108,
      1766829136,
      1766829156,
      1766829180,
      1766829206,
      1766829228,
      1766829240,
      1766829292,
      1766829328,
      1766829346,
      1766829377,
      1766829417,
      1766829435,
      1766829459,
      1766829488,
      1766829513,
      1766829568,
      1766829574,
      1766829610,
      1766829657,
      1766829666,
      1766829711,
      1766829735,
      1766829772,
      1766829792,
      1766829823,
      1766829864,
      1766829897,
      1766829928,
      1766829939,
      1766829984,
      1766830013,
      1766830025,
      1766830061,
      1766830106,
      1766830113,
      1766830159,
      1766830173,
      1766830215,
      1766830256
    ],
    "wof:geomhash": "86ec1daeeb50970dfcb98070c37c32a4",
    "wof:id": 2014409865,
    "wof:repo": "sfomuseum-data-flights-2025-12"
  },
  "bbox": [
    -123.50321,
    37.06491,
    -122.13034,
    37.61469
  ],
  "geometry": {"coordinates":[[-123.50321,37.06491],[-123.46005,37.07842],[-123.40829,37.09436],[-123.37284,37.10503],[-123.32987,37.11801],[-123.28427,37.13182],[-123.24529,37.14352],[-123.22394,37.14993],[-123.13354,37.17703],[-123.07392,37.19493],[-123.04261,37.20426],[-122.9913,37.21964],[-122.92451,37.23943],[-122.89585,37.24792],[-122.85447,37.25965],[-122.80645,37.27093],[-122.76407,37.28088],[-122.6705,37.30279],[-122.65993,37.30524],[-122.59956,37.31924],[-122.51935,37.33771],[-122.50421,37.34124],[-122.43105,37.35804],[-122.39402,37.36659],[-122.33745,37.37997],[-122.30718,37.38672],[-122.25982,37.39733],[-122.20408,37.42278],[-122.16639,37.44368],[-122.13723,37.46507],[-122.13034,37.47553],[-122.13163,37.51491],[-122.15615,37.52919],[-122.16769,37.53394],[-122.201,37.54784],[-122.2439,37.56595],[-122.24986,37.56842],[-122.28949,37.58506],[-122.29989,37.58945],[-122.33195,37.60294],[-122.36082,37.61469]],"type":"LineString"}
}
