{
  "id": 2014430747,
  "type": "Feature",
  "properties": {
    "geom:area": 0,
    "geom:bbox": "-122.560830,36.720640,-122.237560,37.661530",
    "geom:latitude": 37.21003708814469,
    "geom:longitude": -122.4815130548256,
    "src:alt_label": "swim-takeoff",
    "src:geom": "swim",
    "swim:elevations": [
      244,
      449,
      931,
      1100,
      1396,
      1550,
      2184,
      2846,
      3016,
      3346,
      3575,
      4012,
      4344,
      4630,
      5017,
      5367,
      5651,
      5724,
      6171,
      6318,
      6641,
      6889,
      7152,
      7425,
      7751
    ],
    "swim:geom": "takeoff",
    "swim:timestamps": [
      1767011007,
      1767011025,
      1767011060,
      1767011081,
      1767011120,
      1767011130,
      1767011171,
      1767011217,
      1767011228,
      1767011267,
      1767011289,
      1767011324,
      1767011357,
      1767011382,
      1767011415,
      1767011445,
      1767011483,
      1767011493,
      1767011539,
      1767011554,
      1767011590,
      1767011619,
      1767011644,
      1767011679,
      1767011720
    ],
    "wof:geomhash": "ea9c0ca1182d99d7d931166951968ae5",
    "wof:id": 2014430747,
    "wof:repo": "sfomuseum-data-flights-2025-12"
  },
  "bbox": [
    -122.56083,
    36.72064,
    -122.23756,
    37.66153
  ],
  "geometry": {"coordinates":[[-122.39631,37.63006],[-122.41321,37.63727],[-122.44759,37.65085],[-122.46927,37.65969],[-122.52056,37.66153],[-122.53118,37.65267],[-122.54008,37.60332],[-122.54173,37.54209],[-122.54218,37.52676],[-122.54448,37.46987],[-122.54519,37.43401],[-122.54833,37.37618],[-122.55145,37.32023],[-122.55345,37.27414],[-122.55576,37.2148],[-122.55802,37.15889],[-122.56083,37.0869],[-122.5594,37.06725],[-122.50848,36.99365],[-122.48737,36.97262],[-122.43311,36.91822],[-122.39025,36.87516],[-122.35192,36.83662],[-122.29983,36.78413],[-122.23756,36.72064]],"type":"LineString"}
}
