{
  "id": 2014423859,
  "type": "Feature",
  "properties": {
    "geom:area": 0,
    "geom:bbox": "-123.076580,37.409320,-122.127570,38.470750",
    "geom:latitude": 37.847814200471134,
    "geom:longitude": -122.5412244344815,
    "src:alt_label": "swim-approach",
    "src:geom": "swim",
    "swim:elevations": [
      7590,
      7282,
      7034,
      6764,
      6413,
      6157,
      6046,
      5868,
      5508,
      5505,
      5136,
      4898,
      4475,
      4345,
      3924,
      3782,
      3645,
      3372,
      3353,
      3353,
      3353,
      3353,
      3353,
      3247,
      3091,
      3047,
      2748,
      2226,
      1900,
      1785,
      1564,
      1218,
      1219,
      1219,
      1186,
      1044,
      1023,
      815,
      635,
      546,
      451,
      302,
      183,
      101,
      426
    ],
    "swim:geom": "approach",
    "swim:timestamps": [
      1767000641,
      1767000681,
      1767000707,
      1767000737,
      1767000774,
      1767000803,
      1767000814,
      1767000844,
      1767000893,
      1767000908,
      1767000951,
      1767000976,
      1767001017,
      1767001035,
      1767001071,
      1767001085,
      1767001102,
      1767001136,
      1767001163,
      1767001184,
      1767001217,
      1767001242,
      1767001280,
      1767001311,
      1767001345,
      1767001351,
      1767001385,
      1767001436,
      1767001468,
      1767001479,
      1767001501,
      1767001553,
      1767001561,
      1767001599,
      1767001647,
      1767001676,
      1767001683,
      1767001725,
      1767001760,
      1767001793,
      1767001815,
      1767001847,
      1767001876,
      1767001915,
      1767001923
    ],
    "wof:geomhash": "f78afbb97dbbb571faf1d2771f154785",
    "wof:id": 2014423859,
    "wof:repo": "sfomuseum-data-flights-2025-12"
  },
  "bbox": [
    -123.07658,
    37.40932,
    -122.12757,
    38.47075
  ],
  "geometry": {"coordinates":[[-123.07658,38.47075],[-123.00867,38.41715],[-122.96538,38.38267],[-122.91743,38.34444],[-122.85704,38.29642],[-122.81119,38.25967],[-122.79362,38.24522],[-122.76168,38.20064],[-122.73594,38.11713],[-122.72887,38.09217],[-122.70832,38.02022],[-122.69698,37.98096],[-122.67617,37.9139],[-122.65981,37.88836],[-122.61496,37.84415],[-122.59738,37.82772],[-122.57615,37.80796],[-122.53425,37.7686],[-122.50431,37.74007],[-122.48123,37.71836],[-122.44577,37.68503],[-122.41794,37.65876],[-122.37749,37.62066],[-122.35217,37.5866],[-122.33271,37.54783],[-122.32904,37.54129],[-122.30699,37.50469],[-122.27345,37.45217],[-122.24924,37.42336],[-122.2357,37.4177],[-122.20866,37.40932],[-122.14688,37.4142],[-122.14291,37.42043],[-122.12799,37.45239],[-122.12757,37.49166],[-122.14779,37.51183],[-122.15326,37.5173],[-122.18959,37.54066],[-122.22428,37.55535],[-122.25699,37.56913],[-122.27602,37.57713],[-122.30275,37.58831],[-122.32689,37.59844],[-122.35939,37.61194],[-122.36637,37.61437]],"type":"LineString"}
}
