{
  "id": 2014443599,
  "type": "Feature",
  "properties": {
    "geom:area": 0,
    "geom:bbox": "-122.361870,37.474730,-121.247110,37.636770",
    "geom:latitude": 37.558988350216346,
    "geom:longitude": -121.82549868388625,
    "src:alt_label": "swim-approach",
    "src:geom": "swim",
    "swim:elevations": [
      4503,
      4270,
      4114,
      3787,
      3653,
      3307,
      3051,
      3048,
      2896,
      2853,
      2743,
      2743,
      2743,
      2743,
      2743,
      2743,
      2743,
      2743,
      2743,
      2491,
      2276,
      2156,
      1962,
      1715,
      1603,
      1419,
      1239,
      1107,
      847,
      714,
      571,
      328,
      198,
      77,
      0
    ],
    "swim:geom": "approach",
    "swim:timestamps": [
      1767171418,
      1767171443,
      1767171461,
      1767171497,
      1767171514,
      1767171555,
      1767171597,
      1767171623,
      1767171657,
      1767171668,
      1767171716,
      1767171730,
      1767171760,
      1767171787,
      1767171835,
      1767171865,
      1767171890,
      1767171914,
      1767171941,
      1767171988,
      1767172018,
      1767172035,
      1767172062,
      1767172098,
      1767172115,
      1767172141,
      1767172188,
      1767172206,
      1767172247,
      1767172271,
      1767172296,
      1767172347,
      1767172376,
      1767172403,
      1767172424
    ],
    "wof:geomhash": "20c783b2846c062bbc261d6fe8bd9263",
    "wof:id": 2014443599,
    "wof:repo": "sfomuseum-data-flights-2025-12"
  },
  "bbox": [
    -122.36187,
    37.47473,
    -121.24711,
    37.63677
  ],
  "geometry": {"coordinates":[[-121.24711,37.59467],[-121.29868,37.58796],[-121.33628,37.58392],[-121.40911,37.57617],[-121.44246,37.57233],[-121.52255,37.56294],[-121.59867,37.55389],[-121.63991,37.5574],[-121.68725,37.57533],[-121.70197,37.58097],[-121.76649,37.60557],[-121.78519,37.61269],[-121.82527,37.6281],[-121.86297,37.63677],[-121.90773,37.60176],[-121.9262,37.57323],[-121.937,37.54864],[-121.92376,37.52875],[-121.89407,37.51904],[-121.88452,37.48278],[-121.92025,37.47526],[-121.9423,37.47473],[-121.97642,37.4802],[-122.0219,37.4891],[-122.04361,37.49322],[-122.07727,37.49995],[-122.13208,37.51874],[-122.15332,37.52788],[-122.20133,37.54802],[-122.22806,37.55924],[-122.25385,37.57011],[-122.30015,37.58963],[-122.32357,37.59936],[-122.3458,37.6088],[-122.36187,37.61625]],"type":"LineString"}
}
