{
  "id": 2014439495,
  "type": "Feature",
  "properties": {
    "geom:area": 0,
    "geom:bbox": "-122.379390,37.631500,-121.246540,38.165130",
    "geom:latitude": 37.98996593668699,
    "geom:longitude": -121.93665539811673,
    "src:alt_label": "swim-takeoff",
    "src:geom": "swim",
    "swim:elevations": [
      152,
      597,
      694,
      1098,
      1472,
      1827,
      2079,
      2599,
      2832,
      3354,
      3544,
      3783,
      4037,
      4683,
      5976,
      6280,
      6424,
      6672,
      7067,
      7137,
      7273,
      7628
    ],
    "swim:geom": "takeoff",
    "swim:timestamps": [
      1767140367,
      1767140392,
      1767140400,
      1767140446,
      1767140485,
      1767140518,
      1767140533,
      1767140569,
      1767140584,
      1767140629,
      1767140659,
      1767140689,
      1767140719,
      1767140776,
      1767140908,
      1767140929,
      1767140944,
      1767140986,
      1767141022,
      1767141037,
      1767141064,
      1767141112
    ],
    "wof:geomhash": "7e4228c83065bef6736bd5314cbce9eb",
    "wof:id": 2014439495,
    "wof:repo": "sfomuseum-data-flights-2025-12"
  },
  "bbox": [
    -122.37939,
    37.6315,
    -121.24654,
    38.16513
  ],
  "geometry": {"coordinates":[[-122.36447,37.6315],[-122.35236,37.64785],[-122.34739,37.6521],[-122.31267,37.67821],[-122.30357,37.71703],[-122.33349,37.75088],[-122.3464,37.76786],[-122.3698,37.81312],[-122.37939,37.83263],[-122.37652,37.89617],[-122.35884,37.94151],[-122.31021,37.97324],[-122.24451,37.97904],[-122.11361,37.99407],[-121.79326,38.05881],[-121.74015,38.06945],[-121.70237,38.07692],[-121.59273,38.09817],[-121.49763,38.11699],[-121.45751,38.12481],[-121.38337,38.1391],[-121.24654,38.16513]],"type":"LineString"}
}
