{
  "id": 2014434879,
  "type": "Feature",
  "properties": {
    "geom:area": 0,
    "geom:bbox": "-122.355550,37.491380,-121.243510,37.612780",
    "geom:latitude": 37.5470646235899,
    "geom:longitude": -121.80428897128073,
    "src:alt_label": "swim-approach",
    "src:geom": "swim",
    "swim:elevations": [
      4610,
      4268,
      3989,
      3619,
      3386,
      3258,
      3056,
      2833,
      2779,
      2547,
      2484,
      2300,
      2074,
      1997,
      1917,
      1632,
      1573,
      1250,
      1176,
      854,
      669,
      608,
      439,
      254,
      169,
      31
    ],
    "swim:geom": "approach",
    "swim:timestamps": [
      1767131618,
      1767131654,
      1767131685,
      1767131723,
      1767131750,
      1767131763,
      1767131817,
      1767131848,
      1767131856,
      1767131891,
      1767131912,
      1767131950,
      1767131995,
      1767132013,
      1767132030,
      1767132086,
      1767132095,
      1767132146,
      1767132161,
      1767132206,
      1767132238,
      1767132251,
      1767132283,
      1767132327,
      1767132348,
      1767132380
    ],
    "wof:geomhash": "0bc57180b0550a51eed2d3f0a4009943",
    "wof:id": 2014434879,
    "wof:repo": "sfomuseum-data-flights-2025-12"
  },
  "bbox": [
    -122.35555,
    37.49138,
    -121.24351,
    37.61278
  ],
  "geometry": {"coordinates":[[-121.24351,37.59525],[-121.31606,37.58608],[-121.37847,37.57941],[-121.45194,37.57108],[-121.50357,37.56495],[-121.52946,37.56193],[-121.62613,37.55018],[-121.67652,37.53841],[-121.68919,37.53546],[-121.74383,37.52234],[-121.77645,37.51454],[-121.83291,37.50107],[-121.89751,37.49138],[-121.92399,37.49219],[-121.94898,37.4927],[-122.02583,37.50686],[-122.03798,37.51084],[-122.10815,37.53358],[-122.12866,37.54043],[-122.18757,37.55942],[-122.22529,37.5716],[-122.23947,37.57612],[-122.27163,37.58606],[-122.31148,37.59788],[-122.32927,37.60324],[-122.35555,37.61278]],"type":"LineString"}
}
