{
  "id": 2014435391,
  "type": "Feature",
  "properties": {
    "geom:area": 0,
    "geom:bbox": "-123.497890,37.270410,-123.050300,37.299810",
    "geom:latitude": 37.28524699920112,
    "geom:longitude": -123.27408595697783,
    "src:alt_label": "swim-approach",
    "src:geom": "swim",
    "swim:elevations": [
      5455,
      5333,
      5112,
      4886,
      4820,
      4545,
      4345,
      4123,
      3964,
      3794
    ],
    "swim:geom": "approach",
    "swim:timestamps": [
      1767105444,
      1767105464,
      1767105495,
      1767105528,
      1767105542,
      1767105582,
      1767105614,
      1767105649,
      1767105673,
      1767105698
    ],
    "wof:geomhash": "c16ddd5b1c57f2ed95a722918a81fe11",
    "wof:id": 2014435391,
    "wof:repo": "sfomuseum-data-flights-2025-12"
  },
  "bbox": [
    -123.49789,
    37.27041,
    -123.0503,
    37.29981
  ],
  "geometry": {"coordinates":[[-123.49789,37.29981],[-123.45917,37.29726],[-123.40293,37.29366],[-123.34189,37.28975],[-123.31896,37.28824],[-123.24807,37.28363],[-123.19389,37.28009],[-123.13262,37.27596],[-123.09162,37.27323],[-123.0503,37.27041]],"type":"LineString"}
}
