{
  "id": 2014443583,
  "type": "Feature",
  "properties": {
    "geom:area": 0,
    "geom:bbox": "-122.349330,36.730780,-121.883810,37.607990",
    "geom:latitude": 37.21216590052716,
    "geom:longitude": -122.06920947955011,
    "src:alt_label": "swim-approach",
    "src:geom": "swim",
    "swim:elevations": [
      4971,
      4832,
      4469,
      4286,
      3853,
      3532,
      3385,
      3106,
      3006,
      2820,
      2704,
      2541,
      2373,
      2090,
      1888,
      1779,
      1645,
      1559,
      1345,
      989,
      767,
      695,
      508,
      274,
      153,
      72
    ],
    "swim:geom": "approach",
    "swim:timestamps": [
      1767188658,
      1767188672,
      1767188711,
      1767188730,
      1767188779,
      1767188814,
      1767188830,
      1767188874,
      1767188907,
      1767188937,
      1767188953,
      1767188979,
      1767189015,
      1767189049,
      1767189076,
      1767189087,
      1767189118,
      1767189130,
      1767189160,
      1767189207,
      1767189238,
      1767189253,
      1767189286,
      1767189321,
      1767189347,
      1767189373
    ],
    "wof:geomhash": "97d05a58664b1f6edb40c9d3d64aeedf",
    "wof:id": 2014443583,
    "wof:repo": "sfomuseum-data-flights-2025-12"
  },
  "bbox": [
    -122.34933,
    36.73078,
    -121.88381,
    37.60799
  ],
  "geometry": {"coordinates":[[-121.88381,36.73078],[-121.89579,36.75372],[-121.91636,36.82102],[-121.92525,36.85277],[-121.94813,36.93455],[-121.96873,36.99168],[-121.97852,37.01689],[-122.00576,37.08692],[-122.02491,37.13563],[-122.04179,37.17896],[-122.05085,37.20204],[-122.06475,37.2375],[-122.08387,37.28638],[-122.10174,37.33171],[-122.11593,37.36831],[-122.12172,37.38284],[-122.13625,37.42353],[-122.14152,37.43883],[-122.15392,37.47606],[-122.17485,37.53154],[-122.21381,37.5513],[-122.23253,37.55856],[-122.27147,37.57498],[-122.30698,37.59015],[-122.32945,37.59939],[-122.34933,37.60799]],"type":"LineString"}
}
