{
  "id": 2014447087,
  "type": "Feature",
  "properties": {
    "geom:area": 0,
    "geom:bbox": "-122.454920,36.725530,-121.255100,37.715520",
    "geom:latitude": 37.25071694014484,
    "geom:longitude": -121.92969890997126,
    "src:alt_label": "swim-takeoff",
    "src:geom": "swim",
    "swim:elevations": [
      122,
      498,
      650,
      1008,
      1142,
      1805,
      2002,
      2179,
      2704,
      3024,
      3295,
      3715,
      4274,
      4620,
      5100,
      5791,
      6290,
      6428,
      6739,
      6844,
      7468,
      7579,
      8066,
      8197,
      8258,
      8503,
      8616,
      8879,
      9143,
      9522,
      9926,
      10040,
      10174,
      10388,
      10638,
      10668
    ],
    "swim:geom": "takeoff",
    "swim:timestamps": [
      1767178405,
      1767178437,
      1767178462,
      1767178496,
      1767178508,
      1767178556,
      1767178575,
      1767178598,
      1767178635,
      1767178654,
      1767178685,
      1767178736,
      1767178756,
      1767178770,
      1767178804,
      1767178849,
      1767178885,
      1767178894,
      1767178916,
      1767178925,
      1767178976,
      1767178985,
      1767179036,
      1767179060,
      1767179090,
      1767179127,
      1767179142,
      1767179173,
      1767179197,
      1767179235,
      1767179278,
      1767179287,
      1767179300,
      1767179322,
      1767179351,
      1767179388
    ],
    "wof:geomhash": "1d71ba0d60cf3598c85f38cd122b6f4e",
    "wof:id": 2014447087,
    "wof:repo": "sfomuseum-data-flights-2025-12"
  },
  "bbox": [
    -122.45492,
    36.72553,
    -121.2551,
    37.71552
  ],
  "geometry": {"coordinates":[[-122.37089,37.62639],[-122.36573,37.64804],[-122.36281,37.669],[-122.36815,37.70322],[-122.3795,37.71374],[-122.44238,37.71552],[-122.45492,37.699],[-122.45261,37.67319],[-122.44906,37.62973],[-122.42815,37.61342],[-122.39082,37.58637],[-122.31929,37.53272],[-122.29007,37.51103],[-122.27172,37.49733],[-122.22411,37.46177],[-122.16032,37.41409],[-122.10866,37.37526],[-122.09484,37.36487],[-122.0626,37.34067],[-122.04919,37.33056],[-121.97108,37.27164],[-121.9567,37.26084],[-121.87557,37.19926],[-121.83692,37.17016],[-121.78439,37.13059],[-121.7168,37.0789],[-121.68836,37.0575],[-121.63129,37.01446],[-121.58765,36.98112],[-121.52067,36.92983],[-121.44313,36.87091],[-121.42725,36.85878],[-121.40423,36.84083],[-121.36654,36.81166],[-121.31692,36.77297],[-121.2551,36.72553]],"type":"LineString"}
}
