{
  "id": 2014431113,
  "type": "Feature",
  "properties": {
    "date:inception_lower": "2025-12-29",
    "date:inception_upper": "2025-12-29",
    "edtf:cessation": "",
    "edtf:inception": "2025-12-29",
    "flysfo:actual_timestamp": -1,
    "flysfo:airline": "UA",
    "flysfo:base_airline": "",
    "flysfo:base_flight_number": "9708",
    "flysfo:date": "2025-12-29",
    "flysfo:estimated_timestamp": 1767053880,
    "flysfo:event": "D",
    "flysfo:flight_number": "UA5997",
    "flysfo:gate": "D16",
    "flysfo:journey": "SFO-STL",
    "flysfo:scheduled_timestamp": 1767054300,
    "flysfo:timestamp": 1767054300,
    "geom:area": 0,
    "geom:bbox": "-122.370943,37.617990,-90.367632,38.743872",
    "geom:latitude": 38.180931,
    "geom:longitude": -106.3692875,
    "iata:airline": "UA",
    "iata:base_airline": "",
    "icao:airline": "UAL",
    "icao:base_airline": "ANZ",
    "lbl:latitude": 37.617532,
    "lbl:longitude": -122.382384,
    "sfomuseum:airline_id": 1159285413,
    "sfomuseum:arrival_id": 1746879059,
    "sfomuseum:base_flight_id": "20251229-D-ANZ-9708",
    "sfomuseum:departure_id": 102527513,
    "sfomuseum:flight_id": "20251229-D-UAL-5997",
    "sfomuseum:flight_number": [
      "UAL5997",
      "UA5997"
    ],
    "sfomuseum:placetype": "flight",
    "src:geom": "flysfo",
    "wof:belongsto": [
      1947304067,
      102527513,
      1947304595,
      102191575,
      85633793,
      102087579,
      85922583,
      554784711,
      85688637,
      1947304619,
      1947304591,
      102085387
    ],
    "wof:country": "US",
    "wof:created": 1767111424,
    "wof:geomhash": "17371a5d27e54a99ca50752d2b6a5e79",
    "wof:hierarchy": [
      {
        "building_id": 1947304067,
        "campus_id": 102527513,
        "concourse_id": 1947304595,
        "continent_id": 102191575,
        "country_id": 85633793,
        "county_id": 102087579,
        "custom_id": 2014431113,
        "flight_id": 2014431113,
        "locality_id": 85922583,
        "postalcode_id": 554784711,
        "region_id": 85688637,
        "venue_id": 1947304619,
        "wing_id": 1947304591
      },
      {
        "building_id": 1947304067,
        "campus_id": 102527513,
        "concourse_id": 1947304595,
        "continent_id": 102191575,
        "country_id": 85633793,
        "county_id": 102085387,
        "custom_id": 2014431113,
        "flight_id": 2014431113,
        "region_id": 85688637,
        "venue_id": 1947304619,
        "wing_id": 1947304591
      }
    ],
    "wof:id": 2014431113,
    "wof:involves": [
      1746879059,
      102527513,
      1159285413,
      1947304619,
      1159283697
    ],
    "wof:lastmodified": 1767111424,
    "wof:name": "UA5997 (SFO-STL)",
    "wof:parent_id": 1947304619,
    "wof:placetype": "custom",
    "wof:placetype_alt": [
      "flight"
    ],
    "wof:repo": "sfomuseum-data-flights-2025-12",
    "wof:superseded_by": [],
    "wof:supersedes": []
  },
  "bbox": [
    -122.370943,
    37.61799,
    -90.367632,
    38.743872
  ],
  "geometry": {"coordinates":[[-122.370943,37.61799],[-90.367632,38.743872]],"type":"MultiPoint"}
}
