{
  "id": 2014426073,
  "type": "Feature",
  "properties": {
    "geom:area": 0,
    "geom:bbox": "-122.358830,37.491530,-121.245280,37.611790",
    "geom:latitude": 37.54314591321441,
    "geom:longitude": -121.80872453665997,
    "src:alt_label": "swim-approach",
    "src:geom": "swim",
    "swim:elevations": [
      4428,
      3650,
      3053,
      2473,
      2287,
      2165,
      2103,
      1829,
      1802,
      1761,
      1611,
      1307,
      1127,
      1059,
      854,
      665,
      578,
      457,
      308,
      149,
      0
    ],
    "swim:geom": "approach",
    "swim:timestamps": [
      1767054153,
      1767054235,
      1767054339,
      1767054446,
      1767054478,
      1767054498,
      1767054510,
      1767054564,
      1767054589,
      1767054607,
      1767054636,
      1767054687,
      1767054717,
      1767054726,
      1767054763,
      1767054801,
      1767054816,
      1767054843,
      1767054875,
      1767054921,
      1767054956
    ],
    "wof:geomhash": "883ec651d68cbbf7b8dda9f0b16e57d7",
    "wof:id": 2014426073,
    "wof:repo": "sfomuseum-data-flights-2025-12"
  },
  "bbox": [
    -122.35883,
    37.49153,
    -121.24528,
    37.61179
  ],
  "geometry": {"coordinates":[[-121.24528,37.59523],[-121.41684,37.57506],[-121.61417,37.552],[-121.78529,37.51255],[-121.83551,37.50043],[-121.86722,37.49282],[-121.88588,37.49153],[-121.96668,37.49803],[-121.99975,37.50088],[-122.02264,37.5028],[-122.05772,37.50558],[-122.11859,37.51156],[-122.1487,37.52336],[-122.15753,37.527],[-122.19289,37.54225],[-122.23083,37.5582],[-122.24569,37.56436],[-122.27176,37.57542],[-122.29953,37.58696],[-122.33268,37.60101],[-122.35883,37.61179]],"type":"LineString"}
}
