{
  "id": 2014434793,
  "type": "Feature",
  "properties": {
    "geom:area": 0,
    "geom:bbox": "-122.358790,37.492070,-121.292400,37.611830",
    "geom:latitude": 37.544584692305726,
    "geom:longitude": -121.83032514927997,
    "src:alt_label": "swim-approach",
    "src:geom": "swim",
    "swim:elevations": [
      4437,
      4272,
      3961,
      3404,
      3199,
      3111,
      2846,
      2624,
      2513,
      2270,
      2102,
      1943,
      1859,
      1756,
      1580,
      1338,
      1225,
      1005,
      951,
      725,
      553,
      420,
      332,
      146,
      127,
      0
    ],
    "swim:geom": "approach",
    "swim:timestamps": [
      1767095245,
      1767095262,
      1767095293,
      1767095351,
      1767095374,
      1767095400,
      1767095455,
      1767095485,
      1767095505,
      1767095543,
      1767095567,
      1767095598,
      1767095627,
      1767095656,
      1767095686,
      1767095719,
      1767095746,
      1767095786,
      1767095796,
      1767095842,
      1767095875,
      1767095908,
      1767095929,
      1767095966,
      1767095970,
      1767096000
    ],
    "wof:geomhash": "043315d876aa75c55d0fe50754019761",
    "wof:id": 2014434793,
    "wof:repo": "sfomuseum-data-flights-2025-12"
  },
  "bbox": [
    -122.35879,
    37.49207,
    -121.2924,
    37.61183
  ],
  "geometry": {"coordinates":[[-121.2924,37.58943],[-121.32791,37.58544],[-121.39094,37.57808],[-121.50836,37.56422],[-121.55432,37.55891],[-121.60286,37.55346],[-121.69719,37.53346],[-121.74695,37.52165],[-121.77879,37.51405],[-121.8391,37.49959],[-121.87584,37.49207],[-121.92266,37.49247],[-121.96418,37.49321],[-122.00222,37.49876],[-122.03984,37.51136],[-122.08118,37.52486],[-122.11309,37.53517],[-122.15957,37.54992],[-122.17093,37.55365],[-122.21642,37.56861],[-122.24992,37.57934],[-122.28188,37.58532],[-122.30073,37.58859],[-122.33107,37.60021],[-122.33465,37.60175],[-122.35879,37.61183]],"type":"LineString"}
}
