{
  "id": 2014443925,
  "type": "Feature",
  "properties": {
    "geom:area": 0,
    "geom:bbox": "-122.347120,36.729140,-121.882790,37.609240",
    "geom:latitude": 37.08198962042613,
    "geom:longitude": -122.15071101131987,
    "src:alt_label": "swim-approach",
    "src:geom": "swim",
    "swim:elevations": [
      5188,
      4964,
      4780,
      4467,
      4386,
      4295,
      4038,
      3766,
      3616,
      3516,
      3353,
      3353,
      3353,
      3353,
      3353,
      3353,
      3353,
      3353,
      3353,
      3201,
      3138,
      3048,
      3048,
      3048,
      3048,
      3048,
      3048,
      3048,
      3048,
      3048,
      3048,
      3048,
      3048,
      3048,
      2938,
      2782,
      2644,
      2467,
      2431,
      2327,
      1997,
      1824,
      1707,
      1522,
      1524,
      1467,
      1305,
      1131,
      1099,
      878,
      799,
      608,
      401,
      335,
      126,
      78
    ],
    "swim:geom": "approach",
    "swim:timestamps": [
      1767179388,
      1767179414,
      1767179434,
      1767179474,
      1767179487,
      1767179498,
      1767179534,
      1767179576,
      1767179602,
      1767179616,
      1767179662,
      1767179682,
      1767179714,
      1767179745,
      1767179787,
      1767179809,
      1767179843,
      1767179858,
      1767179890,
      1767179938,
      1767179949,
      1767179988,
      1767179998,
      1767180002,
      1767180041,
      1767180086,
      1767180109,
      1767180139,
      1767180163,
      1767180193,
      1767180211,
      1767180235,
      1767180244,
      1767180298,
      1767180326,
      1767180349,
      1767180386,
      1767180414,
      1767180445,
      1767180460,
      1767180505,
      1767180531,
      1767180549,
      1767180580,
      1767180629,
      1767180655,
      1767180687,
      1767180711,
      1767180731,
      1767180778,
      1767180794,
      1767180826,
      1767180863,
      1767180875,
      1767180924,
      1767180934
    ],
    "wof:geomhash": "f3fbb50d52d657e6abc7c0e1b67881d3",
    "wof:id": 2014443925,
    "wof:repo": "sfomuseum-data-flights-2025-12"
  },
  "bbox": [
    -122.34712,
    36.72914,
    -121.88279,
    37.60924
  ],
  "geometry": {"coordinates":[[-121.88279,36.72914],[-121.90159,36.76854],[-121.91081,36.80035],[-121.92873,36.86364],[-121.93387,36.88263],[-121.93879,36.90034],[-121.96942,36.95043],[-122.04448,36.9693],[-122.09309,36.97553],[-122.11869,36.97891],[-122.19822,36.98177],[-122.22137,36.96595],[-122.23847,36.92887],[-122.25263,36.89284],[-122.27225,36.84343],[-122.28142,36.81665],[-122.2598,36.78111],[-122.24227,36.76873],[-122.20085,36.7497],[-122.12345,36.74138],[-122.10605,36.74273],[-122.06156,36.77992],[-122.05598,36.793],[-122.05375,36.79823],[-122.03258,36.84831],[-122.02536,36.90829],[-122.04693,36.93436],[-122.07771,36.96862],[-122.10179,36.99535],[-122.13233,37.02988],[-122.15031,37.05014],[-122.17499,37.07834],[-122.18433,37.08887],[-122.2379,37.14921],[-122.26614,37.18096],[-122.28921,37.20808],[-122.30832,37.25329],[-122.32224,37.28711],[-122.33222,37.32375],[-122.32436,37.34014],[-122.2716,37.36244],[-122.23992,37.37284],[-122.21899,37.37997],[-122.18175,37.3928],[-122.14578,37.43574],[-122.12967,37.46047],[-122.11262,37.48941],[-122.11936,37.51312],[-122.13849,37.52518],[-122.19364,37.54489],[-122.21181,37.55247],[-122.24875,37.56782],[-122.28631,37.58361],[-122.29744,37.58825],[-122.33867,37.60583],[-122.34712,37.60924]],"type":"LineString"}
}
