{
  "id": 2014425659,
  "type": "Feature",
  "properties": {
    "geom:area": 0,
    "geom:bbox": "-122.359400,37.463250,-121.284490,37.614560",
    "geom:latitude": 37.55157109131234,
    "geom:longitude": -121.82865478071813,
    "src:alt_label": "swim-approach",
    "src:geom": "swim",
    "swim:elevations": [
      4498,
      4282,
      3915,
      3746,
      3666,
      3640,
      3352,
      3353,
      3313,
      3079,
      3061,
      3048,
      3048,
      3048,
      3048,
      2891,
      2713,
      2506,
      2465,
      2339,
      2237,
      2109,
      1941,
      1777,
      1425,
      1174,
      1057,
      979,
      910,
      864,
      789,
      708,
      519,
      331,
      209,
      121,
      0
    ],
    "swim:geom": "approach",
    "swim:timestamps": [
      1766998073,
      1766998097,
      1766998137,
      1766998157,
      1766998168,
      1766998172,
      1766998224,
      1766998251,
      1766998274,
      1766998318,
      1766998321,
      1766998343,
      1766998357,
      1766998394,
      1766998431,
      1766998465,
      1766998495,
      1766998529,
      1766998537,
      1766998556,
      1766998574,
      1766998609,
      1766998638,
      1766998660,
      1766998708,
      1766998735,
      1766998756,
      1766998777,
      1766998821,
      1766998837,
      1766998852,
      1766998865,
      1766998900,
      1766998941,
      1766998972,
      1766998996,
      1766999018
    ],
    "wof:geomhash": "d960f0f28f15f206e5ee93f7592e069a",
    "wof:id": 2014425659,
    "wof:repo": "sfomuseum-data-flights-2025-12"
  },
  "bbox": [
    -122.3594,
    37.46325,
    -121.28449,
    37.61456
  ],
  "geometry": {"coordinates":[[-121.28449,37.58932],[-121.33594,37.58322],[-121.42041,37.57406],[-121.45902,37.56964],[-121.48029,37.56722],[-121.48617,37.56655],[-121.58088,37.55564],[-121.62945,37.55008],[-121.66985,37.55616],[-121.73963,37.5801],[-121.74409,37.58216],[-121.77501,37.59735],[-121.79425,37.6068],[-121.84671,37.61226],[-121.87191,37.57722],[-121.84668,37.54543],[-121.81832,37.52256],[-121.81005,37.48779],[-121.81519,37.47929],[-121.83478,37.46526],[-121.86013,37.46325],[-121.9067,37.47483],[-121.94499,37.48428],[-121.97499,37.49149],[-122.03553,37.51015],[-122.06985,37.52131],[-122.09707,37.53018],[-122.12187,37.53818],[-122.17362,37.55495],[-122.19194,37.56079],[-122.20842,37.56614],[-122.22148,37.57037],[-122.25847,37.58237],[-122.29531,37.59294],[-122.32127,37.60082],[-122.34166,37.6072],[-122.3594,37.61456]],"type":"LineString"}
}
