{
  "id": 2014413523,
  "type": "Feature",
  "properties": {
    "geom:area": 0,
    "geom:bbox": "-122.444220,36.721930,-121.270970,37.698170",
    "geom:latitude": 37.215612568771306,
    "geom:longitude": -121.93870559856904,
    "src:alt_label": "swim-takeoff",
    "src:geom": "swim",
    "swim:elevations": [
      315,
      410,
      971,
      1118,
      1461,
      1956,
      2613,
      2743,
      3251,
      3481,
      3587,
      4370,
      4625,
      4780,
      5127,
      5459,
      5757,
      6067,
      6251,
      6563,
      7093,
      7389,
      7600,
      7869,
      8174,
      8301,
      8538,
      8611,
      8739,
      8873,
      9065,
      9367,
      9423
    ],
    "swim:geom": "takeoff",
    "swim:timestamps": [
      1766825182,
      1766825190,
      1766825235,
      1766825255,
      1766825296,
      1766825326,
      1766825368,
      1766825378,
      1766825422,
      1766825448,
      1766825462,
      1766825515,
      1766825533,
      1766825546,
      1766825574,
      1766825607,
      1766825632,
      1766825659,
      1766825676,
      1766825706,
      1766825756,
      1766825788,
      1766825810,
      1766825843,
      1766825877,
      1766825898,
      1766825933,
      1766825942,
      1766825962,
      1766825983,
      1766826012,
      1766826051,
      1766826060
    ],
    "wof:geomhash": "119d02060359a5a22451f9b316af2d7f",
    "wof:id": 2014413523,
    "wof:repo": "sfomuseum-data-flights-2025-12"
  },
  "bbox": [
    -122.44422,
    36.72193,
    -121.27097,
    37.69817
  ],
  "geometry": {"coordinates":[[-122.36393,37.63733],[-122.36309,37.64291],[-122.36259,37.67793],[-122.36591,37.69315],[-122.41424,37.69817],[-122.43282,37.66617],[-122.44125,37.61199],[-122.44422,37.59916],[-122.43095,37.54107],[-122.39194,37.51579],[-122.36843,37.50109],[-122.28318,37.44225],[-122.25394,37.42162],[-122.2325,37.40657],[-122.18669,37.37436],[-122.12966,37.33413],[-122.08755,37.30445],[-122.03985,37.27083],[-122.00939,37.24928],[-121.95495,37.21085],[-121.86316,37.14592],[-121.80298,37.10315],[-121.76214,37.07368],[-121.69944,37.02879],[-121.63394,36.98243],[-121.59358,36.95371],[-121.52557,36.90507],[-121.50794,36.89243],[-121.46722,36.86321],[-121.42632,36.834],[-121.36775,36.79166],[-121.28985,36.73568],[-121.27097,36.72193]],"type":"LineString"}
}
