{
  "id": 2014411609,
  "type": "Feature",
  "properties": {
    "geom:area": 0,
    "geom:bbox": "-122.365000,37.630390,-121.251670,38.093110",
    "geom:latitude": 37.820358340930476,
    "geom:longitude": -121.79962795321923,
    "src:alt_label": "swim-takeoff",
    "src:geom": "swim",
    "swim:elevations": [
      152,
      418,
      573,
      739,
      1377,
      1605,
      1843,
      2114,
      2753,
      3139,
      3221,
      3298,
      3503,
      3811,
      4000,
      4129,
      4642,
      4670,
      4916,
      5033,
      5334,
      5513,
      5675,
      5879,
      6455,
      6685,
      6819
    ],
    "swim:geom": "takeoff",
    "swim:timestamps": [
      1766904028,
      1766904048,
      1766904072,
      1766904099,
      1766904147,
      1766904167,
      1766904191,
      1766904213,
      1766904266,
      1766904296,
      1766904305,
      1766904317,
      1766904352,
      1766904388,
      1766904411,
      1766904422,
      1766904477,
      1766904481,
      1766904510,
      1766904525,
      1766904560,
      1766904594,
      1766904613,
      1766904637,
      1766904688,
      1766904716,
      1766904735
    ],
    "wof:geomhash": "97991d957931291f4d1051a8274faf2d",
    "wof:id": 2014411609,
    "wof:repo": "sfomuseum-data-flights-2025-12"
  },
  "bbox": [
    -122.365,
    37.63039,
    -121.25167,
    38.09311
  ],
  "geometry": {"coordinates":[[-122.365,37.63039],[-122.35127,37.64268],[-122.32907,37.6518],[-122.29699,37.65748],[-122.2305,37.65144],[-122.20036,37.64878],[-122.16417,37.64524],[-122.12925,37.64203],[-122.05173,37.66472],[-122.01384,37.68819],[-122.00223,37.69524],[-121.98606,37.70472],[-121.93501,37.73291],[-121.87772,37.76258],[-121.83906,37.78286],[-121.82076,37.79238],[-121.7273,37.84189],[-121.72031,37.84558],[-121.66809,37.87336],[-121.64122,37.88774],[-121.57723,37.92156],[-121.51526,37.95433],[-121.47975,37.97312],[-121.43426,37.99702],[-121.3398,38.04685],[-121.28738,38.07444],[-121.25167,38.09311]],"type":"LineString"}
}
