{
  "id": 2014443329,
  "type": "Feature",
  "properties": {
    "geom:area": 0,
    "geom:bbox": "-123.500460,37.252510,-122.171430,37.608450",
    "geom:latitude": 37.376593461693446,
    "geom:longitude": -122.710495724672,
    "src:alt_label": "swim-approach",
    "src:geom": "swim",
    "swim:elevations": [
      5175,
      4867,
      4586,
      4176,
      3905,
      3697,
      3568,
      3405,
      3188,
      3176,
      3110,
      3048,
      3037,
      2976,
      2894,
      2804,
      2674,
      2524,
      2413,
      2248,
      2160,
      2072,
      1889,
      1826,
      1829,
      1829,
      1829,
      1829,
      1829,
      1829,
      1829,
      1829,
      1829,
      1816,
      1591,
      1550,
      1533,
      1524,
      1524,
      1351,
      1008,
      926,
      764,
      673,
      421,
      244,
      159,
      88
    ],
    "swim:geom": "approach",
    "swim:timestamps": [
      1767187084,
      1767187115,
      1767187145,
      1767187190,
      1767187221,
      1767187242,
      1767187262,
      1767187291,
      1767187348,
      1767187351,
      1767187386,
      1767187420,
      1767187464,
      1767187487,
      1767187505,
      1767187526,
      1767187552,
      1767187583,
      1767187608,
      1767187644,
      1767187662,
      1767187680,
      1767187731,
      1767187753,
      1767187786,
      1767187821,
      1767187857,
      1767187888,
      1767187910,
      1767187940,
      1767187972,
      1767188002,
      1767188024,
      1767188041,
      1767188088,
      1767188094,
      1767188101,
      1767188127,
      1767188133,
      1767188170,
      1767188218,
      1767188240,
      1767188267,
      1767188280,
      1767188326,
      1767188366,
      1767188387,
      1767188406
    ],
    "wof:geomhash": "ca67d36be79a3a7ca00538a4e9a1da3a",
    "wof:id": 2014443329,
    "wof:repo": "sfomuseum-data-flights-2025-12"
  },
  "bbox": [
    -123.50046,
    37.25251,
    -122.17143,
    37.60845
  ],
  "geometry": {"coordinates":[[-123.50046,37.41872],[-123.43412,37.40227],[-123.37031,37.3862],[-123.27706,37.3627],[-123.21321,37.34656],[-123.17071,37.33585],[-123.13059,37.32578],[-123.07522,37.31173],[-122.96967,37.28489],[-122.96452,37.28359],[-122.90817,37.2691],[-122.8557,37.26083],[-122.7902,37.27483],[-122.75765,37.28231],[-122.73496,37.28761],[-122.70708,37.29407],[-122.6721,37.29696],[-122.63391,37.28961],[-122.60364,37.28272],[-122.56089,37.27285],[-122.53858,37.26781],[-122.51842,37.26331],[-122.45582,37.25251],[-122.43131,37.26406],[-122.42489,37.30232],[-122.44015,37.34333],[-122.45677,37.38461],[-122.47125,37.42066],[-122.48008,37.44653],[-122.46415,37.47844],[-122.42375,37.48471],[-122.38522,37.4815],[-122.3587,37.4766],[-122.33792,37.47178],[-122.28078,37.45743],[-122.27376,37.45561],[-122.2659,37.4536],[-122.2349,37.45633],[-122.22851,37.45998],[-122.19284,37.48662],[-122.17143,37.52761],[-122.18968,37.54371],[-122.22052,37.55607],[-122.23481,37.56208],[-122.28039,37.58131],[-122.314,37.59538],[-122.3305,37.60237],[-122.34506,37.60845]],"type":"LineString"}
}
