{
  "id": 2014423185,
  "type": "Feature",
  "properties": {
    "geom:area": 0,
    "geom:bbox": "-122.346480,37.492840,-121.272350,37.609060",
    "geom:latitude": 37.54498012410368,
    "geom:longitude": -121.81409350851698,
    "src:alt_label": "swim-approach",
    "src:geom": "swim",
    "swim:elevations": [
      4241,
      4096,
      3797,
      3599,
      3422,
      3304,
      2989,
      2783,
      2589,
      2436,
      2302,
      2188,
      1829,
      1829,
      1610,
      1356,
      1220,
      1033,
      790,
      724,
      487,
      473,
      344,
      210,
      99,
      64
    ],
    "swim:geom": "approach",
    "swim:timestamps": [
      1767026001,
      1767026021,
      1767026062,
      1767026091,
      1767026119,
      1767026139,
      1767026185,
      1767026212,
      1767026239,
      1767026276,
      1767026308,
      1767026325,
      1767026391,
      1767026415,
      1767026444,
      1767026480,
      1767026499,
      1767026528,
      1767026575,
      1767026591,
      1767026634,
      1767026664,
      1767026696,
      1767026724,
      1767026751,
      1767026761
    ],
    "wof:geomhash": "8b0470ac3de0293f34e49fe9e4d1ee38",
    "wof:id": 2014423185,
    "wof:repo": "sfomuseum-data-flights-2025-12"
  },
  "bbox": [
    -122.34648,
    37.49284,
    -121.27235,
    37.60906
  ],
  "geometry": {"coordinates":[[-121.27235,37.59136],[-121.31542,37.58625],[-121.40239,37.57657],[-121.46085,37.5698],[-121.5152,37.5635],[-121.55321,37.55905],[-121.63498,37.54811],[-121.68226,37.53672],[-121.72729,37.52623],[-121.78371,37.51268],[-121.83057,37.50143],[-121.85632,37.49527],[-121.95165,37.49284],[-121.98363,37.49445],[-122.02067,37.50518],[-122.06606,37.52012],[-122.08868,37.52731],[-122.12104,37.53775],[-122.17255,37.55452],[-122.18896,37.55963],[-122.23319,37.57411],[-122.26368,37.58384],[-122.29239,37.59162],[-122.31757,37.59721],[-122.33867,37.60579],[-122.34648,37.60906]],"type":"LineString"}
}
