{
  "id": 2014413265,
  "type": "Feature",
  "properties": {
    "geom:area": 0,
    "geom:bbox": "-122.464380,37.279880,-121.274270,37.708730",
    "geom:latitude": 37.412211558217244,
    "geom:longitude": -121.99633518437588,
    "src:alt_label": "swim-takeoff",
    "src:geom": "swim",
    "swim:elevations": [
      152,
      480,
      736,
      956,
      1149,
      1730,
      2099,
      2292,
      2802,
      3198,
      3296,
      3541,
      3706,
      4242,
      4426,
      5014,
      5369,
      5550,
      5880,
      6123,
      6351,
      6827,
      6946,
      7219,
      7602,
      7738,
      8126,
      8186
    ],
    "swim:geom": "takeoff",
    "swim:timestamps": [
      1766899043,
      1766899071,
      1766899101,
      1766899117,
      1766899150,
      1766899192,
      1766899222,
      1766899237,
      1766899275,
      1766899314,
      1766899332,
      1766899372,
      1766899384,
      1766899432,
      1766899446,
      1766899494,
      1766899524,
      1766899551,
      1766899584,
      1766899608,
      1766899629,
      1766899674,
      1766899686,
      1766899716,
      1766899758,
      1766899773,
      1766899824,
      1766899830
    ],
    "wof:geomhash": "36a6884b8327f5848a38893eccfec6cf",
    "wof:id": 2014413265,
    "wof:repo": "sfomuseum-data-flights-2025-12"
  },
  "bbox": [
    -122.46438,
    37.27988,
    -121.27427,
    37.70873
  ],
  "geometry": {"coordinates":[[-122.36772,37.63053],[-122.3621,37.65141],[-122.36181,37.67786],[-122.36452,37.69235],[-122.40127,37.70873],[-122.43972,37.67003],[-122.44354,37.63088],[-122.44675,37.61092],[-122.4584,37.55933],[-122.46438,37.50541],[-122.45,37.48025],[-122.38496,37.43852],[-122.3637,37.42648],[-122.26462,37.39708],[-122.23444,37.391],[-122.12679,37.37057],[-122.05674,37.36335],[-121.99236,37.35688],[-121.91186,37.3485],[-121.85188,37.34222],[-121.80055,37.33677],[-121.68602,37.3246],[-121.6552,37.32124],[-121.57747,37.31293],[-121.4672,37.30107],[-121.4275,37.29667],[-121.29045,37.28169],[-121.27427,37.27988]],"type":"LineString"}
}
