{
  "id": 2014443501,
  "type": "Feature",
  "properties": {
    "geom:area": 0,
    "geom:bbox": "-122.388960,36.733610,-121.895030,37.613040",
    "geom:latitude": 37.118809794798686,
    "geom:longitude": -122.1615068046138,
    "src:alt_label": "swim-approach",
    "src:geom": "swim",
    "swim:elevations": [
      4960,
      4915,
      4771,
      4481,
      4359,
      4060,
      3825,
      3745,
      3500,
      3379,
      3172,
      3048,
      3048,
      3048,
      3048,
      3048,
      3048,
      3048,
      3048,
      3048,
      3048,
      3048,
      3048,
      3048,
      3048,
      3048,
      3048,
      3048,
      3048,
      3017,
      2799,
      2652,
      2479,
      2449,
      2335,
      2287,
      1966,
      1829,
      1829,
      1829,
      1708,
      1659,
      1531,
      1524,
      1371,
      1332,
      1219,
      1219,
      1125,
      1088,
      821,
      735,
      677,
      455,
      289,
      126,
      0
    ],
    "swim:geom": "approach",
    "swim:timestamps": [
      1767179278,
      1767179283,
      1767179300,
      1767179334,
      1767179355,
      1767179395,
      1767179428,
      1767179443,
      1767179478,
      1767179498,
      1767179528,
      1767179576,
      1767179606,
      1767179616,
      1767179662,
      1767179673,
      1767179706,
      1767179749,
      1767179787,
      1767179790,
      1767179840,
      1767179851,
      1767179908,
      1767179923,
      1767179955,
      1767179992,
      1767180020,
      1767180056,
      1767180086,
      1767180096,
      1767180139,
      1767180169,
      1767180207,
      1767180215,
      1767180235,
      1767180247,
      1767180295,
      1767180326,
      1767180349,
      1767180376,
      1767180410,
      1767180427,
      1767180464,
      1767180488,
      1767180534,
      1767180542,
      1767180580,
      1767180608,
      1767180655,
      1767180676,
      1767180718,
      1767180734,
      1767180750,
      1767180798,
      1767180826,
      1767180867,
      1767180894
    ],
    "wof:geomhash": "6b370b13b06563c04a7aa36a327aa691",
    "wof:id": 2014443501,
    "wof:repo": "sfomuseum-data-flights-2025-12"
  },
  "bbox": [
    -122.38896,
    36.73361,
    -121.89503,
    37.61304
  ],
  "geometry": {"coordinates":[[-121.89503,36.75105],[-121.898,36.75831],[-121.9064,36.78591],[-121.92182,36.83989],[-121.93091,36.87234],[-121.95131,36.9349],[-121.99583,36.97126],[-122.02201,36.97835],[-122.08597,36.98659],[-122.12218,36.98857],[-122.16405,36.96781],[-122.18855,36.91327],[-122.20348,36.87864],[-122.20854,36.86618],[-122.23002,36.8131],[-122.23529,36.80001],[-122.22358,36.76449],[-122.17114,36.73361],[-122.11604,36.74988],[-122.11277,36.75333],[-122.07019,36.81659],[-122.06145,36.83012],[-122.02266,36.89875],[-122.02677,36.91897],[-122.05697,36.95598],[-122.09493,36.9984],[-122.12369,37.03081],[-122.15955,37.0715],[-122.19009,37.10607],[-122.19951,37.1166],[-122.243,37.16539],[-122.27243,37.19816],[-122.30834,37.23796],[-122.31564,37.24605],[-122.33424,37.26654],[-122.34523,37.27877],[-122.38709,37.32508],[-122.38896,37.35969],[-122.37798,37.38515],[-122.3555,37.40691],[-122.3131,37.40992],[-122.29086,37.41051],[-122.24526,37.41122],[-122.21499,37.41172],[-122.1575,37.41279],[-122.14771,37.41311],[-122.11523,37.43942],[-122.10344,37.46773],[-122.12626,37.51254],[-122.15138,37.52501],[-122.1978,37.5442],[-122.21488,37.5514],[-122.23245,37.55876],[-122.2819,37.57961],[-122.30719,37.59017],[-122.34006,37.60407],[-122.36257,37.61304]],"type":"LineString"}
}
