{
  "id": 2014422191,
  "type": "Feature",
  "properties": {
    "geom:area": 0,
    "geom:bbox": "-122.350670,37.643930,-121.284780,37.958560",
    "geom:latitude": 37.838050722592165,
    "geom:longitude": -121.83041655099593,
    "src:alt_label": "swim-takeoff",
    "src:geom": "swim",
    "swim:elevations": [
      391,
      532,
      1115,
      1239,
      1641,
      2109,
      2148,
      2639,
      3290,
      3813,
      4060,
      4305,
      4493,
      4823,
      5121,
      5265,
      5679,
      5959,
      6226,
      6487,
      6722,
      6945,
      7107
    ],
    "swim:geom": "takeoff",
    "swim:timestamps": [
      1766914583,
      1766914592,
      1766914639,
      1766914660,
      1766914703,
      1766914738,
      1766914741,
      1766914774,
      1766914819,
      1766914857,
      1766914879,
      1766914899,
      1766914937,
      1766914978,
      1766915002,
      1766915015,
      1766915064,
      1766915097,
      1766915125,
      1766915152,
      1766915178,
      1766915205,
      1766915223
    ],
    "wof:geomhash": "a4b8ff043af3d19b91f362800c4b66b3",
    "wof:id": 2014422191,
    "wof:repo": "sfomuseum-data-flights-2025-12"
  },
  "bbox": [
    -122.35067,
    37.64393,
    -121.28478,
    37.95856
  ],
  "geometry": {"coordinates":[[-122.35067,37.64393],[-122.3429,37.64781],[-122.30553,37.66848],[-122.28621,37.67957],[-122.23931,37.70475],[-122.19461,37.72772],[-122.19072,37.72968],[-122.14833,37.75162],[-122.08735,37.78287],[-122.03593,37.80988],[-122.00524,37.824],[-121.97093,37.8325],[-121.90228,37.84536],[-121.81946,37.86052],[-121.76976,37.86965],[-121.74389,37.87445],[-121.63995,37.89408],[-121.56782,37.90734],[-121.50582,37.91858],[-121.44663,37.92925],[-121.38863,37.9397],[-121.32802,37.95072],[-121.28478,37.95856]],"type":"LineString"}
}
