{
  "id": 2014426879,
  "type": "Feature",
  "properties": {
    "geom:area": 0,
    "geom:bbox": "-123.461490,36.861610,-122.142760,37.613630",
    "geom:latitude": 37.262196462073014,
    "geom:longitude": -122.73083308770262,
    "src:alt_label": "swim-approach",
    "src:geom": "swim",
    "swim:elevations": [
      7197,
      6765,
      6218,
      5883,
      5583,
      5346,
      4798,
      4455,
      4297,
      4034,
      3897,
      3419,
      3061,
      3047,
      3048,
      3048,
      2683,
      2439,
      2438,
      2438,
      2438,
      2438,
      2438,
      2438,
      2398,
      2271,
      1823,
      1613,
      1518,
      1386,
      1297,
      1060,
      911,
      898,
      724,
      673,
      548,
      349,
      246,
      148,
      172
    ],
    "swim:geom": "approach",
    "swim:timestamps": [
      1767049973,
      1767050000,
      1767050036,
      1767050060,
      1767050085,
      1767050111,
      1767050155,
      1767050187,
      1767050215,
      1767050242,
      1767050256,
      1767050302,
      1767050337,
      1767050357,
      1767050398,
      1767050406,
      1767050449,
      1767050486,
      1767050507,
      1767050535,
      1767050573,
      1767050606,
      1767050627,
      1767050651,
      1767050677,
      1767050705,
      1767050750,
      1767050779,
      1767050795,
      1767050809,
      1767050821,
      1767050867,
      1767050894,
      1767050934,
      1767050964,
      1767050981,
      1767051015,
      1767051049,
      1767051080,
      1767051101,
      1767051139
    ],
    "wof:geomhash": "03c26efb7840a1df442e1ba04a187770",
    "wof:id": 2014426879,
    "wof:repo": "sfomuseum-data-flights-2025-12"
  },
  "bbox": [
    -123.46149,
    36.86161,
    -122.14276,
    37.61363
  ],
  "geometry": {"coordinates":[[-123.46149,36.86161],[-123.41343,36.89428],[-123.35086,36.9355],[-123.30797,36.9645],[-123.26405,36.99343],[-123.22059,37.02229],[-123.14628,37.07144],[-123.09438,37.1058],[-123.04995,37.1352],[-123.00987,37.16159],[-122.98836,37.17555],[-122.92068,37.21969],[-122.86855,37.25254],[-122.83543,37.26387],[-122.77094,37.27937],[-122.75818,37.28236],[-122.69162,37.29779],[-122.63345,37.31116],[-122.6004,37.31888],[-122.55484,37.32943],[-122.49444,37.3435],[-122.44212,37.35555],[-122.40885,37.36325],[-122.37087,37.37199],[-122.33098,37.38113],[-122.29285,37.39019],[-122.24136,37.41777],[-122.20889,37.43515],[-122.19104,37.44441],[-122.17666,37.45178],[-122.16489,37.458],[-122.14276,37.49489],[-122.15724,37.51403],[-122.18569,37.53891],[-122.21549,37.55156],[-122.23292,37.55902],[-122.26346,37.57182],[-122.29087,37.58333],[-122.31604,37.59399],[-122.33192,37.60076],[-122.3626,37.61363]],"type":"LineString"}
}
