{
  "id": 2014441699,
  "type": "Feature",
  "properties": {
    "geom:area": 0,
    "geom:bbox": "-123.472470,36.980060,-122.069980,37.614850",
    "geom:latitude": 37.3737721774907,
    "geom:longitude": -122.54398764537702,
    "src:alt_label": "swim-approach",
    "src:geom": "swim",
    "swim:elevations": [
      6344,
      6092,
      5743,
      5602,
      5082,
      4930,
      4497,
      4224,
      3923,
      3798,
      3561,
      3350,
      3045,
      3048,
      3048,
      3047,
      3048,
      3048,
      3048,
      3048,
      3048,
      2980,
      2897,
      2752,
      2573,
      2362,
      2086,
      1895,
      1654,
      1586,
      1463,
      1457,
      1373,
      1080,
      831,
      807,
      487,
      358,
      405,
      531,
      911,
      1229,
      1530,
      1524,
      1524,
      1524,
      1524,
      1524,
      1524,
      1524,
      1522,
      1341,
      1219,
      1216,
      915,
      834,
      695,
      516,
      354,
      316,
      110,
      62
    ],
    "swim:geom": "approach",
    "swim:timestamps": [
      1767225683,
      1767225707,
      1767225743,
      1767225755,
      1767225807,
      1767225822,
      1767225867,
      1767225893,
      1767225926,
      1767225939,
      1767225963,
      1767225984,
      1767226017,
      1767226044,
      1767226063,
      1767226096,
      1767226138,
      1767226155,
      1767226182,
      1767226226,
      1767226256,
      1767226282,
      1767226296,
      1767226326,
      1767226350,
      1767226392,
      1767226438,
      1767226465,
      1767226497,
      1767226506,
      1767226533,
      1767226586,
      1767226603,
      1767226646,
      1767226677,
      1767226684,
      1767226735,
      1767226763,
      1767226798,
      1767226816,
      1767226852,
      1767226867,
      1767226918,
      1767226945,
      1767226978,
      1767226981,
      1767227038,
      1767227047,
      1767227083,
      1767227123,
      1767227150,
      1767227186,
      1767227243,
      1767227321,
      1767227414,
      1767227442,
      1767227465,
      1767227502,
      1767227547,
      1767227553,
      1767227604,
      1767227613
    ],
    "wof:geomhash": "0ad4c865807ab429752503de78d2b78e",
    "wof:id": 2014441699,
    "wof:repo": "sfomuseum-data-flights-2025-12"
  },
  "bbox": [
    -123.47247,
    36.98006,
    -122.06998,
    37.61485
  ],
  "geometry": {"coordinates":[[-123.47247,36.98006],[-123.42567,37.00122],[-123.35761,37.03206],[-123.33449,37.04275],[-123.24059,37.08565],[-123.21321,37.09819],[-123.13138,37.13573],[-123.08435,37.15734],[-123.02557,37.18407],[-123.00089,37.19534],[-122.95842,37.21454],[-122.92255,37.2307],[-122.8651,37.25536],[-122.81728,37.26808],[-122.78309,37.27629],[-122.72387,37.29027],[-122.64791,37.30786],[-122.61747,37.31492],[-122.56859,37.32639],[-122.48921,37.34468],[-122.43506,37.35719],[-122.39365,37.36672],[-122.37141,37.37179],[-122.32266,37.38302],[-122.28524,37.39164],[-122.22115,37.40622],[-122.15307,37.42173],[-122.11337,37.43102],[-122.07566,37.4568],[-122.06998,37.46776],[-122.07173,37.50217],[-122.11802,37.55035],[-122.14053,37.55335],[-122.19516,37.55488],[-122.23268,37.56042],[-122.23992,37.56433],[-122.29098,37.58572],[-122.31398,37.59539],[-122.34294,37.60777],[-122.36253,37.60862],[-122.41263,37.61182],[-122.43321,37.61485],[-122.48092,37.59002],[-122.46837,37.56524],[-122.44656,37.53655],[-122.44459,37.5339],[-122.40728,37.4841],[-122.40142,37.47626],[-122.36437,37.45491],[-122.31095,37.44209],[-122.27483,37.43366],[-122.22723,37.42314],[-122.15355,37.40968],[-122.10121,37.48158],[-122.17926,37.53868],[-122.20694,37.55038],[-122.23041,37.56026],[-122.26326,37.57404],[-122.29863,37.58916],[-122.30325,37.59104],[-122.34215,37.60731],[-122.34923,37.6101]],"type":"LineString"}
}
