{
  "id": 2014406131,
  "type": "Feature",
  "properties": {
    "geom:area": 0,
    "geom:bbox": "-122.359430,37.491780,-121.280840,37.614390",
    "geom:latitude": 37.545547428765396,
    "geom:longitude": -121.82496434021479,
    "src:alt_label": "swim-approach",
    "src:geom": "swim",
    "swim:elevations": [
      4433,
      4375,
      3816,
      3745,
      3588,
      3266,
      3191,
      3047,
      2927,
      2550,
      2467,
      2433,
      2269,
      2137,
      2026,
      1829,
      1829,
      1511,
      1329,
      1111,
      915,
      788,
      618,
      549,
      489,
      347,
      240,
      72,
      0
    ],
    "swim:geom": "approach",
    "swim:timestamps": [
      1766875376,
      1766875382,
      1766875433,
      1766875442,
      1766875460,
      1766875498,
      1766875513,
      1766875557,
      1766875573,
      1766875616,
      1766875643,
      1766875676,
      1766875700,
      1766875723,
      1766875744,
      1766875798,
      1766875804,
      1766875853,
      1766875874,
      1766875904,
      1766875939,
      1766875965,
      1766875997,
      1766876036,
      1766876052,
      1766876080,
      1766876107,
      1766876150,
      1766876168
    ],
    "wof:geomhash": "710574219d70db5d1928b754bf678cc5",
    "wof:id": 2014406131,
    "wof:repo": "sfomuseum-data-flights-2025-12"
  },
  "bbox": [
    -122.35943,
    37.49178,
    -121.28084,
    37.61439
  ],
  "geometry": {"coordinates":[[-121.28084,37.59024],[-121.29266,37.58878],[-121.3932,37.57785],[-121.41046,37.57593],[-121.44452,37.5719],[-121.51584,37.5636],[-121.54336,37.56036],[-121.61877,37.55143],[-121.64377,37.54632],[-121.71321,37.52965],[-121.75631,37.51932],[-121.80431,37.50792],[-121.83934,37.49944],[-121.87165,37.49215],[-121.9028,37.49178],[-121.97897,37.49388],[-121.98651,37.49523],[-122.04445,37.51337],[-122.06936,37.5214],[-122.10574,37.53282],[-122.14487,37.54561],[-122.17306,37.55471],[-122.20612,37.5656],[-122.24627,37.5784],[-122.26221,37.58349],[-122.28924,37.5912],[-122.31217,37.59765],[-122.34605,37.60884],[-122.35943,37.61439]],"type":"LineString"}
}
