{
  "id": 2014439213,
  "type": "Feature",
  "properties": {
    "geom:area": 0,
    "geom:bbox": "-122.467830,36.724160,-121.301720,37.717380",
    "geom:latitude": 37.218228655580276,
    "geom:longitude": -121.99860614595455,
    "src:alt_label": "swim-takeoff",
    "src:geom": "swim",
    "swim:elevations": [
      122,
      519,
      806,
      1054,
      1137,
      1295,
      1521,
      1684,
      2040,
      2278,
      2947,
      3256,
      3386,
      3494,
      3881,
      4349,
      4532,
      4915,
      5214,
      5449,
      5730,
      5863,
      6220,
      6424,
      6613,
      6706,
      6862,
      6996,
      7180,
      7406,
      7574,
      7680,
      7868,
      7900,
      8113
    ],
    "swim:geom": "takeoff",
    "swim:timestamps": [
      1767086545,
      1767086575,
      1767086603,
      1767086631,
      1767086642,
      1767086665,
      1767086686,
      1767086695,
      1767086719,
      1767086733,
      1767086773,
      1767086815,
      1767086842,
      1767086865,
      1767086897,
      1767086937,
      1767086957,
      1767086996,
      1767087022,
      1767087050,
      1767087084,
      1767087100,
      1767087140,
      1767087170,
      1767087203,
      1767087224,
      1767087256,
      1767087270,
      1767087293,
      1767087326,
      1767087354,
      1767087374,
      1767087414,
      1767087423,
      1767087471
    ],
    "wof:geomhash": "389c7ae84dd4114cdcc9d183b25f95c2",
    "wof:id": 2014439213,
    "wof:repo": "sfomuseum-data-flights-2025-12"
  },
  "bbox": [
    -122.46783,
    36.72416,
    -121.30172,
    37.71738
  ],
  "geometry": {"coordinates":[[-122.36853,37.62967],[-122.3631,37.65237],[-122.3623,37.67468],[-122.36802,37.69926],[-122.37704,37.70786],[-122.40601,37.71738],[-122.43614,37.71007],[-122.44613,37.70209],[-122.45741,37.67365],[-122.45879,37.65635],[-122.46241,37.60606],[-122.46715,37.54951],[-122.46783,37.5066],[-122.44806,37.47365],[-122.39487,37.43764],[-122.32613,37.39563],[-122.2919,37.37424],[-122.22327,37.32935],[-122.17665,37.2991],[-122.1269,37.26737],[-122.06483,37.22637],[-122.03562,37.20695],[-121.96077,37.15774],[-121.90491,37.12115],[-121.8416,37.07967],[-121.80033,37.05273],[-121.7369,37.01116],[-121.70781,36.99215],[-121.66292,36.96279],[-121.59818,36.92027],[-121.54062,36.8823],[-121.50177,36.8568],[-121.41985,36.80241],[-121.40093,36.78992],[-121.30172,36.72416]],"type":"LineString"}
}
