{
  "id": 2014447441,
  "type": "Feature",
  "properties": {
    "geom:area": 0,
    "geom:bbox": "-122.384640,37.640840,-121.243230,37.982350",
    "geom:latitude": 37.91326279582391,
    "geom:longitude": -121.92913174274489,
    "src:alt_label": "swim-takeoff",
    "src:geom": "swim",
    "swim:elevations": [
      290,
      540,
      852,
      1138,
      1339,
      1821,
      2254,
      2663,
      2973,
      3166,
      3355,
      3394,
      3906,
      4356,
      4625,
      5079,
      5308,
      5649,
      5847,
      6088,
      6318,
      6616,
      6886,
      7072,
      7239,
      7423,
      7838,
      7932
    ],
    "swim:geom": "takeoff",
    "swim:timestamps": [
      1767225740,
      1767225761,
      1767225792,
      1767225831,
      1767225864,
      1767225896,
      1767225921,
      1767225948,
      1767225968,
      1767225987,
      1767226017,
      1767226020,
      1767226063,
      1767226099,
      1767226120,
      1767226167,
      1767226191,
      1767226226,
      1767226244,
      1767226268,
      1767226314,
      1767226344,
      1767226377,
      1767226408,
      1767226429,
      1767226447,
      1767226497,
      1767226509
    ],
    "wof:geomhash": "691a443b97e8894bbc9731c6dfe9a50a",
    "wof:id": 2014447441,
    "wof:repo": "sfomuseum-data-flights-2025-12"
  },
  "bbox": [
    -122.38464,
    37.64084,
    -121.24323,
    37.98235
  ],
  "geometry": {"coordinates":[[-122.35728,37.64084],[-122.34188,37.65353],[-122.32013,37.67172],[-122.3148,37.70882],[-122.33525,37.7457],[-122.35716,37.78653],[-122.37301,37.81928],[-122.38449,37.85599],[-122.38464,37.88408],[-122.37788,37.91065],[-122.34076,37.94497],[-122.3356,37.94722],[-122.254,37.95004],[-122.18411,37.94045],[-122.14297,37.935],[-122.04824,37.9298],[-121.99758,37.93333],[-121.92237,37.93852],[-121.88157,37.94134],[-121.829,37.94505],[-121.72682,37.95193],[-121.6533,37.95668],[-121.57392,37.96179],[-121.49798,37.96666],[-121.44542,37.96993],[-121.40022,37.9728],[-121.27356,37.98049],[-121.24323,37.98235]],"type":"LineString"}
}
