{
  "id": 2014422271,
  "type": "Feature",
  "properties": {
    "geom:area": 0,
    "geom:bbox": "-122.361720,37.635530,-121.283400,37.951680",
    "geom:latitude": 37.82699404658623,
    "geom:longitude": -121.83716163029442,
    "src:alt_label": "swim-takeoff",
    "src:geom": "swim",
    "swim:elevations": [
      183,
      532,
      1041,
      1247,
      1551,
      1791,
      2193,
      2753,
      2871,
      3125,
      3267,
      3481,
      3900,
      4332,
      4375,
      4689,
      4858,
      5292,
      5513,
      5791,
      6001,
      6164,
      6559,
      6845,
      6960
    ],
    "swim:geom": "takeoff",
    "swim:timestamps": [
      1766913414,
      1766913438,
      1766913473,
      1766913505,
      1766913535,
      1766913555,
      1766913585,
      1766913626,
      1766913635,
      1766913653,
      1766913676,
      1766913705,
      1766913738,
      1766913775,
      1766913781,
      1766913812,
      1766913830,
      1766913868,
      1766913898,
      1766913926,
      1766913951,
      1766913969,
      1766914016,
      1766914047,
      1766914059
    ],
    "wof:geomhash": "79064666cbdaf9a7367e9eb36da63333",
    "wof:id": 2014422271,
    "wof:repo": "sfomuseum-data-flights-2025-12"
  },
  "bbox": [
    -122.36172,
    37.63553,
    -121.2834,
    37.95168
  ],
  "geometry": {"coordinates":[[-122.36172,37.63553],[-122.34335,37.64969],[-122.31446,37.6639],[-122.28617,37.68035],[-122.25323,37.69839],[-122.23498,37.71497],[-122.21001,37.74378],[-122.15628,37.76864],[-122.14233,37.77095],[-122.11377,37.77724],[-122.07611,37.78597],[-122.0245,37.79729],[-121.96229,37.81042],[-121.89084,37.82553],[-121.87897,37.82806],[-121.8169,37.84131],[-121.77881,37.84939],[-121.7015,37.86579],[-121.63809,37.87933],[-121.57879,37.89184],[-121.52475,37.90328],[-121.48559,37.91149],[-121.38152,37.93326],[-121.31339,37.94745],[-121.2834,37.95168]],"type":"LineString"}
}
