{
  "id": 2014433247,
  "type": "Feature",
  "properties": {
    "geom:area": 0,
    "geom:bbox": "-122.822640,37.434660,-122.118680,38.412810",
    "geom:latitude": 37.79506292620077,
    "geom:longitude": -122.48587116173083,
    "src:alt_label": "swim-approach",
    "src:geom": "swim",
    "swim:elevations": [
      7590,
      7314,
      7129,
      6880,
      6758,
      6572,
      6526,
      6098,
      5764,
      5544,
      5231,
      4986,
      4833,
      4804,
      4603,
      4400,
      3988,
      3727,
      3477,
      3416,
      3369,
      3353,
      3353,
      3103,
      2904,
      2639,
      2537,
      2331,
      2029,
      1867,
      1762,
      1566,
      1361,
      1216,
      1233,
      1253,
      1219,
      1221,
      1161,
      1072,
      950,
      724,
      615,
      457,
      448,
      317,
      244,
      85,
      155
    ],
    "swim:geom": "approach",
    "swim:timestamps": [
      1767085457,
      1767085484,
      1767085501,
      1767085525,
      1767085538,
      1767085556,
      1767085562,
      1767085605,
      1767085639,
      1767085662,
      1767085699,
      1767085723,
      1767085738,
      1767085741,
      1767085762,
      1767085784,
      1767085826,
      1767085855,
      1767085883,
      1767085901,
      1767085916,
      1767085934,
      1767085963,
      1767085997,
      1767086021,
      1767086060,
      1767086072,
      1767086095,
      1767086128,
      1767086150,
      1767086165,
      1767086193,
      1767086229,
      1767086266,
      1767086295,
      1767086301,
      1767086310,
      1767086316,
      1767086364,
      1767086381,
      1767086400,
      1767086455,
      1767086476,
      1767086504,
      1767086508,
      1767086536,
      1767086552,
      1767086596,
      1767086614
    ],
    "wof:geomhash": "e1faa760e8b388a84958e582587e2c13",
    "wof:id": 2014433247,
    "wof:repo": "sfomuseum-data-flights-2025-12"
  },
  "bbox": [
    -122.82264,
    37.43466,
    -122.11868,
    38.41281
  ],
  "geometry": {"coordinates":[[-122.82264,38.41281],[-122.80871,38.36574],[-122.80046,38.3375],[-122.78866,38.29746],[-122.78229,38.27575],[-122.7736,38.24587],[-122.77071,38.23599],[-122.75027,38.16553],[-122.73484,38.11141],[-122.72462,38.07622],[-122.70776,38.01837],[-122.69724,37.98201],[-122.69076,37.95991],[-122.68944,37.95541],[-122.68026,37.92466],[-122.66482,37.89454],[-122.61585,37.84534],[-122.58153,37.81288],[-122.54933,37.78263],[-122.52897,37.7634],[-122.51275,37.74807],[-122.4938,37.73008],[-122.46319,37.70126],[-122.42891,37.66911],[-122.40375,37.64532],[-122.36547,37.60833],[-122.35598,37.59513],[-122.34354,37.56864],[-122.32088,37.53052],[-122.3055,37.50508],[-122.29497,37.48814],[-122.26209,37.4674],[-122.2105,37.44984],[-122.16247,37.43466],[-122.12731,37.44056],[-122.12286,37.44505],[-122.11902,37.45304],[-122.11868,37.45875],[-122.14658,37.49708],[-122.15806,37.51042],[-122.17081,37.52557],[-122.2217,37.55424],[-122.24323,37.56335],[-122.27142,37.57522],[-122.27505,37.57673],[-122.30015,37.5873],[-122.31264,37.59248],[-122.3475,37.60703],[-122.36189,37.61402]],"type":"LineString"}
}
