{
  "id": 2014422205,
  "type": "Feature",
  "properties": {
    "geom:area": 0,
    "geom:bbox": "-122.368860,37.624250,-122.076160,38.476900",
    "geom:latitude": 38.02013142396657,
    "geom:longitude": -122.17880241831236,
    "src:alt_label": "swim-takeoff",
    "src:geom": "swim",
    "swim:elevations": [
      152,
      566,
      863,
      952,
      1064,
      1422,
      1733,
      2115,
      2619,
      2856,
      3354,
      3467,
      4057,
      4372,
      4855,
      5164,
      5343,
      6153,
      7012,
      7192,
      7400,
      7870,
      7925,
      7925,
      7925
    ],
    "swim:geom": "takeoff",
    "swim:timestamps": [
      1766943776,
      1766943805,
      1766943837,
      1766943846,
      1766943870,
      1766943928,
      1766943949,
      1766943976,
      1766944006,
      1766944024,
      1766944076,
      1766944094,
      1766944132,
      1766944157,
      1766944197,
      1766944226,
      1766944240,
      1766944277,
      1766944317,
      1766944345,
      1766944367,
      1766944399,
      1766944431,
      1766944447,
      1766944474
    ],
    "wof:geomhash": "ffdb45f160e1a90184198f155b678212",
    "wof:id": 2014422205,
    "wof:repo": "sfomuseum-data-flights-2025-12"
  },
  "bbox": [
    -122.36886,
    37.62425,
    -122.07616,
    38.4769
  ],
  "geometry": {"coordinates":[[-122.36886,37.62425],[-122.35257,37.63713],[-122.33363,37.64971],[-122.32769,37.65343],[-122.31206,37.66316],[-122.25806,37.69527],[-122.23334,37.70815],[-122.21155,37.73417],[-122.20509,37.77011],[-122.20214,37.79235],[-122.19088,37.86156],[-122.18629,37.88851],[-122.17698,37.94623],[-122.1708,37.98449],[-122.16022,38.04696],[-122.15309,38.09178],[-122.14946,38.11353],[-122.13981,38.17209],[-122.13033,38.22956],[-122.12476,38.27095],[-122.12144,38.30531],[-122.11709,38.35585],[-122.10552,38.40728],[-122.09512,38.43209],[-122.07616,38.4769]],"type":"LineString"}
}
