{
  "id": 2014417253,
  "type": "Feature",
  "properties": {
    "geom:area": 0,
    "geom:bbox": "-123.279790,37.206680,-122.113820,37.611400",
    "geom:latitude": 37.35443370082419,
    "geom:longitude": -122.59276451680363,
    "src:alt_label": "swim-approach",
    "src:geom": "swim",
    "swim:elevations": [
      4598,
      4287,
      4213,
      3786,
      3614,
      3484,
      3239,
      3138,
      3087,
      3019,
      2944,
      2833,
      2840,
      2800,
      2772,
      2679,
      2619,
      2497,
      2429,
      2439,
      2295,
      2282,
      2164,
      2101,
      1952,
      1829,
      1829,
      1557,
      1427,
      1268,
      1218,
      1219,
      1190,
      1189,
      1002,
      851,
      767,
      621,
      487,
      374,
      238,
      121,
      75,
      24
    ],
    "swim:geom": "approach",
    "swim:timestamps": [
      1766949560,
      1766949598,
      1766949605,
      1766949657,
      1766949678,
      1766949692,
      1766949727,
      1766949754,
      1766949772,
      1766949808,
      1766949818,
      1766949857,
      1766949872,
      1766949918,
      1766949931,
      1766949971,
      1766949998,
      1766950047,
      1766950068,
      1766950092,
      1766950137,
      1766950142,
      1766950166,
      1766950178,
      1766950202,
      1766950257,
      1766950271,
      1766950312,
      1766950327,
      1766950345,
      1766950367,
      1766950398,
      1766950434,
      1766950447,
      1766950493,
      1766950526,
      1766950550,
      1766950584,
      1766950614,
      1766950642,
      1766950677,
      1766950706,
      1766950715,
      1766950729
    ],
    "wof:geomhash": "ee9f2c77e8d3097da5d5e98ef1093fbc",
    "wof:id": 2014417253,
    "wof:repo": "sfomuseum-data-flights-2025-12"
  },
  "bbox": [
    -123.27979,
    37.20668,
    -122.11382,
    37.6114
  ],
  "geometry": {"coordinates":[[-123.27979,37.20668],[-123.21229,37.21496],[-123.20002,37.21645],[-123.10601,37.22804],[-123.06848,37.23264],[-123.04296,37.23575],[-122.98107,37.24335],[-122.93456,37.24903],[-122.90479,37.25262],[-122.84787,37.25967],[-122.83258,37.26162],[-122.76957,37.26943],[-122.74734,37.27263],[-122.68425,37.29879],[-122.66505,37.30422],[-122.605,37.31799],[-122.56313,37.32768],[-122.48897,37.34473],[-122.45783,37.35194],[-122.42382,37.35974],[-122.36235,37.37391],[-122.35624,37.37527],[-122.32537,37.38237],[-122.30998,37.38587],[-122.27871,37.39247],[-122.21236,37.40509],[-122.19779,37.40776],[-122.15348,37.41545],[-122.1402,37.42083],[-122.1295,37.43225],[-122.11796,37.44741],[-122.11382,37.47096],[-122.12823,37.49808],[-122.13293,37.50716],[-122.16612,37.5308],[-122.19424,37.5427],[-122.21373,37.5509],[-122.24189,37.56272],[-122.26651,37.57309],[-122.28966,37.58286],[-122.31669,37.59422],[-122.33952,37.60376],[-122.34672,37.60675],[-122.35776,37.6114]],"type":"LineString"}
}
