{
  "id": 2014447687,
  "type": "Feature",
  "properties": {
    "geom:area": 0,
    "geom:bbox": "-122.363280,37.633360,-121.261330,37.945620",
    "geom:latitude": 37.78696860414192,
    "geom:longitude": -121.81253949993507,
    "src:alt_label": "swim-takeoff",
    "src:geom": "swim",
    "swim:elevations": [
      213,
      567,
      994,
      1087,
      1436,
      1747,
      2174,
      2591,
      2957,
      3395,
      3674,
      4008,
      4421,
      4763,
      5140,
      5501,
      5829,
      6153,
      6467,
      6575,
      6996,
      7150,
      7334
    ],
    "swim:geom": "takeoff",
    "swim:timestamps": [
      1767240285,
      1767240315,
      1767240353,
      1767240362,
      1767240413,
      1767240446,
      1767240476,
      1767240503,
      1767240530,
      1767240561,
      1767240591,
      1767240624,
      1767240654,
      1767240681,
      1767240714,
      1767240744,
      1767240774,
      1767240804,
      1767240834,
      1767240846,
      1767240894,
      1767240912,
      1767240930
    ],
    "wof:geomhash": "52c51a15001bd43739d98a78b272f8e1",
    "wof:id": 2014447687,
    "wof:repo": "sfomuseum-data-flights-2025-12"
  },
  "bbox": [
    -122.36328,
    37.63336,
    -121.26133,
    37.94562
  ],
  "geometry": {"coordinates":[[-122.36328,37.63336],[-122.34242,37.64793],[-122.30574,37.65573],[-122.29671,37.65751],[-122.23596,37.67081],[-122.18617,37.68055],[-122.13883,37.68938],[-122.09545,37.70127],[-122.05251,37.71429],[-122.00133,37.72967],[-121.94929,37.74487],[-121.88809,37.76292],[-121.83077,37.78002],[-121.77885,37.79513],[-121.71369,37.81415],[-121.65353,37.83171],[-121.59247,37.84953],[-121.53042,37.86763],[-121.46737,37.88598],[-121.44189,37.89339],[-121.33864,37.92328],[-121.30101,37.93416],[-121.26133,37.94562]],"type":"LineString"}
}
