{
  "id": 2014413697,
  "type": "Feature",
  "properties": {
    "geom:area": 0,
    "geom:bbox": "-122.456350,36.721560,-121.280530,37.705650",
    "geom:latitude": 37.21304069385253,
    "geom:longitude": -121.9585595702938,
    "src:alt_label": "swim-takeoff",
    "src:geom": "swim",
    "swim:elevations": [
      183,
      754,
      1083,
      1260,
      1741,
      2009,
      2323,
      2749,
      3266,
      3564,
      4014,
      4318,
      4764,
      5058,
      5268,
      5889,
      6033,
      6501,
      6649,
      7157,
      7350,
      7601,
      7818,
      8220,
      8622,
      8806,
      8839,
      8839,
      8839,
      8839,
      8839
    ],
    "swim:geom": "takeoff",
    "swim:timestamps": [
      1766834131,
      1766834176,
      1766834204,
      1766834237,
      1766834273,
      1766834287,
      1766834310,
      1766834341,
      1766834373,
      1766834413,
      1766834455,
      1766834478,
      1766834512,
      1766834535,
      1766834552,
      1766834608,
      1766834620,
      1766834664,
      1766834677,
      1766834728,
      1766834752,
      1766834780,
      1766834805,
      1766834841,
      1766834873,
      1766834892,
      1766834914,
      1766834964,
      1766834973,
      1766835001,
      1766835034
    ],
    "wof:geomhash": "ae778f44d6f8d1af5d205c3ee0914ec7",
    "wof:id": 2014413697,
    "wof:repo": "sfomuseum-data-flights-2025-12"
  },
  "bbox": [
    -122.45635,
    36.72156,
    -121.28053,
    37.70565
  ],
  "geometry": {"coordinates":[[-122.36678,37.63219],[-122.3626,37.66533],[-122.36302,37.6873],[-122.39353,37.70565],[-122.43304,37.67951],[-122.4353,37.66171],[-122.43738,37.6326],[-122.44679,37.59036],[-122.45635,37.54523],[-122.41488,37.50094],[-122.34703,37.45651],[-122.31,37.43052],[-122.25401,37.39197],[-122.21449,37.36498],[-122.1847,37.34476],[-122.08704,37.27837],[-122.066,37.26406],[-121.98565,37.20918],[-121.96129,37.19253],[-121.86568,37.12695],[-121.82006,37.0956],[-121.76509,37.05775],[-121.71636,37.02425],[-121.64602,36.97594],[-121.58443,36.93306],[-121.5476,36.90757],[-121.50716,36.87935],[-121.41149,36.81255],[-121.39459,36.80074],[-121.34283,36.76491],[-121.28053,36.72156]],"type":"LineString"}
}
