{
  "id": 2014419401,
  "type": "Feature",
  "properties": {
    "geom:area": 0,
    "geom:bbox": "-122.364470,37.631440,-122.117550,38.488560",
    "geom:latitude": 38.02650914368409,
    "geom:longitude": -122.17995182080902,
    "src:alt_label": "swim-takeoff",
    "src:geom": "swim",
    "swim:elevations": [
      213,
      469,
      777,
      1151,
      1411,
      1553,
      2214,
      2712,
      3069,
      3208,
      3409,
      3814,
      4081,
      4139,
      4627,
      5019,
      5148,
      5441,
      5767,
      5800,
      6232,
      6297,
      6809
    ],
    "swim:geom": "takeoff",
    "swim:timestamps": [
      1766928179,
      1766928195,
      1766928217,
      1766928253,
      1766928292,
      1766928305,
      1766928352,
      1766928387,
      1766928412,
      1766928423,
      1766928459,
      1766928508,
      1766928538,
      1766928544,
      1766928592,
      1766928628,
      1766928640,
      1766928668,
      1766928716,
      1766928721,
      1766928776,
      1766928783,
      1766928824
    ],
    "wof:geomhash": "a87d944a8c05c7208935058865f25f1a",
    "wof:id": 2014419401,
    "wof:repo": "sfomuseum-data-flights-2025-12"
  },
  "bbox": [
    -122.36447,
    37.63144,
    -122.11755,
    38.48856
  ],
  "geometry": {"coordinates":[[-122.36447,37.63144],[-122.35439,37.64137],[-122.3367,37.65045],[-122.30777,37.66622],[-122.26814,37.68994],[-122.25286,37.69809],[-122.20888,37.73901],[-122.20462,37.78037],[-122.19962,37.81122],[-122.19718,37.82467],[-122.18919,37.87246],[-122.17738,37.94765],[-122.1691,37.9962],[-122.1674,38.00596],[-122.15465,38.08494],[-122.14443,38.14563],[-122.14114,38.16529],[-122.13326,38.21262],[-122.1193,38.29665],[-122.11784,38.3053],[-122.11755,38.40257],[-122.11845,38.41565],[-122.1234,38.48856]],"type":"LineString"}
}
