{
  "id": 2014414621,
  "type": "Feature",
  "properties": {
    "geom:area": 0,
    "geom:bbox": "-122.355450,37.491410,-121.251050,37.612830",
    "geom:latitude": 37.54645730446459,
    "geom:longitude": -121.80810150493262,
    "src:alt_label": "swim-approach",
    "src:geom": "swim",
    "swim:elevations": [
      4368,
      4092,
      3957,
      3880,
      3658,
      3523,
      3330,
      3200,
      2942,
      2720,
      2700,
      2668,
      2435,
      2341,
      2094,
      1881,
      1799,
      1598,
      1356,
      1210,
      1035,
      920,
      790,
      614,
      549,
      545,
      429,
      293,
      210,
      119,
      23
    ],
    "swim:geom": "approach",
    "swim:timestamps": [
      1766963690,
      1766963720,
      1766963738,
      1766963750,
      1766963781,
      1766963800,
      1766963833,
      1766963857,
      1766963897,
      1766963937,
      1766963940,
      1766963946,
      1766963984,
      1766964003,
      1766964040,
      1766964076,
      1766964104,
      1766964146,
      1766964178,
      1766964198,
      1766964232,
      1766964253,
      1766964277,
      1766964314,
      1766964337,
      1766964355,
      1766964382,
      1766964417,
      1766964437,
      1766964460,
      1766964484
    ],
    "wof:geomhash": "cf8881248cd013ce5625ebf241505468",
    "wof:id": 2014414621,
    "wof:repo": "sfomuseum-data-flights-2025-12"
  },
  "bbox": [
    -122.35545,
    37.49141,
    -121.25105,
    37.61283
  ],
  "geometry": {"coordinates":[[-121.25105,37.59427],[-121.31568,37.58615],[-121.35409,37.58199],[-121.37945,37.57917],[-121.44259,37.57196],[-121.48138,37.56745],[-121.54553,37.55994],[-121.59227,37.55444],[-121.66138,37.54192],[-121.72836,37.52591],[-121.73301,37.5248],[-121.7422,37.52261],[-121.80058,37.50871],[-121.8285,37.50199],[-121.88588,37.49141],[-121.93841,37.49262],[-121.97706,37.49376],[-122.02753,37.50776],[-122.06262,37.51903],[-122.08414,37.52602],[-122.12087,37.53762],[-122.14365,37.54513],[-122.17032,37.55375],[-122.20886,37.56634],[-122.23204,37.57368],[-122.24939,37.57922],[-122.2737,37.58679],[-122.30248,37.59508],[-122.3189,37.59996],[-122.33748,37.6056],[-122.35545,37.61283]],"type":"LineString"}
}
