{
  "id": 2014421429,
  "type": "Feature",
  "properties": {
    "geom:area": 0,
    "geom:bbox": "-122.366190,37.628610,-121.281440,37.959110",
    "geom:latitude": 37.834532743378645,
    "geom:longitude": -121.83855008280186,
    "src:alt_label": "swim-takeoff",
    "src:geom": "swim",
    "swim:elevations": [
      152,
      663,
      976,
      1243,
      1566,
      1827,
      2398,
      2829,
      3185,
      3405,
      3493,
      3817,
      4289,
      4866,
      5340,
      5527,
      5704,
      5985,
      6236,
      6623,
      6817,
      6957
    ],
    "swim:geom": "takeoff",
    "swim:timestamps": [
      1766929115,
      1766929166,
      1766929194,
      1766929220,
      1766929254,
      1766929273,
      1766929317,
      1766929347,
      1766929374,
      1766929406,
      1766929418,
      1766929443,
      1766929485,
      1766929533,
      1766929579,
      1766929604,
      1766929623,
      1766929653,
      1766929683,
      1766929732,
      1766929755,
      1766929775
    ],
    "wof:geomhash": "4a410cd56245e514555606d50b641d10",
    "wof:id": 2014421429,
    "wof:repo": "sfomuseum-data-flights-2025-12"
  },
  "bbox": [
    -122.36619,
    37.62861,
    -121.28144,
    37.95911
  ],
  "geometry": {"coordinates":[[-122.36619,37.62861],[-122.33199,37.6534],[-122.30761,37.66717],[-122.28313,37.68119],[-122.24423,37.70204],[-122.22046,37.71375],[-122.16363,37.74356],[-122.12416,37.76425],[-122.08646,37.78391],[-122.03862,37.80879],[-122.01924,37.81843],[-121.97391,37.83161],[-121.89085,37.84737],[-121.79526,37.86515],[-121.7021,37.88235],[-121.64942,37.89207],[-121.60964,37.89936],[-121.54605,37.91099],[-121.48249,37.92263],[-121.37634,37.94195],[-121.32601,37.95103],[-121.28144,37.95911]],"type":"LineString"}
}
