{
  "id": 2014437927,
  "type": "Feature",
  "properties": {
    "geom:area": 0,
    "geom:bbox": "-122.386270,37.632110,-121.476060,38.489560",
    "geom:latitude": 38.10954016608453,
    "geom:longitude": -122.03132190163524,
    "src:alt_label": "swim-takeoff",
    "src:geom": "swim",
    "swim:elevations": [
      213,
      472,
      703,
      742,
      1307,
      1557,
      2093,
      2518,
      2857,
      3179,
      3620,
      3854,
      4077,
      4129,
      4505,
      4860,
      5281,
      5469,
      5757,
      5828,
      6327,
      6588,
      6814,
      7069,
      7123,
      7338
    ],
    "swim:geom": "takeoff",
    "swim:timestamps": [
      1767160736,
      1767160753,
      1767160795,
      1767160801,
      1767160846,
      1767160861,
      1767160903,
      1767160936,
      1767160962,
      1767160982,
      1767161038,
      1767161068,
      1767161095,
      1767161107,
      1767161137,
      1767161167,
      1767161215,
      1767161243,
      1767161275,
      1767161283,
      1767161335,
      1767161365,
      1767161393,
      1767161428,
      1767161436,
      1767161468
    ],
    "wof:geomhash": "d073b535c3ad1e1f8d7b262e7b4b8a65",
    "wof:id": 2014437927,
    "wof:repo": "sfomuseum-data-flights-2025-12"
  },
  "bbox": [
    -122.38627,
    37.63211,
    -121.47606,
    38.48956
  ],
  "geometry": {"coordinates":[[-122.36425,37.63211],[-122.35436,37.64263],[-122.3216,37.67094],[-122.31765,37.6767],[-122.32776,37.73116],[-122.3374,37.74791],[-122.36323,37.79735],[-122.38336,37.8397],[-122.38627,37.87611],[-122.38546,37.90526],[-122.3315,37.9724],[-122.28236,38.00253],[-122.23402,38.03169],[-122.21194,38.04483],[-122.1558,38.07837],[-122.09999,38.1128],[-122.00755,38.1694],[-121.95357,38.20219],[-121.88762,38.24194],[-121.87084,38.25208],[-121.7616,38.31786],[-121.69938,38.35526],[-121.64044,38.39054],[-121.56318,38.43676],[-121.54675,38.44654],[-121.47606,38.48956]],"type":"LineString"}
}
