{
  "id": 2014413603,
  "type": "Feature",
  "properties": {
    "geom:area": 0,
    "geom:bbox": "-123.477050,37.419370,-122.413120,37.663710",
    "geom:latitude": 37.556555990143764,
    "geom:longitude": -122.94442138018708,
    "src:alt_label": "swim-takeoff",
    "src:geom": "swim",
    "swim:elevations": [
      405,
      736,
      910,
      1172,
      1639,
      1969,
      2039,
      2254,
      2631,
      2863,
      3308,
      3447,
      3898,
      4358,
      4665,
      4897,
      5178,
      5335,
      5688,
      5735,
      6081,
      6337,
      6458
    ],
    "swim:geom": "takeoff",
    "swim:timestamps": [
      1766862296,
      1766862322,
      1766862337,
      1766862365,
      1766862418,
      1766862444,
      1766862450,
      1766862468,
      1766862498,
      1766862512,
      1766862548,
      1766862574,
      1766862615,
      1766862651,
      1766862680,
      1766862700,
      1766862732,
      1766862752,
      1766862807,
      1766862813,
      1766862861,
      1766862889,
      1766862903
    ],
    "wof:geomhash": "d59f3768bcf3c05e15e167d87da730ce",
    "wof:id": 2014413603,
    "wof:repo": "sfomuseum-data-flights-2025-12"
  },
  "bbox": [
    -123.47705,
    37.41937,
    -122.41312,
    37.66371
  ],
  "geometry": {"coordinates":[[-122.41312,37.63489],[-122.43711,37.64531],[-122.45111,37.65148],[-122.47841,37.66371],[-122.54893,37.66292],[-122.58626,37.65317],[-122.59526,37.65089],[-122.62261,37.6439],[-122.67131,37.63123],[-122.69406,37.62527],[-122.75181,37.61007],[-122.79714,37.59839],[-122.87429,37.57856],[-122.94277,37.5607],[-122.99858,37.54612],[-123.03817,37.53578],[-123.10175,37.51904],[-123.14155,37.50856],[-123.25978,37.47724],[-123.27287,37.47374],[-123.3804,37.44514],[-123.44334,37.42835],[-123.47705,37.41937]],"type":"LineString"}
}
