{
  "id": 2014430291,
  "type": "Feature",
  "properties": {
    "geom:area": 0,
    "geom:bbox": "-122.362560,37.633500,-121.282700,38.140000",
    "geom:latitude": 37.890973908498694,
    "geom:longitude": -121.82388924783025,
    "src:alt_label": "swim-takeoff",
    "src:geom": "swim",
    "swim:elevations": [
      244,
      314,
      631,
      937,
      1207,
      1326,
      1720,
      2156,
      2548,
      2794,
      2992,
      3289,
      3385,
      3427,
      3688,
      3822,
      4103,
      4392,
      4777,
      5205,
      5459,
      5788,
      6068,
      6379,
      6636,
      6994,
      7243,
      7479
    ],
    "swim:geom": "takeoff",
    "swim:timestamps": [
      1767078208,
      1767078214,
      1767078268,
      1767078296,
      1767078318,
      1767078327,
      1767078354,
      1767078386,
      1767078415,
      1767078433,
      1767078445,
      1767078469,
      1767078484,
      1767078492,
      1767078514,
      1767078537,
      1767078561,
      1767078582,
      1767078612,
      1767078639,
      1767078665,
      1767078699,
      1767078732,
      1767078767,
      1767078791,
      1767078822,
      1767078843,
      1767078872
    ],
    "wof:geomhash": "8308d687040e572d68956ce66b6444fb",
    "wof:id": 2014430291,
    "wof:repo": "sfomuseum-data-flights-2025-12"
  },
  "bbox": [
    -122.36256,
    37.6335,
    -121.2827,
    38.14
  ],
  "geometry": {"coordinates":[[-122.36256,37.6335],[-122.35848,37.63734],[-122.30898,37.66534],[-122.27717,37.68477],[-122.25043,37.70052],[-122.23856,37.70669],[-122.2019,37.72442],[-122.15852,37.74666],[-122.11859,37.7673],[-122.09356,37.78035],[-122.0768,37.78898],[-122.0424,37.80588],[-122.02046,37.81717],[-122.00844,37.82349],[-121.97188,37.83809],[-121.93157,37.85289],[-121.88821,37.87143],[-121.85001,37.88759],[-121.79345,37.91035],[-121.74385,37.92996],[-121.69402,37.94896],[-121.62965,37.97469],[-121.56233,38.00128],[-121.48907,38.02986],[-121.43751,38.04994],[-121.3736,38.07604],[-121.33327,38.09994],[-121.2827,38.14]],"type":"LineString"}
}
