{
  "id": 2014426453,
  "type": "Feature",
  "properties": {
    "geom:area": 0,
    "geom:bbox": "-123.483660,37.307490,-122.146290,37.611090",
    "geom:latitude": 37.397540434579426,
    "geom:longitude": -122.71904565611574,
    "src:alt_label": "swim-approach",
    "src:geom": "swim",
    "swim:elevations": [
      5864,
      5650,
      5448,
      5370,
      5002,
      4814,
      4606,
      4201,
      4051,
      3559,
      3273,
      3123,
      3100,
      3048,
      2984,
      2822,
      2593,
      2433,
      2158,
      1942,
      1872,
      1829,
      1829,
      1829,
      1829,
      1821,
      1702,
      1585,
      1379,
      1252,
      1151,
      1039,
      912,
      636,
      553,
      367,
      277,
      183,
      62,
      26
    ],
    "swim:geom": "approach",
    "swim:timestamps": [
      1766996577,
      1766996596,
      1766996613,
      1766996627,
      1766996653,
      1766996668,
      1766996685,
      1766996720,
      1766996734,
      1766996777,
      1766996809,
      1766996841,
      1766996850,
      1766996893,
      1766996926,
      1766996946,
      1766996985,
      1766997009,
      1766997053,
      1766997087,
      1766997098,
      1766997148,
      1766997165,
      1766997207,
      1766997239,
      1766997260,
      1766997285,
      1766997307,
      1766997355,
      1766997388,
      1766997411,
      1766997427,
      1766997451,
      1766997501,
      1766997517,
      1766997554,
      1766997576,
      1766997603,
      1766997628,
      1766997639
    ],
    "wof:geomhash": "13fefb74c07857753bca71ffac5c17b5",
    "wof:id": 2014426453,
    "wof:repo": "sfomuseum-data-flights-2025-12"
  },
  "bbox": [
    -123.48366,
    37.30749,
    -122.14629,
    37.61109
  ],
  "geometry": {"coordinates":[[-123.48366,37.45065],[-123.44435,37.43865],[-123.40782,37.4273],[-123.37761,37.41798],[-123.32158,37.40076],[-123.29064,37.39108],[-123.25456,37.37968],[-123.18189,37.35712],[-123.15428,37.34862],[-123.06662,37.32191],[-123.00219,37.30749],[-122.93893,37.31132],[-122.9217,37.31334],[-122.84386,37.323],[-122.79097,37.32964],[-122.76001,37.33362],[-122.69969,37.34132],[-122.66221,37.34583],[-122.59282,37.35435],[-122.54072,37.36092],[-122.52425,37.36291],[-122.44858,37.37202],[-122.42331,37.37513],[-122.35781,37.38313],[-122.30964,37.38904],[-122.27593,37.39316],[-122.24109,37.40372],[-122.21297,37.42091],[-122.16146,37.45617],[-122.14629,37.48838],[-122.15836,37.50928],[-122.16976,37.52122],[-122.1864,37.53799],[-122.23609,37.5602],[-122.25192,37.56686],[-122.28672,37.58152],[-122.305,37.58927],[-122.32696,37.59852],[-122.3482,37.60747],[-122.35685,37.61109]],"type":"LineString"}
}
