{
  "id": 2014416363,
  "type": "Feature",
  "properties": {
    "geom:area": 0,
    "geom:bbox": "-123.490690,37.259150,-122.179950,37.611720",
    "geom:latitude": 37.35187538883548,
    "geom:longitude": -122.72975026801159,
    "src:alt_label": "swim-approach",
    "src:geom": "swim",
    "swim:elevations": [
      5455,
      5361,
      5168,
      4898,
      4824,
      4519,
      4249,
      3931,
      3705,
      3669,
      3472,
      3233,
      3103,
      3047,
      3048,
      3048,
      3048,
      3020,
      2745,
      2679,
      2553,
      2431,
      2322,
      2168,
      2101,
      1939,
      1829,
      1829,
      1829,
      1829,
      1829,
      1829,
      1810,
      1644,
      1352,
      1216,
      1101,
      990,
      914,
      914,
      910,
      698,
      685,
      541,
      371,
      317,
      289,
      183,
      155,
      0
    ],
    "swim:geom": "approach",
    "swim:timestamps": [
      1766956373,
      1766956388,
      1766956406,
      1766956436,
      1766956445,
      1766956481,
      1766956514,
      1766956552,
      1766956579,
      1766956585,
      1766956609,
      1766956639,
      1766956678,
      1766956706,
      1766956727,
      1766956766,
      1766956781,
      1766956814,
      1766956857,
      1766956870,
      1766956888,
      1766956906,
      1766956921,
      1766956943,
      1766956952,
      1766956970,
      1766956999,
      1766957035,
      1766957064,
      1766957085,
      1766957118,
      1766957139,
      1766957169,
      1766957199,
      1766957238,
      1766957259,
      1766957282,
      1766957310,
      1766957346,
      1766957358,
      1766957373,
      1766957427,
      1766957430,
      1766957465,
      1766957500,
      1766957516,
      1766957525,
      1766957546,
      1766957555,
      1766957588
    ],
    "wof:geomhash": "eea21bd99ad008d06b6f8f45d144ed55",
    "wof:id": 2014416363,
    "wof:repo": "sfomuseum-data-flights-2025-12"
  },
  "bbox": [
    -123.49069,
    37.25915,
    -122.17995,
    37.61172
  ],
  "geometry": {"coordinates":[[-123.49069,37.30479],[-123.46131,37.30262],[-123.42555,37.30008],[-123.3672,37.29577],[-123.3489,37.29443],[-123.27909,37.28923],[-123.21582,37.28475],[-123.14514,37.27922],[-123.09375,37.27528],[-123.08264,37.27446],[-123.03852,37.27115],[-122.98349,37.26695],[-122.91606,37.26177],[-122.8701,37.25915],[-122.83856,37.26335],[-122.78673,37.27547],[-122.76841,37.27979],[-122.7283,37.28932],[-122.67502,37.30165],[-122.65897,37.30544],[-122.63696,37.31052],[-122.61619,37.31534],[-122.59735,37.31966],[-122.57088,37.32577],[-122.55986,37.32831],[-122.53753,37.33363],[-122.50189,37.34175],[-122.45842,37.35178],[-122.42391,37.35981],[-122.39855,37.36567],[-122.35689,37.37514],[-122.33064,37.38116],[-122.29354,37.38967],[-122.25807,37.39837],[-122.21851,37.41874],[-122.19768,37.43107],[-122.18521,37.45091],[-122.18026,37.47547],[-122.17995,37.50224],[-122.18445,37.51046],[-122.19052,37.52093],[-122.22159,37.55404],[-122.22425,37.55523],[-122.25521,37.56834],[-122.28707,37.58175],[-122.29962,37.58705],[-122.30684,37.59009],[-122.32381,37.59721],[-122.33115,37.60026],[-122.35831,37.61172]],"type":"LineString"}
}
