{
  "id": 2014444005,
  "type": "Feature",
  "properties": {
    "geom:area": 0,
    "geom:bbox": "-122.910860,37.221350,-122.186280,38.486190",
    "geom:latitude": 37.62531902518424,
    "geom:longitude": -122.53928493484047,
    "src:alt_label": "swim-approach",
    "src:geom": "swim",
    "swim:elevations": [
      7650,
      7620,
      7207,
      6883,
      6634,
      6568,
      6185,
      6071,
      5759,
      5457,
      5119,
      5023,
      4716,
      4497,
      4236,
      3948,
      3708,
      3644,
      3443,
      3413,
      3353,
      3353,
      3353,
      3353,
      3353,
      3353,
      3353,
      3353,
      3353,
      3353,
      3295,
      3192,
      3108,
      3017,
      2871,
      2783,
      2699,
      2681,
      2561,
      2549,
      2504,
      2436,
      2374,
      2319,
      2258,
      2193,
      2130,
      2134,
      2134,
      2134,
      2098,
      2010,
      1953,
      1883,
      1826,
      1829,
      1829,
      1829,
      1829,
      1829,
      1829,
      1829,
      1829,
      1829,
      1829,
      1829,
      1829,
      1829,
      1829,
      1829,
      1753,
      1605,
      1514,
      1414,
      1279,
      1146,
      861,
      644,
      597,
      498,
      379,
      182,
      181,
      0
    ],
    "swim:geom": "approach",
    "swim:timestamps": [
      1767171478,
      1767171482,
      1767171529,
      1767171567,
      1767171597,
      1767171605,
      1767171654,
      1767171668,
      1767171703,
      1767171739,
      1767171778,
      1767171790,
      1767171826,
      1767171850,
      1767171884,
      1767171920,
      1767171955,
      1767171962,
      1767171988,
      1767171994,
      1767172038,
      1767172062,
      1767172091,
      1767172118,
      1767172141,
      1767172188,
      1767172224,
      1767172252,
      1767172274,
      1767172318,
      1767172347,
      1767172376,
      1767172400,
      1767172427,
      1767172464,
      1767172490,
      1767172515,
      1767172520,
      1767172556,
      1767172561,
      1767172578,
      1767172618,
      1767172642,
      1767172661,
      1767172692,
      1767172718,
      1767172752,
      1767172795,
      1767172821,
      1767172841,
      1767172881,
      1767172918,
      1767172945,
      1767172973,
      1767173003,
      1767173012,
      1767173059,
      1767173082,
      1767173097,
      1767173109,
      1767173134,
      1767173147,
      1767173183,
      1767173209,
      1767173225,
      1767173265,
      1767173297,
      1767173330,
      1767173360,
      1767173390,
      1767173423,
      1767173456,
      1767173477,
      1767173501,
      1767173532,
      1767173561,
      1767173597,
      1767173636,
      1767173648,
      1767173666,
      1767173687,
      1767173727,
      1767173734,
      1767173772
    ],
    "wof:geomhash": "803dcc5e05cc981eff17575038503d08",
    "wof:id": 2014444005,
    "wof:repo": "sfomuseum-data-flights-2025-12"
  },
  "bbox": [
    -122.91086,
    37.22135,
    -122.18628,
    38.48619
  ],
  "geometry": {"coordinates":[[-122.91086,38.48619],[-122.90672,38.47911],[-122.8661,38.40494],[-122.83441,38.34714],[-122.80945,38.30143],[-122.80278,38.28927],[-122.76617,38.2171],[-122.75899,38.19568],[-122.74302,38.14094],[-122.72697,38.08542],[-122.71007,38.02668],[-122.70444,38.00724],[-122.68909,37.95461],[-122.67845,37.91849],[-122.64752,37.87546],[-122.606,37.83602],[-122.56532,37.79779],[-122.55757,37.79044],[-122.52797,37.76248],[-122.52119,37.75607],[-122.47466,37.71205],[-122.45226,37.69104],[-122.42661,37.66699],[-122.40375,37.64531],[-122.38358,37.62639],[-122.35267,37.58425],[-122.33367,37.54882],[-122.31742,37.5223],[-122.30785,37.49965],[-122.3234,37.45405],[-122.33562,37.4238],[-122.34773,37.3942],[-122.35805,37.36938],[-122.3693,37.34258],[-122.38446,37.30609],[-122.3951,37.27986],[-122.40692,37.25634],[-122.41208,37.25169],[-122.46035,37.23849],[-122.46603,37.23764],[-122.4902,37.23396],[-122.54711,37.22552],[-122.58227,37.22135],[-122.60837,37.2287],[-122.63873,37.25653],[-122.66271,37.28212],[-122.69334,37.31422],[-122.73283,37.35581],[-122.75627,37.38038],[-122.77438,37.39933],[-122.78418,37.4425],[-122.74313,37.45801],[-122.71226,37.44906],[-122.67958,37.43816],[-122.64583,37.42641],[-122.63728,37.42093],[-122.61143,37.3787],[-122.60025,37.35772],[-122.59283,37.34397],[-122.587,37.33306],[-122.5668,37.31569],[-122.55055,37.31413],[-122.50631,37.31958],[-122.47709,37.3334],[-122.46992,37.34876],[-122.46026,37.39358],[-122.43108,37.41522],[-122.3894,37.41581],[-122.35157,37.41548],[-122.31356,37.41506],[-122.27296,37.42338],[-122.23417,37.43667],[-122.21914,37.45515],[-122.20912,37.47897],[-122.19699,37.50928],[-122.18628,37.53471],[-122.19429,37.56568],[-122.23892,37.56452],[-122.25104,37.56854],[-122.26872,37.57665],[-122.28951,37.58515],[-122.32173,37.59865],[-122.3273,37.60101],[-122.35653,37.61331]],"type":"LineString"}
}
