{
  "id": 2014437403,
  "type": "Feature",
  "properties": {
    "geom:area": 0,
    "geom:bbox": "-122.526740,36.733890,-122.103150,37.709170",
    "geom:latitude": 37.24795651146956,
    "geom:longitude": -122.3903459320008,
    "src:alt_label": "swim-takeoff",
    "src:geom": "swim",
    "swim:elevations": [
      213,
      484,
      742,
      843,
      1554,
      1840,
      2310,
      2788,
      2961,
      3367,
      3475,
      3939,
      4269,
      4495,
      4958,
      5209,
      5673,
      5864,
      5952,
      6073,
      6563,
      6808,
      6933,
      7240,
      7546,
      7786,
      8030,
      8076
    ],
    "swim:geom": "takeoff",
    "swim:timestamps": [
      1767112577,
      1767112597,
      1767112642,
      1767112654,
      1767112705,
      1767112724,
      1767112757,
      1767112793,
      1767112805,
      1767112851,
      1767112870,
      1767112914,
      1767112943,
      1767112958,
      1767112993,
      1767113018,
      1767113061,
      1767113081,
      1767113092,
      1767113104,
      1767113153,
      1767113182,
      1767113197,
      1767113233,
      1767113272,
      1767113307,
      1767113336,
      1767113345
    ],
    "wof:geomhash": "12e18f34170411b2b8f71fa252ac6ea5",
    "wof:id": 2014437403,
    "wof:repo": "sfomuseum-data-flights-2025-12"
  },
  "bbox": [
    -122.52674,
    36.73389,
    -122.10315,
    37.70917
  ],
  "geometry": {"coordinates":[[-122.36711,37.6325],[-122.36391,37.64871],[-122.36328,37.69167],[-122.37104,37.70458],[-122.44233,37.70917],[-122.45759,37.69008],[-122.464,37.65079],[-122.4714,37.60517],[-122.4738,37.58972],[-122.48374,37.52748],[-122.48835,37.49784],[-122.49929,37.42728],[-122.50731,37.37862],[-122.51146,37.35331],[-122.52111,37.29222],[-122.52674,37.25078],[-122.49119,37.18038],[-122.46589,37.15181],[-122.45158,37.1355],[-122.4358,37.11761],[-122.36897,37.04162],[-122.32951,36.99659],[-122.31033,36.97451],[-122.26023,36.91698],[-122.2045,36.8528],[-122.15629,36.79595],[-122.11507,36.7478],[-122.10315,36.73389]],"type":"LineString"}
}
