{
  "id": 2014409883,
  "type": "Feature",
  "properties": {
    "geom:area": 0,
    "geom:bbox": "-123.459030,37.259370,-122.148230,37.615740",
    "geom:latitude": 37.36050867869647,
    "geom:longitude": -122.70371472069418,
    "src:alt_label": "swim-approach",
    "src:geom": "swim",
    "swim:elevations": [
      5892,
      5683,
      5542,
      5285,
      4893,
      4579,
      4250,
      3814,
      3779,
      3472,
      3076,
      3048,
      3049,
      3048,
      3048,
      3048,
      3048,
      3048,
      2930,
      2709,
      2643,
      2438,
      2368,
      2056,
      1827,
      1829,
      1829,
      1829,
      1754,
      1487,
      1418,
      1172,
      1119,
      1053,
      884,
      530,
      512,
      333,
      161,
      0
    ],
    "swim:geom": "approach",
    "swim:timestamps": [
      1766877563,
      1766877588,
      1766877601,
      1766877636,
      1766877673,
      1766877703,
      1766877733,
      1766877777,
      1766877783,
      1766877812,
      1766877850,
      1766877862,
      1766877870,
      1766877889,
      1766877916,
      1766877952,
      1766877988,
      1766878016,
      1766878043,
      1766878074,
      1766878084,
      1766878127,
      1766878145,
      1766878184,
      1766878223,
      1766878244,
      1766878263,
      1766878278,
      1766878299,
      1766878337,
      1766878355,
      1766878403,
      1766878418,
      1766878435,
      1766878452,
      1766878497,
      1766878500,
      1766878532,
      1766878574,
      1766878613
    ],
    "wof:geomhash": "122c1da5381af99a9bc88fef90efea53",
    "wof:id": 2014409883,
    "wof:repo": "sfomuseum-data-flights-2025-12"
  },
  "bbox": [
    -123.45903,
    37.25937,
    -122.14823,
    37.61574
  ],
  "geometry": {"coordinates":[[-123.45903,37.29952],[-123.40739,37.29548],[-123.38103,37.29425],[-123.30778,37.28917],[-123.2323,37.28397],[-123.17086,37.27959],[-123.10855,37.27529],[-123.01963,37.26884],[-123.00957,37.26812],[-122.95225,37.26412],[-122.87554,37.25937],[-122.8527,37.26124],[-122.83914,37.26347],[-122.80728,37.27074],[-122.76401,37.28077],[-122.7082,37.29396],[-122.65164,37.30708],[-122.60848,37.31701],[-122.56575,37.32703],[-122.51752,37.33809],[-122.50278,37.34152],[-122.43595,37.35711],[-122.40996,37.36663],[-122.35595,37.39113],[-122.30324,37.41512],[-122.27423,37.42847],[-122.24886,37.43987],[-122.22935,37.44852],[-122.20236,37.4605],[-122.1567,37.48262],[-122.14823,37.49958],[-122.18056,37.53664],[-122.19659,37.54282],[-122.21395,37.54934],[-122.22934,37.55615],[-122.26982,37.57482],[-122.27249,37.57597],[-122.29939,37.58644],[-122.33328,37.60123],[-122.36833,37.61574]],"type":"LineString"}
}
