{
  "id": 2014413257,
  "type": "Feature",
  "properties": {
    "geom:area": 0,
    "geom:bbox": "-122.429270,37.039290,-121.666230,37.703540",
    "geom:latitude": 37.38194791884514,
    "geom:longitude": -122.10218849047334,
    "src:alt_label": "swim-takeoff",
    "src:geom": "swim",
    "swim:elevations": [
      362,
      626,
      1205,
      1514,
      1612,
      1740,
      2459,
      2832,
      3360,
      3719,
      4144,
      4461,
      5361,
      5425,
      5866,
      6142,
      6731,
      7263,
      7643,
      8075,
      8281,
      8590,
      8875
    ],
    "swim:geom": "takeoff",
    "swim:timestamps": [
      1766906185,
      1766906212,
      1766906247,
      1766906277,
      1766906289,
      1766906302,
      1766906337,
      1766906358,
      1766906396,
      1766906421,
      1766906446,
      1766906464,
      1766906518,
      1766906522,
      1766906561,
      1766906582,
      1766906619,
      1766906661,
      1766906691,
      1766906728,
      1766906746,
      1766906776,
      1766906804
    ],
    "wof:geomhash": "4f534d588169b52b2a8a9b2e40c287a4",
    "wof:id": 2014413257,
    "wof:repo": "sfomuseum-data-flights-2025-12"
  },
  "bbox": [
    -122.42927,
    37.03929,
    -121.66623,
    37.70354
  ],
  "geometry": {"coordinates":[[-122.36409,37.64389],[-122.36373,37.66638],[-122.37007,37.69598],[-122.4045,37.70354],[-122.41904,37.69546],[-122.42927,37.68079],[-122.4193,37.63665],[-122.40501,37.61055],[-122.36921,37.56608],[-122.33191,37.53987],[-122.29324,37.51122],[-122.2658,37.49066],[-122.18079,37.42703],[-122.17397,37.42192],[-122.10811,37.37265],[-122.07324,37.3463],[-122.00746,37.29722],[-121.93213,37.24074],[-121.87745,37.19953],[-121.80982,37.1481],[-121.77521,37.12203],[-121.71933,37.07976],[-121.66623,37.03929]],"type":"LineString"}
}
