{
  "id": 2014412813,
  "type": "Feature",
  "properties": {
    "geom:area": 0,
    "geom:bbox": "-123.394110,37.629610,-122.364530,38.496440",
    "geom:latitude": 38.00656435542574,
    "geom:longitude": -122.90638422115615,
    "src:alt_label": "swim-takeoff",
    "src:geom": "swim",
    "swim:elevations": [
      152,
      183,
      1000,
      1115,
      1278,
      1742,
      2340,
      2670,
      3204,
      3316,
      3412,
      3712,
      3937,
      4238,
      4879,
      5106,
      5474,
      5854,
      6197,
      6520,
      6930,
      7261,
      7487,
      7619,
      7864,
      8138
    ],
    "swim:geom": "takeoff",
    "swim:timestamps": [
      1766838538,
      1766838540,
      1766838598,
      1766838612,
      1766838638,
      1766838673,
      1766838711,
      1766838734,
      1766838775,
      1766838796,
      1766838818,
      1766838856,
      1766838881,
      1766838906,
      1766838958,
      1766838980,
      1766839017,
      1766839052,
      1766839085,
      1766839121,
      1766839156,
      1766839194,
      1766839220,
      1766839230,
      1766839260,
      1766839300
    ],
    "wof:geomhash": "ffb525076fea4655ea1c5e08ecebcf72",
    "wof:id": 2014412813,
    "wof:repo": "sfomuseum-data-flights-2025-12"
  },
  "bbox": [
    -123.39411,
    37.62961,
    -122.36453,
    38.49644
  ],
  "geometry": {"coordinates":[[-122.36556,37.62961],[-122.36453,37.63097],[-122.36703,37.6777],[-122.37841,37.68698],[-122.4097,37.69832],[-122.45996,37.7134],[-122.515,37.73055],[-122.54959,37.74088],[-122.61446,37.75892],[-122.64911,37.76817],[-122.6916,37.77977],[-122.76873,37.80147],[-122.82043,37.81917],[-122.86239,37.84871],[-122.9248,37.92886],[-122.95156,37.96444],[-122.99724,38.02517],[-123.04054,38.0822],[-123.08202,38.13671],[-123.12867,38.19778],[-123.17489,38.25738],[-123.22481,38.32305],[-123.25931,38.36817],[-123.27317,38.38552],[-123.31372,38.43781],[-123.39411,38.49644]],"type":"LineString"}
}
