{
  "id": 2014422153,
  "type": "Feature",
  "properties": {
    "geom:area": 0,
    "geom:bbox": "-122.358050,37.638520,-121.275920,37.959990",
    "geom:latitude": 37.83752478303398,
    "geom:longitude": -121.83026297172368,
    "src:alt_label": "swim-takeoff",
    "src:geom": "swim",
    "swim:elevations": [
      317,
      611,
      966,
      1210,
      1447,
      1884,
      2265,
      2631,
      3175,
      3438,
      3545,
      4029,
      4354,
      4680,
      4816,
      5331,
      5475,
      5668,
      6217,
      6407,
      6689,
      6951,
      7115
    ],
    "swim:geom": "takeoff",
    "swim:timestamps": [
      1766909876,
      1766909897,
      1766909926,
      1766909962,
      1766909994,
      1766910025,
      1766910053,
      1766910076,
      1766910113,
      1766910142,
      1766910157,
      1766910203,
      1766910232,
      1766910265,
      1766910280,
      1766910322,
      1766910335,
      1766910361,
      1766910418,
      1766910442,
      1766910472,
      1766910502,
      1766910520
    ],
    "wof:geomhash": "5e97f944918eab3a91d8ae5cbc758c2f",
    "wof:id": 2014422153,
    "wof:repo": "sfomuseum-data-flights-2025-12"
  },
  "bbox": [
    -122.35805,
    37.63852,
    -121.27592,
    37.95999
  ],
  "geometry": {"coordinates":[[-122.35805,37.63852],[-122.34161,37.64818],[-122.31941,37.6607],[-122.28869,37.67846],[-122.25334,37.69778],[-122.21446,37.71768],[-122.17913,37.73605],[-122.14805,37.7526],[-122.09964,37.77784],[-122.05853,37.7991],[-122.03668,37.8104],[-121.9538,37.83597],[-121.89771,37.84657],[-121.83048,37.8587],[-121.79914,37.86456],[-121.70977,37.88103],[-121.68179,37.88604],[-121.62766,37.89613],[-121.50509,37.91929],[-121.4525,37.92856],[-121.384,37.94051],[-121.31646,37.95271],[-121.27592,37.95999]],"type":"LineString"}
}
