{
  "id": 2014416471,
  "type": "Feature",
  "properties": {
    "geom:area": 0,
    "geom:bbox": "-122.752680,37.432830,-122.142560,38.499140",
    "geom:latitude": 37.872107413431515,
    "geom:longitude": -122.49109561369097,
    "src:alt_label": "swim-approach",
    "src:geom": "swim",
    "swim:elevations": [
      7559,
      7221,
      7148,
      7051,
      6891,
      6507,
      6394,
      6052,
      5763,
      5414,
      5248,
      4769,
      4491,
      4078,
      3736,
      3371,
      3352,
      3353,
      3323,
      2904,
      2800,
      2433,
      2319,
      2158,
      1879,
      1798,
      1548,
      1448,
      1265,
      922,
      810,
      704,
      577,
      488,
      358,
      193,
      139
    ],
    "swim:geom": "approach",
    "swim:timestamps": [
      1766923444,
      1766923490,
      1766923497,
      1766923511,
      1766923534,
      1766923580,
      1766923595,
      1766923639,
      1766923667,
      1766923693,
      1766923716,
      1766923761,
      1766923779,
      1766923814,
      1766923857,
      1766923914,
      1766923922,
      1766923955,
      1766924016,
      1766924067,
      1766924078,
      1766924125,
      1766924142,
      1766924168,
      1766924207,
      1766924220,
      1766924276,
      1766924291,
      1766924318,
      1766924365,
      1766924397,
      1766924423,
      1766924450,
      1766924480,
      1766924506,
      1766924547,
      1766924558
    ],
    "wof:geomhash": "d51c87b01cbfd81f48125a8ebd6d1781",
    "wof:id": 2014416471,
    "wof:repo": "sfomuseum-data-flights-2025-12"
  },
  "bbox": [
    -122.75268,
    37.43283,
    -122.14256,
    38.49914
  ],
  "geometry": {"coordinates":[[-122.48478,38.49914],[-122.56292,38.42381],[-122.57416,38.41285],[-122.59872,38.389],[-122.63579,38.35291],[-122.7113,38.27933],[-122.73424,38.2565],[-122.75268,38.17039],[-122.73665,38.11552],[-122.72153,38.06526],[-122.70848,38.02207],[-122.68482,37.94085],[-122.67273,37.90961],[-122.63063,37.8597],[-122.57179,37.80384],[-122.49773,37.73384],[-122.48845,37.72507],[-122.45053,37.68939],[-122.38483,37.62755],[-122.34271,37.57272],[-122.33604,37.56025],[-122.30529,37.50469],[-122.29419,37.48641],[-122.27164,37.46098],[-122.2203,37.43974],[-122.2032,37.43283],[-122.14923,37.45515],[-122.14256,37.46695],[-122.14374,37.48901],[-122.17819,37.52274],[-122.2016,37.54122],[-122.22239,37.55352],[-122.24466,37.56385],[-122.27045,37.57463],[-122.29234,37.58418],[-122.32714,37.59864],[-122.33656,37.6026]],"type":"LineString"}
}
