{
  "id": 2014441671,
  "type": "Feature",
  "properties": {
    "geom:area": 0,
    "geom:bbox": "-122.349590,37.492420,-121.580290,37.610420",
    "geom:latitude": 37.52876450977366,
    "geom:longitude": -121.96984661641683,
    "src:alt_label": "swim-approach",
    "src:geom": "swim",
    "swim:elevations": [
      3216,
      3119,
      3038,
      2922,
      2657,
      2469,
      2365,
      2256,
      2137,
      1890,
      1719,
      1586,
      1366,
      1179,
      1053,
      858,
      824,
      572,
      380,
      273,
      85,
      69
    ],
    "swim:geom": "approach",
    "swim:timestamps": [
      1767203155,
      1767203185,
      1767203205,
      1767203223,
      1767203258,
      1767203294,
      1767203312,
      1767203328,
      1767203346,
      1767203389,
      1767203420,
      1767203448,
      1767203484,
      1767203519,
      1767203546,
      1767203578,
      1767203584,
      1767203625,
      1767203658,
      1767203684,
      1767203727,
      1767203730
    ],
    "wof:geomhash": "c95f16e4be6a35f6a9f76f0a259267c6",
    "wof:id": 2014441671,
    "wof:repo": "sfomuseum-data-flights-2025-12"
  },
  "bbox": [
    -122.34959,
    37.49242,
    -121.58029,
    37.61042
  ],
  "geometry": {"coordinates":[[-121.58029,37.55593],[-121.63291,37.54886],[-121.66361,37.54147],[-121.69188,37.53478],[-121.74686,37.52176],[-121.80065,37.50879],[-121.82645,37.50251],[-121.84955,37.49717],[-121.87454,37.49242],[-121.94036,37.49458],[-121.98733,37.49722],[-122.02867,37.49964],[-122.0813,37.50257],[-122.12806,37.51665],[-122.16267,37.53188],[-122.20168,37.54812],[-122.20893,37.55122],[-122.25677,37.57135],[-122.29015,37.58544],[-122.31233,37.59464],[-122.34726,37.60942],[-122.34959,37.61042]],"type":"LineString"}
}
