{
  "id": 2014426705,
  "type": "Feature",
  "properties": {
    "geom:area": 0,
    "geom:bbox": "-122.351460,37.492010,-121.248710,37.611060",
    "geom:latitude": 37.546379992062484,
    "geom:longitude": -121.80485049422263,
    "src:alt_label": "swim-approach",
    "src:geom": "swim",
    "swim:elevations": [
      4984,
      4553,
      4247,
      4196,
      3994,
      3753,
      3501,
      3383,
      3158,
      3029,
      2853,
      2797,
      2620,
      2468,
      2343,
      2211,
      2041,
      1992,
      1854,
      1763,
      1593,
      1475,
      1277,
      1156,
      969,
      946,
      763,
      646,
      409,
      346,
      146,
      97,
      48
    ],
    "swim:geom": "approach",
    "swim:timestamps": [
      1767043194,
      1767043224,
      1767043256,
      1767043262,
      1767043287,
      1767043316,
      1767043348,
      1767043369,
      1767043404,
      1767043424,
      1767043452,
      1767043466,
      1767043493,
      1767043523,
      1767043556,
      1767043579,
      1767043618,
      1767043628,
      1767043665,
      1767043692,
      1767043725,
      1767043750,
      1767043791,
      1767043815,
      1767043857,
      1767043860,
      1767043895,
      1767043921,
      1767043972,
      1767043981,
      1767044029,
      1767044040,
      1767044050
    ],
    "wof:geomhash": "ae6c5330a361d6cf59fa8463dc421d28",
    "wof:id": 2014426705,
    "wof:repo": "sfomuseum-data-flights-2025-12"
  },
  "bbox": [
    -122.35146,
    37.49201,
    -121.24871,
    37.61106
  ],
  "geometry": {"coordinates":[[-121.24871,37.59468],[-121.30581,37.58741],[-121.36346,37.5814],[-121.37432,37.58023],[-121.41844,37.57527],[-121.46789,37.56936],[-121.52187,37.56262],[-121.5558,37.55882],[-121.61112,37.55219],[-121.64296,37.54628],[-121.68491,37.53631],[-121.70379,37.53186],[-121.74346,37.52251],[-121.78566,37.5124],[-121.82918,37.50162],[-121.85952,37.49463],[-121.91254,37.49201],[-121.92474,37.49238],[-121.97194,37.49337],[-122.0013,37.49871],[-122.03469,37.50959],[-122.06051,37.51807],[-122.10119,37.5313],[-122.12499,37.5392],[-122.16773,37.55309],[-122.17082,37.55409],[-122.20713,37.56563],[-122.23313,37.57409],[-122.28222,37.58916],[-122.29024,37.59156],[-122.33304,37.60441],[-122.343,37.6075],[-122.35146,37.61106]],"type":"LineString"}
}
