{
  "id": 2014412171,
  "type": "Feature",
  "properties": {
    "geom:area": 0,
    "geom:bbox": "-122.457230,37.559290,-122.361540,37.709830",
    "geom:latitude": 37.6539169712246,
    "geom:longitude": -122.4122478186379,
    "src:alt_label": "swim-takeoff",
    "src:geom": "swim",
    "swim:elevations": [
      277,
      639,
      893,
      1237,
      1523,
      2218,
      2731,
      3000
    ],
    "swim:geom": "takeoff",
    "swim:timestamps": [
      1766846413,
      1766846445,
      1766846473,
      1766846517,
      1766846541,
      1766846591,
      1766846628,
      1766846650
    ],
    "wof:geomhash": "72562c7cc88dec98b4071094a8bb984f",
    "wof:id": 2014412171,
    "wof:repo": "sfomuseum-data-flights-2025-12"
  },
  "bbox": [
    -122.45723,
    37.55929,
    -122.36154,
    37.70983
  ],
  "geometry": {"coordinates":[[-122.36838,37.62984],[-122.3631,37.65238],[-122.36154,37.67593],[-122.38758,37.70983],[-122.42246,37.70062],[-122.43971,37.63838],[-122.45002,37.58898],[-122.45723,37.55929]],"type":"LineString"}
}
