{
  "id": 2014422249,
  "type": "Feature",
  "properties": {
    "geom:area": 0,
    "geom:bbox": "-122.386340,37.632310,-121.272210,37.991280",
    "geom:latitude": 37.9343703514308,
    "geom:longitude": -121.95428591303575,
    "src:alt_label": "swim-takeoff",
    "src:geom": "swim",
    "swim:elevations": [
      213,
      967,
      1180,
      1392,
      1685,
      2011,
      2552,
      3170,
      3426,
      3515,
      3717,
      4228,
      4563,
      4942,
      5111,
      5473,
      5750,
      6109,
      6335,
      6708,
      6871,
      7214,
      7334,
      7632,
      7999,
      8115,
      8268
    ],
    "swim:geom": "takeoff",
    "swim:timestamps": [
      1766969134,
      1766969184,
      1766969216,
      1766969243,
      1766969267,
      1766969289,
      1766969326,
      1766969366,
      1766969395,
      1766969413,
      1766969443,
      1766969486,
      1766969518,
      1766969546,
      1766969564,
      1766969597,
      1766969627,
      1766969660,
      1766969682,
      1766969715,
      1766969738,
      1766969779,
      1766969794,
      1766969829,
      1766969878,
      1766969894,
      1766969917
    ],
    "wof:geomhash": "a3988f165e3eaaf18b7cf80589acfa50",
    "wof:id": 2014422249,
    "wof:repo": "sfomuseum-data-flights-2025-12"
  },
  "bbox": [
    -122.38634,
    37.63231,
    -121.27221,
    37.99128
  ],
  "geometry": {"coordinates":[[-122.36408,37.63231],[-122.33603,37.66006],[-122.31096,37.67971],[-122.30137,37.70655],[-122.31873,37.73197],[-122.34047,37.75439],[-122.363,37.7975],[-122.38606,37.84694],[-122.38634,37.88654],[-122.3838,37.9133],[-122.35509,37.95302],[-122.27119,37.96954],[-122.2053,37.97663],[-122.14801,37.98742],[-122.10911,37.99005],[-122.03446,37.98947],[-121.96813,37.9898],[-121.89312,37.99011],[-121.84145,37.99022],[-121.76502,37.99039],[-121.7112,37.99051],[-121.61375,37.99077],[-121.57709,37.99089],[-121.49148,37.99107],[-121.37056,37.99101],[-121.33014,37.99128],[-121.27221,37.99118]],"type":"LineString"}
}
