{
  "id": 2014413895,
  "type": "Feature",
  "properties": {
    "geom:area": 0,
    "geom:bbox": "-122.464630,37.230490,-121.255520,37.712660",
    "geom:latitude": 37.429944344896334,
    "geom:longitude": -121.9819485436289,
    "src:alt_label": "swim-takeoff",
    "src:geom": "swim",
    "swim:elevations": [
      152,
      498,
      899,
      1096,
      1305,
      1729,
      2085,
      2367,
      3075,
      3251,
      3790,
      4052,
      4342,
      4566,
      4950,
      5438,
      5531,
      5682,
      5750,
      6119,
      6266,
      6530,
      6778,
      7052,
      7397,
      7501,
      7672,
      7993,
      8201,
      8507,
      8682,
      8842
    ],
    "swim:geom": "takeoff",
    "swim:timestamps": [
      1766878520,
      1766878544,
      1766878574,
      1766878599,
      1766878634,
      1766878676,
      1766878697,
      1766878716,
      1766878764,
      1766878779,
      1766878827,
      1766878854,
      1766878879,
      1766878897,
      1766878928,
      1766878977,
      1766878986,
      1766879004,
      1766879010,
      1766879046,
      1766879058,
      1766879082,
      1766879108,
      1766879143,
      1766879187,
      1766879202,
      1766879225,
      1766879264,
      1766879290,
      1766879331,
      1766879354,
      1766879385
    ],
    "wof:geomhash": "f28525a24cc1d7e781d5360859f6ae6c",
    "wof:id": 2014413895,
    "wof:repo": "sfomuseum-data-flights-2025-12"
  },
  "bbox": [
    -122.46463,
    37.23049,
    -121.25552,
    37.71266
  ],
  "geometry": {"coordinates":[[-122.36858,37.62956],[-122.36367,37.6465],[-122.36256,37.66822],[-122.36187,37.68568],[-122.38238,37.71266],[-122.44166,37.70787],[-122.45843,37.68428],[-122.46026,37.65868],[-122.46232,37.59401],[-122.46463,37.57232],[-122.44405,37.50563],[-122.39715,37.48787],[-122.34897,37.47962],[-122.31326,37.47288],[-122.24988,37.45907],[-122.15227,37.43694],[-122.13386,37.43276],[-122.09676,37.42445],[-122.08431,37.42162],[-122.00874,37.4044],[-121.98347,37.39863],[-121.93298,37.38702],[-121.87757,37.37441],[-121.80228,37.35695],[-121.7052,37.33466],[-121.67183,37.32702],[-121.62035,37.3153],[-121.53262,37.29518],[-121.4731,37.28126],[-121.38021,37.25939],[-121.32688,37.24708],[-121.25552,37.23049]],"type":"LineString"}
}
