{
  "id": 2014430833,
  "type": "Feature",
  "properties": {
    "geom:area": 0,
    "geom:bbox": "-122.538160,36.725360,-122.173420,37.713950",
    "geom:latitude": 37.2285282197941,
    "geom:longitude": -122.4239153444021,
    "src:alt_label": "swim-takeoff",
    "src:geom": "swim",
    "swim:elevations": [
      315,
      573,
      1004,
      1297,
      1715,
      2561,
      2976,
      3506,
      3734,
      4282,
      4543,
      4995,
      5198,
      5524,
      5652,
      6045,
      6793,
      7011,
      7010,
      7010,
      7010,
      7010,
      7010,
      7010,
      7010,
      7010,
      7010
    ],
    "swim:geom": "takeoff",
    "swim:timestamps": [
      1767032693,
      1767032709,
      1767032733,
      1767032760,
      1767032797,
      1767032846,
      1767032870,
      1767032905,
      1767032925,
      1767032967,
      1767032988,
      1767033015,
      1767033027,
      1767033055,
      1767033062,
      1767033090,
      1767033145,
      1767033173,
      1767033208,
      1767033235,
      1767033242,
      1767033293,
      1767033308,
      1767033352,
      1767033381,
      1767033396,
      1767033433
    ],
    "wof:geomhash": "0d3b2dfadb3a0d5ad133d0fcd4a7b3da",
    "wof:id": 2014430833,
    "wof:repo": "sfomuseum-data-flights-2025-12"
  },
  "bbox": [
    -122.53816,
    36.72536,
    -122.17342,
    37.71395
  ],
  "geometry": {"coordinates":[[-122.36506,37.63706],[-122.36363,37.64914],[-122.36287,37.66635],[-122.36255,37.68846],[-122.39556,37.71395],[-122.44754,37.67686],[-122.45049,37.64382],[-122.45608,37.59436],[-122.46152,37.56381],[-122.47319,37.49516],[-122.47985,37.45845],[-122.48864,37.41016],[-122.4928,37.38859],[-122.50261,37.33716],[-122.50505,37.32445],[-122.51468,37.27338],[-122.53427,37.16697],[-122.53816,37.1121],[-122.4995,37.05429],[-122.45994,37.01533],[-122.4494,37.00479],[-122.37586,36.93053],[-122.35398,36.90843],[-122.29053,36.84431],[-122.24756,36.80075],[-122.22589,36.77873],[-122.17342,36.72536]],"type":"LineString"}
}
