{
  "id": 2014422623,
  "type": "Feature",
  "properties": {
    "geom:area": 0,
    "geom:bbox": "-123.445050,37.627860,-122.397560,38.440060",
    "geom:latitude": 38.03006174354696,
    "geom:longitude": -122.92368341238281,
    "src:alt_label": "swim-takeoff",
    "src:geom": "swim",
    "swim:elevations": [
      213,
      405,
      826,
      1101,
      1151,
      1402,
      1624,
      1946,
      2474,
      2801,
      3057,
      3174,
      3351,
      3522,
      3729,
      3925,
      4143,
      4696,
      4746,
      5225,
      5419,
      5576,
      5782,
      6121,
      6371,
      6555,
      6616
    ],
    "swim:geom": "takeoff",
    "swim:timestamps": [
      1766970017,
      1766970030,
      1766970080,
      1766970116,
      1766970128,
      1766970163,
      1766970194,
      1766970220,
      1766970265,
      1766970298,
      1766970322,
      1766970339,
      1766970375,
      1766970415,
      1766970448,
      1766970472,
      1766970489,
      1766970536,
      1766970542,
      1766970590,
      1766970617,
      1766970653,
      1766970677,
      1766970716,
      1766970746,
      1766970770,
      1766970782
    ],
    "wof:geomhash": "5dbcd82ef472544b319875d61127bb61",
    "wof:id": 2014422623,
    "wof:repo": "sfomuseum-data-flights-2025-12"
  },
  "bbox": [
    -123.44505,
    37.62786,
    -122.39756,
    38.44006
  ],
  "geometry": {"coordinates":[[-122.39756,37.62786],[-122.41017,37.63286],[-122.4593,37.65534],[-122.49744,37.67252],[-122.51089,37.67912],[-122.55099,37.70324],[-122.59045,37.72667],[-122.62461,37.74715],[-122.68497,37.78217],[-122.73003,37.80836],[-122.7605,37.83015],[-122.77747,37.84885],[-122.81391,37.89352],[-122.85754,37.94637],[-122.89802,37.99505],[-122.92803,38.0312],[-122.9493,38.05652],[-123.00815,38.12666],[-123.01572,38.1357],[-123.07699,38.20831],[-123.11337,38.24918],[-123.17775,38.29606],[-123.22726,38.32287],[-123.30799,38.36617],[-123.36909,38.39979],[-123.41949,38.4263],[-123.44505,38.44006]],"type":"LineString"}
}
