{
  "id": 2014413621,
  "type": "Feature",
  "properties": {
    "geom:area": 0,
    "geom:bbox": "-123.471810,37.080690,-122.395250,37.659060",
    "geom:latitude": 37.39585379400679,
    "geom:longitude": -122.93673895876942,
    "src:alt_label": "swim-takeoff",
    "src:geom": "swim",
    "swim:elevations": [
      152,
      545,
      945,
      987,
      1025,
      1450,
      1594,
      2294,
      2549,
      3001,
      3186,
      3358,
      3631,
      3901,
      4327,
      4626,
      4712,
      5064,
      5445,
      5596,
      5768,
      5937,
      6060,
      6149,
      6370
    ],
    "swim:geom": "takeoff",
    "swim:timestamps": [
      1766855988,
      1766856018,
      1766856051,
      1766856057,
      1766856063,
      1766856111,
      1766856124,
      1766856170,
      1766856189,
      1766856223,
      1766856244,
      1766856272,
      1766856307,
      1766856345,
      1766856384,
      1766856417,
      1766856425,
      1766856460,
      1766856504,
      1766856531,
      1766856559,
      1766856588,
      1766856612,
      1766856624,
      1766856645
    ],
    "wof:geomhash": "f6c13236fa30a3e126a3dd2e11d674a6",
    "wof:id": 2014413621,
    "wof:repo": "sfomuseum-data-flights-2025-12"
  },
  "bbox": [
    -123.47181,
    37.08069,
    -122.39525,
    37.65906
  ],
  "geometry": {"coordinates":[[-122.39525,37.62719],[-122.42369,37.63912],[-122.45602,37.65349],[-122.46222,37.65616],[-122.46866,37.65906],[-122.53378,37.65572],[-122.54913,37.6459],[-122.60801,37.60704],[-122.63257,37.59154],[-122.67973,37.56238],[-122.7088,37.54412],[-122.75166,37.51606],[-122.8076,37.4799],[-122.8739,37.43651],[-122.94522,37.38952],[-123.00483,37.35104],[-123.02015,37.3411],[-123.08858,37.30108],[-123.17642,37.25085],[-123.23072,37.21968],[-123.28778,37.18682],[-123.34894,37.15164],[-123.40044,37.12202],[-123.42629,37.10708],[-123.47181,37.08069]],"type":"LineString"}
}
