{
  "id": 2014437385,
  "type": "Feature",
  "properties": {
    "geom:area": 0,
    "geom:bbox": "-122.386320,37.630330,-121.270990,38.160770",
    "geom:latitude": 37.98824149856295,
    "geom:longitude": -121.94495024123844,
    "src:alt_label": "swim-takeoff",
    "src:geom": "swim",
    "swim:elevations": [
      122,
      335,
      701,
      723,
      1085,
      1402,
      1821,
      2088,
      2497,
      2824,
      3228,
      3322,
      3449,
      3532,
      3742,
      4322,
      4549,
      4855,
      5113,
      5427,
      5811,
      6040,
      6316,
      6556,
      6671,
      6761,
      6894,
      7036,
      7226
    ],
    "swim:geom": "takeoff",
    "swim:timestamps": [
      1767162688,
      1767162701,
      1767162748,
      1767162751,
      1767162800,
      1767162829,
      1767162866,
      1767162890,
      1767162923,
      1767162951,
      1767162988,
      1767163004,
      1767163030,
      1767163042,
      1767163060,
      1767163095,
      1767163111,
      1767163148,
      1767163174,
      1767163214,
      1767163258,
      1767163285,
      1767163316,
      1767163347,
      1767163374,
      1767163408,
      1767163426,
      1767163452,
      1767163483
    ],
    "wof:geomhash": "f6a690fd138591b122824f64a32f1a96",
    "wof:id": 2014437385,
    "wof:repo": "sfomuseum-data-flights-2025-12"
  },
  "bbox": [
    -122.38632,
    37.63033,
    -121.27099,
    38.16077
  ],
  "geometry": {"coordinates":[[-122.36525,37.63033],[-122.35894,37.63922],[-122.32506,37.66708],[-122.3227,37.66917],[-122.32088,37.71717],[-122.33883,37.74962],[-122.36071,37.7927],[-122.37563,37.82261],[-122.38632,37.86703],[-122.38265,37.90756],[-122.34201,37.94738],[-122.31598,37.95423],[-122.26544,37.96449],[-122.24165,37.96926],[-122.20507,37.97664],[-122.13522,37.99086],[-122.10386,37.99726],[-122.03022,38.0123],[-121.97501,38.02331],[-121.89285,38.03932],[-121.79593,38.05862],[-121.73676,38.0703],[-121.66889,38.08351],[-121.60008,38.09703],[-121.53765,38.10921],[-121.45629,38.12492],[-121.41218,38.1334],[-121.34824,38.14574],[-121.27099,38.16077]],"type":"LineString"}
}
