{
  "id": 2014442169,
  "type": "Feature",
  "properties": {
    "geom:area": 0,
    "geom:bbox": "-122.351140,36.718980,-121.876110,37.608660",
    "geom:latitude": 37.21698671766084,
    "geom:longitude": -122.06233898416333,
    "src:alt_label": "swim-approach",
    "src:geom": "swim",
    "swim:elevations": [
      5006,
      4985,
      4698,
      4319,
      3948,
      3711,
      3608,
      3174,
      3145,
      3028,
      2937,
      2705,
      2510,
      2321,
      2193,
      1986,
      1898,
      1613,
      1530,
      1300,
      1069,
      981,
      761,
      679,
      488,
      392,
      203,
      181,
      55
    ],
    "swim:geom": "approach",
    "swim:timestamps": [
      1767219327,
      1767219330,
      1767219362,
      1767219403,
      1767219446,
      1767219474,
      1767219484,
      1767219537,
      1767219553,
      1767219597,
      1767219615,
      1767219651,
      1767219679,
      1767219707,
      1767219737,
      1767219773,
      1767219788,
      1767219834,
      1767219854,
      1767219894,
      1767219927,
      1767219944,
      1767219986,
      1767219998,
      1767220039,
      1767220063,
      1767220108,
      1767220115,
      1767220145
    ],
    "wof:geomhash": "873ba474c406e6fd3fdb2bc954193a0a",
    "wof:id": 2014442169,
    "wof:repo": "sfomuseum-data-flights-2025-12"
  },
  "bbox": [
    -122.35114,
    36.71898,
    -121.87611,
    37.60866
  ],
  "geometry": {"coordinates":[[-121.87611,36.71898],[-121.87934,36.72362],[-121.90394,36.77689],[-121.92357,36.84668],[-121.94348,36.91812],[-121.95757,36.96348],[-121.96372,36.97915],[-121.99635,37.0629],[-122.00554,37.08691],[-122.02923,37.14755],[-122.03898,37.17226],[-122.05816,37.22068],[-122.07272,37.25785],[-122.08694,37.29401],[-122.09764,37.33304],[-122.09438,37.37789],[-122.09284,37.39594],[-122.08835,37.44992],[-122.09159,37.47167],[-122.11848,37.50731],[-122.1508,37.52439],[-122.168,37.53166],[-122.2134,37.55078],[-122.22604,37.5561],[-122.26443,37.57223],[-122.28496,37.58092],[-122.32088,37.59596],[-122.32591,37.59806],[-122.35114,37.60866]],"type":"LineString"}
}
