{
  "id": 2014426297,
  "type": "Feature",
  "properties": {
    "geom:area": 0,
    "geom:bbox": "-123.503410,36.924340,-122.161020,37.608880",
    "geom:latitude": 37.25824864891859,
    "geom:longitude": -122.7239250048925,
    "src:alt_label": "swim-approach",
    "src:geom": "swim",
    "swim:elevations": [
      6831,
      6767,
      6253,
      6004,
      5929,
      5726,
      5494,
      5442,
      4851,
      4627,
      4250,
      4191,
      3968,
      3756,
      3482,
      3100,
      3048,
      3048,
      2976,
      2834,
      2735,
      2618,
      2577,
      2509,
      2438,
      2438,
      2438,
      2360,
      2304,
      2053,
      1884,
      1829,
      1829,
      1627,
      1507,
      1462,
      1325,
      1148,
      983,
      911,
      764,
      644,
      480,
      395,
      213,
      121,
      63
    ],
    "swim:geom": "approach",
    "swim:timestamps": [
      1767043948,
      1767043951,
      1767044007,
      1767044032,
      1767044043,
      1767044068,
      1767044094,
      1767044107,
      1767044158,
      1767044179,
      1767044217,
      1767044223,
      1767044246,
      1767044268,
      1767044294,
      1767044330,
      1767044367,
      1767044390,
      1767044408,
      1767044434,
      1767044456,
      1767044486,
      1767044496,
      1767044520,
      1767044576,
      1767044582,
      1767044634,
      1767044666,
      1767044678,
      1767044723,
      1767044755,
      1767044771,
      1767044796,
      1767044826,
      1767044848,
      1767044857,
      1767044882,
      1767044918,
      1767044964,
      1767044984,
      1767045026,
      1767045052,
      1767045085,
      1767045105,
      1767045139,
      1767045166,
      1767045181
    ],
    "wof:geomhash": "82889f54f8dd8e02f74e6d7124fb5aac",
    "wof:id": 2014426297,
    "wof:repo": "sfomuseum-data-flights-2025-12"
  },
  "bbox": [
    -123.50341,
    36.92434,
    -122.16102,
    37.60888
  ],
  "geometry": {"coordinates":[[-123.50341,36.92434],[-123.49631,36.92786],[-123.40239,36.97765],[-123.36135,36.99887],[-123.34234,37.0085],[-123.30116,37.03019],[-123.25878,37.0523],[-123.23784,37.06326],[-123.15337,37.10747],[-123.11857,37.12559],[-123.05691,37.15748],[-123.0473,37.16246],[-123.01101,37.18127],[-122.97613,37.19909],[-122.9355,37.22013],[-122.87962,37.24881],[-122.8179,37.26806],[-122.77941,37.27739],[-122.75133,37.28379],[-122.71249,37.29303],[-122.67733,37.3012],[-122.63261,37.31068],[-122.61761,37.31016],[-122.58177,37.30377],[-122.49774,37.29222],[-122.4892,37.29303],[-122.41074,37.30078],[-122.36158,37.30556],[-122.34341,37.30729],[-122.2761,37.31321],[-122.22688,37.31741],[-122.20291,37.32458],[-122.1837,37.34675],[-122.17204,37.37816],[-122.16408,37.39951],[-122.16102,37.40849],[-122.16208,37.43356],[-122.16651,37.46965],[-122.17887,37.50939],[-122.18527,37.52609],[-122.2155,37.5508],[-122.24044,37.56198],[-122.27241,37.57509],[-122.28976,37.58274],[-122.31823,37.59465],[-122.33955,37.60388],[-122.35166,37.60888]],"type":"LineString"}
}
