{
  "id": 2014426373,
  "type": "Feature",
  "properties": {
    "geom:area": 0,
    "geom:bbox": "-122.353760,37.492050,-121.282430,37.612020",
    "geom:latitude": 37.545071053682,
    "geom:longitude": -121.82278328733729,
    "src:alt_label": "swim-approach",
    "src:geom": "swim",
    "swim:elevations": [
      4342,
      4111,
      3911,
      3420,
      3291,
      3138,
      3049,
      2945,
      2565,
      2462,
      2288,
      2133,
      2022,
      1855,
      1794,
      1586,
      1454,
      1151,
      1104,
      838,
      754,
      557,
      427,
      230,
      181,
      48
    ],
    "swim:geom": "approach",
    "swim:timestamps": [
      1767040815,
      1767040839,
      1767040860,
      1767040915,
      1767040930,
      1767040957,
      1767040995,
      1767041010,
      1767041064,
      1767041090,
      1767041114,
      1767041138,
      1767041169,
      1767041212,
      1767041222,
      1767041260,
      1767041283,
      1767041335,
      1767041343,
      1767041393,
      1767041408,
      1767041450,
      1767041471,
      1767041518,
      1767041529,
      1767041562
    ],
    "wof:geomhash": "538db760c554a5734b80bd9d0b983fc0",
    "wof:id": 2014426373,
    "wof:repo": "sfomuseum-data-flights-2025-12"
  },
  "bbox": [
    -122.35376,
    37.49205,
    -121.28243,
    37.61202
  ],
  "geometry": {"coordinates":[[-121.28243,37.5902],[-121.33342,37.58474],[-121.37757,37.57978],[-121.49005,37.56648],[-121.52058,37.56304],[-121.57401,37.55667],[-121.64431,37.54601],[-121.66955,37.54007],[-121.75752,37.51918],[-121.79932,37.50905],[-121.83639,37.50013],[-121.87262,37.49256],[-121.91901,37.49205],[-121.97802,37.49402],[-121.99036,37.49612],[-122.03668,37.51046],[-122.06526,37.51963],[-122.12752,37.53991],[-122.13697,37.54301],[-122.19259,37.56098],[-122.20881,37.56631],[-122.25279,37.58058],[-122.27377,37.58677],[-122.31678,37.5993],[-122.32593,37.60192],[-122.35376,37.61202]],"type":"LineString"}
}
