{
  "id": 2014447641,
  "type": "Feature",
  "properties": {
    "geom:area": 0,
    "geom:bbox": "-122.403870,36.728750,-121.555960,37.695240",
    "geom:latitude": 37.20417708459142,
    "geom:longitude": -122.06774768323116,
    "src:alt_label": "swim-takeoff",
    "src:geom": "swim",
    "swim:elevations": [
      152,
      574,
      697,
      825,
      1068,
      1260,
      1778,
      2283,
      2360,
      2541,
      3191,
      3343,
      3544,
      4094,
      4209,
      4540,
      4934,
      5271,
      5429,
      5705,
      5984,
      6279,
      6606,
      6864,
      7195,
      7670,
      7879,
      8170,
      8231,
      8230,
      8230,
      8230
    ],
    "swim:geom": "takeoff",
    "swim:timestamps": [
      1767206488,
      1767206518,
      1767206541,
      1767206553,
      1767206592,
      1767206633,
      1767206660,
      1767206696,
      1767206702,
      1767206714,
      1767206757,
      1767206780,
      1767206804,
      1767206845,
      1767206854,
      1767206882,
      1767206931,
      1767206967,
      1767206982,
      1767207012,
      1767207037,
      1767207063,
      1767207110,
      1767207147,
      1767207176,
      1767207206,
      1767207237,
      1767207266,
      1767207276,
      1767207291,
      1767207303,
      1767207342
    ],
    "wof:geomhash": "229a279ab81ae9a71d9dbc8684befde0",
    "wof:id": 2014447641,
    "wof:repo": "sfomuseum-data-flights-2025-12"
  },
  "bbox": [
    -122.40387,
    36.72875,
    -121.55596,
    37.69524
  ],
  "geometry": {"coordinates":[[-122.37103,37.62592],[-122.36605,37.64557],[-122.36319,37.66283],[-122.36179,37.6723],[-122.38111,37.69524],[-122.40387,37.66606],[-122.40068,37.63666],[-122.39621,37.59565],[-122.39543,37.58845],[-122.39381,37.5737],[-122.38764,37.51817],[-122.38355,37.48645],[-122.37818,37.45049],[-122.33558,37.39687],[-122.32346,37.38614],[-122.28436,37.35256],[-122.21403,37.29261],[-122.15791,37.24448],[-122.13451,37.22456],[-122.0869,37.18389],[-122.04731,37.15009],[-122.00458,37.11348],[-121.92895,37.04878],[-121.86658,36.99549],[-121.81824,36.95401],[-121.77001,36.91256],[-121.72076,36.87082],[-121.67516,36.83193],[-121.65903,36.81808],[-121.63558,36.79798],[-121.61689,36.78193],[-121.55596,36.72875]],"type":"LineString"}
}
