{
  "id": 2014422119,
  "type": "Feature",
  "properties": {
    "geom:area": 0,
    "geom:bbox": "-122.467500,36.736810,-121.455780,37.710510",
    "geom:latitude": 37.23325257997726,
    "geom:longitude": -122.0575381637163,
    "src:alt_label": "swim-takeoff",
    "src:geom": "swim",
    "swim:elevations": [
      152,
      635,
      996,
      1083,
      1361,
      1719,
      2206,
      2834,
      3075,
      3415,
      3781,
      4211,
      4623,
      4655,
      4914,
      5236,
      5416,
      5515,
      5484,
      5728,
      6069,
      6287,
      6748,
      7104,
      7329,
      7463,
      7866,
      8246,
      8588,
      8759,
      8837
    ],
    "swim:geom": "takeoff",
    "swim:timestamps": [
      1766914523,
      1766914555,
      1766914583,
      1766914597,
      1766914636,
      1766914664,
      1766914693,
      1766914735,
      1766914755,
      1766914795,
      1766914828,
      1766914857,
      1766914887,
      1766914890,
      1766914914,
      1766914945,
      1766914973,
      1766915007,
      1766915015,
      1766915060,
      1766915084,
      1766915104,
      1766915149,
      1766915185,
      1766915209,
      1766915223,
      1766915267,
      1766915301,
      1766915338,
      1766915362,
      1766915380
    ],
    "wof:geomhash": "a2f9f8f7d0d9fd6625527f4be40de63c",
    "wof:id": 2014422119,
    "wof:repo": "sfomuseum-data-flights-2025-12"
  },
  "bbox": [
    -122.4675,
    36.73681,
    -121.45578,
    37.71051
  ],
  "geometry": {"coordinates":[[-122.36814,37.63033],[-122.36214,37.65414],[-122.36214,37.67359],[-122.3621,37.68382],[-122.39108,37.71051],[-122.43329,37.70436],[-122.45866,37.67294],[-122.4675,37.6159],[-122.46528,37.58776],[-122.46003,37.5268],[-122.43628,37.47412],[-122.38822,37.44287],[-122.33586,37.4118],[-122.33075,37.40834],[-122.29147,37.38018],[-122.2387,37.34008],[-122.1901,37.30282],[-122.13356,37.25953],[-122.12025,37.24927],[-122.04178,37.18997],[-122.00069,37.15881],[-121.96472,37.13112],[-121.88567,37.07002],[-121.82025,37.0202],[-121.77513,36.98567],[-121.74895,36.96557],[-121.66655,36.90242],[-121.60124,36.85219],[-121.53354,36.79994],[-121.4878,36.76394],[-121.45578,36.73681]],"type":"LineString"}
}
