{
  "id": 2014442177,
  "type": "Feature",
  "properties": {
    "geom:area": 0,
    "geom:bbox": "-122.360100,37.471160,-121.256260,37.612360",
    "geom:latitude": 37.538797376507326,
    "geom:longitude": -121.81631528701907,
    "src:alt_label": "swim-approach",
    "src:geom": "swim",
    "swim:elevations": [
      4707,
      4571,
      4539,
      4414,
      4365,
      4075,
      3634,
      3494,
      3284,
      3040,
      2899,
      2631,
      2557,
      2251,
      2038,
      1960,
      1830,
      1676,
      1552,
      1283,
      1108,
      1064,
      946,
      759,
      744,
      605,
      436,
      326,
      187,
      94,
      0
    ],
    "swim:geom": "approach",
    "swim:timestamps": [
      1767208378,
      1767208404,
      1767208416,
      1767208434,
      1767208440,
      1767208475,
      1767208525,
      1767208542,
      1767208563,
      1767208608,
      1767208634,
      1767208675,
      1767208684,
      1767208729,
      1767208762,
      1767208774,
      1767208807,
      1767208856,
      1767208869,
      1767208911,
      1767208948,
      1767208960,
      1767208990,
      1767209037,
      1767209040,
      1767209065,
      1767209094,
      1767209118,
      1767209149,
      1767209175,
      1767209195
    ],
    "wof:geomhash": "14e9683a55121dec5d19b76f9bb4cf10",
    "wof:id": 2014442177,
    "wof:repo": "sfomuseum-data-flights-2025-12"
  },
  "bbox": [
    -122.3601,
    37.47116,
    -121.25626,
    37.61236
  ],
  "geometry": {"coordinates":[[-121.25626,37.59384],[-121.30771,37.58773],[-121.33072,37.58518],[-121.36431,37.58139],[-121.3752,37.58018],[-121.43883,37.57266],[-121.5256,37.56237],[-121.55432,37.55897],[-121.59194,37.55462],[-121.66433,37.54096],[-121.70092,37.53227],[-121.75624,37.51899],[-121.76805,37.51609],[-121.82719,37.50233],[-121.86967,37.49232],[-121.88477,37.48877],[-121.92487,37.47765],[-121.98916,37.47116],[-122.00664,37.47378],[-122.06197,37.49109],[-122.10967,37.50755],[-122.12491,37.51304],[-122.16128,37.52872],[-122.21446,37.5513],[-122.21792,37.55276],[-122.24592,37.56434],[-122.27658,37.57727],[-122.29899,37.58682],[-122.32448,37.59751],[-122.34437,37.60583],[-122.3601,37.61236]],"type":"LineString"}
}
