{
  "id": 2014415877,
  "type": "Feature",
  "properties": {
    "geom:area": 0,
    "geom:bbox": "-122.342660,37.491330,-121.246040,37.607500",
    "geom:latitude": 37.54597337056424,
    "geom:longitude": -121.79892966236348,
    "src:alt_label": "swim-approach",
    "src:geom": "swim",
    "swim:elevations": [
      4691,
      4571,
      4210,
      3968,
      3313,
      3170,
      2985,
      2936,
      2654,
      2299,
      2145,
      2087,
      1918,
      1841,
      1515,
      1481,
      1270,
      1042,
      961,
      763,
      580,
      477,
      338,
      214,
      110
    ],
    "swim:geom": "approach",
    "swim:timestamps": [
      1766924723,
      1766924735,
      1766924774,
      1766924799,
      1766924867,
      1766924901,
      1766924936,
      1766924944,
      1766924989,
      1766925026,
      1766925046,
      1766925094,
      1766925132,
      1766925152,
      1766925208,
      1766925212,
      1766925247,
      1766925292,
      1766925308,
      1766925345,
      1766925386,
      1766925410,
      1766925443,
      1766925471,
      1766925495
    ],
    "wof:geomhash": "1e5bff8544d551504bb831514fb08ac0",
    "wof:id": 2014415877,
    "wof:repo": "sfomuseum-data-flights-2025-12"
  },
  "bbox": [
    -122.34266,
    37.49133,
    -121.24604,
    37.6075
  ],
  "geometry": {"coordinates":[[-121.24604,37.59503],[-121.27064,37.59167],[-121.34917,37.5829],[-121.39979,37.57708],[-121.53172,37.5617],[-121.59477,37.55422],[-121.65508,37.54337],[-121.66823,37.54032],[-121.73975,37.52332],[-121.7978,37.50936],[-121.82928,37.50193],[-121.89859,37.49133],[-121.95424,37.49287],[-121.98244,37.4945],[-122.0521,37.5155],[-122.05729,37.51718],[-122.10042,37.53118],[-122.15411,37.54838],[-122.17282,37.55427],[-122.20989,37.56612],[-122.24593,37.578],[-122.26757,37.58479],[-122.29748,37.59352],[-122.32252,37.60085],[-122.34266,37.6075]],"type":"LineString"}
}
