{
  "id": 2014430307,
  "type": "Feature",
  "properties": {
    "geom:area": 0,
    "geom:bbox": "-122.547360,36.718770,-121.439170,37.667790",
    "geom:latitude": 37.211388696686285,
    "geom:longitude": -122.06872199569436,
    "src:alt_label": "swim-takeoff",
    "src:geom": "swim",
    "swim:elevations": [
      213,
      557,
      1052,
      1539,
      1788,
      2169,
      2589,
      3078,
      3350,
      3720,
      4103,
      4365,
      5058,
      5261,
      5466,
      5941,
      6251,
      6662,
      6854,
      7615,
      7867,
      8016,
      8382,
      8553,
      8735,
      8838,
      8839,
      8839,
      8839,
      8839
    ],
    "swim:geom": "takeoff",
    "swim:timestamps": [
      1767007809,
      1767007842,
      1767007887,
      1767007917,
      1767007947,
      1767007978,
      1767008002,
      1767008032,
      1767008058,
      1767008093,
      1767008116,
      1767008134,
      1767008187,
      1767008202,
      1767008229,
      1767008265,
      1767008289,
      1767008326,
      1767008343,
      1767008417,
      1767008445,
      1767008462,
      1767008514,
      1767008543,
      1767008567,
      1767008600,
      1767008637,
      1767008646,
      1767008661,
      1767008680
    ],
    "wof:geomhash": "664f0b6e2738f922b48624d41e7dc2b8",
    "wof:id": 2014430307,
    "wof:repo": "sfomuseum-data-flights-2025-12"
  },
  "bbox": [
    -122.54736,
    36.71877,
    -121.43917,
    37.66779
  ],
  "geometry": {"coordinates":[[-122.39392,37.62675],[-122.42584,37.6403],[-122.4782,37.66395],[-122.51612,37.66779],[-122.54736,37.64678],[-122.54438,37.60891],[-122.52817,37.5818],[-122.50607,37.54434],[-122.48656,37.51108],[-122.44493,37.46849],[-122.41189,37.444],[-122.38575,37.42468],[-122.30447,37.36492],[-122.28098,37.34754],[-122.23774,37.3156],[-122.17865,37.27209],[-122.13899,37.24264],[-122.07677,37.19638],[-122.04782,37.17496],[-121.92113,37.08073],[-121.87242,37.04407],[-121.8414,37.02126],[-121.74872,36.95197],[-121.69407,36.91231],[-121.64937,36.87881],[-121.58769,36.83247],[-121.51978,36.78046],[-121.50278,36.76775],[-121.47382,36.7448],[-121.43917,36.71877]],"type":"LineString"}
}
