{
  "id": 2014429207,
  "type": "Feature",
  "properties": {
    "geom:area": 0,
    "geom:bbox": "-122.385740,37.630410,-121.310250,38.153300",
    "geom:latitude": 37.98391954591963,
    "geom:longitude": -121.96317341552601,
    "src:alt_label": "swim-takeoff",
    "src:geom": "swim",
    "swim:elevations": [
      218,
      308,
      546,
      1129,
      1231,
      1980,
      2398,
      2715,
      3226,
      3309,
      3446,
      3816,
      4197,
      4620,
      4852,
      5326,
      5442,
      5841,
      5992,
      6156,
      6264,
      6712,
      6895,
      7137,
      7351,
      7537,
      7600,
      7756
    ],
    "swim:geom": "takeoff",
    "swim:timestamps": [
      1767074361,
      1767074370,
      1767074409,
      1767074457,
      1767074463,
      1767074510,
      1767074544,
      1767074573,
      1767074607,
      1767074622,
      1767074646,
      1767074686,
      1767074722,
      1767074755,
      1767074773,
      1767074814,
      1767074829,
      1767074871,
      1767074887,
      1767074906,
      1767074917,
      1767074965,
      1767074986,
      1767075022,
      1767075055,
      1767075087,
      1767075096,
      1767075123
    ],
    "wof:geomhash": "84a290f98493a781a356377ad29e5e18",
    "wof:id": 2014429207,
    "wof:repo": "sfomuseum-data-flights-2025-12"
  },
  "bbox": [
    -122.38574,
    37.63041,
    -121.31025,
    38.1533
  ],
  "geometry": {"coordinates":[[-122.36495,37.63041],[-122.36047,37.63624],[-122.32992,37.66205],[-122.31854,37.71305],[-122.32225,37.71981],[-122.35109,37.77392],[-122.37146,37.81448],[-122.38574,37.85244],[-122.38432,37.89929],[-122.37594,37.91929],[-122.34504,37.94527],[-122.2688,37.96453],[-122.19617,37.97879],[-122.12768,37.99253],[-122.09026,38.00015],[-122.00555,38.0166],[-121.97397,38.02282],[-121.88501,38.04122],[-121.85105,38.048],[-121.80843,38.0565],[-121.78473,38.06105],[-121.67947,38.0816],[-121.63261,38.09075],[-121.55139,38.10657],[-121.47507,38.12138],[-121.39906,38.13607],[-121.37544,38.14065],[-121.31025,38.1533]],"type":"LineString"}
}
