{
  "id": 2014409373,
  "type": "Feature",
  "properties": {
    "geom:area": 0,
    "geom:bbox": "-122.359180,37.492000,-121.244740,37.614840",
    "geom:latitude": 37.54330680372953,
    "geom:longitude": -121.80909917776063,
    "src:alt_label": "swim-approach",
    "src:geom": "swim",
    "swim:elevations": [
      4701,
      4463,
      4282,
      4121,
      3629,
      3493,
      3451,
      3171,
      2981,
      2919,
      2849,
      2605,
      2433,
      2274,
      2087,
      1858,
      1831,
      1784,
      1503,
      1268,
      1153,
      1096,
      877,
      713,
      668,
      531,
      398,
      304,
      190,
      143,
      0
    ],
    "swim:geom": "approach",
    "swim:timestamps": [
      1766824678,
      1766824702,
      1766824721,
      1766824740,
      1766824791,
      1766824826,
      1766824832,
      1766824875,
      1766824906,
      1766824919,
      1766824927,
      1766824976,
      1766825001,
      1766825023,
      1766825055,
      1766825097,
      1766825119,
      1766825133,
      1766825174,
      1766825215,
      1766825238,
      1766825259,
      1766825309,
      1766825337,
      1766825345,
      1766825371,
      1766825398,
      1766825426,
      1766825453,
      1766825468,
      1766825503
    ],
    "wof:geomhash": "42688e28bf154d10fb5005546d94906d",
    "wof:id": 2014409373,
    "wof:repo": "sfomuseum-data-flights-2025-12"
  },
  "bbox": [
    -122.35918,
    37.492,
    -121.24474,
    37.61484
  ],
  "geometry": {"coordinates":[[-121.24474,37.59521],[-121.2943,37.58872],[-121.33325,37.58449],[-121.36964,37.58052],[-121.47164,37.56855],[-121.5362,37.56116],[-121.5466,37.55992],[-121.61853,37.55128],[-121.66991,37.54009],[-121.6897,37.53534],[-121.70393,37.53196],[-121.7781,37.51396],[-121.81359,37.50548],[-121.84504,37.49805],[-121.89111,37.492],[-121.95149,37.49552],[-121.98118,37.49707],[-121.9991,37.49807],[-122.05248,37.5011],[-122.10199,37.50665],[-122.12803,37.5171],[-122.15086,37.52659],[-122.20306,37.54878],[-122.23078,37.56043],[-122.2383,37.56362],[-122.26282,37.5739],[-122.28628,37.58376],[-122.30599,37.59207],[-122.32516,37.60011],[-122.33546,37.60442],[-122.35918,37.61484]],"type":"LineString"}
}
