{
  "id": 2014447525,
  "type": "Feature",
  "properties": {
    "geom:area": 0,
    "geom:bbox": "-122.365890,37.629390,-121.263930,38.413820",
    "geom:latitude": 38.031945342397826,
    "geom:longitude": -121.8248770917792,
    "src:alt_label": "swim-takeoff",
    "src:geom": "swim",
    "swim:elevations": [
      152,
      591,
      1016,
      1056,
      1477,
      1799,
      2214,
      2434,
      2977,
      3386,
      3526,
      3819,
      4207,
      4336,
      4875,
      5378,
      5574,
      6037,
      6364,
      6617,
      6680,
      7155,
      7392,
      7564,
      7829,
      8128,
      8275
    ],
    "swim:geom": "takeoff",
    "swim:timestamps": [
      1767182367,
      1767182396,
      1767182428,
      1767182433,
      1767182484,
      1767182514,
      1767182539,
      1767182554,
      1767182587,
      1767182629,
      1767182646,
      1767182670,
      1767182697,
      1767182706,
      1767182747,
      1767182782,
      1767182802,
      1767182844,
      1767182878,
      1767182903,
      1767182910,
      1767182961,
      1767182986,
      1767183011,
      1767183042,
      1767183077,
      1767183096
    ],
    "wof:geomhash": "07cc89ee6f675aa549e1bf17361362cb",
    "wof:id": 2014447525,
    "wof:repo": "sfomuseum-data-flights-2025-12"
  },
  "bbox": [
    -122.36589,
    37.62939,
    -121.26393,
    38.41382
  ],
  "geometry": {"coordinates":[[-122.36589,37.62939],[-122.3504,37.6473],[-122.32415,37.66008],[-122.32019,37.66231],[-122.26825,37.69008],[-122.22957,37.71011],[-122.20046,37.73188],[-122.18706,37.74847],[-122.15345,37.78596],[-122.10949,37.83461],[-122.08969,37.85653],[-122.0577,37.88779],[-122.01453,37.91824],[-121.99987,37.92799],[-121.93026,37.97481],[-121.87109,38.01412],[-121.83588,38.03756],[-121.76192,38.08701],[-121.69807,38.12976],[-121.65227,38.16047],[-121.63964,38.16893],[-121.54178,38.2345],[-121.4922,38.26767],[-121.44185,38.30128],[-121.3805,38.342],[-121.30594,38.38818],[-121.26393,38.41382]],"type":"LineString"}
}
