{
  "id": 2014438153,
  "type": "Feature",
  "properties": {
    "geom:area": 0,
    "geom:bbox": "-122.367000,37.627810,-121.255020,37.948920",
    "geom:latitude": 37.7918183579209,
    "geom:longitude": -121.81786125797463,
    "src:alt_label": "swim-takeoff",
    "src:geom": "swim",
    "swim:elevations": [
      152,
      602,
      662,
      1051,
      1299,
      1918,
      2242,
      2467,
      3151,
      3373,
      3487,
      3841,
      3984,
      4237,
      4564,
      4629,
      4669,
      4957,
      5076,
      5412,
      5583,
      5846
    ],
    "swim:geom": "takeoff",
    "swim:timestamps": [
      1767137591,
      1767137636,
      1767137648,
      1767137693,
      1767137708,
      1767137750,
      1767137780,
      1767137798,
      1767137845,
      1767137873,
      1767137888,
      1767137938,
      1767137955,
      1767137983,
      1767138024,
      1767138033,
      1767138042,
      1767138082,
      1767138098,
      1767138140,
      1767138169,
      1767138201
    ],
    "wof:geomhash": "94a373c9d9c1da5ded5fc03dbdaeb907",
    "wof:id": 2014438153,
    "wof:repo": "sfomuseum-data-flights-2025-12"
  },
  "bbox": [
    -122.367,
    37.62781,
    -121.25502,
    37.94892
  ],
  "geometry": {"coordinates":[[-122.367,37.62781],[-122.3473,37.66065],[-122.33583,37.6653],[-122.2755,37.67342],[-122.2533,37.67623],[-122.19096,37.68464],[-122.14474,37.69709],[-122.1157,37.70544],[-122.04004,37.72721],[-121.99281,37.74052],[-121.96583,37.74795],[-121.86886,37.7749],[-121.83354,37.7854],[-121.77575,37.80315],[-121.68525,37.8285],[-121.66472,37.83406],[-121.64399,37.83963],[-121.55008,37.86535],[-121.51106,37.87636],[-121.40906,37.90541],[-121.33731,37.92579],[-121.25502,37.94892]],"type":"LineString"}
}
