{
  "id": 2014407997,
  "type": "Feature",
  "properties": {
    "geom:area": 0,
    "geom:bbox": "-122.358790,36.726790,-121.881790,37.613890",
    "geom:latitude": 37.218824425365526,
    "geom:longitude": -122.07139073421835,
    "src:alt_label": "swim-approach",
    "src:geom": "swim",
    "swim:elevations": [
      5661,
      5401,
      5154,
      4822,
      4442,
      4188,
      3796,
      3617,
      3479,
      3357,
      3153,
      3003,
      2736,
      2528,
      2359,
      2075,
      2005,
      1731,
      1647,
      1586,
      1277,
      1204,
      1004,
      947,
      765,
      664,
      508,
      369,
      302,
      153,
      0
    ],
    "swim:geom": "approach",
    "swim:timestamps": [
      1766883110,
      1766883143,
      1766883164,
      1766883194,
      1766883230,
      1766883257,
      1766883293,
      1766883311,
      1766883350,
      1766883383,
      1766883415,
      1766883433,
      1766883466,
      1766883495,
      1766883532,
      1766883568,
      1766883577,
      1766883623,
      1766883641,
      1766883662,
      1766883716,
      1766883728,
      1766883765,
      1766883774,
      1766883806,
      1766883824,
      1766883857,
      1766883890,
      1766883905,
      1766883939,
      1766883977
    ],
    "wof:geomhash": "f86de5e1a648e5feaba22f17a852d0f9",
    "wof:id": 2014407997,
    "wof:repo": "sfomuseum-data-flights-2025-12"
  },
  "bbox": [
    -122.35879,
    36.72679,
    -121.88179,
    37.61389
  ],
  "geometry": {"coordinates":[[-121.88179,36.72679],[-121.90389,36.77651],[-121.913,36.80886],[-121.92595,36.85487],[-121.9411,36.90938],[-121.95239,36.94956],[-121.97221,37.00124],[-121.98218,37.02691],[-122.00289,37.0796],[-122.0191,37.12069],[-122.03441,37.15925],[-122.0424,37.18023],[-122.05722,37.21934],[-122.07053,37.25316],[-122.08753,37.29557],[-122.10374,37.33661],[-122.10771,37.3468],[-122.12716,37.39851],[-122.13374,37.4182],[-122.14122,37.44035],[-122.15863,37.49441],[-122.16266,37.50627],[-122.17445,37.54085],[-122.17752,37.54901],[-122.20896,37.56626],[-122.22853,37.57253],[-122.26075,37.5829],[-122.28893,37.59102],[-122.30133,37.5948],[-122.33018,37.60243],[-122.35879,37.61389]],"type":"LineString"}
}
