{
  "id": 2014447385,
  "type": "Feature",
  "properties": {
    "geom:area": 0,
    "geom:bbox": "-123.493430,37.607300,-122.397810,37.667860",
    "geom:latitude": 37.62272737472174,
    "geom:longitude": -122.9402994235438,
    "src:alt_label": "swim-takeoff",
    "src:geom": "swim",
    "swim:elevations": [
      183,
      314,
      625,
      1054,
      1370,
      1714,
      1877,
      2291,
      2888,
      3266,
      3485,
      3503,
      3752,
      4351,
      4429,
      4929,
      5267,
      5474,
      5901,
      6128,
      6314
    ],
    "swim:geom": "takeoff",
    "swim:timestamps": [
      1767203421,
      1767203433,
      1767203460,
      1767203508,
      1767203546,
      1767203572,
      1767203584,
      1767203615,
      1767203658,
      1767203690,
      1767203727,
      1767203730,
      1767203761,
      1767203812,
      1767203820,
      1767203868,
      1767203900,
      1767203919,
      1767203965,
      1767203989,
      1767204013
    ],
    "wof:geomhash": "ff4bb61bfd904f6ba46cb8091af8bb61",
    "wof:id": 2014447385,
    "wof:repo": "sfomuseum-data-flights-2025-12"
  },
  "bbox": [
    -123.49343,
    37.6073,
    -122.39781,
    37.66786
  ],
  "geometry": {"coordinates":[[-122.39781,37.62814],[-122.40912,37.63272],[-122.43712,37.64474],[-122.48943,37.66786],[-122.54125,37.66485],[-122.5786,37.65482],[-122.59616,37.65057],[-122.64508,37.63777],[-122.71239,37.62172],[-122.7659,37.6195],[-122.83645,37.6158],[-122.84246,37.61553],[-122.90687,37.61262],[-123.01777,37.6073],[-123.03667,37.60735],[-123.14533,37.60865],[-123.21927,37.60974],[-123.26356,37.6106],[-123.37441,37.61225],[-123.4346,37.61328],[-123.49343,37.61445]],"type":"LineString"}
}
