{
  "id": 2014423113,
  "type": "Feature",
  "properties": {
    "geom:area": 0,
    "geom:bbox": "-122.353560,37.491810,-121.289730,37.617070",
    "geom:latitude": 37.552579904239686,
    "geom:longitude": -121.82391880029586,
    "src:alt_label": "swim-approach",
    "src:geom": "swim",
    "swim:elevations": [
      4604,
      4204,
      4128,
      3890,
      3803,
      3470,
      3358,
      3052,
      2960,
      2653,
      2429,
      2166,
      2037,
      1930,
      1630,
      1525,
      1524,
      1502,
      1324,
      1068,
      893,
      725,
      572,
      459,
      273,
      177,
      39
    ],
    "swim:geom": "approach",
    "swim:timestamps": [
      1767024037,
      1767024088,
      1767024096,
      1767024138,
      1767024155,
      1767024199,
      1767024216,
      1767024260,
      1767024276,
      1767024317,
      1767024344,
      1767024387,
      1767024416,
      1767024431,
      1767024475,
      1767024502,
      1767024531,
      1767024549,
      1767024575,
      1767024615,
      1767024637,
      1767024671,
      1767024708,
      1767024729,
      1767024774,
      1767024799,
      1767024828
    ],
    "wof:geomhash": "fd05903cf73e8cb2d4d7a98a70527685",
    "wof:id": 2014423113,
    "wof:repo": "sfomuseum-data-flights-2025-12"
  },
  "bbox": [
    -122.35356,
    37.49181,
    -121.28973,
    37.61707
  ],
  "geometry": {"coordinates":[[-121.28973,37.60287],[-121.3943,37.61707],[-121.41144,37.61545],[-121.49051,37.59448],[-121.52021,37.58486],[-121.59594,37.56015],[-121.62501,37.55077],[-121.69934,37.53254],[-121.72669,37.52605],[-121.79481,37.51075],[-121.83903,37.50012],[-121.90613,37.49181],[-121.9485,37.49299],[-121.96954,37.49347],[-122.02585,37.50654],[-122.05639,37.51678],[-122.08694,37.52643],[-122.10513,37.53232],[-122.12931,37.54053],[-122.16528,37.55193],[-122.18448,37.55817],[-122.2153,37.56863],[-122.24894,37.57927],[-122.2679,37.5851],[-122.30788,37.59681],[-122.32943,37.60326],[-122.35356,37.61203]],"type":"LineString"}
}
