{
  "id": 2014422567,
  "type": "Feature",
  "properties": {
    "geom:area": 0,
    "geom:bbox": "-122.506230,36.733330,-121.444650,37.671960",
    "geom:latitude": 37.22557637454652,
    "geom:longitude": -122.0529060018631,
    "src:alt_label": "swim-takeoff",
    "src:geom": "swim",
    "swim:elevations": [
      213,
      711,
      998,
      1307,
      1736,
      1927,
      2157,
      2371,
      3067,
      3411,
      3906,
      4284,
      4620,
      5148,
      5495,
      5623,
      6039,
      6516,
      6745,
      7173,
      7311,
      7755,
      8060,
      8369,
      8747,
      8835,
      8839,
      8839,
      8839,
      8839,
      8839,
      8839
    ],
    "swim:geom": "takeoff",
    "swim:timestamps": [
      1766988761,
      1766988791,
      1766988818,
      1766988858,
      1766988889,
      1766988900,
      1766988917,
      1766988932,
      1766988975,
      1766989005,
      1766989035,
      1766989065,
      1766989095,
      1766989133,
      1766989165,
      1766989176,
      1766989210,
      1766989253,
      1766989274,
      1766989314,
      1766989325,
      1766989369,
      1766989402,
      1766989429,
      1766989465,
      1766989476,
      1766989494,
      1766989527,
      1766989555,
      1766989567,
      1766989598,
      1766989633
    ],
    "wof:geomhash": "162f29dcb53e3c75d62415fd601b5aec",
    "wof:id": 2014422567,
    "wof:repo": "sfomuseum-data-flights-2025-12"
  },
  "bbox": [
    -122.50623,
    36.73333,
    -121.44465,
    37.67196
  ],
  "geometry": {"coordinates":[[-122.36728,37.63211],[-122.36344,37.65297],[-122.37595,37.67029],[-122.42658,37.67196],[-122.4743,37.66556],[-122.48822,37.65712],[-122.50211,37.63941],[-122.50623,37.62003],[-122.50294,37.56165],[-122.47773,37.52526],[-122.43603,37.49644],[-122.39377,37.46548],[-122.34927,37.43151],[-122.2923,37.38778],[-122.24254,37.34981],[-122.22493,37.33634],[-122.16944,37.29405],[-122.09855,37.23975],[-122.06326,37.21258],[-121.99578,37.16068],[-121.97621,37.14561],[-121.90038,37.08712],[-121.8423,37.04238],[-121.7947,37.00589],[-121.73232,36.95736],[-121.71405,36.94353],[-121.68222,36.91962],[-121.62529,36.87503],[-121.57723,36.83709],[-121.55666,36.82118],[-121.50321,36.77988],[-121.44465,36.73333]],"type":"LineString"}
}
