{
  "id": 2014435661,
  "type": "Feature",
  "properties": {
    "geom:area": 0,
    "geom:bbox": "-122.836220,37.546470,-122.079010,38.458970",
    "geom:latitude": 37.86005498799522,
    "geom:longitude": -122.48894617800362,
    "src:alt_label": "swim-approach",
    "src:geom": "swim",
    "swim:elevations": [
      7620,
      7369,
      7086,
      6738,
      6526,
      6239,
      6009,
      5637,
      5433,
      5255,
      4879,
      4686,
      4435,
      4321,
      4191,
      4147,
      4082,
      3797,
      3594,
      3371,
      3310,
      3002,
      2838,
      2679,
      2549,
      2284,
      2160,
      2050,
      1991,
      1828,
      1768,
      1712,
      1555,
      1518,
      1130,
      1018,
      883,
      837,
      781,
      688,
      536,
      409,
      270,
      189,
      23,
      0
    ],
    "swim:geom": "approach",
    "swim:timestamps": [
      1767128216,
      1767128240,
      1767128270,
      1767128307,
      1767128330,
      1767128361,
      1767128386,
      1767128426,
      1767128456,
      1767128473,
      1767128517,
      1767128542,
      1767128577,
      1767128604,
      1767128637,
      1767128643,
      1767128652,
      1767128696,
      1767128716,
      1767128747,
      1767128780,
      1767128816,
      1767128834,
      1767128853,
      1767128870,
      1767128907,
      1767128936,
      1767128965,
      1767128978,
      1767129013,
      1767129039,
      1767129057,
      1767129084,
      1767129097,
      1767129146,
      1767129161,
      1767129188,
      1767129229,
      1767129242,
      1767129260,
      1767129288,
      1767129322,
      1767129354,
      1767129376,
      1767129416,
      1767129424
    ],
    "wof:geomhash": "64d5a9165fe25067605791fd6f11d56b",
    "wof:id": 2014435661,
    "wof:repo": "sfomuseum-data-flights-2025-12"
  },
  "bbox": [
    -122.83622,
    37.54647,
    -122.07901,
    38.45897
  ],
  "geometry": {"coordinates":[[-122.83622,38.45897],[-122.82408,38.41764],[-122.80892,38.36596],[-122.79049,38.30248],[-122.77908,38.26408],[-122.76409,38.21262],[-122.75215,38.17126],[-122.73327,38.10616],[-122.71937,38.05832],[-122.71154,38.03135],[-122.69191,37.9634],[-122.68101,37.92572],[-122.65027,37.87826],[-122.61975,37.84908],[-122.58555,37.8167],[-122.57963,37.81113],[-122.57095,37.80293],[-122.53049,37.76472],[-122.51274,37.74788],[-122.48443,37.72307],[-122.44007,37.71133],[-122.39159,37.7011],[-122.36772,37.69567],[-122.34282,37.69009],[-122.32014,37.68511],[-122.27427,37.67139],[-122.24081,37.65823],[-122.20621,37.6448],[-122.19111,37.63895],[-122.15236,37.62351],[-122.12552,37.61234],[-122.1078,37.60502],[-122.08332,37.59202],[-122.07901,37.58163],[-122.10546,37.54688],[-122.12255,37.54647],[-122.1539,37.55271],[-122.19503,37.5621],[-122.20834,37.56637],[-122.2259,37.57206],[-122.25275,37.58071],[-122.28217,37.58936],[-122.30738,37.59675],[-122.32424,37.60198],[-122.35482,37.61253],[-122.36024,37.61547]],"type":"LineString"}
}
