{
  "id": 2014436181,
  "type": "Feature",
  "properties": {
    "geom:area": 0,
    "geom:bbox": "-122.362230,37.634900,-121.249790,37.964960",
    "geom:latitude": 37.83946884228903,
    "geom:longitude": -121.82001948507694,
    "src:alt_label": "swim-takeoff",
    "src:geom": "swim",
    "swim:elevations": [
      307,
      636,
      760,
      829,
      1103,
      1657,
      2152,
      2435,
      2941,
      3211,
      3271,
      3431,
      3587,
      3797,
      3987,
      4367,
      4591,
      5132,
      5415,
      5467,
      5675
    ],
    "swim:geom": "takeoff",
    "swim:timestamps": [
      1767100213,
      1767100242,
      1767100272,
      1767100293,
      1767100326,
      1767100368,
      1767100404,
      1767100428,
      1767100463,
      1767100497,
      1767100510,
      1767100547,
      1767100582,
      1767100602,
      1767100624,
      1767100669,
      1767100693,
      1767100761,
      1767100792,
      1767100812,
      1767100845
    ],
    "wof:geomhash": "789047c8d4069e44686fdbba5eae4e20",
    "wof:id": 2014436181,
    "wof:repo": "sfomuseum-data-flights-2025-12"
  },
  "bbox": [
    -122.36223,
    37.6349,
    -121.24979,
    37.96496
  ],
  "geometry": {"coordinates":[[-122.36223,37.6349],[-122.34178,37.64993],[-122.31331,37.66491],[-122.28922,37.67807],[-122.24725,37.70041],[-122.19054,37.72993],[-122.14075,37.75579],[-122.10813,37.77292],[-122.0602,37.79774],[-122.01186,37.82223],[-121.98998,37.82882],[-121.92272,37.84134],[-121.85295,37.85448],[-121.80948,37.86255],[-121.76235,37.87133],[-121.66224,37.88984],[-121.60842,37.89984],[-121.45107,37.92858],[-121.37769,37.94192],[-121.32982,37.95053],[-121.24979,37.96496]],"type":"LineString"}
}
