{
  "id": 2014439541,
  "type": "Feature",
  "properties": {
    "geom:area": 0,
    "geom:bbox": "-122.523300,36.729930,-121.592380,37.673010",
    "geom:latitude": 37.22672339021478,
    "geom:longitude": -122.14026109665679,
    "src:alt_label": "swim-takeoff",
    "src:geom": "swim",
    "swim:elevations": [
      335,
      617,
      754,
      875,
      1063,
      1303,
      1643,
      2195,
      2379,
      3008,
      3271,
      3482,
      3561,
      3955,
      4340,
      4884,
      5200,
      5438,
      5714,
      6065,
      6430,
      6698,
      6906,
      7135,
      7454,
      7764,
      7854,
      8216,
      8230,
      8230,
      8230,
      8230
    ],
    "swim:geom": "takeoff",
    "swim:timestamps": [
      1767112168,
      1767112187,
      1767112197,
      1767112215,
      1767112241,
      1767112275,
      1767112308,
      1767112344,
      1767112353,
      1767112389,
      1767112405,
      1767112432,
      1767112450,
      1767112485,
      1767112513,
      1767112558,
      1767112582,
      1767112605,
      1767112634,
      1767112666,
      1767112702,
      1767112728,
      1767112757,
      1767112781,
      1767112813,
      1767112851,
      1767112860,
      1767112910,
      1767112938,
      1767112978,
      1767112993,
      1767113018
    ],
    "wof:geomhash": "1f815c79518368212c21b16e336b8b4b",
    "wof:id": 2014439541,
    "wof:repo": "sfomuseum-data-flights-2025-12"
  },
  "bbox": [
    -122.5233,
    36.72993,
    -121.59238,
    37.67301
  ],
  "geometry": {"coordinates":[[-122.36639,37.63583],[-122.36573,37.64904],[-122.36618,37.65557],[-122.37745,37.66462],[-122.40127,37.67301],[-122.44088,37.67026],[-122.4896,37.66145],[-122.5233,37.6287],[-122.52312,37.61742],[-122.51921,37.57202],[-122.51778,37.55266],[-122.51543,37.51406],[-122.51153,37.4877],[-122.46691,37.44387],[-122.4218,37.41614],[-122.34816,37.36531],[-122.30811,37.33578],[-122.27086,37.30883],[-122.22162,37.27266],[-122.16827,37.23265],[-122.10763,37.18584],[-122.06694,37.14905],[-122.02156,37.10729],[-121.98337,37.07171],[-121.93138,37.02341],[-121.87036,36.96743],[-121.85599,36.95495],[-121.77377,36.88151],[-121.72676,36.8425],[-121.66043,36.7862],[-121.63309,36.7644],[-121.59238,36.72993]],"type":"LineString"}
}
