{
  "id": 2014430655,
  "type": "Feature",
  "properties": {
    "geom:area": 0,
    "geom:bbox": "-123.503490,37.173230,-122.399180,37.666360",
    "geom:latitude": 37.42471719870005,
    "geom:longitude": -122.94442593675105,
    "src:alt_label": "swim-takeoff",
    "src:geom": "swim",
    "swim:elevations": [
      207,
      440,
      693,
      974,
      1179,
      1570,
      1833,
      2171,
      2639,
      3164,
      3281,
      3422,
      3853,
      3991,
      4265,
      4816,
      5224,
      5425,
      5769,
      6019,
      6277,
      6621
    ],
    "swim:geom": "takeoff",
    "swim:timestamps": [
      1767000595,
      1767000611,
      1767000634,
      1767000677,
      1767000707,
      1767000742,
      1767000763,
      1767000789,
      1767000823,
      1767000865,
      1767000887,
      1767000908,
      1767000955,
      1767000976,
      1767001000,
      1767001040,
      1767001076,
      1767001091,
      1767001136,
      1767001160,
      1767001187,
      1767001228
    ],
    "wof:geomhash": "07562e6910f5c345f906404821255086",
    "wof:id": 2014430655,
    "wof:repo": "sfomuseum-data-flights-2025-12"
  },
  "bbox": [
    -123.50349,
    37.17323,
    -122.39918,
    37.66636
  ],
  "geometry": {"coordinates":[[-122.39918,37.62916],[-122.41416,37.63562],[-122.43552,37.64482],[-122.47924,37.66452],[-122.51762,37.66636],[-122.5575,37.64071],[-122.58204,37.6245],[-122.61638,37.60229],[-122.66164,37.57324],[-122.72233,37.53686],[-122.75642,37.51708],[-122.79181,37.49599],[-122.87697,37.44669],[-122.91787,37.42347],[-122.96682,37.39547],[-123.05347,37.35232],[-123.13661,37.31988],[-123.17272,37.30592],[-123.28003,37.26365],[-123.33804,37.24058],[-123.40372,37.21406],[-123.50349,37.17323]],"type":"LineString"}
}
