{
  "id": 2014426589,
  "type": "Feature",
  "properties": {
    "geom:area": 0,
    "geom:bbox": "-122.364000,36.735860,-121.888440,37.614470",
    "geom:latitude": 37.218578981766896,
    "geom:longitude": -122.07437430641932,
    "src:alt_label": "swim-approach",
    "src:geom": "swim",
    "swim:elevations": [
      4679,
      4285,
      4019,
      3780,
      3609,
      3452,
      3259,
      2916,
      2595,
      2493,
      2438,
      2438,
      2438,
      2427,
      2141,
      1982,
      1734,
      1568,
      1403,
      1244,
      1150,
      943,
      793,
      647,
      510,
      380,
      246,
      150,
      93,
      0
    ],
    "swim:geom": "approach",
    "swim:timestamps": [
      1767044262,
      1767044306,
      1767044337,
      1767044363,
      1767044384,
      1767044405,
      1767044437,
      1767044473,
      1767044517,
      1767044532,
      1767044563,
      1767044592,
      1767044634,
      1767044651,
      1767044690,
      1767044707,
      1767044741,
      1767044768,
      1767044792,
      1767044826,
      1767044842,
      1767044872,
      1767044909,
      1767044931,
      1767044964,
      1767044996,
      1767045026,
      1767045049,
      1767045061,
      1767045091
    ],
    "wof:geomhash": "0d32b4cbd3f2a6bb727512ddaec5870c",
    "wof:id": 2014426589,
    "wof:repo": "sfomuseum-data-flights-2025-12"
  },
  "bbox": [
    -122.364,
    36.73586,
    -121.88844,
    37.61447
  ],
  "geometry": {"coordinates":[[-121.88844,36.73586],[-121.91199,36.80669],[-121.9264,36.85767],[-121.9379,36.89894],[-121.94691,36.93113],[-121.95786,36.96487],[-121.9761,37.01131],[-121.99457,37.05869],[-122.01735,37.11702],[-122.02486,37.13625],[-122.04015,37.17531],[-122.05397,37.21059],[-122.07376,37.26123],[-122.08213,37.28257],[-122.10088,37.33014],[-122.1082,37.34887],[-122.12341,37.3888],[-122.13388,37.41965],[-122.14296,37.44597],[-122.15961,37.48274],[-122.16944,37.49692],[-122.18832,37.52382],[-122.21419,37.54994],[-122.23659,37.55959],[-122.26708,37.57179],[-122.29269,37.58375],[-122.31566,37.59365],[-122.33289,37.60104],[-122.34184,37.60484],[-122.364,37.61447]],"type":"LineString"}
}
