{
  "id": 2014430609,
  "type": "Feature",
  "properties": {
    "geom:area": 0,
    "geom:bbox": "-122.367560,37.627080,-121.462440,38.513640",
    "geom:latitude": 38.060004006660805,
    "geom:longitude": -121.90726900595503,
    "src:alt_label": "swim-takeoff",
    "src:geom": "swim",
    "swim:elevations": [
      183,
      703,
      1020,
      1202,
      1277,
      1635,
      2071,
      2442,
      2931,
      3289,
      3477,
      3834,
      4246,
      4682,
      4898,
      5496,
      5788,
      6002,
      6158,
      6399,
      6402,
      6401,
      6401,
      6401,
      6401,
      6401,
      6401,
      6401,
      6401,
      6401,
      6401,
      6401
    ],
    "swim:geom": "takeoff",
    "swim:timestamps": [
      1767036828,
      1767036863,
      1767036894,
      1767036927,
      1767036938,
      1767036981,
      1767037015,
      1767037039,
      1767037066,
      1767037094,
      1767037115,
      1767037137,
      1767037160,
      1767037186,
      1767037200,
      1767037244,
      1767037262,
      1767037277,
      1767037291,
      1767037317,
      1767037330,
      1767037356,
      1767037381,
      1767037422,
      1767037450,
      1767037470,
      1767037497,
      1767037519,
      1767037556,
      1767037572,
      1767037604,
      1767037631
    ],
    "wof:geomhash": "e2294468221f98ffbe4a03e7fea79a01",
    "wof:id": 2014430609,
    "wof:repo": "sfomuseum-data-flights-2025-12"
  },
  "bbox": [
    -122.36756,
    37.62708,
    -121.46244,
    38.51364
  ],
  "geometry": {"coordinates":[[-122.36756,37.62708],[-122.34558,37.64385],[-122.3235,37.65628],[-122.29566,37.67357],[-122.28443,37.68045],[-122.23123,37.709],[-122.19401,37.7406],[-122.17176,37.765],[-122.14602,37.79341],[-122.11895,37.82328],[-122.09667,37.84786],[-122.07325,37.87373],[-122.04805,37.90161],[-122.01985,37.93284],[-122.00503,37.94904],[-121.9548,38.00435],[-121.93415,38.02696],[-121.91707,38.04566],[-121.90099,38.06332],[-121.86993,38.09725],[-121.85449,38.11416],[-121.82373,38.14796],[-121.79251,38.18205],[-121.7418,38.2372],[-121.7063,38.27593],[-121.68109,38.30338],[-121.64792,38.33934],[-121.61948,38.37024],[-121.57242,38.42116],[-121.55144,38.44263],[-121.50348,38.48122],[-121.46244,38.51364]],"type":"LineString"}
}
