{
  "id": 2014426583,
  "type": "Feature",
  "properties": {
    "geom:area": 0,
    "geom:bbox": "-122.360100,37.491980,-121.276150,37.614960",
    "geom:latitude": 37.54578424497026,
    "geom:longitude": -121.8230401587442,
    "src:alt_label": "swim-approach",
    "src:geom": "swim",
    "swim:elevations": [
      4268,
      3942,
      3710,
      3607,
      3381,
      3264,
      3045,
      2896,
      2629,
      2427,
      2235,
      2182,
      2001,
      1928,
      1855,
      1749,
      1574,
      1508,
      1323,
      1253,
      1130,
      951,
      852,
      608,
      485,
      456,
      303,
      242,
      89,
      91
    ],
    "swim:geom": "approach",
    "swim:timestamps": [
      1767042013,
      1767042054,
      1767042088,
      1767042102,
      1767042138,
      1767042155,
      1767042191,
      1767042225,
      1767042262,
      1767042296,
      1767042327,
      1767042336,
      1767042379,
      1767042397,
      1767042414,
      1767042445,
      1767042470,
      1767042479,
      1767042505,
      1767042523,
      1767042562,
      1767042598,
      1767042613,
      1767042649,
      1767042686,
      1767042698,
      1767042746,
      1767042761,
      1767042795,
      1767042812
    ],
    "wof:geomhash": "c10b469fcab8c792878c12d4fb7e6fee",
    "wof:id": 2014426583,
    "wof:repo": "sfomuseum-data-flights-2025-12"
  },
  "bbox": [
    -122.3601,
    37.49198,
    -121.27615,
    37.61496
  ],
  "geometry": {"coordinates":[[-121.27615,37.59091],[-121.36359,37.58105],[-121.43254,37.57333],[-121.46046,37.57006],[-121.5285,37.56217],[-121.56046,37.55834],[-121.62675,37.54944],[-121.68471,37.53656],[-121.74647,37.5218],[-121.80117,37.50863],[-121.84911,37.49707],[-121.8629,37.49398],[-121.9266,37.49198],[-121.95161,37.49273],[-121.97393,37.49352],[-122.01094,37.502],[-122.03967,37.51127],[-122.04996,37.51462],[-122.08084,37.52476],[-122.10096,37.53152],[-122.14175,37.54485],[-122.17348,37.55507],[-122.18671,37.55922],[-122.21918,37.56984],[-122.25387,37.58087],[-122.26499,37.58407],[-122.30617,37.59591],[-122.31832,37.59935],[-122.34626,37.60897],[-122.3601,37.61496]],"type":"LineString"}
}
