{
  "id": 2014422253,
  "type": "Feature",
  "properties": {
    "geom:area": 0,
    "geom:bbox": "-122.369280,37.624330,-122.115560,38.518490",
    "geom:latitude": 38.04331895582833,
    "geom:longitude": -122.18643635223552,
    "src:alt_label": "swim-takeoff",
    "src:geom": "swim",
    "swim:elevations": [
      122,
      750,
      773,
      850,
      1059,
      1147,
      1249,
      1349,
      1933,
      2432,
      3026,
      3234,
      3321,
      3385,
      3567,
      4466,
      4661,
      4966,
      5472,
      6059,
      6421,
      6623,
      6794,
      7012,
      7097,
      7271,
      7461,
      7538
    ],
    "swim:geom": "takeoff",
    "swim:timestamps": [
      1766948676,
      1766948725,
      1766948728,
      1766948734,
      1766948768,
      1766948783,
      1766948811,
      1766948826,
      1766948862,
      1766948894,
      1766948933,
      1766948952,
      1766948972,
      1766948987,
      1766949002,
      1766949045,
      1766949060,
      1766949096,
      1766949131,
      1766949157,
      1766949190,
      1766949223,
      1766949244,
      1766949280,
      1766949316,
      1766949353,
      1766949379,
      1766949394
    ],
    "wof:geomhash": "96032645b8d3b3a31d245703cbfd1131",
    "wof:id": 2014422253,
    "wof:repo": "sfomuseum-data-flights-2025-12"
  },
  "bbox": [
    -122.36928,
    37.62433,
    -122.11556,
    38.51849
  ],
  "geometry": {"coordinates":[[-122.36928,37.62433],[-122.34204,37.6456],[-122.34015,37.64672],[-122.33646,37.64899],[-122.31432,37.66275],[-122.30222,37.67022],[-122.276,37.68664],[-122.25863,37.69636],[-122.23591,37.73213],[-122.22837,37.7715],[-122.2186,37.81973],[-122.21388,37.84257],[-122.20794,37.87111],[-122.20345,37.89327],[-122.19879,37.91623],[-122.18641,37.97777],[-122.18199,37.99933],[-122.17123,38.05121],[-122.16087,38.10198],[-122.15357,38.13799],[-122.1441,38.1835],[-122.13385,38.23339],[-122.12683,38.26804],[-122.11556,38.32565],[-122.11598,38.38519],[-122.11949,38.44802],[-122.12199,38.49314],[-122.12348,38.51849]],"type":"LineString"}
}
