{
  "id": 2014409321,
  "type": "Feature",
  "properties": {
    "geom:area": 0,
    "geom:bbox": "-122.345400,37.492850,-121.260010,37.608640",
    "geom:latitude": 37.541642720136544,
    "geom:longitude": -121.80947145686763,
    "src:alt_label": "swim-approach",
    "src:geom": "swim",
    "swim:elevations": [
      4386,
      4275,
      4107,
      3474,
      3410,
      3140,
      3046,
      3048,
      2807,
      2615,
      2526,
      2437,
      2187,
      1990,
      1977,
      1838,
      1727,
      1672,
      1277,
      1214,
      1123,
      1006,
      905,
      668,
      617,
      540,
      399,
      300,
      171,
      74
    ],
    "swim:geom": "approach",
    "swim:timestamps": [
      1766833312,
      1766833325,
      1766833352,
      1766833432,
      1766833442,
      1766833493,
      1766833517,
      1766833532,
      1766833581,
      1766833614,
      1766833633,
      1766833657,
      1766833698,
      1766833736,
      1766833741,
      1766833772,
      1766833809,
      1766833817,
      1766833856,
      1766833864,
      1766833893,
      1766833926,
      1766833952,
      1766833998,
      1766834006,
      1766834022,
      1766834053,
      1766834080,
      1766834112,
      1766834136
    ],
    "wof:geomhash": "ca9fa1672c602f30e62a0ccd778e3e64",
    "wof:id": 2014409321,
    "wof:repo": "sfomuseum-data-flights-2025-12"
  },
  "bbox": [
    -122.3454,
    37.49285,
    -121.26001,
    37.60864
  ],
  "geometry": {"coordinates":[[-121.26001,37.59316],[-121.28415,37.58992],[-121.33453,37.58427],[-121.46624,37.56946],[-121.48297,37.56751],[-121.56309,37.55799],[-121.60029,37.55364],[-121.62426,37.5503],[-121.69738,37.53351],[-121.74778,37.52157],[-121.77493,37.51502],[-121.8101,37.50637],[-121.86958,37.49285],[-121.92463,37.49361],[-121.93132,37.49396],[-121.97611,37.49668],[-122.02686,37.49964],[-122.03732,37.50027],[-122.08739,37.50328],[-122.09783,37.50541],[-122.13172,37.51881],[-122.16825,37.53409],[-122.19449,37.54518],[-122.23807,37.56342],[-122.24545,37.56655],[-122.26035,37.57285],[-122.2859,37.58355],[-122.30503,37.59164],[-122.32836,37.60144],[-122.3454,37.60864]],"type":"LineString"}
}
