{
  "id": 2014409611,
  "type": "Feature",
  "properties": {
    "geom:area": 0,
    "geom:bbox": "-122.362630,36.744280,-121.892330,37.613310",
    "geom:latitude": 37.22353975984636,
    "geom:longitude": -122.07563346995909,
    "src:alt_label": "swim-approach",
    "src:geom": "swim",
    "swim:elevations": [
      5520,
      5403,
      4990,
      4727,
      4469,
      4281,
      3901,
      3583,
      3304,
      3193,
      3078,
      3072,
      2789,
      2747,
      2658,
      2327,
      2222,
      1926,
      1870,
      1692,
      1498,
      1283,
      1131,
      850,
      821,
      638,
      559,
      406,
      305,
      189,
      86,
      0
    ],
    "swim:geom": "approach",
    "swim:timestamps": [
      1766822847,
      1766822871,
      1766822908,
      1766822935,
      1766822962,
      1766822984,
      1766823022,
      1766823058,
      1766823087,
      1766823103,
      1766823141,
      1766823152,
      1766823196,
      1766823202,
      1766823217,
      1766823264,
      1766823278,
      1766823321,
      1766823342,
      1766823379,
      1766823411,
      1766823442,
      1766823464,
      1766823508,
      1766823520,
      1766823560,
      1766823574,
      1766823614,
      1766823639,
      1766823672,
      1766823702,
      1766823724
    ],
    "wof:geomhash": "08dd135b6ef112ff3bab38b1df40d813",
    "wof:id": 2014409611,
    "wof:repo": "sfomuseum-data-flights-2025-12"
  },
  "bbox": [
    -122.36263,
    36.74428,
    -121.89233,
    37.61331
  ],
  "geometry": {"coordinates":[[-121.89233,36.74428],[-121.90446,36.77861],[-121.91993,36.83345],[-121.93049,36.87236],[-121.94122,36.91055],[-121.95004,36.94115],[-121.96948,36.99401],[-121.98888,37.04393],[-122.00432,37.08332],[-122.01261,37.10479],[-122.03099,37.15198],[-122.03597,37.16469],[-122.05644,37.21572],[-122.05919,37.22262],[-122.06606,37.23992],[-122.08651,37.29418],[-122.09325,37.31085],[-122.11275,37.36002],[-122.12174,37.38321],[-122.13496,37.4215],[-122.14569,37.4526],[-122.15511,37.48104],[-122.16235,37.502],[-122.19183,37.53537],[-122.20008,37.5437],[-122.23629,37.56039],[-122.25001,37.566],[-122.28266,37.57977],[-122.30062,37.5875],[-122.32399,37.59731],[-122.34629,37.60664],[-122.36263,37.61331]],"type":"LineString"}
}
