{
  "id": 2014442229,
  "type": "Feature",
  "properties": {
    "geom:area": 0,
    "geom:bbox": "-122.753100,37.382930,-122.123030,38.345470",
    "geom:latitude": 37.77125279546485,
    "geom:longitude": -122.45890815690572,
    "src:alt_label": "swim-approach",
    "src:geom": "swim",
    "swim:elevations": [
      7498,
      7261,
      6849,
      6688,
      6282,
      5889,
      5798,
      5331,
      5101,
      4935,
      4656,
      4498,
      4142,
      3967,
      3874,
      3675,
      3491,
      3354,
      3353,
      3353,
      3353,
      3295,
      3107,
      3037,
      2799,
      2743,
      2509,
      2424,
      2272,
      2067,
      1857,
      1824,
      1683,
      1558,
      1525,
      1524,
      1401,
      1310,
      1106,
      917,
      914,
      914,
      815,
      628,
      427,
      310,
      247,
      216,
      151,
      56
    ],
    "swim:geom": "approach",
    "swim:timestamps": [
      1767178509,
      1767178550,
      1767178585,
      1767178598,
      1767178630,
      1767178672,
      1767178680,
      1767178736,
      1767178764,
      1767178782,
      1767178815,
      1767178832,
      1767178873,
      1767178894,
      1767178912,
      1767178936,
      1767178970,
      1767179004,
      1767179027,
      1767179068,
      1767179075,
      1767179113,
      1767179149,
      1767179166,
      1767179213,
      1767179242,
      1767179278,
      1767179287,
      1767179305,
      1767179328,
      1767179355,
      1767179388,
      1767179425,
      1767179456,
      1767179478,
      1767179490,
      1767179534,
      1767179560,
      1767179606,
      1767179638,
      1767179666,
      1767179682,
      1767179706,
      1767179740,
      1767179784,
      1767179815,
      1767179835,
      1767179843,
      1767179861,
      1767179890
    ],
    "wof:geomhash": "6af61c4df5c1321d18f75b1bf88c602a",
    "wof:id": 2014442229,
    "wof:repo": "sfomuseum-data-flights-2025-12"
  },
  "bbox": [
    -122.7531,
    37.38293,
    -122.12303,
    38.34547
  ],
  "geometry": {"coordinates":[[-122.54633,38.34547],[-122.6236,38.30325],[-122.68999,38.26686],[-122.71419,38.25351],[-122.7531,38.20846],[-122.74169,38.14027],[-122.73796,38.12645],[-122.71348,38.03907],[-122.70135,37.99696],[-122.69341,37.96955],[-122.6797,37.92179],[-122.6691,37.89783],[-122.62,37.84984],[-122.59575,37.82638],[-122.57415,37.80601],[-122.54716,37.78044],[-122.51029,37.74557],[-122.47534,37.71254],[-122.45461,37.69318],[-122.42014,37.66074],[-122.41396,37.65489],[-122.38265,37.62538],[-122.36046,37.59473],[-122.35078,37.57912],[-122.32542,37.53775],[-122.31,37.5127],[-122.29427,37.48041],[-122.29621,37.47178],[-122.30342,37.45559],[-122.31236,37.43369],[-122.32207,37.40924],[-122.3076,37.38293],[-122.26247,37.38533],[-122.22528,37.39209],[-122.19878,37.39687],[-122.1842,37.39946],[-122.14664,37.42983],[-122.13692,37.45496],[-122.12303,37.49369],[-122.13946,37.51773],[-122.16575,37.53031],[-122.18048,37.5368],[-122.20363,37.54664],[-122.23662,37.56056],[-122.27574,37.57701],[-122.29934,37.58691],[-122.3137,37.59296],[-122.31939,37.59537],[-122.33262,37.60091],[-122.3531,37.60947]],"type":"LineString"}
}
