{
  "id": 2014421995,
  "type": "Feature",
  "properties": {
    "geom:area": 0,
    "geom:bbox": "-122.361580,37.636500,-121.257830,37.963270",
    "geom:latitude": 37.838409175565126,
    "geom:longitude": -121.82344507398332,
    "src:alt_label": "swim-takeoff",
    "src:geom": "swim",
    "swim:elevations": [
      274,
      465,
      589,
      912,
      1178,
      1397,
      1793,
      2147,
      2481,
      2739,
      2834,
      3414,
      3596,
      4050,
      4206,
      4594,
      4882,
      5083,
      5135,
      5545,
      6010,
      6318,
      6575,
      6820,
      6889,
      7302,
      7349,
      7615
    ],
    "swim:geom": "takeoff",
    "swim:timestamps": [
      1766957334,
      1766957346,
      1766957355,
      1766957379,
      1766957415,
      1766957452,
      1766957480,
      1766957505,
      1766957528,
      1766957546,
      1766957552,
      1766957604,
      1766957622,
      1766957663,
      1766957677,
      1766957708,
      1766957736,
      1766957755,
      1766957761,
      1766957804,
      1766957843,
      1766957873,
      1766957905,
      1766957934,
      1766957943,
      1766957997,
      1766958001,
      1766958038
    ],
    "wof:geomhash": "35ae2718d7363ac407e245c8f6eaf886",
    "wof:id": 2014421995,
    "wof:repo": "sfomuseum-data-flights-2025-12"
  },
  "bbox": [
    -122.36158,
    37.6365,
    -121.25783,
    37.96327
  ],
  "geometry": {"coordinates":[[-122.36158,37.6365],[-122.35512,37.64371],[-122.34815,37.64721],[-122.32907,37.65567],[-122.30023,37.67152],[-122.26222,37.69267],[-122.22656,37.71166],[-122.1965,37.72723],[-122.1671,37.74246],[-122.14385,37.75429],[-122.13608,37.75831],[-122.0653,37.79506],[-122.03938,37.80827],[-121.97176,37.833],[-121.94647,37.83715],[-121.8906,37.84634],[-121.84003,37.85554],[-121.805,37.86271],[-121.79381,37.86503],[-121.71042,37.88041],[-121.6365,37.89388],[-121.58046,37.90459],[-121.52052,37.91569],[-121.46414,37.92596],[-121.44591,37.92922],[-121.34077,37.94825],[-121.33176,37.94986],[-121.25783,37.96327]],"type":"LineString"}
}
