{
  "id": 2014413779,
  "type": "Feature",
  "properties": {
    "geom:area": 0,
    "geom:bbox": "-122.387530,37.627810,-121.432770,38.516540",
    "geom:latitude": 38.119448615250946,
    "geom:longitude": -122.01585997706603,
    "src:alt_label": "swim-takeoff",
    "src:geom": "swim",
    "swim:elevations": [
      152,
      469,
      1001,
      1269,
      1587,
      1848,
      2545,
      2850,
      3351,
      3418,
      3568,
      3856,
      4040,
      4834,
      5241,
      5427,
      5796,
      6050,
      6502,
      6772,
      7024,
      7296,
      7561,
      7977,
      8362,
      8633,
      8784,
      8998,
      9376,
      9512
    ],
    "swim:geom": "takeoff",
    "swim:timestamps": [
      1766882457,
      1766882473,
      1766882504,
      1766882534,
      1766882569,
      1766882592,
      1766882636,
      1766882657,
      1766882692,
      1766882704,
      1766882725,
      1766882749,
      1766882764,
      1766882818,
      1766882848,
      1766882862,
      1766882899,
      1766882920,
      1766882961,
      1766882985,
      1766883009,
      1766883036,
      1766883063,
      1766883104,
      1766883146,
      1766883176,
      1766883194,
      1766883218,
      1766883263,
      1766883281
    ],
    "wof:geomhash": "ea513450a040d21323b5e2dc9a3ee5d1",
    "wof:id": 2014413779,
    "wof:repo": "sfomuseum-data-flights-2025-12"
  },
  "bbox": [
    -122.38753,
    37.62781,
    -121.43277,
    38.51654
  ],
  "geometry": {"coordinates":[[-122.36692,37.62781],[-122.35928,37.63904],[-122.33859,37.65607],[-122.31803,37.67324],[-122.30795,37.70389],[-122.32551,37.72675],[-122.35183,37.77465],[-122.36366,37.79896],[-122.38427,37.84034],[-122.38753,37.85618],[-122.38583,37.88631],[-122.38294,37.92385],[-122.37224,37.94588],[-122.28704,37.99956],[-122.23858,38.02962],[-122.21445,38.04433],[-122.15142,38.08352],[-122.11602,38.10517],[-122.04226,38.14946],[-121.99919,38.17567],[-121.95558,38.20221],[-121.90573,38.23228],[-121.8552,38.26278],[-121.7788,38.30857],[-121.69827,38.35675],[-121.64032,38.39132],[-121.60513,38.41257],[-121.55793,38.44079],[-121.46869,38.49477],[-121.43277,38.51654]],"type":"LineString"}
}
