{
  "id": 2014420567,
  "type": "Feature",
  "properties": {
    "geom:area": 0,
    "geom:bbox": "-122.469240,36.718260,-121.438380,37.714520",
    "geom:latitude": 37.21982311711426,
    "geom:longitude": -122.05680854989969,
    "src:alt_label": "swim-takeoff",
    "src:geom": "swim",
    "swim:elevations": [
      240,
      449,
      490,
      667,
      1007,
      1338,
      1745,
      2074,
      2518,
      3008,
      3077,
      3400,
      3543,
      3613,
      4118,
      4641,
      4740,
      5273,
      5480,
      5643,
      6121,
      6415,
      6647,
      6963,
      7207,
      7438,
      7747,
      7871,
      8311,
      8429
    ],
    "swim:geom": "takeoff",
    "swim:timestamps": [
      1766914875,
      1766914893,
      1766914899,
      1766914934,
      1766914970,
      1766914997,
      1766915027,
      1766915051,
      1766915089,
      1766915125,
      1766915134,
      1766915185,
      1766915213,
      1766915223,
      1766915267,
      1766915305,
      1766915314,
      1766915366,
      1766915386,
      1766915405,
      1766915446,
      1766915473,
      1766915498,
      1766915534,
      1766915562,
      1766915589,
      1766915626,
      1766915643,
      1766915695,
      1766915709
    ],
    "wof:geomhash": "2cde91d4abf61de600a86cfec6c2148f",
    "wof:id": 2014420567,
    "wof:repo": "sfomuseum-data-flights-2025-12"
  },
  "bbox": [
    -122.46924,
    36.71826,
    -121.43838,
    37.71452
  ],
  "geometry": {"coordinates":[[-122.36545,37.63468],[-122.36277,37.64853],[-122.36271,37.65328],[-122.36179,37.68523],[-122.39028,37.71452],[-122.43123,37.71075],[-122.45623,37.67916],[-122.45938,37.64625],[-122.46165,37.59478],[-122.46773,37.54378],[-122.46924,37.53077],[-122.4363,37.45918],[-122.39098,37.42676],[-122.37382,37.41485],[-122.29778,37.35932],[-122.23008,37.31025],[-122.21438,37.29862],[-122.11929,37.22827],[-122.08257,37.20076],[-122.04676,37.17406],[-121.96839,37.11564],[-121.91689,37.07737],[-121.86827,37.04117],[-121.79687,36.98795],[-121.74108,36.9462],[-121.68537,36.90439],[-121.60967,36.8484],[-121.57519,36.82285],[-121.46822,36.74099],[-121.43838,36.71826]],"type":"LineString"}
}
