{
  "id": 2014413575,
  "type": "Feature",
  "properties": {
    "geom:area": 0,
    "geom:bbox": "-122.471180,36.724630,-121.308820,37.718490",
    "geom:latitude": 37.21774987335389,
    "geom:longitude": -122.00124289701515,
    "src:alt_label": "swim-takeoff",
    "src:geom": "swim",
    "swim:elevations": [
      274,
      842,
      1176,
      1449,
      1663,
      2082,
      2660,
      2994,
      3327,
      3635,
      3918,
      4316,
      4807,
      5078,
      5477,
      5625,
      5814,
      6185,
      6381,
      6698,
      6946,
      7329,
      7535,
      7778,
      8416,
      8730,
      8839,
      8839,
      8839,
      8839,
      8839,
      8839,
      8839
    ],
    "swim:geom": "takeoff",
    "swim:timestamps": [
      1766879649,
      1766879688,
      1766879724,
      1766879749,
      1766879771,
      1766879803,
      1766879840,
      1766879861,
      1766879888,
      1766879923,
      1766879948,
      1766879981,
      1766880019,
      1766880037,
      1766880076,
      1766880088,
      1766880106,
      1766880139,
      1766880155,
      1766880183,
      1766880210,
      1766880257,
      1766880279,
      1766880305,
      1766880358,
      1766880387,
      1766880411,
      1766880440,
      1766880476,
      1766880491,
      1766880518,
      1766880540,
      1766880572
    ],
    "wof:geomhash": "0f3f670da23ad6ad14b43b1c5bc5c76b",
    "wof:id": 2014413575,
    "wof:repo": "sfomuseum-data-flights-2025-12"
  },
  "bbox": [
    -122.47118,
    36.72463,
    -121.30882,
    37.71849
  ],
  "geometry": {"coordinates":[[-122.36531,37.63475],[-122.36218,37.66513],[-122.36368,37.69309],[-122.38227,37.71158],[-122.41135,37.71849],[-122.45144,37.69706],[-122.45967,37.6467],[-122.46228,37.61775],[-122.46567,37.5796],[-122.47118,37.52534],[-122.45845,37.48516],[-122.40818,37.44601],[-122.34354,37.40501],[-122.31154,37.38403],[-122.24387,37.3398],[-122.22271,37.32609],[-122.19043,37.30534],[-122.13046,37.26648],[-122.10252,37.24827],[-122.05066,37.2144],[-122.00047,37.18173],[-121.91141,37.12343],[-121.86764,37.09465],[-121.81708,37.06134],[-121.7134,36.9939],[-121.65958,36.95767],[-121.61444,36.92809],[-121.55909,36.89163],[-121.49088,36.84613],[-121.46249,36.8273],[-121.41128,36.793],[-121.36947,36.76532],[-121.30882,36.72463]],"type":"LineString"}
}
