{
  "id": 2014435653,
  "type": "Feature",
  "properties": {
    "geom:area": 0,
    "geom:bbox": "-122.363860,36.720670,-121.877420,37.614640",
    "geom:latitude": 37.21020941320677,
    "geom:longitude": -122.0711824488069,
    "src:alt_label": "swim-approach",
    "src:geom": "swim",
    "swim:elevations": [
      5192,
      4947,
      4826,
      4689,
      4367,
      4029,
      3828,
      3510,
      3381,
      3143,
      3047,
      2961,
      2883,
      2717,
      2523,
      2402,
      2147,
      2068,
      1778,
      1709,
      1622,
      1323,
      1163,
      998,
      923,
      819,
      686,
      575,
      455,
      331,
      129,
      16,
      348
    ],
    "swim:geom": "approach",
    "swim:timestamps": [
      1767126837,
      1767126861,
      1767126873,
      1767126887,
      1767126920,
      1767126957,
      1767126979,
      1767127011,
      1767127028,
      1767127056,
      1767127083,
      1767127106,
      1767127121,
      1767127157,
      1767127197,
      1767127223,
      1767127256,
      1767127268,
      1767127313,
      1767127334,
      1767127355,
      1767127408,
      1767127436,
      1767127464,
      1767127478,
      1767127496,
      1767127526,
      1767127550,
      1767127579,
      1767127604,
      1767127646,
      1767127673,
      1767127682
    ],
    "wof:geomhash": "c9b53cf6d7c12c62927328c7dd06f0ef",
    "wof:id": 2014435653,
    "wof:repo": "sfomuseum-data-flights-2025-12"
  },
  "bbox": [
    -122.36386,
    36.72067,
    -121.87742,
    37.61464
  ],
  "geometry": {"coordinates":[[-121.87742,36.72067],[-121.89838,36.75966],[-121.90486,36.78006],[-121.9117,36.80432],[-121.92735,36.86008],[-121.94386,36.91963],[-121.95465,36.95627],[-121.97434,37.00658],[-121.98442,37.03249],[-122.00069,37.07384],[-122.01551,37.11203],[-122.02755,37.14267],[-122.03529,37.1625],[-122.053,37.20767],[-122.07203,37.25679],[-122.08409,37.28693],[-122.09895,37.32446],[-122.10391,37.33724],[-122.12277,37.38641],[-122.12958,37.40667],[-122.13662,37.42694],[-122.15643,37.47682],[-122.17276,37.50146],[-122.18823,37.52363],[-122.19609,37.53448],[-122.20695,37.54641],[-122.23383,37.55896],[-122.25491,37.56812],[-122.28026,37.5788],[-122.29992,37.58722],[-122.33503,37.60177],[-122.35673,37.61099],[-122.36386,37.61464]],"type":"LineString"}
}
