{
  "id": 2014436199,
  "type": "Feature",
  "properties": {
    "geom:area": 0,
    "geom:bbox": "-122.385190,37.633280,-121.255640,38.418880",
    "geom:latitude": 38.085459068719814,
    "geom:longitude": -121.92910711766874,
    "src:alt_label": "swim-takeoff",
    "src:geom": "swim",
    "swim:elevations": [
      183,
      518,
      648,
      829,
      1291,
      1724,
      1762,
      2355,
      2657,
      2946,
      3220,
      3540,
      3741,
      4004,
      4228,
      4658,
      5141,
      5177,
      5599,
      5718,
      6098,
      6451,
      6694,
      6719,
      6911,
      7124,
      7319,
      7499,
      7674,
      7817
    ],
    "swim:geom": "takeoff",
    "swim:timestamps": [
      1767161154,
      1767161179,
      1767161206,
      1767161240,
      1767161271,
      1767161305,
      1767161311,
      1767161365,
      1767161389,
      1767161413,
      1767161443,
      1767161488,
      1767161506,
      1767161531,
      1767161552,
      1767161588,
      1767161638,
      1767161641,
      1767161696,
      1767161708,
      1767161749,
      1767161788,
      1767161818,
      1767161821,
      1767161845,
      1767161875,
      1767161905,
      1767161932,
      1767161962,
      1767161980
    ],
    "wof:geomhash": "aa82418b66d96a0427535d17cd9f1157",
    "wof:id": 2014436199,
    "wof:repo": "sfomuseum-data-flights-2025-12"
  },
  "bbox": [
    -122.38519,
    37.63328,
    -121.25564,
    38.41888
  ],
  "geometry": {"coordinates":[[-122.36319,37.63328],[-122.34747,37.64847],[-122.32624,37.66589],[-122.3135,37.69984],[-122.33062,37.73612],[-122.35174,37.77562],[-122.35534,37.78275],[-122.38489,37.85116],[-122.38519,37.8856],[-122.38084,37.91837],[-122.34911,37.95329],[-122.27203,37.98575],[-122.23942,37.99883],[-122.1951,38.01651],[-122.15393,38.03305],[-122.08508,38.06075],[-121.98713,38.09993],[-121.98113,38.10231],[-121.86926,38.14682],[-121.84473,38.15653],[-121.75574,38.19194],[-121.67241,38.2249],[-121.60671,38.25084],[-121.60015,38.25343],[-121.54736,38.27424],[-121.48054,38.30044],[-121.41377,38.32689],[-121.35505,38.35784],[-121.2933,38.39597],[-121.25564,38.41888]],"type":"LineString"}
}
