{
  "id": 2014406169,
  "type": "Feature",
  "properties": {
    "geom:area": 0,
    "geom:bbox": "-122.363220,37.505090,-121.288270,37.615120",
    "geom:latitude": 37.55064962874271,
    "geom:longitude": -121.83314098925534,
    "src:alt_label": "swim-approach",
    "src:geom": "swim",
    "swim:elevations": [
      4269,
      4256,
      3854,
      3757,
      3437,
      3331,
      3134,
      2921,
      2605,
      2258,
      2197,
      2134,
      2134,
      2134,
      2134,
      2121,
      1612,
      1286,
      1248,
      1219,
      1037,
      821,
      799,
      593,
      508,
      414,
      286,
      245,
      43,
      0
    ],
    "swim:geom": "approach",
    "swim:timestamps": [
      1766830495,
      1766830500,
      1766830556,
      1766830571,
      1766830617,
      1766830627,
      1766830660,
      1766830701,
      1766830721,
      1766830752,
      1766830776,
      1766830827,
      1766830838,
      1766830876,
      1766830916,
      1766830924,
      1766830969,
      1766830996,
      1766831012,
      1766831052,
      1766831092,
      1766831128,
      1766831132,
      1766831171,
      1766831188,
      1766831208,
      1766831241,
      1766831252,
      1766831307,
      1766831314
    ],
    "wof:geomhash": "3f3a70837f1f8bab4eee7f3a34f439ce",
    "wof:id": 2014406169,
    "wof:repo": "sfomuseum-data-flights-2025-12"
  },
  "bbox": [
    -122.36322,
    37.50509,
    -121.28827,
    37.61512
  ],
  "geometry": {"coordinates":[[-121.28827,37.58972],[-121.29622,37.58888],[-121.39699,37.57882],[-121.42227,37.5762],[-121.5039,37.56743],[-121.52036,37.56571],[-121.57716,37.55977],[-121.64286,37.55277],[-121.67521,37.54953],[-121.72474,37.5441],[-121.76319,37.53981],[-121.83931,37.53159],[-121.85673,37.52969],[-121.9136,37.52359],[-121.97026,37.5174],[-121.98095,37.5162],[-122.03681,37.51009],[-122.06958,37.50646],[-122.09015,37.50509],[-122.13282,37.519],[-122.1746,37.53672],[-122.21204,37.55248],[-122.21611,37.5542],[-122.25317,37.5698],[-122.2677,37.57589],[-122.28274,37.58222],[-122.30719,37.59252],[-122.31572,37.59611],[-122.35652,37.61308],[-122.36322,37.61512]],"type":"LineString"}
}
