{
  "id": 2014438201,
  "type": "Feature",
  "properties": {
    "geom:area": 0,
    "geom:bbox": "-122.364720,37.631830,-122.114350,38.514660",
    "geom:latitude": 38.039195081169105,
    "geom:longitude": -122.17811328790528,
    "src:alt_label": "swim-takeoff",
    "src:geom": "swim",
    "swim:elevations": [
      244,
      543,
      715,
      1005,
      1115,
      1691,
      2086,
      2389,
      2689,
      3016,
      3197,
      3471,
      3779,
      4197,
      4655,
      5174,
      5434,
      5538,
      6034,
      6142,
      6472,
      6796,
      7291,
      7332
    ],
    "swim:geom": "takeoff",
    "swim:timestamps": [
      1767091466,
      1767091497,
      1767091525,
      1767091555,
      1767091569,
      1767091607,
      1767091633,
      1767091656,
      1767091682,
      1767091708,
      1767091718,
      1767091752,
      1767091773,
      1767091807,
      1767091847,
      1767091885,
      1767091911,
      1767091930,
      1767091972,
      1767091982,
      1767092015,
      1767092047,
      1767092098,
      1767092101
    ],
    "wof:geomhash": "00b268ba9602237f0006f832aa4b16c9",
    "wof:id": 2014438201,
    "wof:repo": "sfomuseum-data-flights-2025-12"
  },
  "bbox": [
    -122.36472,
    37.63183,
    -122.11435,
    38.51466
  ],
  "geometry": {"coordinates":[[-122.36472,37.63183],[-122.3424,37.64714],[-122.31454,37.66244],[-122.28038,37.68255],[-122.26251,37.69282],[-122.21658,37.72404],[-122.20847,37.75735],[-122.2031,37.78753],[-122.19744,37.82226],[-122.19175,37.85805],[-122.18913,37.87283],[-122.18093,37.92208],[-122.17569,37.95429],[-122.16727,38.00606],[-122.15668,38.06991],[-122.14653,38.13198],[-122.13944,38.17521],[-122.13417,38.20682],[-122.12207,38.27961],[-122.11917,38.29718],[-122.11435,38.35501],[-122.11836,38.41477],[-122.12479,38.50895],[-122.12517,38.51466]],"type":"LineString"}
}
