{
  "id": 2014439527,
  "type": "Feature",
  "properties": {
    "geom:area": 0,
    "geom:bbox": "-122.414210,37.191980,-121.263950,37.707250",
    "geom:latitude": 37.38565499224779,
    "geom:longitude": -121.95994229149522,
    "src:alt_label": "swim-takeoff",
    "src:geom": "swim",
    "swim:elevations": [
      122,
      262,
      733,
      1084,
      1357,
      1455,
      1972,
      2110,
      2752,
      3051,
      3044,
      3479,
      3814,
      4163,
      4495,
      4908,
      5199,
      5574,
      5683,
      6006,
      6379,
      6576,
      6793,
      6883,
      6950,
      7045,
      7086,
      7217,
      7512,
      7606
    ],
    "swim:geom": "takeoff",
    "swim:timestamps": [
      1767095995,
      1767096004,
      1767096048,
      1767096085,
      1767096115,
      1767096122,
      1767096177,
      1767096190,
      1767096232,
      1767096265,
      1767096282,
      1767096327,
      1767096351,
      1767096381,
      1767096408,
      1767096443,
      1767096467,
      1767096505,
      1767096517,
      1767096553,
      1767096598,
      1767096625,
      1767096655,
      1767096687,
      1767096715,
      1767096742,
      1767096753,
      1767096784,
      1767096835,
      1767096852
    ],
    "wof:geomhash": "2f6fdd7684a244a097df7d545b4e6875",
    "wof:id": 2014439527,
    "wof:repo": "sfomuseum-data-flights-2025-12"
  },
  "bbox": [
    -122.41421,
    37.19198,
    -121.26395,
    37.70725
  ],
  "geometry": {"coordinates":[[-122.36978,37.62797],[-122.36628,37.63397],[-122.36352,37.66822],[-122.36757,37.69988],[-122.40068,37.70725],[-122.40767,37.70371],[-122.41421,37.6512],[-122.41199,37.63637],[-122.40493,37.58424],[-122.40281,37.54286],[-122.40146,37.51828],[-122.3624,37.46428],[-122.33058,37.44001],[-122.29013,37.41039],[-122.23997,37.39601],[-122.17218,37.38296],[-122.12614,37.37372],[-122.05006,37.35844],[-122.02772,37.35388],[-121.9551,37.33926],[-121.86141,37.3202],[-121.80401,37.30844],[-121.73905,37.29523],[-121.66835,37.2806],[-121.60235,37.2671],[-121.53715,37.25354],[-121.5098,37.24799],[-121.43412,37.23223],[-121.30562,37.20511],[-121.26395,37.19198]],"type":"LineString"}
}
