{
  "id": 2014413607,
  "type": "Feature",
  "properties": {
    "geom:area": 0,
    "geom:bbox": "-122.362890,37.633740,-121.430330,38.518060",
    "geom:latitude": 38.071871060798465,
    "geom:longitude": -121.89423397170425,
    "src:alt_label": "swim-takeoff",
    "src:geom": "swim",
    "swim:elevations": [
      221,
      376,
      670,
      1201,
      1432,
      1672,
      2100,
      2220,
      2537,
      2898,
      3286,
      3733,
      3965,
      4294,
      4618,
      5044,
      5176,
      5557,
      5813,
      6027,
      6506,
      6711,
      6920,
      7213,
      7472,
      7703,
      7826,
      7895,
      8166,
      8309
    ],
    "swim:geom": "takeoff",
    "swim:timestamps": [
      1766868715,
      1766868727,
      1766868751,
      1766868808,
      1766868831,
      1766868852,
      1766868886,
      1766868894,
      1766868918,
      1766868939,
      1766868970,
      1766869012,
      1766869036,
      1766869070,
      1766869100,
      1766869138,
      1766869150,
      1766869192,
      1766869217,
      1766869241,
      1766869284,
      1766869307,
      1766869330,
      1766869361,
      1766869393,
      1766869426,
      1766869442,
      1766869455,
      1766869489,
      1766869516
    ],
    "wof:geomhash": "02ee9198d3e35133bc001fce9197a20a",
    "wof:id": 2014413607,
    "wof:repo": "sfomuseum-data-flights-2025-12"
  },
  "bbox": [
    -122.36289,
    37.63374,
    -121.43033,
    38.51806
  ],
  "geometry": {"coordinates":[[-122.36289,37.63374],[-122.35639,37.64126],[-122.33748,37.65133],[-122.28803,37.67818],[-122.26264,37.69279],[-122.23807,37.70553],[-122.20035,37.73246],[-122.19331,37.74058],[-122.17203,37.76498],[-122.15264,37.78657],[-122.12398,37.81828],[-122.08207,37.86443],[-122.05683,37.89225],[-122.01931,37.93283],[-121.9849,37.97108],[-121.94008,38.02052],[-121.9253,38.03682],[-121.87504,38.09179],[-121.84475,38.12502],[-121.81525,38.15726],[-121.76074,38.21681],[-121.73179,38.24821],[-121.70255,38.27896],[-121.66403,38.32061],[-121.62397,38.36525],[-121.58161,38.41152],[-121.5587,38.43454],[-121.53873,38.45051],[-121.47814,38.48864],[-121.43033,38.51806]],"type":"LineString"}
}
