{
  "id": 2014445665,
  "type": "Feature",
  "properties": {
    "geom:area": 0,
    "geom:bbox": "-122.385540,37.634270,-121.291350,37.984560",
    "geom:latitude": 37.91855594039131,
    "geom:longitude": -121.9524887358464,
    "src:alt_label": "swim-takeoff",
    "src:geom": "swim",
    "swim:elevations": [
      220,
      535,
      672,
      968,
      1140,
      1664,
      1889,
      2654,
      2883,
      3188,
      3348,
      3551,
      4032,
      4275,
      4502,
      4697,
      5053,
      5482,
      5540,
      5853,
      6371,
      6522,
      6972,
      7171,
      7472,
      7567,
      7830
    ],
    "swim:geom": "takeoff",
    "swim:timestamps": [
      1767223154,
      1767223197,
      1767223221,
      1767223251,
      1767223270,
      1767223313,
      1767223325,
      1767223377,
      1767223395,
      1767223432,
      1767223462,
      1767223486,
      1767223525,
      1767223545,
      1767223563,
      1767223578,
      1767223608,
      1767223646,
      1767223652,
      1767223681,
      1767223730,
      1767223746,
      1767223798,
      1767223822,
      1767223855,
      1767223864,
      1767223894
    ],
    "wof:geomhash": "cec805d7fad903114b73d72462f9979d",
    "wof:id": 2014445665,
    "wof:repo": "sfomuseum-data-flights-2025-12"
  },
  "bbox": [
    -122.38554,
    37.63427,
    -121.29135,
    37.98456
  ],
  "geometry": {"coordinates":[[-122.36328,37.63427],[-122.33307,37.6607],[-122.31547,37.68061],[-122.3185,37.7159],[-122.33021,37.73728],[-122.36029,37.79241],[-122.36806,37.80808],[-122.38554,37.87791],[-122.38155,37.90289],[-122.33704,37.94003],[-122.28163,37.94546],[-122.2336,37.94738],[-122.15314,37.95022],[-122.11223,37.95188],[-122.07369,37.95353],[-122.04117,37.95487],[-121.97508,37.95782],[-121.88872,37.96166],[-121.87502,37.96221],[-121.8082,37.96458],[-121.6935,37.96914],[-121.65533,37.97069],[-121.53199,37.97559],[-121.47298,37.97784],[-121.38919,37.98104],[-121.36667,37.98187],[-121.29135,37.98456]],"type":"LineString"}
}
