{
  "id": 2014434397,
  "type": "Feature",
  "properties": {
    "geom:area": 0,
    "geom:bbox": "-122.363630,37.491240,-121.281640,37.615880",
    "geom:latitude": 37.54542857963147,
    "geom:longitude": -121.82751916010565,
    "src:alt_label": "swim-approach",
    "src:geom": "swim",
    "swim:elevations": [
      4373,
      4128,
      3958,
      3630,
      3531,
      3268,
      3188,
      3110,
      2797,
      2707,
      2532,
      2471,
      2376,
      2224,
      2071,
      1976,
      1783,
      1497,
      1371,
      1345,
      1152,
      1002,
      914,
      830,
      605,
      492,
      422,
      247,
      139,
      206
    ],
    "swim:geom": "approach",
    "swim:timestamps": [
      1767093951,
      1767093978,
      1767093997,
      1767094030,
      1767094042,
      1767094072,
      1767094087,
      1767094110,
      1767094149,
      1767094155,
      1767094194,
      1767094217,
      1767094246,
      1767094275,
      1767094308,
      1767094330,
      1767094366,
      1767094405,
      1767094434,
      1767094440,
      1767094475,
      1767094516,
      1767094540,
      1767094569,
      1767094611,
      1767094635,
      1767094655,
      1767094695,
      1767094727,
      1767094763
    ],
    "wof:geomhash": "488049c281b113e1bfa5208ab9701293",
    "wof:id": 2014434397,
    "wof:repo": "sfomuseum-data-flights-2025-12"
  },
  "bbox": [
    -122.36363,
    37.49124,
    -121.28164,
    37.61588
  ],
  "geometry": {"coordinates":[[-121.28164,37.58933],[-121.3359,37.58275],[-121.37377,37.57883],[-121.44082,37.57149],[-121.46466,37.56874],[-121.52657,37.56159],[-121.55576,37.55831],[-121.59769,37.55345],[-121.66326,37.5412],[-121.67339,37.53875],[-121.73599,37.52392],[-121.77035,37.51575],[-121.8113,37.50595],[-121.85076,37.49657],[-121.89401,37.49124],[-121.92435,37.4922],[-121.97176,37.49347],[-122.02004,37.50514],[-122.05444,37.51631],[-122.06057,37.51832],[-122.09894,37.53074],[-122.14287,37.54497],[-122.16749,37.55296],[-122.19759,37.5626],[-122.24035,37.5765],[-122.26191,37.58337],[-122.27889,37.58821],[-122.31098,37.59676],[-122.33546,37.60494],[-122.36363,37.61588]],"type":"LineString"}
}
