{
  "id": 2014427445,
  "type": "Feature",
  "properties": {
    "geom:area": 0,
    "geom:bbox": "-122.385970,37.630140,-121.258010,38.163640",
    "geom:latitude": 37.98934503311415,
    "geom:longitude": -121.93975988695672,
    "src:alt_label": "swim-takeoff",
    "src:geom": "swim",
    "swim:elevations": [
      213,
      532,
      661,
      999,
      1277,
      1903,
      2235,
      2328,
      2902,
      3218,
      3348,
      3453,
      4038,
      4432,
      4801,
      4930,
      4967,
      5425,
      5620,
      5807,
      6119,
      6396,
      6464,
      6855,
      7145,
      7246,
      7447,
      7588
    ],
    "swim:geom": "takeoff",
    "swim:timestamps": [
      1767052046,
      1767052070,
      1767052082,
      1767052136,
      1767052154,
      1767052197,
      1767052226,
      1767052235,
      1767052280,
      1767052312,
      1767052343,
      1767052362,
      1767052406,
      1767052438,
      1767052468,
      1767052492,
      1767052504,
      1767052548,
      1767052584,
      1767052607,
      1767052641,
      1767052674,
      1767052683,
      1767052723,
      1767052759,
      1767052777,
      1767052810,
      1767052830
    ],
    "wof:geomhash": "c774de6978ef86a22a229af7cc66977f",
    "wof:id": 2014427445,
    "wof:repo": "sfomuseum-data-flights-2025-12"
  },
  "bbox": [
    -122.38597,
    37.63014,
    -121.25801,
    38.16364
  ],
  "geometry": {"coordinates":[[-122.36525,37.63014],[-122.35051,37.64388],[-122.34268,37.65076],[-122.31061,37.69561],[-122.31994,37.71539],[-122.34545,37.76245],[-122.36228,37.79617],[-122.36779,37.80724],[-122.38597,37.86712],[-122.38177,37.91109],[-122.34625,37.94631],[-122.3109,37.95501],[-122.22206,37.97352],[-122.15781,37.98664],[-122.09662,37.99895],[-122.04626,38.00903],[-122.02015,38.01427],[-121.92253,38.03362],[-121.84227,38.04947],[-121.78941,38.05998],[-121.70887,38.07588],[-121.63012,38.09135],[-121.60878,38.09552],[-121.51425,38.11402],[-121.42853,38.13064],[-121.38535,38.13904],[-121.30637,38.15432],[-121.25801,38.16364]],"type":"LineString"}
}
