{
  "id": 2014409469,
  "type": "Feature",
  "properties": {
    "geom:area": 0,
    "geom:bbox": "-122.364720,36.746430,-121.893250,37.615270",
    "geom:latitude": 37.22449947701223,
    "geom:longitude": -122.07689158122189,
    "src:alt_label": "swim-approach",
    "src:geom": "swim",
    "swim:elevations": [
      5411,
      5392,
      5083,
      4661,
      4541,
      4019,
      3743,
      3524,
      3212,
      3117,
      3044,
      2858,
      2793,
      2556,
      2375,
      2032,
      2012,
      1736,
      1694,
      1587,
      1297,
      1158,
      1063,
      896,
      795,
      577,
      485,
      323,
      211,
      61,
      0
    ],
    "swim:geom": "approach",
    "swim:timestamps": [
      1766854617,
      1766854620,
      1766854655,
      1766854700,
      1766854712,
      1766854763,
      1766854795,
      1766854817,
      1766854854,
      1766854885,
      1766854912,
      1766854947,
      1766854957,
      1766854993,
      1766855020,
      1766855068,
      1766855071,
      1766855126,
      1766855136,
      1766855161,
      1766855209,
      1766855233,
      1766855248,
      1766855277,
      1766855294,
      1766855336,
      1766855359,
      1766855397,
      1766855425,
      1766855456,
      1766855476
    ],
    "wof:geomhash": "ef02b71c2a88345e7f2477ef9867ac97",
    "wof:id": 2014409469,
    "wof:repo": "sfomuseum-data-flights-2025-12"
  },
  "bbox": [
    -122.36472,
    36.74643,
    -121.89325,
    37.61527
  ],
  "geometry": {"coordinates":[[-121.89325,36.74643],[-121.89552,36.75145],[-121.91178,36.80484],[-121.93061,36.87175],[-121.93519,36.88812],[-121.95704,36.96221],[-121.97434,37.00682],[-121.98623,37.03692],[-122.00592,37.08751],[-122.02235,37.12936],[-122.03543,37.16284],[-122.05118,37.20334],[-122.05592,37.21542],[-122.07202,37.25629],[-122.08412,37.28712],[-122.10534,37.34081],[-122.1066,37.34413],[-122.12854,37.40369],[-122.13207,37.41407],[-122.14024,37.43783],[-122.15971,37.48295],[-122.17387,37.50316],[-122.18239,37.51549],[-122.19886,37.53854],[-122.21167,37.54937],[-122.25272,37.56728],[-122.27242,37.57561],[-122.30198,37.58792],[-122.32453,37.59747],[-122.34918,37.60781],[-122.36472,37.61527]],"type":"LineString"}
}
