{
  "id": 2014439551,
  "type": "Feature",
  "properties": {
    "geom:area": 0,
    "geom:bbox": "-122.366750,37.627940,-121.248150,37.965070",
    "geom:latitude": 37.83808562427764,
    "geom:longitude": -121.82248243026459,
    "src:alt_label": "swim-takeoff",
    "src:geom": "swim",
    "swim:elevations": [
      213,
      661,
      985,
      1132,
      1280,
      1539,
      1740,
      2284,
      2630,
      2992,
      3317,
      3421,
      3602,
      3778,
      3844,
      4032,
      4117,
      4474,
      4844,
      5205,
      5274,
      5699,
      5759
    ],
    "swim:geom": "takeoff",
    "swim:timestamps": [
      1767092793,
      1767092823,
      1767092871,
      1767092900,
      1767092927,
      1767092963,
      1767092985,
      1767093025,
      1767093055,
      1767093082,
      1767093111,
      1767093130,
      1767093168,
      1767093207,
      1767093226,
      1767093263,
      1767093271,
      1767093312,
      1767093341,
      1767093385,
      1767093393,
      1767093445,
      1767093463
    ],
    "wof:geomhash": "004de0f233341a14cef94e3d16fb40f4",
    "wof:id": 2014439551,
    "wof:repo": "sfomuseum-data-flights-2025-12"
  },
  "bbox": [
    -122.36675,
    37.62794,
    -121.24815,
    37.96507
  ],
  "geometry": {"coordinates":[[-122.36675,37.62794],[-122.34743,37.64159],[-122.31035,37.6644],[-122.28533,37.67953],[-122.25805,37.69496],[-122.21472,37.7176],[-122.18502,37.73297],[-122.13045,37.76118],[-122.0902,37.78211],[-122.0517,37.80198],[-122.01129,37.82249],[-121.98152,37.83018],[-121.91334,37.84281],[-121.83496,37.85786],[-121.79431,37.86545],[-121.71349,37.88043],[-121.69422,37.88395],[-121.60011,37.90121],[-121.53399,37.91326],[-121.43317,37.93154],[-121.41342,37.93513],[-121.29109,37.95733],[-121.24815,37.96507]],"type":"LineString"}
}
