{
  "id": 2014413645,
  "type": "Feature",
  "properties": {
    "geom:area": 0,
    "geom:bbox": "-122.514150,36.722590,-121.265440,37.711140",
    "geom:latitude": 37.252056893597924,
    "geom:longitude": -121.97170922462556,
    "src:alt_label": "swim-takeoff",
    "src:geom": "swim",
    "swim:elevations": [
      152,
      421,
      888,
      1159,
      1188,
      1245,
      1501,
      1981,
      2322,
      2873,
      3124,
      3400,
      3568,
      3774,
      4070,
      4488,
      4918,
      5209,
      5484,
      5648,
      5870,
      6306,
      6461,
      6739,
      7081,
      7345,
      7438,
      7784,
      8001,
      8157,
      8288,
      8532,
      8796
    ],
    "swim:geom": "takeoff",
    "swim:timestamps": [
      1766853381,
      1766853400,
      1766853439,
      1766853473,
      1766853487,
      1766853501,
      1766853521,
      1766853557,
      1766853582,
      1766853622,
      1766853641,
      1766853680,
      1766853717,
      1766853739,
      1766853765,
      1766853797,
      1766853834,
      1766853857,
      1766853892,
      1766853912,
      1766853933,
      1766853980,
      1766854001,
      1766854033,
      1766854075,
      1766854106,
      1766854118,
      1766854168,
      1766854197,
      1766854220,
      1766854245,
      1766854277,
      1766854303
    ],
    "wof:geomhash": "750dc9e3c200aa185fbf8f19ae2df063",
    "wof:id": 2014413645,
    "wof:repo": "sfomuseum-data-flights-2025-12"
  },
  "bbox": [
    -122.51415,
    36.72259,
    -121.26544,
    37.71114
  ],
  "geometry": {"coordinates":[[-122.36883,37.62942],[-122.3633,37.64314],[-122.36259,37.67205],[-122.3681,37.69733],[-122.38065,37.70654],[-122.39799,37.71114],[-122.42743,37.70869],[-122.48233,37.6942],[-122.51169,37.67344],[-122.51415,37.62071],[-122.49214,37.60241],[-122.43558,37.56808],[-122.37889,37.52764],[-122.34131,37.50067],[-122.29694,37.46902],[-122.24096,37.42919],[-122.17592,37.38296],[-122.13455,37.35341],[-122.07119,37.30836],[-122.03394,37.28168],[-121.99477,37.25361],[-121.90604,37.18959],[-121.86646,37.1609],[-121.80515,37.1165],[-121.72165,37.05599],[-121.6619,37.01262],[-121.63679,36.99438],[-121.53676,36.92169],[-121.47794,36.87884],[-121.43148,36.84486],[-121.3826,36.80889],[-121.31762,36.76098],[-121.26544,36.72259]],"type":"LineString"}
}
