{
  "id": 2014409397,
  "type": "Feature",
  "properties": {
    "geom:area": 0,
    "geom:bbox": "-122.361940,36.743740,-121.891640,37.615730",
    "geom:latitude": 37.22908630244238,
    "geom:longitude": -122.07594825620514,
    "src:alt_label": "swim-approach",
    "src:geom": "swim",
    "swim:elevations": [
      5749,
      5458,
      5361,
      4938,
      4724,
      4460,
      4210,
      4113,
      3723,
      3390,
      3164,
      3076,
      2956,
      2690,
      2440,
      2233,
      2175,
      2021,
      1866,
      1765,
      1618,
      1525,
      1459,
      1218,
      1060,
      945,
      777,
      542,
      407,
      335,
      182,
      24,
      581
    ],
    "swim:geom": "approach",
    "swim:timestamps": [
      1766882240,
      1766882276,
      1766882291,
      1766882331,
      1766882357,
      1766882387,
      1766882425,
      1766882437,
      1766882479,
      1766882513,
      1766882544,
      1766882566,
      1766882592,
      1766882630,
      1766882665,
      1766882698,
      1766882707,
      1766882728,
      1766882758,
      1766882779,
      1766882815,
      1766882841,
      1766882858,
      1766882899,
      1766882933,
      1766882964,
      1766882994,
      1766883024,
      1766883051,
      1766883069,
      1766883101,
      1766883146,
      1766883155
    ],
    "wof:geomhash": "d8d89c2044041aa534106026c404c1e4",
    "wof:id": 2014409397,
    "wof:repo": "sfomuseum-data-flights-2025-12"
  },
  "bbox": [
    -122.36194,
    36.74374,
    -121.89164,
    37.61573
  ],
  "geometry": {"coordinates":[[-121.89164,36.74374],[-121.91004,36.79811],[-121.91625,36.82037],[-121.93249,36.87843],[-121.94317,36.91669],[-121.95578,36.95919],[-121.97536,37.00917],[-121.98118,37.02413],[-122.00081,37.07565],[-122.01791,37.117],[-122.0324,37.1548],[-122.04138,37.17826],[-122.053,37.20625],[-122.06738,37.24531],[-122.08197,37.2803],[-122.09478,37.31396],[-122.09838,37.32294],[-122.10667,37.34377],[-122.11782,37.37326],[-122.12545,37.39321],[-122.13703,37.42693],[-122.1454,37.45082],[-122.15022,37.46633],[-122.1632,37.50615],[-122.1747,37.5387],[-122.19176,37.56195],[-122.22414,37.57056],[-122.25381,37.58],[-122.27909,37.58758],[-122.29446,37.59204],[-122.32045,37.59983],[-122.35511,37.6127],[-122.36194,37.61573]],"type":"LineString"}
}
