{
  "id": 2014411589,
  "type": "Feature",
  "properties": {
    "geom:area": 0,
    "geom:bbox": "-122.293370,37.900400,-122.121020,38.513420",
    "geom:latitude": 38.211384209919565,
    "geom:longitude": -122.22431622035462,
    "src:alt_label": "swim-takeoff",
    "src:geom": "swim",
    "swim:elevations": [
      3376,
      3411,
      3907,
      4448,
      4810,
      5183,
      5624,
      5944,
      6278,
      6547,
      6917,
      7430,
      7737,
      7810
    ],
    "swim:geom": "takeoff",
    "swim:timestamps": [
      1766822421,
      1766822431,
      1766822477,
      1766822512,
      1766822539,
      1766822567,
      1766822606,
      1766822629,
      1766822655,
      1766822676,
      1766822709,
      1766822758,
      1766822788,
      1766822800
    ],
    "wof:geomhash": "633d0845e38c4c3a671bc0600345785c",
    "wof:id": 2014411589,
    "wof:repo": "sfomuseum-data-flights-2025-12"
  },
  "bbox": [
    -122.29337,
    37.9004,
    -122.12102,
    38.51342
  ],
  "geometry": {"coordinates":[[-122.29337,37.9004],[-122.29124,37.91504],[-122.28167,37.98377],[-122.27426,38.03835],[-122.26865,38.08089],[-122.2627,38.1255],[-122.24565,38.18844],[-122.23112,38.22592],[-122.21492,38.26855],[-122.20193,38.30313],[-122.18195,38.3571],[-122.14995,38.44091],[-122.12966,38.4926],[-122.12102,38.51342]],"type":"LineString"}
}
