{
  "id": 2014427435,
  "type": "Feature",
  "properties": {
    "geom:area": 0,
    "geom:bbox": "-122.465610,36.731570,-121.301580,37.709820",
    "geom:latitude": 37.222316461148104,
    "geom:longitude": -121.98421175682289,
    "src:alt_label": "swim-takeoff",
    "src:geom": "swim",
    "swim:elevations": [
      183,
      465,
      685,
      828,
      1046,
      1684,
      2099,
      2578,
      2695,
      2985,
      3149,
      3253,
      3446,
      3627,
      3891,
      3989,
      4024,
      4128,
      4538,
      4711,
      4890,
      5183,
      5462,
      5752,
      5901,
      6251,
      6332,
      6401,
      6401,
      6401,
      6401,
      6401,
      6401,
      6401,
      6401,
      6401
    ],
    "swim:geom": "takeoff",
    "swim:timestamps": [
      1767035817,
      1767035835,
      1767035864,
      1767035886,
      1767035914,
      1767035957,
      1767035981,
      1767036020,
      1767036031,
      1767036058,
      1767036076,
      1767036090,
      1767036121,
      1767036152,
      1767036197,
      1767036207,
      1767036212,
      1767036222,
      1767036265,
      1767036283,
      1767036303,
      1767036334,
      1767036375,
      1767036410,
      1767036425,
      1767036470,
      1767036481,
      1767036537,
      1767036546,
      1767036587,
      1767036616,
      1767036642,
      1767036685,
      1767036691,
      1767036715,
      1767036735
    ],
    "wof:geomhash": "c6c0bc38e6a3b77239b6c360771c3a9a",
    "wof:id": 2014427435,
    "wof:repo": "sfomuseum-data-flights-2025-12"
  },
  "bbox": [
    -122.46561,
    36.73157,
    -121.30158,
    37.70982
  ],
  "geometry": {"coordinates":[[-122.36917,37.62894],[-122.36494,37.64184],[-122.36237,37.6652],[-122.36246,37.68622],[-122.38471,37.70982],[-122.44092,37.69404],[-122.44809,37.66354],[-122.45433,37.61387],[-122.45645,37.60002],[-122.46223,37.56335],[-122.46561,37.53781],[-122.46071,37.51854],[-122.42283,37.48655],[-122.37626,37.45599],[-122.3011,37.40618],[-122.28454,37.39514],[-122.27663,37.38989],[-122.25892,37.37811],[-122.18185,37.32667],[-122.14948,37.30504],[-122.11415,37.28144],[-122.05695,37.24324],[-121.98026,37.19178],[-121.91506,37.14797],[-121.88728,37.12926],[-121.80232,37.072],[-121.78206,37.05829],[-121.67495,36.98589],[-121.65779,36.97422],[-121.58125,36.92222],[-121.52687,36.88524],[-121.47674,36.85109],[-121.39711,36.79686],[-121.38572,36.78917],[-121.34026,36.75808],[-121.30158,36.73157]],"type":"LineString"}
}
