{
  "id": 2014406125,
  "type": "Feature",
  "properties": {
    "geom:area": 0,
    "geom:bbox": "-122.362100,37.491240,-121.245410,37.615320",
    "geom:latitude": 37.54697065511181,
    "geom:longitude": -121.80888855891098,
    "src:alt_label": "swim-approach",
    "src:geom": "swim",
    "swim:elevations": [
      4639,
      4324,
      4193,
      3951,
      3852,
      3720,
      3486,
      3270,
      3186,
      3149,
      3021,
      2866,
      2713,
      2480,
      2438,
      2431,
      2131,
      2015,
      1829,
      1829,
      1527,
      1278,
      1091,
      993,
      935,
      760,
      731,
      549,
      548,
      484,
      315,
      295,
      207,
      138,
      0
    ],
    "swim:geom": "approach",
    "swim:timestamps": [
      1766868685,
      1766868718,
      1766868739,
      1766868778,
      1766868799,
      1766868836,
      1766868864,
      1766868886,
      1766868898,
      1766868907,
      1766868925,
      1766868947,
      1766868967,
      1766869005,
      1766869039,
      1766869054,
      1766869106,
      1766869126,
      1766869156,
      1766869184,
      1766869222,
      1766869252,
      1766869284,
      1766869299,
      1766869311,
      1766869347,
      1766869364,
      1766869406,
      1766869413,
      1766869446,
      1766869486,
      1766869493,
      1766869519,
      1766869537,
      1766869568
    ],
    "wof:geomhash": "b020a7d07819dfd50d78d2ec6b34c9e8",
    "wof:id": 2014406125,
    "wof:repo": "sfomuseum-data-flights-2025-12"
  },
  "bbox": [
    -122.3621,
    37.49124,
    -121.24541,
    37.61532
  ],
  "geometry": {"coordinates":[[-121.24541,37.59502],[-121.30367,37.58767],[-121.33989,37.5838],[-121.40704,37.57593],[-121.44313,37.57182],[-121.49983,37.56523],[-121.53928,37.56068],[-121.57166,37.55684],[-121.58885,37.55484],[-121.60199,37.5533],[-121.62735,37.54978],[-121.65784,37.54266],[-121.6867,37.53577],[-121.73835,37.52341],[-121.78451,37.51246],[-121.80484,37.50755],[-121.87537,37.49148],[-121.90245,37.49124],[-121.94497,37.49251],[-121.98232,37.49411],[-122.02984,37.50821],[-122.0684,37.52065],[-122.10629,37.53297],[-122.12258,37.53819],[-122.13466,37.54209],[-122.17022,37.55368],[-122.18617,37.55886],[-122.22774,37.57242],[-122.23448,37.57459],[-122.26417,37.58407],[-122.29722,37.59249],[-122.30296,37.59325],[-122.32345,37.59929],[-122.33718,37.60508],[-122.3621,37.61532]],"type":"LineString"}
}
