{
  "id": 2014423765,
  "type": "Feature",
  "properties": {
    "geom:area": 0,
    "geom:bbox": "-122.357430,36.721030,-121.877520,37.611300",
    "geom:latitude": 37.216797567812485,
    "geom:longitude": -122.06641371850675,
    "src:alt_label": "swim-approach",
    "src:geom": "swim",
    "swim:elevations": [
      5492,
      5303,
      5166,
      4813,
      4316,
      4031,
      3891,
      3567,
      3426,
      3196,
      3139,
      3097,
      2946,
      2612,
      2499,
      2340,
      2257,
      2005,
      1820,
      1675,
      1493,
      1349,
      1268,
      1043,
      881,
      847,
      677,
      514,
      380,
      245,
      119,
      34
    ],
    "swim:geom": "approach",
    "swim:timestamps": [
      1767037466,
      1767037490,
      1767037503,
      1767037536,
      1767037585,
      1767037614,
      1767037628,
      1767037662,
      1767037677,
      1767037702,
      1767037725,
      1767037741,
      1767037772,
      1767037821,
      1767037853,
      1767037882,
      1767037899,
      1767037935,
      1767037962,
      1767037993,
      1767038036,
      1767038059,
      1767038079,
      1767038128,
      1767038158,
      1767038167,
      1767038205,
      1767038237,
      1767038273,
      1767038305,
      1767038334,
      1767038360
    ],
    "wof:geomhash": "e3f99fe3c45ddfd51208d78d91171c57",
    "wof:id": 2014423765,
    "wof:repo": "sfomuseum-data-flights-2025-12"
  },
  "bbox": [
    -122.35743,
    36.72103,
    -121.87752,
    37.6113
  ],
  "geometry": {"coordinates":[[-121.87752,36.72103],[-121.89827,36.75953],[-121.90487,36.78031],[-121.91956,36.83294],[-121.94127,36.91043],[-121.95433,36.95555],[-121.9625,36.97638],[-121.98281,37.02829],[-121.99247,37.05231],[-122.00679,37.08916],[-122.02027,37.12356],[-122.02867,37.14519],[-122.04461,37.18605],[-122.06877,37.24901],[-122.08339,37.28591],[-122.09583,37.31667],[-122.10297,37.33439],[-122.10944,37.37227],[-122.10594,37.40079],[-122.10196,37.43242],[-122.10476,37.47039],[-122.11957,37.48521],[-122.1324,37.49835],[-122.16242,37.52705],[-122.18688,37.53983],[-122.19494,37.54318],[-122.22902,37.55738],[-122.2582,37.56961],[-122.28809,37.5822],[-122.3134,37.59285],[-122.3364,37.60248],[-122.35743,37.6113]],"type":"LineString"}
}
