{
  "id": 2014440433,
  "type": "Feature",
  "properties": {
    "geom:area": 0,
    "geom:bbox": "-122.357190,37.491690,-121.259310,37.613630",
    "geom:latitude": 37.54235997850344,
    "geom:longitude": -121.8152248703722,
    "src:alt_label": "swim-approach",
    "src:geom": "swim",
    "swim:elevations": [
      4871,
      4617,
      4354,
      3989,
      3711,
      3558,
      3438,
      3352,
      3353,
      3250,
      2996,
      2895,
      2765,
      2382,
      2235,
      1882,
      1857,
      1823,
      1694,
      1446,
      1303,
      1219,
      1127,
      991,
      820,
      658,
      454,
      364,
      278,
      155,
      18
    ],
    "swim:geom": "approach",
    "swim:timestamps": [
      1767181555,
      1767181586,
      1767181614,
      1767181648,
      1767181678,
      1767181693,
      1767181710,
      1767181734,
      1767181743,
      1767181792,
      1767181827,
      1767181855,
      1767181884,
      1767181918,
      1767181938,
      1767181976,
      1767181983,
      1767182028,
      1767182050,
      1767182089,
      1767182109,
      1767182143,
      1767182176,
      1767182200,
      1767182227,
      1767182263,
      1767182305,
      1767182326,
      1767182347,
      1767182373,
      1767182409
    ],
    "wof:geomhash": "80c4b2e6f42c511ceb67afa67a164851",
    "wof:id": 2014440433,
    "wof:repo": "sfomuseum-data-flights-2025-12"
  },
  "bbox": [
    -122.35719,
    37.49169,
    -121.25931,
    37.61363
  ],
  "geometry": {"coordinates":[[-121.25931,37.59348],[-121.31572,37.58661],[-121.36641,37.58098],[-121.42853,37.57382],[-121.48244,37.56746],[-121.50829,37.56441],[-121.53702,37.5611],[-121.57856,37.55616],[-121.59415,37.55427],[-121.67412,37.53887],[-121.72771,37.52605],[-121.76783,37.51652],[-121.80754,37.50712],[-121.84802,37.49752],[-121.87109,37.49169],[-121.91961,37.49304],[-121.92778,37.4935],[-121.98418,37.49707],[-122.01143,37.49864],[-122.0586,37.50138],[-122.08155,37.5026],[-122.11859,37.51338],[-122.1543,37.52806],[-122.17929,37.53873],[-122.20546,37.54968],[-122.2377,37.56334],[-122.2743,37.5787],[-122.29194,37.58607],[-122.30905,37.59316],[-122.32935,37.60195],[-122.35719,37.61363]],"type":"LineString"}
}
