{
  "id": 2014420575,
  "type": "Feature",
  "properties": {
    "geom:area": 0,
    "geom:bbox": "-122.417500,36.721110,-121.380060,37.641470",
    "geom:latitude": 37.182958422310165,
    "geom:longitude": -121.89731992361624,
    "src:alt_label": "swim-takeoff",
    "src:geom": "swim",
    "swim:elevations": [
      2972,
      3339,
      3428,
      3886,
      4102,
      4835,
      5086,
      5556,
      5614,
      6158,
      6548,
      6673,
      6900,
      6971,
      7145,
      7455,
      7576,
      8022,
      8169,
      8332,
      8632
    ],
    "swim:geom": "takeoff",
    "swim:timestamps": [
      1766943337,
      1766943387,
      1766943398,
      1766943439,
      1766943453,
      1766943508,
      1766943526,
      1766943567,
      1766943571,
      1766943621,
      1766943656,
      1766943668,
      1766943710,
      1766943727,
      1766943756,
      1766943795,
      1766943814,
      1766943866,
      1766943897,
      1766943919,
      1766943958
    ],
    "wof:geomhash": "455f36eae46ffe75e6fa601bf345c121",
    "wof:id": 2014420575,
    "wof:repo": "sfomuseum-data-flights-2025-12"
  },
  "bbox": [
    -122.4175,
    36.72111,
    -121.38006,
    37.64147
  ],
  "geometry": {"coordinates":[[-122.4175,37.64147],[-122.35899,37.59271],[-122.34366,37.57924],[-122.2853,37.52726],[-122.26574,37.51003],[-122.18281,37.43697],[-122.15329,37.41086],[-122.09064,37.35543],[-122.08301,37.34872],[-122.00321,37.27808],[-121.94499,37.22655],[-121.9236,37.20749],[-121.85199,37.14382],[-121.82012,37.11536],[-121.76664,37.06741],[-121.6934,37.00183],[-121.65685,36.9692],[-121.55765,36.88075],[-121.4992,36.82825],[-121.45608,36.7896],[-121.38006,36.72111]],"type":"LineString"}
}
