{
  "id": 2014438681,
  "type": "Feature",
  "properties": {
    "geom:area": 0,
    "geom:bbox": "-123.501440,37.631470,-122.400280,37.732210",
    "geom:latitude": 37.69899574631476,
    "geom:longitude": -122.94715372792119,
    "src:alt_label": "swim-takeoff",
    "src:geom": "swim",
    "swim:elevations": [
      152,
      511,
      748,
      1052,
      1240,
      1305,
      1793,
      1924,
      2036,
      2322,
      2416,
      2895,
      3120,
      3460,
      3634,
      3906,
      4138,
      4541,
      4811,
      4841,
      5357,
      5405
    ],
    "swim:geom": "takeoff",
    "swim:timestamps": [
      1767139078,
      1767139103,
      1767139128,
      1767139164,
      1767139196,
      1767139205,
      1767139256,
      1767139275,
      1767139295,
      1767139346,
      1767139358,
      1767139400,
      1767139422,
      1767139449,
      1767139467,
      1767139493,
      1767139521,
      1767139558,
      1767139587,
      1767139590,
      1767139648,
      1767139654
    ],
    "wof:geomhash": "31a5267685cb7c4161fd21f6be538eec",
    "wof:id": 2014438681,
    "wof:repo": "sfomuseum-data-flights-2025-12"
  },
  "bbox": [
    -123.50144,
    37.63147,
    -122.40028,
    37.73221
  ],
  "geometry": {"coordinates":[[-122.40028,37.63147],[-122.4274,37.64264],[-122.45629,37.65503],[-122.49897,37.67235],[-122.543,37.67711],[-122.5565,37.67817],[-122.6361,37.68302],[-122.66786,37.68465],[-122.70256,37.6867],[-122.80094,37.69271],[-122.82604,37.69424],[-122.91665,37.69961],[-122.96416,37.70238],[-123.02357,37.70581],[-123.06383,37.70808],[-123.12085,37.71131],[-123.18415,37.71483],[-123.27238,37.71974],[-123.33996,37.72348],[-123.34707,37.72388],[-123.48687,37.73146],[-123.50144,37.73221]],"type":"LineString"}
}
