{
  "id": 2014426581,
  "type": "Feature",
  "properties": {
    "geom:area": 0,
    "geom:bbox": "-123.486850,37.030610,-122.121990,37.615850",
    "geom:latitude": 37.305507475422715,
    "geom:longitude": -122.70884721797736,
    "src:alt_label": "swim-approach",
    "src:geom": "swim",
    "swim:elevations": [
      5728,
      5563,
      5411,
      5314,
      4823,
      4499,
      4225,
      3980,
      3598,
      3391,
      3167,
      3107,
      2896,
      2687,
      2582,
      2438,
      2438,
      2438,
      2438,
      2438,
      2438,
      2438,
      2438,
      2438,
      2438,
      2438,
      2407,
      2235,
      2101,
      1848,
      1594,
      1417,
      1246,
      1056,
      971,
      722,
      543,
      478,
      287,
      152,
      137,
      234
    ],
    "swim:geom": "approach",
    "swim:timestamps": [
      1767052046,
      1767052073,
      1767052100,
      1767052120,
      1767052166,
      1767052197,
      1767052223,
      1767052247,
      1767052283,
      1767052303,
      1767052347,
      1767052376,
      1767052406,
      1767052432,
      1767052444,
      1767052495,
      1767052512,
      1767052548,
      1767052566,
      1767052587,
      1767052602,
      1767052614,
      1767052633,
      1767052671,
      1767052690,
      1767052730,
      1767052762,
      1767052792,
      1767052819,
      1767052851,
      1767052879,
      1767052903,
      1767052939,
      1767052966,
      1767052981,
      1767053026,
      1767053065,
      1767053080,
      1767053125,
      1767053155,
      1767053161,
      1767053191
    ],
    "wof:geomhash": "2c28fe8e811faec0a831ef5c585f6188",
    "wof:id": 2014426581,
    "wof:repo": "sfomuseum-data-flights-2025-12"
  },
  "bbox": [
    -123.48685,
    37.03061,
    -122.12199,
    37.61585
  ],
  "geometry": {"coordinates":[[-123.48685,37.03061],[-123.43548,37.04908],[-123.38265,37.06889],[-123.34546,37.08243],[-123.25981,37.11368],[-123.2037,37.13425],[-123.15745,37.15115],[-123.11467,37.1667],[-123.05026,37.18997],[-123.01558,37.20257],[-122.9421,37.2292],[-122.89688,37.2455],[-122.85036,37.26053],[-122.81025,37.27019],[-122.79144,37.27454],[-122.71043,37.29339],[-122.68364,37.29964],[-122.62655,37.31287],[-122.59809,37.31941],[-122.56485,37.32715],[-122.54095,37.3327],[-122.52179,37.33715],[-122.49266,37.34385],[-122.4315,37.35797],[-122.40119,37.36492],[-122.33742,37.37959],[-122.28729,37.39108],[-122.24407,37.40789],[-122.21091,37.42674],[-122.17245,37.44808],[-122.14063,37.46525],[-122.12199,37.4856],[-122.13754,37.51708],[-122.16523,37.5329],[-122.18199,37.53973],[-122.2272,37.55892],[-122.26431,37.57451],[-122.27722,37.57995],[-122.31154,37.59469],[-122.33459,37.60407],[-122.33915,37.60597],[-122.36124,37.61585]],"type":"LineString"}
}
