{
  "id": 2014447323,
  "type": "Feature",
  "properties": {
    "geom:area": 0,
    "geom:bbox": "-122.366920,37.627810,-121.256260,37.963480",
    "geom:latitude": 37.83710814228061,
    "geom:longitude": -121.82718004510251,
    "src:alt_label": "swim-takeoff",
    "src:geom": "swim",
    "swim:elevations": [
      122,
      372,
      680,
      1028,
      1205,
      1319,
      1930,
      2423,
      2783,
      3159,
      3386,
      3485,
      4029,
      4126,
      4592,
      4759,
      5013,
      5196,
      5651,
      6062,
      6601,
      6666,
      7134,
      7413,
      7603
    ],
    "swim:geom": "takeoff",
    "swim:timestamps": [
      1767251668,
      1767251688,
      1767251721,
      1767251754,
      1767251783,
      1767251797,
      1767251848,
      1767251878,
      1767251903,
      1767251927,
      1767251951,
      1767251974,
      1767252019,
      1767252028,
      1767252052,
      1767252062,
      1767252082,
      1767252094,
      1767252130,
      1767252157,
      1767252204,
      1767252210,
      1767252255,
      1767252282,
      1767252302
    ],
    "wof:geomhash": "7f3edcf4a18ab0efa4551ee618e24496",
    "wof:id": 2014447323,
    "wof:repo": "sfomuseum-data-flights-2025-12"
  },
  "bbox": [
    -122.36692,
    37.62781,
    -121.25626,
    37.96348
  ],
  "geometry": {"coordinates":[[-122.36692,37.62781],[-122.35701,37.64066],[-122.33139,37.65518],[-122.30235,37.67086],[-122.27232,37.68721],[-122.25655,37.69555],[-122.18701,37.73163],[-122.14403,37.75427],[-122.1067,37.77378],[-122.07036,37.79315],[-122.03229,37.81202],[-121.99012,37.82858],[-121.89797,37.84605],[-121.87853,37.84964],[-121.82511,37.85963],[-121.803,37.86377],[-121.76101,37.87159],[-121.73469,37.87636],[-121.65429,37.89126],[-121.59254,37.90248],[-121.48627,37.92189],[-121.47249,37.92438],[-121.36867,37.94309],[-121.30474,37.95469],[-121.25626,37.96348]],"type":"LineString"}
}
