{
  "id": 2014422215,
  "type": "Feature",
  "properties": {
    "geom:area": 0,
    "geom:bbox": "-122.348510,37.645380,-122.214190,38.496990",
    "geom:latitude": 38.04005578756648,
    "geom:longitude": -122.24289063141757,
    "src:alt_label": "swim-takeoff",
    "src:geom": "swim",
    "swim:elevations": [
      577,
      721,
      1115,
      1196,
      1491,
      1969,
      2320,
      3009,
      3118,
      3435,
      3670,
      3729,
      4195,
      4368,
      4609,
      4963,
      5437,
      5637,
      5875,
      6100,
      6431,
      6550,
      7042,
      7139,
      7388
    ],
    "swim:geom": "takeoff",
    "swim:timestamps": [
      1766957218,
      1766957229,
      1766957268,
      1766957288,
      1766957321,
      1766957352,
      1766957379,
      1766957424,
      1766957433,
      1766957480,
      1766957500,
      1766957505,
      1766957534,
      1766957546,
      1766957561,
      1766957585,
      1766957625,
      1766957658,
      1766957687,
      1766957714,
      1766957749,
      1766957761,
      1766957813,
      1766957826,
      1766957858
    ],
    "wof:geomhash": "0b5e45fcd284a054d5537d70e9ff7eee",
    "wof:id": 2014422215,
    "wof:repo": "sfomuseum-data-flights-2025-12"
  },
  "bbox": [
    -122.34851,
    37.64538,
    -122.21419,
    38.49699
  ],
  "geometry": {"coordinates":[[-122.34851,37.64538],[-122.33998,37.64963],[-122.3114,37.66563],[-122.29361,37.67571],[-122.25664,37.69607],[-122.22155,37.7179],[-122.21419,37.74956],[-122.21716,37.80648],[-122.21754,37.81808],[-122.21894,37.88617],[-122.21958,37.91742],[-122.21985,37.92434],[-122.22203,37.97],[-122.22355,37.98865],[-122.22565,38.01194],[-122.22891,38.04983],[-122.2335,38.11084],[-122.23733,38.16227],[-122.2411,38.20851],[-122.2446,38.25267],[-122.24926,38.31009],[-122.25084,38.33012],[-122.25785,38.41919],[-122.25967,38.44135],[-122.26407,38.49699]],"type":"LineString"}
}
