{
  "id": 2014441557,
  "type": "Feature",
  "properties": {
    "geom:area": 0,
    "geom:bbox": "-122.355840,36.741530,-121.889720,37.612960",
    "geom:latitude": 37.22137982580863,
    "geom:longitude": -122.07320659986527,
    "src:alt_label": "swim-approach",
    "src:geom": "swim",
    "swim:elevations": [
      5100,
      4993,
      4694,
      4414,
      3988,
      3583,
      3302,
      3137,
      3074,
      2966,
      2847,
      2535,
      2402,
      2259,
      2011,
      1619,
      1522,
      1436,
      1369,
      1075,
      1026,
      768,
      699,
      450,
      380,
      196,
      150,
      3
    ],
    "swim:geom": "approach",
    "swim:timestamps": [
      1767222442,
      1767222452,
      1767222490,
      1767222521,
      1767222563,
      1767222598,
      1767222628,
      1767222655,
      1767222684,
      1767222702,
      1767222720,
      1767222768,
      1767222795,
      1767222816,
      1767222847,
      1767222887,
      1767222907,
      1767222933,
      1767222945,
      1767222988,
      1767222994,
      1767223045,
      1767223057,
      1767223108,
      1767223123,
      1767223164,
      1767223176,
      1767223203
    ],
    "wof:geomhash": "a874e30836244dad46ea848a797fffa7",
    "wof:id": 2014441557,
    "wof:repo": "sfomuseum-data-flights-2025-12"
  },
  "bbox": [
    -122.35584,
    36.74153,
    -121.88972,
    37.61296
  ],
  "geometry": {"coordinates":[[-121.88972,36.74153],[-121.89721,36.75781],[-121.91685,36.82401],[-121.9311,36.87467],[-121.95072,36.94492],[-121.97303,37.00251],[-121.99157,37.05007],[-122.00742,37.0915],[-122.02319,37.13271],[-122.03275,37.15723],[-122.04234,37.18137],[-122.06726,37.24441],[-122.08137,37.28002],[-122.09186,37.3064],[-122.10668,37.34449],[-122.12658,37.39713],[-122.13517,37.4225],[-122.14648,37.45605],[-122.15133,37.4705],[-122.16751,37.52019],[-122.1698,37.52668],[-122.21691,37.55447],[-122.2297,37.55899],[-122.27818,37.58031],[-122.29093,37.58578],[-122.3245,37.59981],[-122.33397,37.60376],[-122.35584,37.61296]],"type":"LineString"}
}
