{
  "id": 2014407425,
  "type": "Feature",
  "properties": {
    "geom:area": 0,
    "geom:bbox": "-122.836860,37.421160,-122.105480,38.517270",
    "geom:latitude": 37.82904327789293,
    "geom:longitude": -122.49724604341257,
    "src:alt_label": "swim-approach",
    "src:geom": "swim",
    "swim:elevations": [
      7554,
      7309,
      7031,
      6737,
      6544,
      6303,
      5898,
      5529,
      5442,
      5007,
      4775,
      4624,
      4321,
      4184,
      3875,
      3609,
      3431,
      3380,
      3353,
      3353,
      3353,
      3353,
      3353,
      3335,
      3011,
      2845,
      2737,
      2365,
      2172,
      1978,
      1783,
      1545,
      1151,
      1089,
      973,
      924,
      797,
      668,
      463,
      413,
      254,
      162,
      94
    ],
    "swim:geom": "approach",
    "swim:timestamps": [
      1766827707,
      1766827731,
      1766827758,
      1766827790,
      1766827809,
      1766827834,
      1766827876,
      1766827916,
      1766827932,
      1766827975,
      1766827998,
      1766828014,
      1766828047,
      1766828061,
      1766828096,
      1766828124,
      1766828159,
      1766828180,
      1766828200,
      1766828244,
      1766828259,
      1766828304,
      1766828320,
      1766828354,
      1766828394,
      1766828415,
      1766828434,
      1766828483,
      1766828509,
      1766828531,
      1766828556,
      1766828581,
      1766828637,
      1766828651,
      1766828698,
      1766828711,
      1766828747,
      1766828777,
      1766828816,
      1766828828,
      1766828867,
      1766828897,
      1766828911
    ],
    "wof:geomhash": "365dfec672185f6ffad8998b8c2491dc",
    "wof:id": 2014407425,
    "wof:repo": "sfomuseum-data-flights-2025-12"
  },
  "bbox": [
    -122.83686,
    37.42116,
    -122.10548,
    38.51727
  ],
  "geometry": {"coordinates":[[-122.83686,38.51727],[-122.82586,38.47013],[-122.81362,38.41913],[-122.79938,38.35879],[-122.79065,38.32156],[-122.77975,38.27578],[-122.76069,38.20028],[-122.7399,38.12948],[-122.73163,38.10166],[-122.71027,38.0278],[-122.69902,37.98858],[-122.6917,37.96301],[-122.67336,37.90872],[-122.6592,37.88763],[-122.61333,37.84287],[-122.57704,37.80868],[-122.53377,37.76806],[-122.50873,37.74448],[-122.48531,37.72238],[-122.4348,37.67506],[-122.41838,37.65929],[-122.37294,37.61623],[-122.35831,37.60022],[-122.33669,37.56428],[-122.3131,37.51799],[-122.29975,37.4956],[-122.28451,37.47674],[-122.22379,37.45081],[-122.19238,37.4391],[-122.16481,37.42908],[-122.13402,37.42116],[-122.10548,37.43286],[-122.11738,37.48397],[-122.125,37.49596],[-122.15789,37.52723],[-122.17116,37.53307],[-122.20623,37.54775],[-122.23457,37.55962],[-122.27067,37.57487],[-122.28054,37.57907],[-122.31135,37.59199],[-122.33377,37.6014],[-122.34457,37.60588]],"type":"LineString"}
}
