{
  "id": 2014432021,
  "type": "Feature",
  "properties": {
    "geom:area": 0,
    "geom:bbox": "-122.364330,37.491220,-121.266460,37.615320",
    "geom:latitude": 37.54628444293914,
    "geom:longitude": -121.82015999998862,
    "src:alt_label": "swim-approach",
    "src:geom": "swim",
    "swim:elevations": [
      4470,
      4308,
      3972,
      3821,
      3668,
      3423,
      3228,
      3129,
      2873,
      2667,
      2436,
      2438,
      2393,
      2143,
      1978,
      1837,
      1775,
      1493,
      1355,
      947,
      819,
      601,
      518,
      518,
      395,
      206,
      147,
      275
    ],
    "swim:geom": "approach",
    "swim:timestamps": [
      1767116218,
      1767116237,
      1767116273,
      1767116288,
      1767116304,
      1767116331,
      1767116355,
      1767116379,
      1767116425,
      1767116449,
      1767116487,
      1767116499,
      1767116529,
      1767116566,
      1767116590,
      1767116613,
      1767116660,
      1767116693,
      1767116705,
      1767116748,
      1767116773,
      1767116818,
      1767116847,
      1767116861,
      1767116891,
      1767116933,
      1767116950,
      1767116988
    ],
    "wof:geomhash": "f60d90fafb0ac10e7ed43c454055b9ae",
    "wof:id": 2014432021,
    "wof:repo": "sfomuseum-data-flights-2025-12"
  },
  "bbox": [
    -122.36433,
    37.49122,
    -121.26646,
    37.61532
  ],
  "geometry": {"coordinates":[[-121.26646,37.59225],[-121.30418,37.58738],[-121.37537,37.57968],[-121.40431,37.57632],[-121.43511,37.57275],[-121.48919,37.56653],[-121.53603,37.56095],[-121.58115,37.55576],[-121.66018,37.54226],[-121.70134,37.53238],[-121.76376,37.5174],[-121.78265,37.51283],[-121.82801,37.50199],[-121.88243,37.49122],[-121.9189,37.49204],[-121.95311,37.4929],[-122.01903,37.50456],[-122.06225,37.5187],[-122.07738,37.52356],[-122.13531,37.5423],[-122.16584,37.55218],[-122.21563,37.56797],[-122.24556,37.57765],[-122.2592,37.58179],[-122.28544,37.58913],[-122.31969,37.59991],[-122.33305,37.60419],[-122.36433,37.61532]],"type":"LineString"}
}
