{
  "id": 2014426329,
  "type": "Feature",
  "properties": {
    "geom:area": 0,
    "geom:bbox": "-122.357620,36.736140,-121.887450,37.611330",
    "geom:latitude": 37.21837530598733,
    "geom:longitude": -122.07262576459142,
    "src:alt_label": "swim-approach",
    "src:geom": "swim",
    "swim:elevations": [
      5443,
      5377,
      4836,
      4630,
      4378,
      4135,
      3645,
      3394,
      3208,
      3080,
      2839,
      2591,
      2439,
      2309,
      2018,
      1908,
      1650,
      1448,
      1293,
      1157,
      931,
      643,
      563,
      345,
      241,
      157,
      92,
      0
    ],
    "swim:geom": "approach",
    "swim:timestamps": [
      1767013104,
      1767013116,
      1767013164,
      1767013184,
      1767013209,
      1767013234,
      1767013284,
      1767013308,
      1767013329,
      1767013354,
      1767013400,
      1767013436,
      1767013468,
      1767013484,
      1767013521,
      1767013543,
      1767013586,
      1767013631,
      1767013654,
      1767013681,
      1767013713,
      1767013763,
      1767013779,
      1767013829,
      1767013855,
      1767013875,
      1767013890,
      1767013906
    ],
    "wof:geomhash": "92ecae4797c64f0198b772aae155db19",
    "wof:id": 2014426329,
    "wof:repo": "sfomuseum-data-flights-2025-12"
  },
  "bbox": [
    -122.35762,
    36.73614,
    -121.88745,
    37.61133
  ],
  "geometry": {"coordinates":[[-121.88745,36.73614],[-121.89613,36.7534],[-121.91902,36.83087],[-121.92795,36.86242],[-121.93913,36.90257],[-121.95009,36.94196],[-121.97915,37.02001],[-121.99379,37.05765],[-122.00625,37.08884],[-122.02103,37.12596],[-122.04619,37.18923],[-122.06424,37.23567],[-122.07963,37.27628],[-122.08715,37.29562],[-122.10508,37.34025],[-122.11526,37.36598],[-122.13228,37.41424],[-122.14883,37.46079],[-122.15736,37.48476],[-122.16729,37.5127],[-122.18415,37.53925],[-122.23634,37.56052],[-122.25166,37.56696],[-122.29349,37.5844],[-122.31533,37.59363],[-122.33205,37.60063],[-122.34453,37.60593],[-122.35762,37.61133]],"type":"LineString"}
}
