{
  "id": 2014413283,
  "type": "Feature",
  "properties": {
    "geom:area": 0,
    "geom:bbox": "-122.468340,37.193410,-121.261780,37.706710",
    "geom:latitude": 37.388513841472225,
    "geom:longitude": -121.99077727704658,
    "src:alt_label": "swim-takeoff",
    "src:geom": "swim",
    "swim:elevations": [
      390,
      549,
      968,
      1137,
      1736,
      2250,
      3094,
      3265,
      3527,
      3666,
      4476,
      5059,
      5274,
      5599,
      6164,
      6780,
      6873,
      6987,
      7274,
      7709,
      8101,
      8318,
      8673,
      8955,
      9347,
      9591,
      9731,
      10068
    ],
    "swim:geom": "takeoff",
    "swim:timestamps": [
      1766861994,
      1766862017,
      1766862055,
      1766862065,
      1766862107,
      1766862129,
      1766862176,
      1766862195,
      1766862233,
      1766862242,
      1766862287,
      1766862328,
      1766862343,
      1766862371,
      1766862406,
      1766862447,
      1766862453,
      1766862462,
      1766862487,
      1766862528,
      1766862567,
      1766862590,
      1766862626,
      1766862648,
      1766862687,
      1766862714,
      1766862732,
      1766862772
    ],
    "wof:geomhash": "7a417fa35ae627484b0b9a98f056c76b",
    "wof:id": 2014413283,
    "wof:repo": "sfomuseum-data-flights-2025-12"
  },
  "bbox": [
    -122.46834,
    37.19341,
    -121.26178,
    37.70671
  ],
  "geometry": {"coordinates":[[-122.36461,37.64297],[-122.36343,37.66167],[-122.36831,37.699],[-122.37737,37.70671],[-122.43517,37.70489],[-122.44976,37.67832],[-122.45593,37.61576],[-122.45988,37.58868],[-122.46834,37.52323],[-122.46502,37.50716],[-122.3998,37.44738],[-122.31933,37.40938],[-122.28547,37.40101],[-122.21976,37.38795],[-122.13846,37.3718],[-122.04326,37.35286],[-122.02934,37.35006],[-122.00836,37.34594],[-121.94774,37.3338],[-121.85151,37.3145],[-121.75701,37.29554],[-121.70029,37.28373],[-121.61255,37.26598],[-121.55909,37.25485],[-121.46558,37.23552],[-121.4009,37.2222],[-121.35772,37.21336],[-121.26178,37.19341]],"type":"LineString"}
}
