{
  "id": 2014408817,
  "type": "Feature",
  "properties": {
    "geom:area": 0,
    "geom:bbox": "-122.365080,37.491750,-121.275680,37.617410",
    "geom:latitude": 37.54233079831915,
    "geom:longitude": -121.82759331128516,
    "src:alt_label": "swim-approach",
    "src:geom": "swim",
    "swim:elevations": [
      4360,
      3975,
      3744,
      3461,
      3317,
      3193,
      3076,
      2968,
      2666,
      2495,
      2498,
      2194,
      2105,
      1879,
      1843,
      1763,
      1739,
      1597,
      1379,
      1102,
      1017,
      776,
      734,
      466,
      392,
      243,
      181,
      0
    ],
    "swim:geom": "approach",
    "swim:timestamps": [
      1766841485,
      1766841527,
      1766841557,
      1766841589,
      1766841609,
      1766841644,
      1766841666,
      1766841690,
      1766841739,
      1766841777,
      1766841781,
      1766841834,
      1766841854,
      1766841894,
      1766841907,
      1766841949,
      1766841964,
      1766842005,
      1766842036,
      1766842072,
      1766842087,
      1766842134,
      1766842141,
      1766842190,
      1766842207,
      1766842248,
      1766842265,
      1766842314
    ],
    "wof:geomhash": "fdbe5ba47f54dedc82969aae0426d65f",
    "wof:id": 2014408817,
    "wof:repo": "sfomuseum-data-flights-2025-12"
  },
  "bbox": [
    -122.36508,
    37.49175,
    -121.27568,
    37.61741
  ],
  "geometry": {"coordinates":[[-121.27568,37.59119],[-121.35937,37.58174],[-121.41659,37.57513],[-121.47936,37.56788],[-121.51571,37.56362],[-121.5749,37.55665],[-121.60932,37.5526],[-121.64638,37.54574],[-121.71936,37.52831],[-121.77618,37.51474],[-121.78087,37.51357],[-121.85842,37.49502],[-121.88722,37.49175],[-121.94349,37.49481],[-121.96249,37.49591],[-122.0189,37.49913],[-122.03919,37.50028],[-122.09097,37.50364],[-122.12536,37.51586],[-122.16234,37.53155],[-122.17749,37.53799],[-122.22251,37.55693],[-122.22871,37.55951],[-122.27369,37.57847],[-122.2874,37.58428],[-122.31764,37.59697],[-122.32966,37.60205],[-122.36508,37.61741]],"type":"LineString"}
}
