{
  "id": 2014443941,
  "type": "Feature",
  "properties": {
    "date:cessation_lower": "2025-12-31",
    "date:cessation_upper": "2025-12-31",
    "date:inception_lower": "1970-01-01",
    "date:inception_upper": "1970-01-01",
    "edtf:cessation": "2025-12-31T14:55:07-08:00",
    "edtf:inception": "1970-01-01T00:00:00Z",
    "flysfo:actual_timestamp": -1,
    "flysfo:airline": "UA",
    "flysfo:base_airline": "",
    "flysfo:base_flight_number": "4390",
    "flysfo:date": "2025-12-31",
    "flysfo:estimated_timestamp": 1767253680,
    "flysfo:event": "A",
    "flysfo:flight_number": "UA693",
    "flysfo:gate": "E13",
    "flysfo:journey": "KOA-SFO",
    "flysfo:scheduled_timestamp": 1767252780,
    "flysfo:timestamp": 1767253680,
    "geom:area": 0,
    "geom:bbox": "-156.035060,19.732444,-122.370943,37.617990",
    "geom:latitude": 28.675217,
    "geom:longitude": -139.2030015,
    "iata:airline": "UA",
    "iata:base_airline": "",
    "icao:aircraft": "B39M",
    "icao:airline": "UAL",
    "icao:base_airline": "ITY",
    "lbl:latitude": 37.619425,
    "lbl:longitude": -122.384028,
    "sfomuseum:aircraft_id": 1528104577,
    "sfomuseum:airline_id": 1159285413,
    "sfomuseum:arrival_id": 102527513,
    "sfomuseum:base_flight_id": "20251231-A-ITY-4390",
    "sfomuseum:departure_id": 102532939,
    "sfomuseum:flight_id": "20251231-A-UAL-693",
    "sfomuseum:flight_number": [
      "UAL693",
      "UA693"
    ],
    "sfomuseum:placetype": "flight",
    "src:geom": "flysfo",
    "src:geom_alt": [
      "swim-approach"
    ],
    "swim:tail_number": "N17417",
    "wof:belongsto": [
      1947304067,
      102527513,
      1947304511,
      102191575,
      85633793,
      102087579,
      85922583,
      554784711,
      85688637,
      1947304517,
      1947304447,
      102085387
    ],
    "wof:country": "US",
    "wof:created": 1767283732,
    "wof:geomhash": "d5ad4a83d3d679d1b3fe86e419b08d84",
    "wof:hierarchy": [
      {
        "building_id": 1947304067,
        "campus_id": 102527513,
        "concourse_id": 1947304511,
        "continent_id": 102191575,
        "country_id": 85633793,
        "county_id": 102087579,
        "custom_id": 2014443941,
        "flight_id": 2014443941,
        "locality_id": 85922583,
        "postalcode_id": 554784711,
        "region_id": 85688637,
        "venue_id": 1947304517,
        "wing_id": 1947304447
      },
      {
        "building_id": 1947304067,
        "campus_id": 102527513,
        "concourse_id": 1947304511,
        "continent_id": 102191575,
        "country_id": 85633793,
        "county_id": 102085387,
        "custom_id": 2014443941,
        "flight_id": 2014443941,
        "region_id": 85688637,
        "venue_id": 1947304517,
        "wing_id": 1947304447
      }
    ],
    "wof:id": 2014443941,
    "wof:involves": [
      1947304517,
      1763699293,
      1528104577,
      102527513,
      102532939,
      1159285413
    ],
    "wof:lastmodified": 1767284260,
    "wof:name": "UA693 (KOA-SFO)",
    "wof:parent_id": 1947304517,
    "wof:placetype": "custom",
    "wof:placetype_alt": [
      "flight"
    ],
    "wof:repo": "sfomuseum-data-flights-2025-12",
    "wof:superseded_by": [],
    "wof:supersedes": []
  },
  "bbox": [
    -156.03506,
    19.732444,
    -122.370943,
    37.61799
  ],
  "geometry": {"coordinates":[[-156.03506,19.732444],[-122.370943,37.61799]],"type":"MultiPoint"}
}
