{
  "id": 2014426969,
  "type": "Feature",
  "properties": {
    "geom:area": 0,
    "geom:bbox": "-123.499520,37.263780,-122.110820,37.608380",
    "geom:latitude": 37.3790780216841,
    "geom:longitude": -122.69101477086969,
    "src:alt_label": "swim-approach",
    "src:geom": "swim",
    "swim:elevations": [
      5849,
      5711,
      5143,
      4907,
      4613,
      4467,
      3938,
      3684,
      3265,
      3048,
      3047,
      3048,
      3048,
      3048,
      3048,
      2904,
      2743,
      2743,
      2743,
      2743,
      2741,
      2563,
      2450,
      2279,
      2075,
      2058,
      1911,
      1713,
      1492,
      1419,
      1218,
      1033,
      948,
      855,
      716,
      515,
      465,
      333,
      159,
      64
    ],
    "swim:geom": "approach",
    "swim:timestamps": [
      1767018077,
      1767018090,
      1767018149,
      1767018175,
      1767018202,
      1767018215,
      1767018265,
      1767018291,
      1767018325,
      1767018358,
      1767018363,
      1767018407,
      1767018435,
      1767018453,
      1767018489,
      1767018522,
      1767018567,
      1767018571,
      1767018628,
      1767018640,
      1767018671,
      1767018712,
      1767018736,
      1767018764,
      1767018807,
      1767018811,
      1767018840,
      1767018879,
      1767018923,
      1767018934,
      1767018975,
      1767019017,
      1767019038,
      1767019060,
      1767019097,
      1767019135,
      1767019147,
      1767019176,
      1767019221,
      1767019246
    ],
    "wof:geomhash": "64219a27c39432c96b487d0e5ae2a197",
    "wof:id": 2014426969,
    "wof:repo": "sfomuseum-data-flights-2025-12"
  },
  "bbox": [
    -123.49952,
    37.26378,
    -122.11082,
    37.60838
  ],
  "geometry": {"coordinates":[[-123.49952,37.45539],[-123.47084,37.44654],[-123.34489,37.40758],[-123.28931,37.39039],[-123.23548,37.37374],[-123.20847,37.3654],[-123.10761,37.33409],[-123.05674,37.31827],[-122.99201,37.29788],[-122.92976,37.2784],[-122.92062,37.2755],[-122.8408,37.26378],[-122.79097,37.27424],[-122.75949,37.28163],[-122.70039,37.29573],[-122.64836,37.30799],[-122.57879,37.32413],[-122.57258,37.32558],[-122.48543,37.34555],[-122.46681,37.34988],[-122.41964,37.36073],[-122.36121,37.36057],[-122.33275,37.34542],[-122.30235,37.32565],[-122.2448,37.3348],[-122.23999,37.33738],[-122.20852,37.36027],[-122.17044,37.3926],[-122.12808,37.42803],[-122.11818,37.43786],[-122.11082,37.48186],[-122.14327,37.51743],[-122.16326,37.52949],[-122.18562,37.53888],[-122.22178,37.55422],[-122.25956,37.57018],[-122.27047,37.57476],[-122.29613,37.58556],[-122.33091,37.60013],[-122.35032,37.60838]],"type":"LineString"}
}
