{
  "id": 2014443771,
  "type": "Feature",
  "properties": {
    "geom:area": 0,
    "geom:bbox": "-122.360740,37.469540,-121.257800,37.613050",
    "geom:latitude": 37.54575429764004,
    "geom:longitude": -121.81953563750328,
    "src:alt_label": "swim-approach",
    "src:geom": "swim",
    "swim:elevations": [
      4630,
      4473,
      4183,
      3830,
      3626,
      3465,
      3247,
      3181,
      2767,
      2698,
      2354,
      2304,
      2190,
      1981,
      1828,
      1819,
      1738,
      1569,
      1400,
      1175,
      1157,
      1000,
      830,
      632,
      393,
      258,
      173,
      0,
      59
    ],
    "swim:geom": "approach",
    "swim:timestamps": [
      1767170719,
      1767170738,
      1767170771,
      1767170811,
      1767170838,
      1767170864,
      1767170901,
      1767170910,
      1767170961,
      1767170970,
      1767171029,
      1767171049,
      1767171081,
      1767171112,
      1767171141,
      1767171176,
      1767171188,
      1767171212,
      1767171236,
      1767171265,
      1767171271,
      1767171301,
      1767171341,
      1767171379,
      1767171418,
      1767171446,
      1767171470,
      1767171508,
      1767171511
    ],
    "wof:geomhash": "386aa832d52082685f5a3517749c5859",
    "wof:id": 2014443771,
    "wof:repo": "sfomuseum-data-flights-2025-12"
  },
  "bbox": [
    -122.36074,
    37.46954,
    -121.2578,
    37.61305
  ],
  "geometry": {"coordinates":[[-121.2578,37.59419],[-121.29737,37.58906],[-121.36433,37.58169],[-121.44454,37.57248],[-121.49778,37.56634],[-121.5482,37.56038],[-121.61271,37.55477],[-121.62847,37.55349],[-121.71566,37.54607],[-121.73098,37.54477],[-121.8299,37.53622],[-121.86238,37.53345],[-121.90349,37.51822],[-121.93902,37.49982],[-121.97242,37.48257],[-122.01647,37.46954],[-122.0325,37.47437],[-122.06344,37.48749],[-122.09301,37.49999],[-122.13053,37.51584],[-122.13813,37.51905],[-122.17462,37.53456],[-122.21827,37.55296],[-122.25672,37.56912],[-122.29008,37.58306],[-122.31187,37.59228],[-122.33008,37.59991],[-122.35887,37.61199],[-122.36074,37.61305]],"type":"LineString"}
}
