{
  "id": 2014409085,
  "type": "Feature",
  "properties": {
    "geom:area": 0,
    "geom:bbox": "-122.361120,37.492090,-121.299020,37.614920",
    "geom:latitude": 37.54375148137178,
    "geom:longitude": -121.83652635175167,
    "src:alt_label": "swim-approach",
    "src:geom": "swim",
    "swim:elevations": [
      4422,
      4298,
      4027,
      3972,
      3843,
      3688,
      3621,
      3430,
      3177,
      3049,
      3016,
      2789,
      2584,
      2407,
      2284,
      2104,
      1864,
      1684,
      1566,
      1368,
      1184,
      1021,
      889,
      647,
      562,
      345,
      231,
      146,
      24
    ],
    "swim:geom": "approach",
    "swim:timestamps": [
      1766827795,
      1766827809,
      1766827854,
      1766827876,
      1766827905,
      1766827942,
      1766827951,
      1766827982,
      1766828024,
      1766828061,
      1766828077,
      1766828124,
      1766828159,
      1766828189,
      1766828210,
      1766828233,
      1766828271,
      1766828300,
      1766828320,
      1766828367,
      1766828394,
      1766828423,
      1766828444,
      1766828483,
      1766828501,
      1766828545,
      1766828573,
      1766828593,
      1766828627
    ],
    "wof:geomhash": "6b6ffb80ba32b8ca612adb7e0bebc309",
    "wof:id": 2014409085,
    "wof:repo": "sfomuseum-data-flights-2025-12"
  },
  "bbox": [
    -122.36112,
    37.49209,
    -121.29902,
    37.61492
  ],
  "geometry": {"coordinates":[[-121.29902,37.58816],[-121.32684,37.58512],[-121.41172,37.57586],[-121.45086,37.57128],[-121.49846,37.5655],[-121.55397,37.55896],[-121.56738,37.5574],[-121.61329,37.55208],[-121.67324,37.54994],[-121.72517,37.55621],[-121.74766,37.55497],[-121.79747,37.5155],[-121.83899,37.49734],[-121.88018,37.49209],[-121.90928,37.49312],[-121.94134,37.49497],[-121.99159,37.49767],[-122.02975,37.49973],[-122.05614,37.50114],[-122.11422,37.51086],[-122.14526,37.5244],[-122.17773,37.53804],[-122.19997,37.54751],[-122.24036,37.56448],[-122.25818,37.57191],[-122.29686,37.5882],[-122.31833,37.59726],[-122.33363,37.60371],[-122.36112,37.61492]],"type":"LineString"}
}
