{
  "id": 2014414181,
  "type": "Feature",
  "properties": {
    "geom:area": 0,
    "geom:bbox": "-123.486730,37.185170,-122.391610,37.671570",
    "geom:latitude": 37.46522862050938,
    "geom:longitude": -122.94946895128636,
    "src:alt_label": "swim-takeoff",
    "src:geom": "swim",
    "swim:elevations": [
      122,
      533,
      667,
      959,
      1128,
      1312,
      1408,
      1624,
      1872,
      2449,
      2662,
      2871,
      3229,
      3258,
      3539,
      3669,
      3971,
      4258,
      4495,
      4765,
      5045,
      5264,
      5423,
      5604,
      5724
    ],
    "swim:geom": "takeoff",
    "swim:timestamps": [
      1766880566,
      1766880597,
      1766880616,
      1766880649,
      1766880688,
      1766880715,
      1766880733,
      1766880763,
      1766880784,
      1766880837,
      1766880855,
      1766880880,
      1766880928,
      1766880937,
      1766880982,
      1766881009,
      1766881045,
      1766881070,
      1766881106,
      1766881133,
      1766881166,
      1766881192,
      1766881212,
      1766881248,
      1766881269
    ],
    "wof:geomhash": "933198355a264288677360bedf5866a9",
    "wof:id": 2014414181,
    "wof:repo": "sfomuseum-data-flights-2025-12"
  },
  "bbox": [
    -123.48673,
    37.18517,
    -122.39161,
    37.67157
  ],
  "geometry": {"coordinates":[[-122.39161,37.62569],[-122.42083,37.63801],[-122.43852,37.6458],[-122.46955,37.65989],[-122.5125,37.67157],[-122.54306,37.65723],[-122.56078,37.6416],[-122.59502,37.61651],[-122.62162,37.59934],[-122.68909,37.55565],[-122.71426,37.54082],[-122.75173,37.5283],[-122.83097,37.50749],[-122.84686,37.50325],[-122.93016,37.47995],[-122.98462,37.46461],[-123.05941,37.44387],[-123.11426,37.42841],[-123.19146,37.40332],[-123.24259,37.37316],[-123.30038,37.32888],[-123.34685,37.29298],[-123.38279,37.26521],[-123.44808,37.21493],[-123.48673,37.18517]],"type":"LineString"}
}
