{
  "id": 2014435273,
  "type": "Feature",
  "properties": {
    "geom:area": 0,
    "geom:bbox": "-122.359690,37.491710,-121.278160,37.614400",
    "geom:latitude": 37.54569330871542,
    "geom:longitude": -121.82373690254772,
    "src:alt_label": "swim-approach",
    "src:geom": "swim",
    "swim:elevations": [
      4419,
      4366,
      4139,
      3914,
      3682,
      3323,
      3119,
      3078,
      2919,
      2712,
      2495,
      2434,
      2380,
      2195,
      2165,
      2057,
      2014,
      1948,
      1752,
      1462,
      1346,
      1159,
      929,
      915,
      873,
      688,
      486,
      368,
      156,
      64,
      42,
      0
    ],
    "swim:geom": "approach",
    "swim:timestamps": [
      1767085159,
      1767085165,
      1767085190,
      1767085212,
      1767085239,
      1767085279,
      1767085318,
      1767085331,
      1767085364,
      1767085393,
      1767085429,
      1767085462,
      1767085474,
      1767085513,
      1767085521,
      1767085544,
      1767085556,
      1767085565,
      1767085592,
      1767085639,
      1767085662,
      1767085693,
      1767085738,
      1767085741,
      1767085750,
      1767085788,
      1767085826,
      1767085849,
      1767085883,
      1767085910,
      1767085916,
      1767085925
    ],
    "wof:geomhash": "dd592fc3ba1166457a0a8fda827a3666",
    "wof:id": 2014435273,
    "wof:repo": "sfomuseum-data-flights-2025-12"
  },
  "bbox": [
    -122.35969,
    37.49171,
    -121.27816,
    37.6144
  ],
  "geometry": {"coordinates":[[-121.27816,37.59072],[-121.29146,37.58908],[-121.34239,37.58359],[-121.38917,37.57837],[-121.44291,37.57192],[-121.52233,37.56281],[-121.59946,37.55373],[-121.62133,37.55105],[-121.67684,37.53846],[-121.72497,37.52687],[-121.78378,37.51286],[-121.83353,37.50075],[-121.85111,37.49653],[-121.91061,37.49171],[-121.92146,37.49201],[-121.95431,37.49279],[-121.97066,37.49334],[-121.98264,37.49454],[-122.01652,37.50388],[-122.075,37.52277],[-122.10084,37.53118],[-122.13516,37.54252],[-122.18456,37.55831],[-122.18775,37.55934],[-122.19703,37.56241],[-122.23552,37.5749],[-122.27529,37.5871],[-122.29677,37.59339],[-122.32491,37.60205],[-122.34737,37.60959],[-122.3524,37.61144],[-122.35969,37.6144]],"type":"LineString"}
}
