{
  "id": 2014426473,
  "type": "Feature",
  "properties": {
    "geom:area": 0,
    "geom:bbox": "-122.350390,37.491890,-121.283030,37.610700",
    "geom:latitude": 37.54504543411876,
    "geom:longitude": -121.82129420229595,
    "src:alt_label": "swim-approach",
    "src:geom": "swim",
    "swim:elevations": [
      4644,
      4431,
      4165,
      3956,
      3839,
      3718,
      3573,
      3389,
      3081,
      2848,
      2682,
      2353,
      2029,
      1947,
      1909,
      1776,
      1501,
      1181,
      1112,
      881,
      741,
      492,
      398,
      269,
      152,
      54
    ],
    "swim:geom": "approach",
    "swim:timestamps": [
      1767007791,
      1767007815,
      1767007846,
      1767007879,
      1767007911,
      1767007936,
      1767007968,
      1767008002,
      1767008032,
      1767008058,
      1767008076,
      1767008109,
      1767008158,
      1767008182,
      1767008192,
      1767008224,
      1767008259,
      1767008303,
      1767008313,
      1767008356,
      1767008408,
      1767008457,
      1767008477,
      1767008512,
      1767008540,
      1767008564
    ],
    "wof:geomhash": "c7e4b21604c1d8f325e765e1d680ef2a",
    "wof:id": 2014426473,
    "wof:repo": "sfomuseum-data-flights-2025-12"
  },
  "bbox": [
    -122.35039,
    37.49189,
    -121.28303,
    37.6107
  ],
  "geometry": {"coordinates":[[-121.28303,37.59008],[-121.33464,37.58431],[-121.40154,37.57687],[-121.46941,37.56905],[-121.53,37.56199],[-121.57504,37.55663],[-121.62961,37.54948],[-121.68129,37.53709],[-121.72695,37.52641],[-121.76523,37.51719],[-121.79111,37.51113],[-121.83739,37.50006],[-121.90617,37.49189],[-121.93885,37.49274],[-121.95271,37.4931],[-121.99551,37.49745],[-122.03816,37.51128],[-122.09219,37.52859],[-122.10434,37.53247],[-122.15446,37.54882],[-122.21146,37.56716],[-122.26184,37.58358],[-122.28062,37.58885],[-122.30832,37.59713],[-122.33142,37.60368],[-122.35039,37.6107]],"type":"LineString"}
}
