{
  "id": 2014411579,
  "type": "Feature",
  "properties": {
    "geom:area": 0,
    "geom:bbox": "-122.446110,36.719530,-121.453300,37.708790",
    "geom:latitude": 37.20965771882585,
    "geom:longitude": -122.06168862235442,
    "src:alt_label": "swim-takeoff",
    "src:geom": "swim",
    "swim:elevations": [
      152,
      444,
      652,
      955,
      1398,
      1664,
      2161,
      2508,
      2932,
      3332,
      3585,
      3795,
      4187,
      4394,
      5147,
      5497,
      5575,
      5804,
      6218,
      6554,
      7021,
      7328,
      7487,
      7902,
      8165,
      8415,
      8740,
      8985,
      9149,
      9526,
      9866,
      9992
    ],
    "swim:geom": "takeoff",
    "swim:timestamps": [
      1766825479,
      1766825506,
      1766825543,
      1766825574,
      1766825607,
      1766825625,
      1766825662,
      1766825690,
      1766825727,
      1766825756,
      1766825785,
      1766825803,
      1766825834,
      1766825850,
      1766825903,
      1766825936,
      1766825942,
      1766825959,
      1766825991,
      1766826016,
      1766826055,
      1766826085,
      1766826101,
      1766826142,
      1766826170,
      1766826200,
      1766826238,
      1766826262,
      1766826276,
      1766826312,
      1766826346,
      1766826360
    ],
    "wof:geomhash": "e4f25f929901dd8a930b9de89bfe98a8",
    "wof:id": 2014411579,
    "wof:repo": "sfomuseum-data-flights-2025-12"
  },
  "bbox": [
    -122.44611,
    36.71953,
    -121.4533,
    37.70879
  ],
  "geometry": {"coordinates":[[-122.36819,37.63],[-122.36213,37.64903],[-122.36176,37.68107],[-122.37904,37.70784],[-122.42397,37.70879],[-122.44219,37.69308],[-122.44611,37.64901],[-122.44132,37.61443],[-122.43409,37.56483],[-122.4279,37.52353],[-122.42184,37.47897],[-122.41775,37.4507],[-122.39799,37.40199],[-122.37476,37.38249],[-122.28896,37.32471],[-122.23548,37.28514],[-122.2254,37.27783],[-122.19575,37.2564],[-122.14167,37.21756],[-122.097,37.18549],[-122.0271,37.13529],[-121.97299,37.09633],[-121.9445,37.07586],[-121.86892,37.02158],[-121.81653,36.98358],[-121.75964,36.94236],[-121.68591,36.88878],[-121.64019,36.85587],[-121.61282,36.83612],[-121.54305,36.78512],[-121.47915,36.73853],[-121.4533,36.71953]],"type":"LineString"}
}
