{
  "id": 2014437961,
  "type": "Feature",
  "properties": {
    "geom:area": 0,
    "geom:bbox": "-122.387490,37.629720,-122.114590,38.498330",
    "geom:latitude": 38.0575671124198,
    "geom:longitude": -122.26514562053492,
    "src:alt_label": "swim-takeoff",
    "src:geom": "swim",
    "swim:elevations": [
      122,
      300,
      500,
      640,
      1514,
      1740,
      2516,
      2850,
      3090,
      3320,
      3504,
      3626,
      3946,
      4359,
      4545,
      4936,
      5392,
      5578,
      5783,
      6039,
      6247
    ],
    "swim:geom": "takeoff",
    "swim:timestamps": [
      1767133519,
      1767133538,
      1767133571,
      1767133591,
      1767133648,
      1767133663,
      1767133707,
      1767133737,
      1767133756,
      1767133786,
      1767133827,
      1767133847,
      1767133872,
      1767133915,
      1767133929,
      1767133963,
      1767134005,
      1767134032,
      1767134057,
      1767134084,
      1767134114
    ],
    "wof:geomhash": "878db798f31785c9670e41cddf84a0c5",
    "wof:id": 2014437961,
    "wof:repo": "sfomuseum-data-flights-2025-12"
  },
  "bbox": [
    -122.38749,
    37.62972,
    -122.11459,
    38.49833
  ],
  "geometry": {"coordinates":[[-122.36556,37.62972],[-122.35725,37.64144],[-122.33507,37.66112],[-122.31826,37.67612],[-122.33478,37.74163],[-122.34434,37.75934],[-122.37202,37.81539],[-122.38749,37.85493],[-122.38587,37.88203],[-122.38361,37.92772],[-122.35166,37.98822],[-122.32953,38.01972],[-122.30243,38.05937],[-122.25389,38.13003],[-122.23691,38.15471],[-122.19839,38.2109],[-122.1489,38.28277],[-122.11959,38.33135],[-122.11459,38.38175],[-122.11995,38.43642],[-122.12407,38.49833]],"type":"LineString"}
}
