{
  "id": 2014447415,
  "type": "Feature",
  "properties": {
    "geom:area": 0,
    "geom:bbox": "-122.469960,36.725990,-121.440090,37.714780",
    "geom:latitude": 37.23130753314192,
    "geom:longitude": -122.05461864403871,
    "src:alt_label": "swim-takeoff",
    "src:geom": "swim",
    "swim:elevations": [
      274,
      649,
      1037,
      1211,
      1672,
      1839,
      2436,
      2669,
      3166,
      3440,
      3646,
      4094,
      4248,
      4433,
      4804,
      5190,
      5507,
      5778,
      6193,
      6414,
      6774,
      6989,
      7184,
      7483,
      7789,
      8231,
      8533,
      8649,
      8842,
      9208,
      9452,
      9449,
      9449
    ],
    "swim:geom": "takeoff",
    "swim:timestamps": [
      1767206346,
      1767206380,
      1767206420,
      1767206445,
      1767206487,
      1767206498,
      1767206547,
      1767206563,
      1767206592,
      1767206627,
      1767206648,
      1767206696,
      1767206708,
      1767206723,
      1767206751,
      1767206786,
      1767206813,
      1767206835,
      1767206876,
      1767206898,
      1767206936,
      1767206961,
      1767206985,
      1767207025,
      1767207054,
      1767207081,
      1767207113,
      1767207126,
      1767207150,
      1767207206,
      1767207237,
      1767207246,
      1767207270
    ],
    "wof:geomhash": "000964f1878bbb464dfae9daea73246b",
    "wof:id": 2014447415,
    "wof:repo": "sfomuseum-data-flights-2025-12"
  },
  "bbox": [
    -122.46996,
    36.72599,
    -121.44009,
    37.71478
  ],
  "geometry": {"coordinates":[[-122.36567,37.63369],[-122.36273,37.66056],[-122.36508,37.69543],[-122.38632,37.71478],[-122.44294,37.71056],[-122.45278,37.70136],[-122.46278,37.64555],[-122.46417,37.6263],[-122.467,37.5893],[-122.46996,37.54254],[-122.46209,37.51234],[-122.3974,37.45577],[-122.37942,37.44182],[-122.35613,37.42448],[-122.31178,37.39143],[-122.25603,37.34945],[-122.21234,37.31654],[-122.17639,37.28926],[-122.10897,37.23814],[-122.07171,37.20977],[-122.00845,37.16164],[-121.96435,37.12809],[-121.92287,37.0965],[-121.85288,37.04317],[-121.80081,37.00354],[-121.7541,36.96824],[-121.70157,36.92789],[-121.67932,36.91064],[-121.63978,36.87992],[-121.54569,36.80772],[-121.49422,36.76756],[-121.47895,36.75641],[-121.44009,36.72599]],"type":"LineString"}
}
