{
  "id": 2014430641,
  "type": "Feature",
  "properties": {
    "geom:area": 0,
    "geom:bbox": "-122.575150,36.723780,-121.432090,37.714690",
    "geom:latitude": 37.257772290279604,
    "geom:longitude": -122.08880783553812,
    "src:alt_label": "swim-takeoff",
    "src:geom": "swim",
    "swim:elevations": [
      122,
      415,
      690,
      1144,
      1194,
      1750,
      2056,
      2638,
      3009,
      3275,
      3565,
      4072,
      4328,
      4612,
      4900,
      5419,
      5628,
      5810,
      6065,
      6332,
      6557,
      6992,
      7125,
      7388,
      7524,
      7918,
      8104,
      8284,
      8581,
      8722,
      8831,
      9009,
      9251,
      9388,
      9571
    ],
    "swim:geom": "takeoff",
    "swim:timestamps": [
      1767030052,
      1767030073,
      1767030091,
      1767030144,
      1767030151,
      1767030203,
      1767030223,
      1767030263,
      1767030295,
      1767030322,
      1767030347,
      1767030385,
      1767030408,
      1767030432,
      1767030460,
      1767030501,
      1767030529,
      1767030546,
      1767030567,
      1767030590,
      1767030614,
      1767030656,
      1767030676,
      1767030705,
      1767030720,
      1767030772,
      1767030795,
      1767030821,
      1767030863,
      1767030886,
      1767030907,
      1767030940,
      1767030981,
      1767031004,
      1767031035
    ],
    "wof:geomhash": "4e74a420b6bff3a1c2a69588e3f207ff",
    "wof:id": 2014430641,
    "wof:repo": "sfomuseum-data-flights-2025-12"
  },
  "bbox": [
    -122.57515,
    36.72378,
    -121.43209,
    37.71469
  ],
  "geometry": {"coordinates":[[-122.36947,37.62831],[-122.36369,37.64407],[-122.36307,37.65777],[-122.3788,37.69341],[-122.38723,37.69631],[-122.45781,37.71469],[-122.48648,37.70521],[-122.5334,37.66808],[-122.56972,37.63406],[-122.57515,37.59681],[-122.54841,37.56908],[-122.49146,37.53576],[-122.4584,37.51238],[-122.42413,37.48597],[-122.3829,37.45433],[-122.32138,37.4074],[-122.27858,37.37432],[-122.25214,37.35429],[-122.21937,37.32943],[-122.18474,37.30308],[-122.14726,37.27469],[-122.07912,37.22282],[-122.04863,37.19959],[-122.00141,37.16324],[-121.9766,37.14422],[-121.89058,37.0777],[-121.8514,37.0477],[-121.80754,37.01393],[-121.73532,36.95919],[-121.69506,36.92863],[-121.66019,36.90177],[-121.60114,36.85578],[-121.52837,36.79932],[-121.48683,36.76681],[-121.43209,36.72378]],"type":"LineString"}
}
