{
  "id": 2014407975,
  "type": "Feature",
  "properties": {
    "geom:area": 0,
    "geom:bbox": "-122.657650,37.451660,-122.162550,37.925040",
    "geom:latitude": 37.63259390852513,
    "geom:longitude": -122.37776552820432,
    "src:alt_label": "swim-approach",
    "src:geom": "swim",
    "swim:elevations": [
      4748,
      4369,
      3998,
      3725,
      3490,
      3364,
      3353,
      3353,
      3353,
      3279,
      3179,
      2765,
      2723,
      2191,
      1945,
      1673,
      1526,
      1204,
      1003,
      851,
      730,
      602,
      511,
      395,
      314,
      222,
      96,
      0
    ],
    "swim:geom": "approach",
    "swim:timestamps": [
      1766859824,
      1766859860,
      1766859891,
      1766859926,
      1766859956,
      1766859973,
      1766860012,
      1766860039,
      1766860063,
      1766860105,
      1766860118,
      1766860167,
      1766860170,
      1766860227,
      1766860252,
      1766860286,
      1766860303,
      1766860341,
      1766860373,
      1766860402,
      1766860432,
      1766860461,
      1766860496,
      1766860521,
      1766860547,
      1766860569,
      1766860607,
      1766860633
    ],
    "wof:geomhash": "b9ebd0163596de54e11abfd5dd81d96a",
    "wof:id": 2014407975,
    "wof:repo": "sfomuseum-data-flights-2025-12"
  },
  "bbox": [
    -122.65765,
    37.45166,
    -122.16255,
    37.92504
  ],
  "geometry": {"coordinates":[[-122.65765,37.92504],[-122.63916,37.86821],[-122.59749,37.82749],[-122.55396,37.78655],[-122.51772,37.75244],[-122.4972,37.73303],[-122.45147,37.69001],[-122.42068,37.66104],[-122.39346,37.63534],[-122.35476,37.59136],[-122.34659,37.57688],[-122.31795,37.52352],[-122.31617,37.52033],[-122.2588,37.47982],[-122.22846,37.46769],[-122.18719,37.45166],[-122.16674,37.45362],[-122.16255,37.48534],[-122.18078,37.51195],[-122.19584,37.53376],[-122.21559,37.55054],[-122.24021,37.56191],[-122.2669,37.57331],[-122.28495,37.58071],[-122.30296,37.58834],[-122.31831,37.59472],[-122.3448,37.60594],[-122.36345,37.61322]],"type":"LineString"}
}
