{
  "id": 2014417579,
  "type": "Feature",
  "properties": {
    "geom:area": 0,
    "geom:bbox": "-122.361150,36.743970,-121.891990,37.612780",
    "geom:latitude": 37.22425299945628,
    "geom:longitude": -122.07529348790456,
    "src:alt_label": "swim-approach",
    "src:geom": "swim",
    "swim:elevations": [
      5674,
      5507,
      5103,
      4845,
      4530,
      4134,
      3975,
      3518,
      3332,
      3116,
      2992,
      2929,
      2616,
      2479,
      2135,
      2084,
      1814,
      1795,
      1734,
      1490,
      1218,
      1097,
      927,
      706,
      572,
      404,
      320,
      159,
      50,
      104
    ],
    "swim:geom": "approach",
    "swim:timestamps": [
      1766961236,
      1766961260,
      1766961298,
      1766961319,
      1766961347,
      1766961383,
      1766961398,
      1766961442,
      1766961460,
      1766961502,
      1766961535,
      1766961544,
      1766961589,
      1766961607,
      1766961657,
      1766961664,
      1766961715,
      1766961733,
      1766961752,
      1766961794,
      1766961829,
      1766961851,
      1766961874,
      1766961915,
      1766961947,
      1766961983,
      1766962004,
      1766962040,
      1766962073,
      1766962085
    ],
    "wof:geomhash": "b06d10807bd2b332413b3e95a7fe76f7",
    "wof:id": 2014417579,
    "wof:repo": "sfomuseum-data-flights-2025-12"
  },
  "bbox": [
    -122.36115,
    36.74397,
    -121.89199,
    37.61278
  ],
  "geometry": {"coordinates":[[-121.89199,36.74397],[-121.90447,36.7788],[-121.92044,36.83585],[-121.92932,36.86792],[-121.94115,36.90967],[-121.95786,36.96401],[-121.96667,36.98638],[-121.99163,37.05096],[-122.00182,37.07732],[-122.02511,37.13653],[-122.04158,37.17904],[-122.04597,37.19013],[-122.06764,37.24506],[-122.07615,37.26665],[-122.09923,37.32574],[-122.10248,37.33399],[-122.12561,37.39373],[-122.1322,37.41303],[-122.13871,37.43224],[-122.15127,37.4709],[-122.16191,37.50066],[-122.16793,37.51814],[-122.17904,37.53595],[-122.22079,37.5537],[-122.2509,37.56658],[-122.28311,37.58018],[-122.29952,37.58704],[-122.32623,37.59824],[-122.35142,37.6088],[-122.36115,37.61278]],"type":"LineString"}
}
