{
  "id": 2014438543,
  "type": "Feature",
  "properties": {
    "geom:area": 0,
    "geom:bbox": "-123.485560,37.629890,-122.401720,38.269170",
    "geom:latitude": 37.94312551809234,
    "geom:longitude": -122.94704541782342,
    "src:alt_label": "swim-takeoff",
    "src:geom": "swim",
    "swim:elevations": [
      213,
      555,
      698,
      1059,
      1185,
      1365,
      1599,
      1972,
      2629,
      3023,
      3157,
      3350,
      3598,
      4225,
      4468,
      4869,
      5193,
      5432,
      5597,
      5868,
      6081,
      6462,
      6767
    ],
    "swim:geom": "takeoff",
    "swim:timestamps": [
      1767149379,
      1767149414,
      1767149431,
      1767149477,
      1767149513,
      1767149537,
      1767149561,
      1767149588,
      1767149636,
      1767149665,
      1767149675,
      1767149705,
      1767149732,
      1767149786,
      1767149804,
      1767149842,
      1767149872,
      1767149902,
      1767149917,
      1767149947,
      1767149971,
      1767150013,
      1767150049
    ],
    "wof:geomhash": "7190ae4eb19e1728d62fd5bee95e8770",
    "wof:id": 2014438543,
    "wof:repo": "sfomuseum-data-flights-2025-12"
  },
  "bbox": [
    -123.48556,
    37.62989,
    -122.40172,
    38.26917
  ],
  "geometry": {"coordinates":[[-122.40172,37.62989],[-122.43685,37.64507],[-122.45561,37.65395],[-122.50394,37.67565],[-122.54484,37.69921],[-122.57533,37.71717],[-122.60823,37.73662],[-122.64703,37.7593],[-122.71799,37.80116],[-122.76302,37.82919],[-122.77691,37.83781],[-122.82455,37.86734],[-122.87122,37.89586],[-122.96821,37.95513],[-123.00247,37.97608],[-123.07332,38.01932],[-123.1308,38.05431],[-123.18883,38.08954],[-123.2183,38.10732],[-123.2777,38.14337],[-123.32602,38.17259],[-123.41167,38.22411],[-123.48556,38.26917]],"type":"LineString"}
}
