{
  "id": 2014426061,
  "type": "Feature",
  "properties": {
    "geom:area": 0,
    "geom:bbox": "-122.367640,37.557820,-122.183270,37.620660",
    "geom:latitude": 37.58765929324026,
    "geom:longitude": -122.27608624383039,
    "src:alt_label": "swim-approach",
    "src:geom": "swim",
    "swim:elevations": [
      883,
      710,
      640,
      427,
      306,
      149,
      966
    ],
    "swim:geom": "approach",
    "swim:timestamps": [
      1767023663,
      1767023695,
      1767023709,
      1767023756,
      1767023780,
      1767023816,
      1767023859
    ],
    "wof:geomhash": "59044d86cb018981d501c3e767e9d7e2",
    "wof:id": 2014426061,
    "wof:repo": "sfomuseum-data-flights-2025-12"
  },
  "bbox": [
    -122.36764,
    37.55782,
    -122.18327,
    37.62066
  ],
  "geometry": {"coordinates":[[-122.18327,37.55782],[-122.21697,37.56904],[-122.23214,37.574],[-122.27927,37.58825],[-122.29993,37.59439],[-122.33098,37.60375],[-122.36764,37.62066]],"type":"LineString"}
}
