{
  "id": 2014428641,
  "type": "Feature",
  "properties": {
    "geom:area": 0,
    "geom:bbox": "-122.385860,37.637190,-121.438820,38.512730",
    "geom:latitude": 38.12369565256932,
    "geom:longitude": -122.0130587689474,
    "src:alt_label": "swim-takeoff",
    "src:geom": "swim",
    "swim:elevations": [
      279,
      479,
      530,
      953,
      1169,
      1522,
      2116,
      2394,
      2766,
      3153,
      3467,
      3595,
      4083,
      4324,
      4524,
      4747,
      5212,
      5465,
      5686,
      6023,
      6280,
      6542,
      6629,
      6850,
      7018,
      7159,
      7260,
      7548,
      7658
    ],
    "swim:geom": "takeoff",
    "swim:timestamps": [
      1767076498,
      1767076527,
      1767076539,
      1767076580,
      1767076596,
      1767076621,
      1767076663,
      1767076688,
      1767076722,
      1767076753,
      1767076793,
      1767076803,
      1767076856,
      1767076883,
      1767076902,
      1767076922,
      1767076964,
      1767076997,
      1767077024,
      1767077062,
      1767077089,
      1767077116,
      1767077128,
      1767077158,
      1767077185,
      1767077210,
      1767077228,
      1767077273,
      1767077295
    ],
    "wof:geomhash": "428a0fc45273be9cce1799ffe065bc2a",
    "wof:id": 2014428641,
    "wof:repo": "sfomuseum-data-flights-2025-12"
  },
  "bbox": [
    -122.38586,
    37.63719,
    -121.43882,
    38.51273
  ],
  "geometry": {"coordinates":[[-122.35984,37.63719],[-122.33796,37.65601],[-122.32777,37.66456],[-122.31481,37.70681],[-122.32384,37.72486],[-122.33996,37.75323],[-122.3649,37.80183],[-122.38033,37.83273],[-122.38586,37.87782],[-122.3827,37.92198],[-122.34066,37.96709],[-122.32479,37.97635],[-122.24136,38.02662],[-122.19708,38.05426],[-122.16544,38.07424],[-122.13087,38.09508],[-122.05799,38.13885],[-122.00026,38.17382],[-121.95326,38.20234],[-121.88465,38.24379],[-121.83436,38.2742],[-121.78468,38.30419],[-121.7625,38.31756],[-121.70651,38.35098],[-121.65538,38.38165],[-121.60862,38.40969],[-121.57309,38.43092],[-121.48388,38.48493],[-121.43882,38.51273]],"type":"LineString"}
}
