{
  "id": 2014413593,
  "type": "Feature",
  "properties": {
    "geom:area": 0,
    "geom:bbox": "-122.386250,37.628330,-121.260250,37.991250",
    "geom:latitude": 37.935580148964924,
    "geom:longitude": -121.94678828717834,
    "src:alt_label": "swim-takeoff",
    "src:geom": "swim",
    "swim:elevations": [
      91,
      382,
      809,
      967,
      1264,
      1421,
      1560,
      1844,
      2388,
      2920,
      3160,
      3373,
      3428,
      3708,
      3812,
      4123,
      4480,
      4689,
      4967,
      5285,
      5483,
      5574,
      5749,
      6022,
      6228,
      6308,
      6556,
      6793
    ],
    "swim:geom": "takeoff",
    "swim:timestamps": [
      1766882668,
      1766882692,
      1766882722,
      1766882736,
      1766882785,
      1766882812,
      1766882827,
      1766882851,
      1766882895,
      1766882937,
      1766882958,
      1766882988,
      1766883000,
      1766883048,
      1766883072,
      1766883104,
      1766883146,
      1766883170,
      1766883200,
      1766883236,
      1766883263,
      1766883287,
      1766883308,
      1766883347,
      1766883380,
      1766883392,
      1766883427,
      1766883466
    ],
    "wof:geomhash": "f400fa03bc1128084332bbc37e4df554",
    "wof:id": 2014413593,
    "wof:repo": "sfomuseum-data-flights-2025-12"
  },
  "bbox": [
    -122.38625,
    37.62833,
    -121.26025,
    37.99125
  ],
  "geometry": {"coordinates":[[-122.36644,37.62833],[-122.35269,37.6447],[-122.33144,37.66185],[-122.32242,37.66909],[-122.31462,37.70811],[-122.32973,37.73434],[-122.33882,37.74997],[-122.35223,37.77617],[-122.37746,37.82658],[-122.38625,37.87906],[-122.38523,37.90607],[-122.36751,37.9431],[-122.35014,37.95383],[-122.25585,37.96814],[-122.20517,37.97675],[-122.13589,37.98758],[-122.04109,37.98911],[-121.98489,37.98897],[-121.91445,37.98932],[-121.82926,37.99004],[-121.76463,37.99047],[-121.70658,37.99063],[-121.65553,37.99068],[-121.56026,37.99094],[-121.47829,37.99106],[-121.44833,37.99111],[-121.3594,37.99121],[-121.26025,37.99125]],"type":"LineString"}
}
