{
  "id": 2014435337,
  "type": "Feature",
  "properties": {
    "geom:area": 0,
    "geom:bbox": "-122.825130,37.551160,-122.073950,38.423330",
    "geom:latitude": 37.84640296585721,
    "geom:longitude": -122.47602907681285,
    "src:alt_label": "swim-approach",
    "src:geom": "swim",
    "swim:elevations": [
      7421,
      7222,
      6827,
      6649,
      6247,
      6179,
      5718,
      5692,
      5370,
      5210,
      4978,
      4725,
      4579,
      4198,
      4139,
      3845,
      3645,
      3503,
      3367,
      3100,
      2802,
      2687,
      2320,
      2158,
      1980,
      1831,
      1829,
      1829,
      1829,
      1829,
      1703,
      1552,
      1354,
      1196,
      856,
      688,
      634,
      403,
      332,
      184,
      11,
      0
    ],
    "swim:geom": "approach",
    "swim:timestamps": [
      1767128396,
      1767128416,
      1767128456,
      1767128476,
      1767128517,
      1767128526,
      1767128577,
      1767128580,
      1767128622,
      1767128640,
      1767128667,
      1767128696,
      1767128713,
      1767128756,
      1767128762,
      1767128806,
      1767128843,
      1767128864,
      1767128900,
      1767128932,
      1767128968,
      1767128981,
      1767129025,
      1767129048,
      1767129076,
      1767129115,
      1767129128,
      1767129176,
      1767129185,
      1767129219,
      1767129245,
      1767129266,
      1767129298,
      1767129312,
      1767129358,
      1767129387,
      1767129399,
      1767129446,
      1767129462,
      1767129501,
      1767129538,
      1767129546
    ],
    "wof:geomhash": "d02c55ec042b70178249fd0cf1dc2205",
    "wof:id": 2014435337,
    "wof:repo": "sfomuseum-data-flights-2025-12"
  },
  "bbox": [
    -122.82513,
    37.55116,
    -122.07395,
    38.42333
  ],
  "geometry": {"coordinates":[[-122.82513,38.42333],[-122.81535,38.38989],[-122.79523,38.32124],[-122.78543,38.28765],[-122.76527,38.21894],[-122.76075,38.20352],[-122.73664,38.12024],[-122.73527,38.11539],[-122.716,38.04901],[-122.70783,38.02082],[-122.69553,37.97834],[-122.68277,37.93456],[-122.67454,37.90878],[-122.62565,37.85533],[-122.61816,37.84823],[-122.56438,37.79738],[-122.52381,37.75896],[-122.50238,37.73929],[-122.4546,37.72265],[-122.41033,37.7135],[-122.36239,37.70254],[-122.34541,37.6987],[-122.28866,37.68617],[-122.26148,37.67699],[-122.22951,37.6643],[-122.18521,37.64632],[-122.17131,37.64059],[-122.11681,37.61778],[-122.10682,37.6136],[-122.07589,37.59248],[-122.07395,37.57008],[-122.08747,37.55493],[-122.1228,37.55116],[-122.13883,37.55283],[-122.19151,37.56089],[-122.22219,37.57083],[-122.235,37.57491],[-122.28248,37.58956],[-122.2969,37.59378],[-122.32739,37.60294],[-122.35549,37.61279],[-122.36039,37.61505]],"type":"LineString"}
}
