{
  "id": 2014443949,
  "type": "Feature",
  "properties": {
    "geom:area": 0,
    "geom:bbox": "-122.361090,36.726230,-121.881070,37.613320",
    "geom:latitude": 37.229845934273904,
    "geom:longitude": -122.09953013777039,
    "src:alt_label": "swim-approach",
    "src:geom": "swim",
    "swim:elevations": [
      5135,
      4919,
      4640,
      4498,
      4417,
      4233,
      4136,
      3922,
      3727,
      3621,
      3481,
      3350,
      3210,
      3026,
      2875,
      2693,
      2561,
      2416,
      2298,
      2090,
      1929,
      1768,
      1710,
      1598,
      1255,
      1202,
      934,
      819,
      615,
      480,
      340,
      269,
      75,
      0
    ],
    "swim:geom": "approach",
    "swim:timestamps": [
      1767214148,
      1767214170,
      1767214206,
      1767214243,
      1767214272,
      1767214309,
      1767214342,
      1767214378,
      1767214405,
      1767214420,
      1767214438,
      1767214455,
      1767214483,
      1767214521,
      1767214555,
      1767214587,
      1767214617,
      1767214639,
      1767214662,
      1767214701,
      1767214728,
      1767214761,
      1767214779,
      1767214805,
      1767214856,
      1767214862,
      1767214907,
      1767214928,
      1767214967,
      1767214999,
      1767215029,
      1767215047,
      1767215098,
      1767215110
    ],
    "wof:geomhash": "9dda3894ae2aabf0144a9c9694cb1ba5",
    "wof:id": 2014443949,
    "wof:repo": "sfomuseum-data-flights-2025-12"
  },
  "bbox": [
    -122.36109,
    36.72623,
    -121.88107,
    37.61332
  ],
  "geometry": {"coordinates":[[-121.88107,36.72623],[-121.8997,36.76357],[-121.91754,36.8262],[-121.93404,36.88592],[-121.94632,36.92895],[-121.96418,36.97915],[-121.98015,37.021],[-121.99733,37.06493],[-122.00987,37.09735],[-122.01698,37.11532],[-122.0253,37.13697],[-122.03564,37.15662],[-122.065,37.18207],[-122.10645,37.21627],[-122.1419,37.24557],[-122.1766,37.27385],[-122.20856,37.29965],[-122.23189,37.31883],[-122.24816,37.3419],[-122.22178,37.37874],[-122.18928,37.39401],[-122.15407,37.41767],[-122.1449,37.43571],[-122.13224,37.46065],[-122.12783,37.50966],[-122.13308,37.51382],[-122.18004,37.53662],[-122.20182,37.54593],[-122.23964,37.56185],[-122.26955,37.5743],[-122.29548,37.58524],[-122.30983,37.59136],[-122.35099,37.60848],[-122.36109,37.61332]],"type":"LineString"}
}
