{
  "id": 2014424473,
  "type": "Feature",
  "properties": {
    "geom:area": 0,
    "geom:bbox": "-122.353100,36.732390,-121.885080,37.609480",
    "geom:latitude": 37.21079843274184,
    "geom:longitude": -122.07028870024479,
    "src:alt_label": "swim-approach",
    "src:geom": "swim",
    "swim:elevations": [
      5252,
      5123,
      4654,
      4356,
      4245,
      3876,
      3573,
      3393,
      3141,
      3110,
      3006,
      2857,
      2608,
      2438,
      2360,
      2298,
      2091,
      1765,
      1698,
      1522,
      1496,
      1337,
      1038,
      891,
      808,
      638,
      467,
      323,
      216,
      88,
      40
    ],
    "swim:geom": "approach",
    "swim:timestamps": [
      1767041216,
      1767041229,
      1767041275,
      1767041304,
      1767041316,
      1767041360,
      1767041393,
      1767041414,
      1767041458,
      1767041474,
      1767041508,
      1767041532,
      1767041562,
      1767041590,
      1767041637,
      1767041643,
      1767041676,
      1767041722,
      1767041734,
      1767041770,
      1767041793,
      1767041826,
      1767041871,
      1767041888,
      1767041897,
      1767041920,
      1767041968,
      1767041993,
      1767042018,
      1767042050,
      1767042063
    ],
    "wof:geomhash": "8b599ceb10abc3f7ffff1f7b09ba9c5c",
    "wof:id": 2014424473,
    "wof:repo": "sfomuseum-data-flights-2025-12"
  },
  "bbox": [
    -122.3531,
    36.73239,
    -121.88508,
    37.60948
  ],
  "geometry": {"coordinates":[[-121.88508,36.73239],[-121.89544,36.75253],[-121.91713,36.82383],[-121.92993,36.86986],[-121.93502,36.88831],[-121.95388,36.95467],[-121.97367,37.00539],[-121.98617,37.03724],[-122.01119,37.10155],[-122.01948,37.12286],[-122.0367,37.16594],[-122.04802,37.19465],[-122.06235,37.23126],[-122.07566,37.266],[-122.09593,37.31764],[-122.09844,37.32385],[-122.11216,37.35791],[-122.12866,37.40546],[-122.13285,37.41762],[-122.14595,37.45258],[-122.15527,37.47269],[-122.17166,37.49762],[-122.20003,37.5269],[-122.21059,37.53738],[-122.21646,37.54313],[-122.23168,37.55673],[-122.274,37.57611],[-122.29532,37.58525],[-122.31638,37.59418],[-122.34273,37.60515],[-122.3531,37.60948]],"type":"LineString"}
}
