{
  "id": 2014408547,
  "type": "Feature",
  "properties": {
    "geom:area": 0,
    "geom:bbox": "-123.236420,37.544060,-122.127450,38.467470",
    "geom:latitude": 37.91600669759764,
    "geom:longitude": -122.63254506809122,
    "src:alt_label": "swim-approach",
    "src:geom": "swim",
    "swim:elevations": [
      7407,
      7221,
      6860,
      6739,
      6665,
      6468,
      6151,
      6042,
      5683,
      5566,
      5415,
      5135,
      4843,
      4635,
      4452,
      4269,
      3972,
      3781,
      3595,
      3353,
      3199,
      3052,
      2763,
      2630,
      2268,
      2164,
      1844,
      1799,
      1614,
      1370,
      1040,
      910,
      832,
      786,
      728,
      687,
      545,
      438,
      243,
      120,
      30
    ],
    "swim:geom": "approach",
    "swim:timestamps": [
      1766853400,
      1766853423,
      1766853469,
      1766853487,
      1766853497,
      1766853521,
      1766853565,
      1766853577,
      1766853625,
      1766853641,
      1766853673,
      1766853708,
      1766853747,
      1766853774,
      1766853797,
      1766853821,
      1766853857,
      1766853872,
      1766853904,
      1766853953,
      1766853987,
      1766854001,
      1766854033,
      1766854056,
      1766854103,
      1766854121,
      1766854160,
      1766854197,
      1766854220,
      1766854245,
      1766854285,
      1766854313,
      1766854345,
      1766854359,
      1766854376,
      1766854387,
      1766854416,
      1766854440,
      1766854483,
      1766854517,
      1766854540
    ],
    "wof:geomhash": "00ea5d7775e0f5542fa1f180c7c52ce5",
    "wof:id": 2014408547,
    "wof:repo": "sfomuseum-data-flights-2025-12"
  },
  "bbox": [
    -123.23642,
    37.54406,
    -122.12745,
    38.46747
  ],
  "geometry": {"coordinates":[[-123.23642,38.46747],[-123.2025,38.43278],[-123.13358,38.36451],[-123.10725,38.33808],[-123.09331,38.32404],[-123.05824,38.28876],[-122.99535,38.22566],[-122.97821,38.20834],[-122.90979,38.13905],[-122.88785,38.11695],[-122.84449,38.07301],[-122.79634,38.024],[-122.74474,37.97165],[-122.70963,37.93592],[-122.67991,37.90561],[-122.64967,37.87525],[-122.60479,37.83375],[-122.58669,37.81708],[-122.54843,37.78142],[-122.48916,37.73171],[-122.43369,37.71665],[-122.41185,37.71133],[-122.3618,37.69975],[-122.32737,37.69182],[-122.26125,37.67664],[-122.23536,37.67002],[-122.18478,37.65077],[-122.14294,37.63377],[-122.12745,37.6181],[-122.13029,37.59592],[-122.1409,37.5589],[-122.16341,37.54406],[-122.1976,37.54646],[-122.21068,37.55169],[-122.22613,37.55841],[-122.23584,37.56256],[-122.26129,37.57322],[-122.28171,37.58186],[-122.31407,37.59546],[-122.33769,37.6054],[-122.35462,37.61248]],"type":"LineString"}
}
