{
  "id": 2014418945,
  "type": "Feature",
  "properties": {
    "geom:area": 0,
    "geom:bbox": "-122.466530,36.791400,-121.403360,37.709360",
    "geom:latitude": 37.240131401904904,
    "geom:longitude": -122.03599564521532,
    "src:alt_label": "swim-takeoff",
    "src:geom": "swim",
    "swim:elevations": [
      408,
      555,
      733,
      939,
      983,
      1363,
      1890,
      2123,
      2438,
      2736,
      2997,
      3262,
      3394,
      3657,
      3967,
      4233,
      4491,
      4748,
      4888,
      5180,
      5398,
      5623,
      5688,
      5870,
      6233,
      6368,
      6598,
      6742,
      6918,
      7070
    ],
    "swim:geom": "takeoff",
    "swim:timestamps": [
      1766938194,
      1766938208,
      1766938234,
      1766938286,
      1766938293,
      1766938336,
      1766938377,
      1766938399,
      1766938423,
      1766938446,
      1766938477,
      1766938515,
      1766938542,
      1766938587,
      1766938615,
      1766938640,
      1766938676,
      1766938701,
      1766938718,
      1766938750,
      1766938779,
      1766938821,
      1766938830,
      1766938864,
      1766938915,
      1766938940,
      1766938977,
      1766938994,
      1766939022,
      1766939056
    ],
    "wof:geomhash": "aa5db4ce966c668fbe6ac9645080d3be",
    "wof:id": 2014418945,
    "wof:repo": "sfomuseum-data-flights-2025-12"
  },
  "bbox": [
    -122.46653,
    36.7914,
    -121.40336,
    37.70936
  ],
  "geometry": {"coordinates":[[-122.3648,37.63903],[-122.36338,37.64921],[-122.36212,37.66802],[-122.38593,37.70794],[-122.39491,37.70936],[-122.44226,37.67504],[-122.44723,37.62079],[-122.45287,37.59145],[-122.46001,37.55793],[-122.46653,37.52677],[-122.45958,37.48373],[-122.40716,37.44711],[-122.36659,37.42086],[-122.28991,37.37108],[-122.24145,37.33979],[-122.19768,37.31152],[-122.13461,37.2706],[-122.08795,37.24031],[-122.05758,37.22061],[-121.998,37.18183],[-121.94553,37.14767],[-121.86507,37.09516],[-121.84872,37.08452],[-121.7827,37.0414],[-121.68265,36.97567],[-121.63517,36.94445],[-121.56148,36.89594],[-121.52603,36.87251],[-121.47018,36.8356],[-121.40336,36.7914]],"type":"LineString"}
}
