{
  "id": 2014412757,
  "type": "Feature",
  "properties": {
    "date:inception_lower": "2025-12-27",
    "date:inception_upper": "2025-12-27",
    "edtf:cessation": "",
    "edtf:inception": "2025-12-27",
    "flysfo:actual_timestamp": -1,
    "flysfo:airline": "AZ",
    "flysfo:base_airline": "",
    "flysfo:base_flight_number": "3528",
    "flysfo:date": "2025-12-27",
    "flysfo:estimated_timestamp": 1766882700,
    "flysfo:event": "D",
    "flysfo:flight_number": "AZ4488",
    "flysfo:gate": "G12",
    "flysfo:journey": "SFO-KOA",
    "flysfo:scheduled_timestamp": 1766882700,
    "flysfo:timestamp": 1766882700,
    "geom:area": 0,
    "geom:bbox": "-156.035060,19.732444,-122.370943,37.617990",
    "geom:latitude": 28.675217,
    "geom:longitude": -139.2030015,
    "iata:airline": "AZ",
    "iata:base_airline": "",
    "icao:airline": "ITY",
    "icao:base_airline": "ACA",
    "lbl:latitude": 37.61799,
    "lbl:longitude": -122.370943,
    "sfomuseum:airline_id": 1763699293,
    "sfomuseum:arrival_id": 102532939,
    "sfomuseum:base_flight_id": "20251227-D-ACA-3528",
    "sfomuseum:departure_id": 102527513,
    "sfomuseum:flight_id": "20251227-D-ITY-4488",
    "sfomuseum:flight_number": [
      "ITY4488",
      "AZ4488"
    ],
    "sfomuseum:placetype": "flight",
    "src:geom": "flysfo",
    "wof:belongsto": [
      1947304067,
      102527513,
      1947304129,
      102191575,
      85633793,
      102087579,
      85922583,
      554784711,
      85688637,
      1947304147,
      1947304069,
      102085387
    ],
    "wof:country": "US",
    "wof:created": 1766938455,
    "wof:geomhash": "ffd2c7b34797175c51fc3517b1c4b69d",
    "wof:hierarchy": [
      {
        "building_id": 1947304067,
        "campus_id": 102527513,
        "concourse_id": 1947304129,
        "continent_id": 102191575,
        "country_id": 85633793,
        "county_id": 102087579,
        "custom_id": 2014412757,
        "flight_id": 2014412757,
        "locality_id": 85922583,
        "postalcode_id": 554784711,
        "region_id": 85688637,
        "venue_id": 1947304147,
        "wing_id": 1947304069
      },
      {
        "building_id": 1947304067,
        "campus_id": 102527513,
        "concourse_id": 1947304129,
        "continent_id": 102191575,
        "country_id": 85633793,
        "county_id": 102085387,
        "custom_id": 2014412757,
        "flight_id": 2014412757,
        "region_id": 85688637,
        "venue_id": 1947304147,
        "wing_id": 1947304069
      }
    ],
    "wof:id": 2014412757,
    "wof:involves": [
      102532939,
      102527513,
      1763699293,
      1947304147,
      1159283597
    ],
    "wof:lastmodified": 1766938455,
    "wof:name": "AZ4488 (SFO-KOA)",
    "wof:parent_id": 1947304147,
    "wof:placetype": "custom",
    "wof:placetype_alt": [
      "flight"
    ],
    "wof:repo": "sfomuseum-data-flights-2025-12",
    "wof:superseded_by": [],
    "wof:supersedes": []
  },
  "bbox": [
    -156.03506,
    19.732444,
    -122.370943,
    37.61799
  ],
  "geometry": {"coordinates":[[-122.370943,37.61799],[-156.03506,19.732444]],"type":"MultiPoint"}
}
