{
  "id": 2014422047,
  "type": "Feature",
  "properties": {
    "geom:area": 0,
    "geom:bbox": "-122.364590,37.631120,-121.257700,37.967550",
    "geom:latitude": 37.853080811221616,
    "geom:longitude": -121.8509638970257,
    "src:alt_label": "swim-takeoff",
    "src:geom": "swim",
    "swim:elevations": [
      245,
      967,
      1036,
      1342,
      1441,
      1880,
      2227,
      2733,
      2861,
      3237,
      3413,
      3539,
      3611,
      3850,
      3932,
      4433,
      4711,
      4972,
      5149,
      5475,
      5628,
      5846,
      5972,
      6281
    ],
    "swim:geom": "takeoff",
    "swim:timestamps": [
      1766911626,
      1766911673,
      1766911681,
      1766911734,
      1766911750,
      1766911787,
      1766911812,
      1766911855,
      1766911866,
      1766911906,
      1766911939,
      1766911969,
      1766911981,
      1766912006,
      1766912013,
      1766912066,
      1766912096,
      1766912125,
      1766912145,
      1766912177,
      1766912210,
      1766912237,
      1766912259,
      1766912302
    ],
    "wof:geomhash": "da86dd31e00369c49a356a32339e423b",
    "wof:id": 2014422047,
    "wof:repo": "sfomuseum-data-flights-2025-12"
  },
  "bbox": [
    -122.36459,
    37.63112,
    -121.2577,
    37.96755
  ],
  "geometry": {"coordinates":[[-122.36459,37.63112],[-122.32883,37.65442],[-122.32249,37.65798],[-122.27431,37.68672],[-122.25552,37.69681],[-122.21811,37.7261],[-122.22366,37.755],[-122.22447,37.80431],[-122.21129,37.81402],[-122.14709,37.82688],[-122.08695,37.83717],[-122.02759,37.84676],[-122.00227,37.85083],[-121.94921,37.85923],[-121.93446,37.86161],[-121.81904,37.87998],[-121.74898,37.89114],[-121.68241,37.90159],[-121.63524,37.90896],[-121.55995,37.92067],[-121.48167,37.9329],[-121.41641,37.94307],[-121.36493,37.95104],[-121.2577,37.96755]],"type":"LineString"}
}
