{
  "id": 2014423145,
  "type": "Feature",
  "properties": {
    "geom:area": 0,
    "geom:bbox": "-122.350560,37.491980,-121.250370,37.610840",
    "geom:latitude": 37.54620185406768,
    "geom:longitude": -121.80523591713947,
    "src:alt_label": "swim-approach",
    "src:geom": "swim",
    "swim:elevations": [
      4740,
      4439,
      4249,
      3804,
      3574,
      3416,
      3151,
      2916,
      2713,
      2542,
      2485,
      2253,
      2133,
      1980,
      1831,
      1769,
      1694,
      1614,
      1447,
      1404,
      1298,
      1161,
      1112,
      852,
      667,
      471,
      390,
      303,
      94,
      65
    ],
    "swim:geom": "approach",
    "swim:timestamps": [
      1767048463,
      1767048496,
      1767048517,
      1767048567,
      1767048597,
      1767048619,
      1767048651,
      1767048684,
      1767048717,
      1767048743,
      1767048751,
      1767048789,
      1767048811,
      1767048851,
      1767048890,
      1767048902,
      1767048917,
      1767048930,
      1767048961,
      1767048968,
      1767048983,
      1767049011,
      1767049023,
      1767049064,
      1767049100,
      1767049137,
      1767049158,
      1767049177,
      1767049226,
      1767049231
    ],
    "wof:geomhash": "972c70ae44a373e2df7a85c8b608f947",
    "wof:id": 2014423145,
    "wof:repo": "sfomuseum-data-flights-2025-12"
  },
  "bbox": [
    -122.35056,
    37.49198,
    -121.25037,
    37.61084
  ],
  "geometry": {"coordinates":[[-121.25037,37.59444],[-121.3212,37.58561],[-121.36569,37.58096],[-121.4702,37.56925],[-121.52826,37.56202],[-121.56913,37.55731],[-121.6281,37.54955],[-121.68422,37.53643],[-121.73808,37.52369],[-121.77885,37.51397],[-121.79089,37.5112],[-121.84615,37.4977],[-121.87796,37.49198],[-121.93277,37.4921],[-121.98341,37.49442],[-121.99826,37.4977],[-122.01597,37.50366],[-122.031,37.50851],[-122.06824,37.5206],[-122.07577,37.52303],[-122.09364,37.52883],[-122.12603,37.53937],[-122.14009,37.54386],[-122.18897,37.5599],[-122.22861,37.57259],[-122.26722,37.58501],[-122.28703,37.5906],[-122.30449,37.59576],[-122.34668,37.6092],[-122.35056,37.61084]],"type":"LineString"}
}
