{
  "id": 2014421435,
  "type": "Feature",
  "properties": {
    "geom:area": 0,
    "geom:bbox": "-123.482820,37.626640,-122.394080,37.784160",
    "geom:latitude": 37.70261547579002,
    "geom:longitude": -122.93826225912589,
    "src:alt_label": "swim-takeoff",
    "src:geom": "swim",
    "swim:elevations": [
      152,
      713,
      798,
      1069,
      1160,
      1500,
      1683,
      1935,
      2151,
      2350,
      2826,
      3011,
      3293,
      3444,
      3518,
      3730,
      3949,
      4411,
      4731,
      5006,
      5338,
      5450
    ],
    "swim:geom": "takeoff",
    "swim:timestamps": [
      1766963142,
      1766963186,
      1766963195,
      1766963243,
      1766963264,
      1766963306,
      1766963333,
      1766963366,
      1766963393,
      1766963411,
      1766963450,
      1766963468,
      1766963498,
      1766963516,
      1766963522,
      1766963540,
      1766963564,
      1766963606,
      1766963638,
      1766963663,
      1766963693,
      1766963705
    ],
    "wof:geomhash": "fb8d2fa7ac5a85512228355bee4c1019",
    "wof:id": 2014421435,
    "wof:repo": "sfomuseum-data-flights-2025-12"
  },
  "bbox": [
    -123.48282,
    37.62664,
    -122.39408,
    37.78416
  ],
  "geometry": {"coordinates":[[-122.39408,37.62664],[-122.43775,37.64507],[-122.44662,37.64935],[-122.4983,37.67231],[-122.52866,37.67665],[-122.59616,37.6807],[-122.64378,37.68318],[-122.70737,37.68711],[-122.76288,37.69039],[-122.80122,37.69274],[-122.88618,37.6977],[-122.92514,37.70002],[-122.99411,37.70404],[-123.03626,37.70641],[-123.05053,37.70725],[-123.09396,37.70969],[-123.15096,37.71287],[-123.25554,37.7188],[-123.33153,37.73082],[-123.38963,37.74915],[-123.45608,37.77416],[-123.48282,37.78416]],"type":"LineString"}
}
