{
  "id": 2014426405,
  "type": "Feature",
  "properties": {
    "geom:area": 0,
    "geom:bbox": "-123.492710,36.962870,-122.130530,37.615060",
    "geom:latitude": 37.28839126245326,
    "geom:longitude": -122.71812739214509,
    "src:alt_label": "swim-approach",
    "src:geom": "swim",
    "swim:elevations": [
      7439,
      7092,
      6544,
      6025,
      5721,
      5378,
      4999,
      4695,
      4065,
      3651,
      3158,
      3050,
      3026,
      3048,
      3048,
      3048,
      3048,
      3048,
      3048,
      3048,
      2783,
      2579,
      2503,
      2348,
      2209,
      2014,
      1756,
      1528,
      1288,
      1096,
      987,
      825,
      569,
      487,
      272,
      131,
      0
    ],
    "swim:geom": "approach",
    "swim:timestamps": [
      1767071596,
      1767071617,
      1767071658,
      1767071697,
      1767071718,
      1767071749,
      1767071773,
      1767071794,
      1767071837,
      1767071867,
      1767071900,
      1767071926,
      1767071962,
      1767071992,
      1767072016,
      1767072052,
      1767072076,
      1767072112,
      1767072142,
      1767072165,
      1767072208,
      1767072235,
      1767072247,
      1767072286,
      1767072307,
      1767072337,
      1767072367,
      1767072397,
      1767072427,
      1767072457,
      1767072487,
      1767072513,
      1767072563,
      1767072578,
      1767072623,
      1767072653,
      1767072686
    ],
    "wof:geomhash": "474db11ced3002d6039580e04389d081",
    "wof:id": 2014426405,
    "wof:repo": "sfomuseum-data-flights-2025-12"
  },
  "bbox": [
    -123.49271,
    36.96287,
    -122.13053,
    37.61506
  ],
  "geometry": {"coordinates":[[-123.49271,36.96287],[-123.44694,36.98404],[-123.35687,37.02745],[-123.27543,37.06564],[-123.23186,37.08583],[-123.17032,37.11449],[-123.12143,37.13745],[-123.08087,37.15648],[-122.99992,37.19416],[-122.94353,37.22034],[-122.88196,37.24876],[-122.83005,37.26506],[-122.76494,37.28064],[-122.71452,37.29246],[-122.6729,37.30203],[-122.6104,37.31655],[-122.56913,37.32621],[-122.51097,37.33974],[-122.46653,37.34998],[-122.43331,37.35758],[-122.36925,37.37231],[-122.32882,37.38158],[-122.31096,37.38562],[-122.25508,37.39855],[-122.2266,37.40523],[-122.19155,37.42257],[-122.15886,37.44099],[-122.13053,37.46283],[-122.13296,37.49278],[-122.14604,37.52162],[-122.17679,37.53748],[-122.2041,37.54922],[-122.2553,37.57088],[-122.27066,37.57715],[-122.31178,37.59449],[-122.33664,37.60472],[-122.36324,37.61506]],"type":"LineString"}
}
