{
  "id": 2014443215,
  "type": "Feature",
  "properties": {
    "geom:area": 0,
    "geom:bbox": "-122.352780,37.491540,-121.275230,37.611770",
    "geom:latitude": 37.5414655720895,
    "geom:longitude": -121.82087700165043,
    "src:alt_label": "swim-approach",
    "src:geom": "swim",
    "swim:elevations": [
      4733,
      4474,
      4138,
      3895,
      3814,
      3525,
      3184,
      3009,
      2822,
      2592,
      2531,
      2412,
      2222,
      2134,
      1957,
      1926,
      1720,
      1555,
      1438,
      1293,
      1099,
      1015,
      791,
      713,
      453,
      315,
      229,
      174,
      153,
      39
    ],
    "swim:geom": "approach",
    "swim:timestamps": [
      1767215753,
      1767215780,
      1767215818,
      1767215848,
      1767215859,
      1767215896,
      1767215936,
      1767215963,
      1767215990,
      1767216022,
      1767216031,
      1767216058,
      1767216088,
      1767216115,
      1767216148,
      1767216152,
      1767216203,
      1767216230,
      1767216242,
      1767216263,
      1767216296,
      1767216311,
      1767216348,
      1767216364,
      1767216413,
      1767216442,
      1767216466,
      1767216478,
      1767216484,
      1767216513
    ],
    "wof:geomhash": "9da311ce07c13e9d8b4dc2c6a4a6e880",
    "wof:id": 2014443215,
    "wof:repo": "sfomuseum-data-flights-2025-12"
  },
  "bbox": [
    -122.35278,
    37.49154,
    -121.27523,
    37.61177
  ],
  "geometry": {"coordinates":[[-121.27523,37.59145],[-121.32379,37.58559],[-121.39282,37.57848],[-121.44601,37.57159],[-121.46635,37.56896],[-121.53182,37.56149],[-121.6026,37.55335],[-121.6492,37.54488],[-121.69138,37.53489],[-121.74335,37.52273],[-121.75741,37.51935],[-121.79885,37.50944],[-121.84353,37.49856],[-121.88574,37.49154],[-121.93959,37.49462],[-121.94676,37.49498],[-122.02645,37.49974],[-122.06588,37.50215],[-122.08307,37.50278],[-122.11202,37.5099],[-122.15259,37.52754],[-122.17006,37.53496],[-122.21239,37.55267],[-122.22835,37.55949],[-122.27653,37.57965],[-122.29987,37.58939],[-122.31793,37.59704],[-122.32677,37.60075],[-122.3312,37.6026],[-122.35278,37.61177]],"type":"LineString"}
}
