{
  "id": 2014433279,
  "type": "Feature",
  "properties": {
    "geom:area": 0,
    "geom:bbox": "-122.357870,37.492080,-121.256620,37.613810",
    "geom:latitude": 37.54651441155939,
    "geom:longitude": -121.81211491559263,
    "src:alt_label": "swim-approach",
    "src:geom": "swim",
    "swim:elevations": [
      4617,
      4408,
      4137,
      3798,
      3439,
      3398,
      3079,
      3049,
      2800,
      2664,
      2462,
      2366,
      2144,
      2013,
      1953,
      1787,
      1536,
      1290,
      1220,
      946,
      755,
      696,
      553,
      393,
      232,
      69,
      0
    ],
    "swim:geom": "approach",
    "swim:timestamps": [
      1767130857,
      1767130876,
      1767130903,
      1767130940,
      1767130976,
      1767130982,
      1767131038,
      1767131051,
      1767131093,
      1767131112,
      1767131149,
      1767131167,
      1767131209,
      1767131246,
      1767131258,
      1767131294,
      1767131332,
      1767131367,
      1767131378,
      1767131422,
      1767131456,
      1767131468,
      1767131498,
      1767131529,
      1767131564,
      1767131606,
      1767131618
    ],
    "wof:geomhash": "afa157af5caf243c465ca03c141aefa5",
    "wof:id": 2014433279,
    "wof:repo": "sfomuseum-data-flights-2025-12"
  },
  "bbox": [
    -122.35787,
    37.49208,
    -121.25662,
    37.61381
  ],
  "geometry": {"coordinates":[[-121.25662,37.59359],[-121.29638,37.58842],[-121.35035,37.58276],[-121.42255,37.57439],[-121.49258,37.56635],[-121.50411,37.56501],[-121.60763,37.55282],[-121.62855,37.54967],[-121.69418,37.53439],[-121.72422,37.52708],[-121.78088,37.5135],[-121.80709,37.50723],[-121.86548,37.49343],[-121.92078,37.49208],[-121.93876,37.49255],[-121.99246,37.49637],[-122.04754,37.51389],[-122.09612,37.52997],[-122.11156,37.53495],[-122.16742,37.55299],[-122.20624,37.56543],[-122.21922,37.56967],[-122.25046,37.57956],[-122.28321,37.58936],[-122.31381,37.5986],[-122.34823,37.60984],[-122.35787,37.61381]],"type":"LineString"}
}
