{
  "id": 2014413865,
  "type": "Feature",
  "properties": {
    "geom:area": 0,
    "geom:bbox": "-122.386300,37.631500,-121.438200,38.513020",
    "geom:latitude": 38.11996216698194,
    "geom:longitude": -122.0158299866281,
    "src:alt_label": "swim-takeoff",
    "src:geom": "swim",
    "swim:elevations": [
      183,
      510,
      741,
      1132,
      1201,
      1412,
      1996,
      2346,
      2940,
      3010,
      3246,
      3476,
      3808,
      4238,
      4500,
      4686,
      5203,
      5218,
      5315,
      5466,
      5755,
      6001,
      6070,
      6537,
      6693,
      6759,
      6801,
      7198,
      7303,
      7645,
      7831,
      7867
    ],
    "swim:geom": "takeoff",
    "swim:timestamps": [
      1766882071,
      1766882095,
      1766882110,
      1766882156,
      1766882165,
      1766882195,
      1766882240,
      1766882264,
      1766882306,
      1766882312,
      1766882331,
      1766882363,
      1766882393,
      1766882428,
      1766882452,
      1766882470,
      1766882516,
      1766882522,
      1766882544,
      1766882566,
      1766882607,
      1766882633,
      1766882642,
      1766882698,
      1766882716,
      1766882725,
      1766882731,
      1766882782,
      1766882797,
      1766882848,
      1766882874,
      1766882880
    ],
    "wof:geomhash": "4239b0391ce580aa27467f0c398a84f5",
    "wof:id": 2014413865,
    "wof:repo": "sfomuseum-data-flights-2025-12"
  },
  "bbox": [
    -122.3863,
    37.6315,
    -121.4382,
    38.51302
  ],
  "geometry": {"coordinates":[[-122.36439,37.6315],[-122.34987,37.64659],[-122.33953,37.65483],[-122.31228,37.68211],[-122.31046,37.69024],[-122.32158,37.72033],[-122.34852,37.76885],[-122.36213,37.79643],[-122.38466,37.84529],[-122.38603,37.85286],[-122.3863,37.87722],[-122.3827,37.92168],[-122.35455,37.95958],[-122.30002,37.99343],[-122.26069,38.01634],[-122.23122,38.03418],[-122.15422,38.08036],[-122.14389,38.08658],[-122.10354,38.11102],[-122.06405,38.1348],[-121.98749,38.18134],[-121.93665,38.2122],[-121.91917,38.22282],[-121.80944,38.28911],[-121.77371,38.31063],[-121.75564,38.32149],[-121.74357,38.32872],[-121.63914,38.39127],[-121.60843,38.40965],[-121.50452,38.47213],[-121.44996,38.50567],[-121.4382,38.51302]],"type":"LineString"}
}
