{
  "id": 2014430775,
  "type": "Feature",
  "properties": {
    "geom:area": 0,
    "geom:bbox": "-122.366830,37.627890,-122.085810,38.517480",
    "geom:latitude": 38.03971162714607,
    "geom:longitude": -122.17441513379441,
    "src:alt_label": "swim-takeoff",
    "src:geom": "swim",
    "swim:elevations": [
      152,
      660,
      1077,
      1192,
      1376,
      1986,
      2254,
      2763,
      3201,
      3353,
      3613,
      3852,
      4581,
      4862,
      5231,
      5330,
      5634,
      6114,
      6326,
      6558,
      6869,
      7073
    ],
    "swim:geom": "takeoff",
    "swim:timestamps": [
      1767026289,
      1767026325,
      1767026391,
      1767026419,
      1767026440,
      1767026480,
      1767026499,
      1767026528,
      1767026564,
      1767026596,
      1767026629,
      1767026646,
      1767026696,
      1767026720,
      1767026751,
      1767026761,
      1767026803,
      1767026839,
      1767026862,
      1767026895,
      1767026935,
      1767026958
    ],
    "wof:geomhash": "93ef1c9c9314ec57fef6cfd1a2f55bcc",
    "wof:id": 2014430775,
    "wof:repo": "sfomuseum-data-flights-2025-12"
  },
  "bbox": [
    -122.36683,
    37.62789,
    -122.08581,
    38.51748
  ],
  "geometry": {"coordinates":[[-122.36683,37.62789],[-122.34592,37.64499],[-122.29889,37.67183],[-122.27079,37.68854],[-122.24571,37.70225],[-122.20854,37.73983],[-122.20466,37.76431],[-122.20051,37.80101],[-122.19289,37.8489],[-122.18527,37.89529],[-122.17635,37.94831],[-122.17193,37.97668],[-122.15826,38.05889],[-122.1515,38.09985],[-122.1429,38.15177],[-122.14008,38.16866],[-122.128,38.24155],[-122.11773,38.30353],[-122.11099,38.34419],[-122.10185,38.40192],[-122.09156,38.47497],[-122.08581,38.51748]],"type":"LineString"}
}
