{
  "id": 2014421739,
  "type": "Feature",
  "properties": {
    "geom:area": 0,
    "geom:bbox": "-122.451570,36.731040,-121.390350,37.718650",
    "geom:latitude": 37.25700247607197,
    "geom:longitude": -121.97509077700664,
    "src:alt_label": "swim-takeoff",
    "src:geom": "swim",
    "swim:elevations": [
      397,
      488,
      729,
      1123,
      1590,
      1836,
      2266,
      2335,
      2616,
      3067,
      3333,
      3951,
      4317,
      4686,
      5046,
      5473,
      5704,
      6157,
      6466,
      6853,
      7157,
      7564,
      7742,
      8097,
      8177,
      8511,
      8742,
      9000,
      9228,
      9458,
      9643,
      9691,
      9937
    ],
    "swim:geom": "takeoff",
    "swim:timestamps": [
      1766990574,
      1766990582,
      1766990616,
      1766990650,
      1766990685,
      1766990697,
      1766990727,
      1766990733,
      1766990751,
      1766990779,
      1766990809,
      1766990847,
      1766990873,
      1766990900,
      1766990923,
      1766990952,
      1766990980,
      1766991022,
      1766991049,
      1766991082,
      1766991110,
      1766991148,
      1766991168,
      1766991207,
      1766991218,
      1766991261,
      1766991291,
      1766991324,
      1766991357,
      1766991386,
      1766991416,
      1766991422,
      1766991463
    ],
    "wof:geomhash": "c8c4bde8450ea90c93500cd4b578b82f",
    "wof:id": 2014421739,
    "wof:repo": "sfomuseum-data-flights-2025-12"
  },
  "bbox": [
    -122.45157,
    36.73104,
    -121.39035,
    37.71865
  ],
  "geometry": {"coordinates":[[-122.36616,37.63469],[-122.36461,37.64025],[-122.36379,37.66873],[-122.36882,37.70347],[-122.41623,37.71865],[-122.43364,37.71133],[-122.45157,37.67824],[-122.44991,37.67074],[-122.43363,37.65195],[-122.40236,37.62614],[-122.36656,37.59417],[-122.3198,37.55236],[-122.28662,37.52341],[-122.25026,37.49181],[-122.22039,37.46558],[-122.18097,37.43099],[-122.14263,37.39753],[-122.08322,37.34576],[-122.04416,37.3115],[-121.99545,37.26838],[-121.95413,37.23168],[-121.89771,37.18158],[-121.86662,37.15388],[-121.80609,37.10029],[-121.78951,37.08547],[-121.72263,37.02672],[-121.67367,36.98334],[-121.61919,36.93514],[-121.56557,36.8879],[-121.51723,36.84494],[-121.46824,36.80027],[-121.45826,36.7913],[-121.39035,36.73104]],"type":"LineString"}
}
