{
  "id": 2014447855,
  "type": "Feature",
  "properties": {
    "geom:area": 0,
    "geom:bbox": "-123.489700,37.187910,-122.409910,37.664940",
    "geom:latitude": 37.43999761192869,
    "geom:longitude": -122.94865427851055,
    "src:alt_label": "swim-takeoff",
    "src:geom": "swim",
    "swim:elevations": [
      288,
      385,
      586,
      630,
      1135,
      1350,
      1576,
      1914,
      2740,
      3108,
      3191,
      3581,
      3989,
      4191,
      4522,
      4917,
      5176,
      5423,
      5793,
      5988,
      6354,
      6387,
      6573,
      6738,
      6994,
      7193
    ],
    "swim:geom": "takeoff",
    "swim:timestamps": [
      1767206696,
      1767206708,
      1767206726,
      1767206732,
      1767206786,
      1767206807,
      1767206822,
      1767206851,
      1767206907,
      1767206936,
      1767206942,
      1767206996,
      1767207025,
      1767207045,
      1767207074,
      1767207113,
      1767207135,
      1767207156,
      1767207198,
      1767207222,
      1767207266,
      1767207270,
      1767207294,
      1767207310,
      1767207342,
      1767207373
    ],
    "wof:geomhash": "f3ad2ca7629e186da4f34e1347fa0e4b",
    "wof:id": 2014447855,
    "wof:repo": "sfomuseum-data-flights-2025-12"
  },
  "bbox": [
    -123.4897,
    37.18791,
    -122.40991,
    37.66494
  ],
  "geometry": {"coordinates":[[-122.40991,37.63354],[-122.42191,37.639],[-122.43987,37.64745],[-122.44625,37.65045],[-122.51034,37.66494],[-122.53579,37.65401],[-122.55168,37.64333],[-122.58524,37.62208],[-122.65323,37.5792],[-122.69061,37.55657],[-122.69932,37.5528],[-122.78444,37.51509],[-122.83415,37.4924],[-122.86895,37.47639],[-122.91942,37.45296],[-122.99029,37.42065],[-123.03115,37.40157],[-123.07013,37.38339],[-123.14839,37.34723],[-123.19408,37.32568],[-123.27923,37.28582],[-123.28756,37.28197],[-123.33492,37.2599],[-123.36671,37.24513],[-123.43131,37.2154],[-123.4897,37.18791]],"type":"LineString"}
}
