{
  "id": 2014442151,
  "type": "Feature",
  "properties": {
    "geom:area": 0,
    "geom:bbox": "-122.756050,37.445220,-122.136240,38.505150",
    "geom:latitude": 37.877033847076845,
    "geom:longitude": -122.48998412987642,
    "src:alt_label": "swim-approach",
    "src:geom": "swim",
    "swim:elevations": [
      8282,
      7755,
      7545,
      7280,
      7053,
      6582,
      6320,
      6109,
      5776,
      5550,
      5289,
      5122,
      4784,
      4594,
      4346,
      4186,
      4038,
      3912,
      3729,
      3434,
      3356,
      3353,
      3353,
      3353,
      3335,
      3015,
      2888,
      2674,
      2322,
      2109,
      1938,
      1696,
      1613,
      1277,
      1247,
      854,
      793,
      705,
      607,
      513,
      280,
      243,
      105,
      23
    ],
    "swim:geom": "approach",
    "swim:timestamps": [
      1767220057,
      1767220108,
      1767220130,
      1767220154,
      1767220178,
      1767220228,
      1767220258,
      1767220282,
      1767220316,
      1767220343,
      1767220375,
      1767220393,
      1767220432,
      1767220456,
      1767220486,
      1767220504,
      1767220522,
      1767220537,
      1767220564,
      1767220606,
      1767220622,
      1767220670,
      1767220705,
      1767220714,
      1767220756,
      1767220798,
      1767220815,
      1767220842,
      1767220887,
      1767220917,
      1767220941,
      1767220974,
      1767220986,
      1767221037,
      1767221040,
      1767221095,
      1767221116,
      1767221143,
      1767221170,
      1767221200,
      1767221247,
      1767221259,
      1767221292,
      1767221310
    ],
    "wof:geomhash": "8eea094359c5688348c23621e98f1f60",
    "wof:id": 2014442151,
    "wof:repo": "sfomuseum-data-flights-2025-12"
  },
  "bbox": [
    -122.75605,
    37.44522,
    -122.13624,
    38.50515
  ],
  "geometry": {"coordinates":[[-122.47889,38.50515],[-122.55609,38.43042],[-122.58842,38.39863],[-122.62344,38.36465],[-122.65752,38.33148],[-122.72594,38.26482],[-122.75605,38.22008],[-122.75448,38.18039],[-122.73886,38.12518],[-122.72647,38.08282],[-122.71221,38.03369],[-122.70412,38.00582],[-122.6869,37.9466],[-122.67571,37.91147],[-122.64585,37.87356],[-122.62447,37.85318],[-122.60332,37.83326],[-122.58601,37.81694],[-122.55596,37.78865],[-122.50989,37.74515],[-122.49319,37.72932],[-122.44429,37.68338],[-122.40783,37.64908],[-122.39859,37.64038],[-122.36198,37.60268],[-122.33935,37.56301],[-122.33032,37.54751],[-122.3155,37.52274],[-122.2766,37.48913],[-122.24673,37.46987],[-122.22005,37.45772],[-122.18138,37.44522],[-122.16655,37.44957],[-122.13756,37.49783],[-122.13624,37.5007],[-122.16353,37.53842],[-122.18475,37.54453],[-122.2123,37.55309],[-122.23862,37.5638],[-122.26769,37.57579],[-122.30874,37.5932],[-122.31744,37.59682],[-122.34202,37.60713],[-122.35551,37.6128]],"type":"LineString"}
}
