{
  "id": 2014433259,
  "type": "Feature",
  "properties": {
    "geom:area": 0,
    "geom:bbox": "-122.820500,37.451590,-122.136660,38.405560",
    "geom:latitude": 37.80896626559624,
    "geom:longitude": -122.49785978710361,
    "src:alt_label": "swim-approach",
    "src:geom": "swim",
    "swim:elevations": [
      7559,
      7246,
      7017,
      6634,
      6475,
      6145,
      5816,
      5697,
      5633,
      5394,
      4928,
      4815,
      4380,
      4072,
      3811,
      3447,
      3413,
      3353,
      3353,
      3353,
      3353,
      3353,
      3324,
      2905,
      2817,
      2561,
      2114,
      1887,
      1733,
      1677,
      1397,
      1299,
      1219,
      1219,
      1096,
      891,
      749,
      609,
      571,
      331,
      246,
      79,
      47
    ],
    "swim:geom": "approach",
    "swim:timestamps": [
      1767129058,
      1767129087,
      1767129108,
      1767129146,
      1767129161,
      1767129194,
      1767129229,
      1767129242,
      1767129251,
      1767129280,
      1767129325,
      1767129337,
      1767129379,
      1767129411,
      1767129440,
      1767129478,
      1767129490,
      1767129538,
      1767129546,
      1767129580,
      1767129623,
      1767129632,
      1767129641,
      1767129685,
      1767129698,
      1767129726,
      1767129777,
      1767129807,
      1767129823,
      1767129829,
      1767129864,
      1767129878,
      1767129920,
      1767129937,
      1767129974,
      1767129998,
      1767130022,
      1767130046,
      1767130055,
      1767130106,
      1767130127,
      1767130168,
      1767130176
    ],
    "wof:geomhash": "e84486cba5c3115e324571442407c087",
    "wof:id": 2014433259,
    "wof:repo": "sfomuseum-data-flights-2025-12"
  },
  "bbox": [
    -122.8205,
    37.45159,
    -122.13666,
    38.40556
  ],
  "geometry": {"coordinates":[[-122.8205,38.40556],[-122.80564,38.35519],[-122.79539,38.31988],[-122.77719,38.25764],[-122.76993,38.23301],[-122.75381,38.17828],[-122.73805,38.12332],[-122.73195,38.10196],[-122.72791,38.08786],[-122.71506,38.04368],[-122.69504,37.97486],[-122.68975,37.95661],[-122.66523,37.89474],[-122.62706,37.85576],[-122.5921,37.82246],[-122.54529,37.77897],[-122.53158,37.76601],[-122.47828,37.71545],[-122.46991,37.70755],[-122.43421,37.6741],[-122.39219,37.63457],[-122.38404,37.62701],[-122.37604,37.61949],[-122.34753,37.57766],[-122.3417,37.56458],[-122.32574,37.53859],[-122.27898,37.50175],[-122.24995,37.48098],[-122.23534,37.47115],[-122.22856,37.46849],[-122.18766,37.45559],[-122.17074,37.45159],[-122.13666,37.4777],[-122.14261,37.49504],[-122.16991,37.52362],[-122.18994,37.54043],[-122.21598,37.55178],[-122.24126,37.56242],[-122.2498,37.56611],[-122.29737,37.58617],[-122.31443,37.59328],[-122.34568,37.60635],[-122.35202,37.60899]],"type":"LineString"}
}
