{
  "id": 2014430593,
  "type": "Feature",
  "properties": {
    "geom:area": 0,
    "geom:bbox": "-122.364890,37.631360,-121.250230,37.964700",
    "geom:latitude": 37.83843995307481,
    "geom:longitude": -121.82226566877407,
    "src:alt_label": "swim-takeoff",
    "src:geom": "swim",
    "swim:elevations": [
      183,
      448,
      636,
      674,
      1099,
      1248,
      1499,
      2085,
      2704,
      3227,
      3496,
      3743,
      3808,
      4011,
      4385,
      4669,
      5058,
      5331,
      5431,
      5793,
      6184,
      6213,
      6603,
      6681
    ],
    "swim:geom": "takeoff",
    "swim:timestamps": [
      1767033893,
      1767033915,
      1767033928,
      1767033931,
      1767033975,
      1767034003,
      1767034024,
      1767034065,
      1767034100,
      1767034132,
      1767034153,
      1767034198,
      1767034211,
      1767034243,
      1767034273,
      1767034300,
      1767034343,
      1767034370,
      1767034385,
      1767034423,
      1767034468,
      1767034472,
      1767034520,
      1767034531
    ],
    "wof:geomhash": "508d4d42401d2b379b6559034f373bd2",
    "wof:id": 2014430593,
    "wof:repo": "sfomuseum-data-flights-2025-12"
  },
  "bbox": [
    -122.36489,
    37.63136,
    -121.25023,
    37.9647
  ],
  "geometry": {"coordinates":[[-122.36489,37.63136],[-122.35191,37.64425],[-122.34082,37.64925],[-122.33825,37.65048],[-122.30292,37.67047],[-122.2733,37.68756],[-122.24764,37.70114],[-122.19199,37.72933],[-122.14419,37.75446],[-122.10072,37.77701],[-122.07147,37.7918],[-122.0011,37.82432],[-121.97586,37.83109],[-121.90854,37.844],[-121.84371,37.85612],[-121.7866,37.8667],[-121.68994,37.88458],[-121.62813,37.89591],[-121.5923,37.90246],[-121.50386,37.91862],[-121.40089,37.93741],[-121.39069,37.93924],[-121.27522,37.9602],[-121.25023,37.9647]],"type":"LineString"}
}
