{
  "id": 2014437909,
  "type": "Feature",
  "properties": {
    "geom:area": 0,
    "geom:bbox": "-122.364930,37.630760,-121.347260,38.085100",
    "geom:latitude": 37.873336273491844,
    "geom:longitude": -121.86354316646143,
    "src:alt_label": "swim-takeoff",
    "src:geom": "swim",
    "swim:elevations": [
      239,
      645,
      844,
      1208,
      1690,
      2129,
      2492,
      3280,
      3335,
      3524,
      4028,
      4628,
      5105,
      5473,
      5677,
      5730,
      5790,
      5791,
      5798,
      6273,
      6629
    ],
    "swim:geom": "takeoff",
    "swim:timestamps": [
      1767165433,
      1767165469,
      1767165497,
      1767165523,
      1767165556,
      1767165583,
      1767165604,
      1767165658,
      1767165670,
      1767165697,
      1767165734,
      1767165772,
      1767165806,
      1767165835,
      1767165853,
      1767165859,
      1767165885,
      1767165927,
      1767165951,
      1767165979,
      1767166012
    ],
    "wof:geomhash": "165e16cd57ab239bc267cce26e1a838d",
    "wof:id": 2014437909,
    "wof:repo": "sfomuseum-data-flights-2025-12"
  },
  "bbox": [
    -122.36493,
    37.63076,
    -121.34726,
    38.0851
  ],
  "geometry": {"coordinates":[[-122.36493,37.63076],[-122.34105,37.64904],[-122.31483,37.6635],[-122.28575,37.67962],[-122.24514,37.7022],[-122.20913,37.72053],[-122.18052,37.73503],[-122.10185,37.77557],[-122.08269,37.78547],[-122.03566,37.81001],[-121.96509,37.84187],[-121.88636,37.87326],[-121.81511,37.9013],[-121.75162,37.92624],[-121.71218,37.94181],[-121.69891,37.94702],[-121.64099,37.96983],[-121.54333,38.00828],[-121.48711,38.03045],[-121.42337,38.05552],[-121.34726,38.0851]],"type":"LineString"}
}
