{
  "id": 2014422581,
  "type": "Feature",
  "properties": {
    "geom:area": 0,
    "geom:bbox": "-122.421270,36.731340,-121.273490,37.689840",
    "geom:latitude": 37.21552961062554,
    "geom:longitude": -121.91581365882914,
    "src:alt_label": "swim-takeoff",
    "src:geom": "swim",
    "swim:elevations": [
      213,
      719,
      1144,
      1227,
      1434,
      1758,
      2265,
      2840,
      3088,
      3531,
      4112,
      4607,
      4959,
      5570,
      5721,
      6301,
      6518,
      7140,
      7284,
      7707,
      8062,
      8132,
      8443,
      8575,
      8906
    ],
    "swim:geom": "takeoff",
    "swim:timestamps": [
      1766924530,
      1766924562,
      1766924606,
      1766924623,
      1766924654,
      1766924685,
      1766924714,
      1766924750,
      1766924763,
      1766924815,
      1766924858,
      1766924885,
      1766924910,
      1766924965,
      1766924982,
      1766925026,
      1766925046,
      1766925101,
      1766925120,
      1766925160,
      1766925208,
      1766925218,
      1766925258,
      1766925277,
      1766925318
    ],
    "wof:geomhash": "d26da3a60d20d60e1a66fa898cfce368",
    "wof:id": 2014422581,
    "wof:repo": "sfomuseum-data-flights-2025-12"
  },
  "bbox": [
    -122.42127,
    36.73134,
    -121.27349,
    37.68984
  ],
  "geometry": {"coordinates":[[-122.36878,37.62975],[-122.36404,37.65201],[-122.36374,37.68091],[-122.37674,37.68984],[-122.41269,37.67926],[-122.42127,37.64069],[-122.41646,37.60186],[-122.39784,37.55435],[-122.38099,37.54139],[-122.3048,37.48679],[-122.2317,37.43416],[-122.18308,37.39847],[-122.13793,37.36564],[-122.03437,37.2907],[-122.00006,37.2656],[-121.91185,37.20125],[-121.87062,37.17114],[-121.75415,37.08563],[-121.71242,37.05522],[-121.62613,36.99188],[-121.51688,36.9121],[-121.49391,36.89509],[-121.40594,36.83003],[-121.36266,36.79726],[-121.27349,36.73134]],"type":"LineString"}
}
