{
  "id": 2014429119,
  "type": "Feature",
  "properties": {
    "geom:area": 0,
    "geom:bbox": "-123.329420,37.627080,-122.394750,38.506720",
    "geom:latitude": 38.025222036157984,
    "geom:longitude": -122.89539870094082,
    "src:alt_label": "swim-takeoff",
    "src:geom": "swim",
    "swim:elevations": [
      152,
      666,
      743,
      987,
      1222,
      1457,
      1904,
      2290,
      2522,
      3006,
      3160,
      3231,
      3443,
      3683,
      4005,
      4327,
      4454,
      4919,
      5101,
      5318,
      5433,
      5601,
      6095,
      6279,
      6553,
      6653
    ],
    "swim:geom": "takeoff",
    "swim:timestamps": [
      1767010038,
      1767010074,
      1767010085,
      1767010133,
      1767010162,
      1767010181,
      1767010215,
      1767010250,
      1767010267,
      1767010315,
      1767010331,
      1767010351,
      1767010404,
      1767010432,
      1767010463,
      1767010496,
      1767010509,
      1767010554,
      1767010581,
      1767010607,
      1767010623,
      1767010655,
      1767010707,
      1767010731,
      1767010767,
      1767010782
    ],
    "wof:geomhash": "9db913a4fcf033ae40f9bd7e14ab4c6e",
    "wof:id": 2014429119,
    "wof:repo": "sfomuseum-data-flights-2025-12"
  },
  "bbox": [
    -123.32942,
    37.62708,
    -122.39475,
    38.50672
  ],
  "geometry": {"coordinates":[[-122.39475,37.62708],[-122.4297,37.64238],[-122.43964,37.64691],[-122.49443,37.67108],[-122.53177,37.69121],[-122.55573,37.70553],[-122.60033,37.73179],[-122.64689,37.75925],[-122.66938,37.77245],[-122.73458,37.81082],[-122.75729,37.82524],[-122.77846,37.8485],[-122.83629,37.92007],[-122.87,37.96029],[-122.90889,38.00703],[-122.94928,38.0555],[-122.9661,38.07577],[-123.02231,38.14295],[-123.05711,38.18446],[-123.0919,38.22594],[-123.11316,38.25127],[-123.1562,38.30249],[-123.22603,38.38484],[-123.25856,38.42328],[-123.30719,38.48156],[-123.32942,38.50672]],"type":"LineString"}
}
