{
  "id": 2014413859,
  "type": "Feature",
  "properties": {
    "geom:area": 0,
    "geom:bbox": "-122.452000,36.722140,-121.302720,37.715410",
    "geom:latitude": 37.22079484021332,
    "geom:longitude": -121.97568141072298,
    "src:alt_label": "swim-takeoff",
    "src:geom": "swim",
    "swim:elevations": [
      152,
      660,
      1009,
      1120,
      1248,
      1403,
      1851,
      2642,
      2875,
      3168,
      3330,
      3445,
      3836,
      4089,
      4293,
      4826,
      5025,
      5279,
      5439,
      5469,
      5880,
      6319,
      6558,
      6845,
      7073,
      7221,
      7415,
      7580,
      7791,
      7833,
      7898,
      7944,
      8020,
      8151,
      8251
    ],
    "swim:geom": "takeoff",
    "swim:timestamps": [
      1766878006,
      1766878043,
      1766878074,
      1766878090,
      1766878114,
      1766878142,
      1766878174,
      1766878227,
      1766878244,
      1766878266,
      1766878287,
      1766878299,
      1766878346,
      1766878370,
      1766878388,
      1766878435,
      1766878452,
      1766878473,
      1766878488,
      1766878503,
      1766878544,
      1766878586,
      1766878613,
      1766878646,
      1766878676,
      1766878697,
      1766878724,
      1766878747,
      1766878797,
      1766878822,
      1766878841,
      1766878865,
      1766878885,
      1766878913,
      1766878931
    ],
    "wof:geomhash": "09e0130f1ccefba462b2af393238f7bd",
    "wof:id": 2014413859,
    "wof:repo": "sfomuseum-data-flights-2025-12"
  },
  "bbox": [
    -122.452,
    36.72214,
    -121.30272,
    37.71541
  ],
  "geometry": {"coordinates":[[-122.36861,37.62994],[-122.36336,37.6571],[-122.36262,37.67946],[-122.36403,37.69209],[-122.37936,37.71038],[-122.41725,37.71541],[-122.452,37.6847],[-122.4463,37.61527],[-122.44244,37.59165],[-122.43781,37.56146],[-122.43004,37.53161],[-122.4192,37.51568],[-122.35355,37.46205],[-122.31742,37.43392],[-122.28968,37.41245],[-122.21572,37.35484],[-122.18779,37.33519],[-122.15289,37.31147],[-122.12763,37.29423],[-122.10216,37.27704],[-122.03232,37.22916],[-121.95909,37.17857],[-121.9122,37.14628],[-121.85533,37.10696],[-121.80044,37.06906],[-121.76239,37.04273],[-121.71272,37.00826],[-121.67123,36.97941],[-121.57588,36.91361],[-121.52692,36.87971],[-121.49053,36.85369],[-121.44144,36.81982],[-121.4002,36.79099],[-121.34013,36.74887],[-121.30272,36.72214]],"type":"LineString"}
}
