{
  "id": 2014431977,
  "type": "Feature",
  "properties": {
    "geom:area": 0,
    "geom:bbox": "-122.359650,36.719530,-121.876390,37.612300",
    "geom:latitude": 37.20786545347288,
    "geom:longitude": -122.06960421919737,
    "src:alt_label": "swim-approach",
    "src:geom": "swim",
    "swim:elevations": [
      5110,
      4794,
      4562,
      4181,
      3957,
      3780,
      3360,
      3139,
      3098,
      3003,
      2742,
      2233,
      2079,
      1982,
      1713,
      1577,
      1346,
      1212,
      1062,
      791,
      564,
      523,
      396,
      232,
      88,
      90
    ],
    "swim:geom": "approach",
    "swim:timestamps": [
      1767094994,
      1767095028,
      1767095050,
      1767095091,
      1767095118,
      1767095137,
      1767095189,
      1767095217,
      1767095230,
      1767095267,
      1767095298,
      1767095361,
      1767095384,
      1767095400,
      1767095455,
      1767095473,
      1767095518,
      1767095538,
      1767095559,
      1767095594,
      1767095639,
      1767095645,
      1767095676,
      1767095716,
      1767095754,
      1767095773
    ],
    "wof:geomhash": "d2c5643e43bb84bd5c8471683150d9ae",
    "wof:id": 2014431977,
    "wof:repo": "sfomuseum-data-flights-2025-12"
  },
  "bbox": [
    -122.35965,
    36.71953,
    -121.87639,
    37.6123
  ],
  "geometry": {"coordinates":[[-121.87639,36.71953],[-121.90361,36.77642],[-121.91409,36.81402],[-121.93406,36.88425],[-121.94614,36.92752],[-121.9552,36.95712],[-121.98636,37.03621],[-122.00331,37.08033],[-122.01079,37.09988],[-122.03149,37.15304],[-122.04826,37.19558],[-122.08063,37.27898],[-122.09269,37.30854],[-122.10044,37.32814],[-122.12653,37.39746],[-122.1347,37.41987],[-122.15482,37.47335],[-122.16778,37.49445],[-122.18222,37.51497],[-122.20718,37.54716],[-122.25303,37.56739],[-122.25868,37.56972],[-122.28524,37.58096],[-122.31533,37.59358],[-122.34485,37.60599],[-122.35965,37.6123]],"type":"LineString"}
}
