{
  "id": 2014420861,
  "type": "Feature",
  "properties": {
    "geom:area": 0,
    "geom:bbox": "-122.467400,37.193290,-121.279200,37.732710",
    "geom:latitude": 37.39634150600422,
    "geom:longitude": -122.01511891297041,
    "src:alt_label": "swim-takeoff",
    "src:geom": "swim",
    "swim:elevations": [
      382,
      760,
      844,
      1013,
      1263,
      1559,
      2090,
      2172,
      2640,
      2975,
      3305,
      3376,
      3642,
      3657,
      3980,
      4133,
      4330,
      4395,
      4607,
      4991,
      5053,
      5268,
      5585,
      5859,
      6055,
      6134,
      6275,
      6531,
      6742,
      6829,
      6881
    ],
    "swim:geom": "takeoff",
    "swim:timestamps": [
      1766965310,
      1766965347,
      1766965364,
      1766965398,
      1766965430,
      1766965457,
      1766965497,
      1766965505,
      1766965552,
      1766965583,
      1766965613,
      1766965622,
      1766965673,
      1766965685,
      1766965727,
      1766965757,
      1766965793,
      1766965802,
      1766965832,
      1766965888,
      1766965894,
      1766965925,
      1766965973,
      1766966003,
      1766966030,
      1766966045,
      1766966075,
      1766966114,
      1766966157,
      1766966186,
      1766966195
    ],
    "wof:geomhash": "416b1601ba8642884536b2311c12a964",
    "wof:id": 2014420861,
    "wof:repo": "sfomuseum-data-flights-2025-12"
  },
  "bbox": [
    -122.4674,
    37.19329,
    -121.2792,
    37.73271
  ],
  "geometry": {"coordinates":[[-122.36443,37.63795],[-122.3634,37.66703],[-122.36268,37.68133],[-122.37191,37.71378],[-122.41457,37.73271],[-122.45333,37.71699],[-122.46193,37.66681],[-122.46193,37.6567],[-122.4674,37.59438],[-122.46452,37.55293],[-122.45303,37.51316],[-122.44902,37.5008],[-122.41707,37.42963],[-122.39896,37.41815],[-122.32058,37.40203],[-122.26148,37.39091],[-122.18595,37.37552],[-122.16624,37.37146],[-122.10195,37.35864],[-121.97721,37.33388],[-121.96371,37.33119],[-121.89397,37.31725],[-121.78486,37.29554],[-121.71719,37.282],[-121.65637,37.26977],[-121.62294,37.26306],[-121.55461,37.24924],[-121.46595,37.2313],[-121.36742,37.21127],[-121.30026,37.1976],[-121.2792,37.19329]],"type":"LineString"}
}
