{
  "id": 2014413679,
  "type": "Feature",
  "properties": {
    "geom:area": 0,
    "geom:bbox": "-123.492070,37.092770,-122.391360,37.663780",
    "geom:latitude": 37.4064143084152,
    "geom:longitude": -122.94583772349768,
    "src:alt_label": "swim-takeoff",
    "src:geom": "swim",
    "swim:elevations": [
      91,
      748,
      831,
      974,
      1156,
      1650,
      2002,
      2459,
      2624,
      3238,
      3254,
      3413,
      3474,
      3609,
      3711,
      3790,
      3954,
      4249,
      4461,
      5013,
      5071,
      5334,
      5412,
      5642,
      5864,
      5934
    ],
    "swim:geom": "takeoff",
    "swim:timestamps": [
      1766881743,
      1766881797,
      1766881806,
      1766881830,
      1766881860,
      1766881908,
      1766881933,
      1766881967,
      1766881980,
      1766882032,
      1766882035,
      1766882064,
      1766882077,
      1766882098,
      1766882122,
      1766882138,
      1766882162,
      1766882192,
      1766882222,
      1766882276,
      1766882282,
      1766882315,
      1766882334,
      1766882363,
      1766882396,
      1766882405
    ],
    "wof:geomhash": "ebcb9922e8e7d896c5aa6cee946b3e4f",
    "wof:id": 2014413679,
    "wof:repo": "sfomuseum-data-flights-2025-12"
  },
  "bbox": [
    -123.49207,
    37.09277,
    -122.39136,
    37.66378
  ],
  "geometry": {"coordinates":[[-122.39136,37.6255],[-122.4437,37.64824],[-122.45251,37.65217],[-122.47825,37.66309],[-122.51862,37.66378],[-122.57943,37.62619],[-122.61274,37.60456],[-122.65935,37.57638],[-122.67732,37.56638],[-122.75199,37.52382],[-122.75636,37.52127],[-122.80048,37.49611],[-122.82208,37.48379],[-122.85772,37.46299],[-122.90067,37.43808],[-122.93032,37.42073],[-122.97662,37.39356],[-123.03652,37.35869],[-123.09801,37.32326],[-123.21113,37.2575],[-123.22375,37.25007],[-123.29314,37.20955],[-123.33584,37.18441],[-123.39742,37.14827],[-123.47066,37.10535],[-123.49207,37.09277]],"type":"LineString"}
}
