{
  "id": 2014435293,
  "type": "Feature",
  "properties": {
    "geom:area": 0,
    "geom:bbox": "-122.359130,37.497760,-121.270300,37.614430",
    "geom:latitude": 37.5531463299084,
    "geom:longitude": -121.81902942708389,
    "src:alt_label": "swim-approach",
    "src:geom": "swim",
    "swim:elevations": [
      4457,
      4329,
      3902,
      3631,
      3257,
      3078,
      3048,
      2965,
      2948,
      2744,
      2691,
      2556,
      2363,
      2316,
      2133,
      2134,
      1814,
      1782,
      1291,
      1068,
      978,
      923,
      727,
      577,
      506,
      349,
      272,
      167,
      0
    ],
    "swim:geom": "approach",
    "swim:timestamps": [
      1767119217,
      1767119231,
      1767119276,
      1767119305,
      1767119337,
      1767119363,
      1767119396,
      1767119426,
      1767119433,
      1767119485,
      1767119518,
      1767119537,
      1767119567,
      1767119594,
      1767119635,
      1767119661,
      1767119697,
      1767119703,
      1767119756,
      1767119788,
      1767119812,
      1767119821,
      1767119861,
      1767119901,
      1767119916,
      1767119963,
      1767119989,
      1767120017,
      1767120054
    ],
    "wof:geomhash": "694939bc7ddecd9cee74450f47a25674",
    "wof:id": 2014435293,
    "wof:repo": "sfomuseum-data-flights-2025-12"
  },
  "bbox": [
    -122.35913,
    37.49776,
    -121.2703,
    37.61443
  ],
  "geometry": {"coordinates":[[-121.2703,37.59176],[-121.29767,37.5883],[-121.38807,37.57833],[-121.44518,37.5719],[-121.50541,37.56502],[-121.54959,37.55977],[-121.60028,37.55372],[-121.64584,37.54855],[-121.65604,37.55003],[-121.7303,37.57611],[-121.77655,37.56815],[-121.79014,37.55043],[-121.81419,37.52323],[-121.84979,37.51239],[-121.90964,37.504],[-121.94703,37.4991],[-121.99707,37.49776],[-122.00426,37.49981],[-122.07347,37.5225],[-122.11147,37.53492],[-122.13731,37.54327],[-122.14704,37.54634],[-122.18902,37.55984],[-122.2307,37.57342],[-122.24674,37.57867],[-122.28815,37.59086],[-122.30901,37.59704],[-122.3313,37.60362],[-122.35913,37.61443]],"type":"LineString"}
}
