{
  "id": 2014413275,
  "type": "Feature",
  "properties": {
    "geom:area": 0,
    "geom:bbox": "-122.550320,36.734070,-122.248510,37.711960",
    "geom:latitude": 37.24016639531791,
    "geom:longitude": -122.44957087061046,
    "src:alt_label": "swim-takeoff",
    "src:geom": "swim",
    "swim:elevations": [
      122,
      423,
      565,
      1116,
      1449,
      1731,
      2101,
      2460,
      2834,
      3081,
      3343,
      3719,
      3946,
      4151,
      4500,
      4694,
      5191,
      5335,
      5531,
      5556,
      5678,
      5702,
      5888,
      6130,
      6385,
      6707,
      6858,
      7097,
      7306
    ],
    "swim:geom": "takeoff",
    "swim:timestamps": [
      1766877328,
      1766877352,
      1766877375,
      1766877416,
      1766877441,
      1766877476,
      1766877504,
      1766877529,
      1766877556,
      1766877573,
      1766877619,
      1766877658,
      1766877676,
      1766877713,
      1766877741,
      1766877759,
      1766877807,
      1766877820,
      1766877850,
      1766877853,
      1766877866,
      1766877870,
      1766877889,
      1766877913,
      1766877943,
      1766877976,
      1766877992,
      1766878024,
      1766878052
    ],
    "wof:geomhash": "493a4f8e1d6a13acc0c2d7f76e79805c",
    "wof:id": 2014413275,
    "wof:repo": "sfomuseum-data-flights-2025-12"
  },
  "bbox": [
    -122.55032,
    36.73407,
    -122.24851,
    37.71196
  ],
  "geometry": {"coordinates":[[-122.37064,37.6265],[-122.36524,37.64239],[-122.36363,37.66075],[-122.36743,37.69831],[-122.39442,37.71196],[-122.43633,37.69559],[-122.44631,37.6596],[-122.45054,37.62559],[-122.45624,37.58919],[-122.46052,37.56549],[-122.47312,37.49741],[-122.48523,37.4329],[-122.49104,37.40225],[-122.50338,37.33575],[-122.51306,37.2835],[-122.5195,37.24881],[-122.53661,37.15673],[-122.54137,37.1308],[-122.55032,37.06902],[-122.54969,37.06293],[-122.5423,37.03871],[-122.53833,37.0309],[-122.51244,36.99932],[-122.47345,36.9612],[-122.42579,36.91328],[-122.37303,36.86],[-122.34703,36.83375],[-122.29457,36.7807],[-122.24851,36.73407]],"type":"LineString"}
}
