{
  "id": 2014443425,
  "type": "Feature",
  "properties": {
    "geom:area": 0,
    "geom:bbox": "-122.361220,36.721710,-121.878210,37.615370",
    "geom:latitude": 37.21310467232688,
    "geom:longitude": -122.0707966347479,
    "src:alt_label": "swim-approach",
    "src:geom": "swim",
    "swim:elevations": [
      5071,
      4916,
      4634,
      4329,
      4122,
      3866,
      3703,
      3435,
      3330,
      3094,
      2969,
      2717,
      2615,
      2493,
      2437,
      2234,
      2132,
      2066,
      1881,
      1504,
      1322,
      1194,
      910,
      654,
      508,
      364,
      240,
      224,
      173,
      0
    ],
    "swim:geom": "approach",
    "swim:timestamps": [
      1767209891,
      1767209914,
      1767209953,
      1767209995,
      1767210021,
      1767210057,
      1767210081,
      1767210117,
      1767210132,
      1767210170,
      1767210201,
      1767210238,
      1767210246,
      1767210260,
      1767210272,
      1767210318,
      1767210348,
      1767210369,
      1767210404,
      1767210448,
      1767210478,
      1767210500,
      1767210535,
      1767210567,
      1767210598,
      1767210624,
      1767210651,
      1767210657,
      1767210672,
      1767210709
    ],
    "wof:geomhash": "a092309169653a5d5fb9c65900436bcd",
    "wof:id": 2014443425,
    "wof:repo": "sfomuseum-data-flights-2025-12"
  },
  "bbox": [
    -122.36122,
    36.72171,
    -121.87821,
    37.61537
  ],
  "geometry": {"coordinates":[[-121.87821,36.72171],[-121.89642,36.75384],[-121.91416,36.81319],[-121.9319,36.87649],[-121.94283,36.91574],[-121.95967,36.9684],[-121.97293,37.00261],[-121.99237,37.05318],[-122.00048,37.07413],[-122.02103,37.12624],[-122.03699,37.16656],[-122.05551,37.21382],[-122.05978,37.22475],[-122.06699,37.24318],[-122.07316,37.25895],[-122.09614,37.31787],[-122.11138,37.35633],[-122.12128,37.38167],[-122.13471,37.42206],[-122.15187,37.47347],[-122.16359,37.50743],[-122.17188,37.52966],[-122.20619,37.54937],[-122.23962,37.56424],[-122.26893,37.57649],[-122.29238,37.58633],[-122.31497,37.59573],[-122.31977,37.5978],[-122.33193,37.60296],[-122.36122,37.61537]],"type":"LineString"}
}
