{
  "id": 2014443553,
  "type": "Feature",
  "properties": {
    "geom:area": 0,
    "geom:bbox": "-123.474580,37.265460,-122.160000,37.613760",
    "geom:latitude": 37.38544269673116,
    "geom:longitude": -122.72638504511474,
    "src:alt_label": "swim-approach",
    "src:geom": "swim",
    "swim:elevations": [
      5814,
      5469,
      5088,
      4845,
      4563,
      4304,
      3952,
      3728,
      3480,
      3203,
      3171,
      3137,
      3106,
      3048,
      2937,
      2655,
      2409,
      2129,
      2060,
      1897,
      1829,
      1829,
      1829,
      1829,
      1829,
      1829,
      1538,
      1353,
      1250,
      1137,
      811,
      792,
      792,
      792,
      598,
      491,
      357,
      158,
      117,
      0
    ],
    "swim:geom": "approach",
    "swim:timestamps": [
      1767168945,
      1767168980,
      1767169019,
      1767169043,
      1767169070,
      1767169097,
      1767169132,
      1767169156,
      1767169181,
      1767169221,
      1767169233,
      1767169251,
      1767169269,
      1767169311,
      1767169323,
      1767169359,
      1767169388,
      1767169431,
      1767169443,
      1767169470,
      1767169518,
      1767169550,
      1767169585,
      1767169600,
      1767169644,
      1767169668,
      1767169698,
      1767169733,
      1767169750,
      1767169782,
      1767169825,
      1767169842,
      1767169878,
      1767169896,
      1767169935,
      1767169957,
      1767169990,
      1767170037,
      1767170047,
      1767170078
    ],
    "wof:geomhash": "711b04a28e1a1eefe9e12e0d7d6ba53f",
    "wof:id": 2014443553,
    "wof:repo": "sfomuseum-data-flights-2025-12"
  },
  "bbox": [
    -123.47458,
    37.26546,
    -122.16,
    37.61376
  ],
  "geometry": {"coordinates":[[-123.47458,37.44792],[-123.40523,37.42662],[-123.3303,37.40346],[-123.28166,37.3883],[-123.23085,37.37252],[-123.18131,37.35722],[-123.11741,37.33719],[-123.07489,37.32387],[-123.02989,37.30978],[-122.96253,37.28883],[-122.94426,37.28314],[-122.91801,37.27491],[-122.89261,37.26692],[-122.82916,37.26546],[-122.81049,37.26985],[-122.75514,37.28281],[-122.7125,37.29293],[-122.65031,37.30739],[-122.63294,37.31145],[-122.59416,37.32053],[-122.52486,37.33633],[-122.47927,37.34695],[-122.42911,37.35854],[-122.40794,37.36333],[-122.35006,37.38881],[-122.31971,37.40523],[-122.28298,37.42518],[-122.24277,37.44652],[-122.22581,37.45579],[-122.19687,37.47236],[-122.16143,37.49624],[-122.16,37.51071],[-122.18422,37.53772],[-122.20222,37.5462],[-122.24266,37.56308],[-122.26326,37.57177],[-122.29233,37.584],[-122.33006,37.5999],[-122.33779,37.60314],[-122.36235,37.61376]],"type":"LineString"}
}
