{
  "id": 2014446089,
  "type": "Feature",
  "properties": {
    "geom:area": 0,
    "geom:bbox": "-122.364250,37.632170,-121.247930,38.480810",
    "geom:latitude": 38.09218640953033,
    "geom:longitude": -121.83087512524892,
    "src:alt_label": "swim-takeoff",
    "src:geom": "swim",
    "swim:elevations": [
      183,
      386,
      598,
      975,
      1380,
      1530,
      2023,
      2713,
      2971,
      3292,
      3345,
      3709,
      4016,
      4295,
      4734,
      4955,
      5299,
      5582,
      5815,
      6127,
      6301,
      6372,
      6814,
      7027,
      7117,
      7378
    ],
    "swim:geom": "takeoff",
    "swim:timestamps": [
      1767185841,
      1767185852,
      1767185886,
      1767185932,
      1767185962,
      1767185971,
      1767186009,
      1767186058,
      1767186077,
      1767186114,
      1767186123,
      1767186177,
      1767186202,
      1767186225,
      1767186264,
      1767186285,
      1767186317,
      1767186348,
      1767186378,
      1767186417,
      1767186441,
      1767186450,
      1767186507,
      1767186538,
      1767186552,
      1767186592
    ],
    "wof:geomhash": "d5a33a0addfe0440dbae4f2ef99ca640",
    "wof:id": 2014446089,
    "wof:repo": "sfomuseum-data-flights-2025-12"
  },
  "bbox": [
    -122.36425,
    37.63217,
    -121.24793,
    38.48081
  ],
  "geometry": {"coordinates":[[-122.36425,37.63217],[-122.35813,37.63946],[-122.32883,37.65602],[-122.27818,37.68458],[-122.24015,37.7047],[-122.22845,37.71078],[-122.18693,37.74823],[-122.13822,37.80249],[-122.11966,37.82307],[-122.08048,37.86628],[-122.06948,37.8783],[-122.00128,37.95322],[-121.96916,37.98872],[-121.9376,38.02372],[-121.88431,38.08179],[-121.85591,38.11297],[-121.81032,38.1622],[-121.76606,38.21048],[-121.72203,38.25749],[-121.64537,38.30239],[-121.59311,38.32637],[-121.57323,38.33547],[-121.44409,38.39434],[-121.37291,38.4257],[-121.34249,38.43912],[-121.24793,38.48081]],"type":"LineString"}
}
