{
  "id": 2014446109,
  "type": "Feature",
  "properties": {
    "geom:area": 0,
    "geom:bbox": "-122.384930,37.629390,-121.430800,38.517250",
    "geom:latitude": 38.122521696480085,
    "geom:longitude": -122.01191925918752,
    "src:alt_label": "swim-takeoff",
    "src:geom": "swim",
    "swim:elevations": [
      213,
      486,
      667,
      1157,
      1448,
      1603,
      1726,
      2576,
      2985,
      3294,
      3562,
      3785,
      3932,
      4674,
      4879,
      5353,
      5611,
      5885,
      6475,
      6775,
      6967,
      7407,
      7701,
      7882,
      8253,
      8426,
      8459
    ],
    "swim:geom": "takeoff",
    "swim:timestamps": [
      1767224653,
      1767224680,
      1767224708,
      1767224756,
      1767224779,
      1767224788,
      1767224794,
      1767224842,
      1767224868,
      1767224907,
      1767224934,
      1767224955,
      1767224971,
      1767225026,
      1767225041,
      1767225079,
      1767225098,
      1767225123,
      1767225175,
      1767225203,
      1767225222,
      1767225267,
      1767225294,
      1767225313,
      1767225357,
      1767225384,
      1767225390
    ],
    "wof:geomhash": "8778f4b39db72c7afb452b89977d3354",
    "wof:id": 2014446109,
    "wof:repo": "sfomuseum-data-flights-2025-12"
  },
  "bbox": [
    -122.38493,
    37.62939,
    -121.4308,
    38.51725
  ],
  "geometry": {"coordinates":[[-122.36589,37.62939],[-122.35122,37.64516],[-122.32995,37.66276],[-122.31268,37.71112],[-122.32851,37.73883],[-122.33607,37.75022],[-122.34073,37.75751],[-122.37266,37.81759],[-122.38493,37.85228],[-122.38423,37.91254],[-122.36016,37.95321],[-122.32534,37.97642],[-122.29709,37.99354],[-122.19471,38.0556],[-122.16601,38.07317],[-122.09185,38.11849],[-122.0547,38.1412],[-122.00505,38.17116],[-121.89883,38.23512],[-121.83977,38.27082],[-121.79885,38.29535],[-121.70225,38.35339],[-121.64322,38.38882],[-121.60334,38.41279],[-121.50419,38.47199],[-121.44402,38.5087],[-121.4308,38.51725]],"type":"LineString"}
}
