{
  "id": 2014418881,
  "type": "Feature",
  "properties": {
    "geom:area": 0,
    "geom:bbox": "-122.525090,37.625640,-121.279940,37.971440",
    "geom:latitude": 37.86440356898215,
    "geom:longitude": -122.0002469596426,
    "src:alt_label": "swim-takeoff",
    "src:geom": "swim",
    "swim:elevations": [
      213,
      533,
      650,
      733,
      1005,
      1191,
      1279,
      1637,
      1921,
      2143,
      2512,
      2824,
      3047,
      3262,
      3375,
      3504,
      3658,
      3718,
      3976,
      4206,
      4327,
      4598,
      4817,
      5056,
      5178,
      5417,
      5509,
      5560,
      5752
    ],
    "swim:geom": "takeoff",
    "swim:timestamps": [
      1766916113,
      1766916148,
      1766916173,
      1766916199,
      1766916233,
      1766916254,
      1766916278,
      1766916321,
      1766916349,
      1766916375,
      1766916414,
      1766916447,
      1766916470,
      1766916505,
      1766916533,
      1766916558,
      1766916594,
      1766916606,
      1766916653,
      1766916682,
      1766916702,
      1766916741,
      1766916774,
      1766916808,
      1766916826,
      1766916865,
      1766916874,
      1766916902,
      1766916933
    ],
    "wof:geomhash": "29ff9ae5c5446c1611ca2e1f53e3945b",
    "wof:id": 2014418881,
    "wof:repo": "sfomuseum-data-flights-2025-12"
  },
  "bbox": [
    -122.52509,
    37.62564,
    -121.27994,
    37.97144
  ],
  "geometry": {"coordinates":[[-122.39119,37.62564],[-122.42239,37.64016],[-122.447,37.65138],[-122.47493,37.66379],[-122.51431,37.68673],[-122.52182,37.70874],[-122.5228,37.73535],[-122.52509,37.78331],[-122.50468,37.81146],[-122.46796,37.82445],[-122.41037,37.83981],[-122.35765,37.84621],[-122.32091,37.85073],[-122.26191,37.85788],[-122.21223,37.86374],[-122.16324,37.86949],[-122.08902,37.87806],[-122.06499,37.88079],[-121.95879,37.8931],[-121.89426,37.90064],[-121.84724,37.90609],[-121.75522,37.91669],[-121.67524,37.92584],[-121.59241,37.93536],[-121.54812,37.94036],[-121.45195,37.95242],[-121.42921,37.95507],[-121.36008,37.96275],[-121.27994,37.97144]],"type":"LineString"}
}
