{
  "id": 2014443557,
  "type": "Feature",
  "properties": {
    "geom:area": 0,
    "geom:bbox": "-122.358230,37.491580,-121.244620,37.614000",
    "geom:latitude": 37.54309769434841,
    "geom:longitude": -121.8085122327803,
    "src:alt_label": "swim-approach",
    "src:geom": "swim",
    "swim:elevations": [
      4788,
      4468,
      4266,
      4063,
      3940,
      3688,
      3503,
      3294,
      3137,
      2956,
      2790,
      2577,
      2327,
      2128,
      1969,
      1921,
      1827,
      1703,
      1650,
      1474,
      1254,
      1218,
      1035,
      856,
      754,
      730,
      542,
      497,
      367,
      184,
      120,
      77
    ],
    "swim:geom": "approach",
    "swim:timestamps": [
      1767178812,
      1767178849,
      1767178873,
      1767178897,
      1767178916,
      1767178944,
      1767178967,
      1767178994,
      1767179027,
      1767179063,
      1767179087,
      1767179113,
      1767179152,
      1767179184,
      1767179210,
      1767179223,
      1767179256,
      1767179287,
      1767179295,
      1767179325,
      1767179359,
      1767179388,
      1767179428,
      1767179456,
      1767179478,
      1767179483,
      1767179518,
      1767179528,
      1767179556,
      1767179602,
      1767179616,
      1767179642
    ],
    "wof:geomhash": "c47d667c247f11d383045e94fad6e4f9",
    "wof:id": 2014443557,
    "wof:repo": "sfomuseum-data-flights-2025-12"
  },
  "bbox": [
    -122.35823,
    37.49158,
    -121.24462,
    37.614
  ],
  "geometry": {"coordinates":[[-121.24462,37.59521],[-121.32229,37.58541],[-121.37147,37.58014],[-121.41894,37.57466],[-121.45579,37.57043],[-121.51067,37.564],[-121.55166,37.55921],[-121.6007,37.55347],[-121.65425,37.54361],[-121.70882,37.53056],[-121.74234,37.52264],[-121.77911,37.51385],[-121.83224,37.50114],[-121.87674,37.49158],[-121.91387,37.49306],[-121.93195,37.49427],[-121.97434,37.49661],[-122.0129,37.49881],[-122.02277,37.49937],[-122.05859,37.50136],[-122.0979,37.50519],[-122.129,37.51745],[-122.17206,37.53567],[-122.19988,37.54741],[-122.22177,37.55669],[-122.22737,37.55903],[-122.26205,37.57355],[-122.27146,37.57755],[-122.29385,37.58691],[-122.32858,37.60151],[-122.33921,37.6061],[-122.35823,37.614]],"type":"LineString"}
}
