{
  "id": 2014428649,
  "type": "Feature",
  "properties": {
    "geom:area": 0,
    "geom:bbox": "-122.527420,37.630720,-122.177830,38.488300",
    "geom:latitude": 38.0229080352406,
    "geom:longitude": -122.34182419825282,
    "src:alt_label": "swim-takeoff",
    "src:geom": "swim",
    "swim:elevations": [
      265,
      535,
      724,
      970,
      1533,
      1646,
      2206,
      2544,
      3171,
      3365,
      3468,
      3951,
      4242,
      4521,
      5118,
      5418,
      5692,
      5869,
      6247,
      6818,
      6965,
      7455,
      7557
    ],
    "swim:geom": "takeoff",
    "swim:timestamps": [
      1767012804,
      1767012837,
      1767012862,
      1767012884,
      1767012923,
      1767012932,
      1767012967,
      1767012990,
      1767013033,
      1767013066,
      1767013084,
      1767013126,
      1767013149,
      1767013172,
      1767013219,
      1767013248,
      1767013280,
      1767013294,
      1767013325,
      1767013370,
      1767013385,
      1767013437,
      1767013452
    ],
    "wof:geomhash": "6525af11b6fdd197c754870a75bfd315",
    "wof:id": 2014428649,
    "wof:repo": "sfomuseum-data-flights-2025-12"
  },
  "bbox": [
    -122.52742,
    37.63072,
    -122.17783,
    38.4883
  ],
  "geometry": {"coordinates":[[-122.40299,37.63072],[-122.4366,37.64521],[-122.46694,37.65847],[-122.49514,37.67061],[-122.52605,37.71028],[-122.52649,37.72134],[-122.52742,37.76698],[-122.52088,37.79591],[-122.46698,37.82767],[-122.42654,37.85797],[-122.41544,37.88385],[-122.3898,37.94883],[-122.37361,37.98363],[-122.3508,38.01722],[-122.30155,38.08719],[-122.27031,38.13129],[-122.23453,38.18111],[-122.21807,38.20371],[-122.18465,38.25253],[-122.17783,38.33552],[-122.18033,38.36181],[-122.18974,38.46087],[-122.19237,38.4883]],"type":"LineString"}
}
