{
  "id": 2014439383,
  "type": "Feature",
  "properties": {
    "geom:area": 0,
    "geom:bbox": "-122.364860,37.631310,-121.301280,37.955430",
    "geom:latitude": 37.832940598483916,
    "geom:longitude": -121.84777086637642,
    "src:alt_label": "swim-takeoff",
    "src:geom": "swim",
    "swim:elevations": [
      152,
      705,
      1023,
      1106,
      1375,
      1586,
      2775,
      3213,
      3349,
      3576,
      4270,
      4562,
      4799,
      5346,
      5543,
      5784,
      5994,
      6218,
      6597,
      6657,
      6934,
      7188
    ],
    "swim:geom": "takeoff",
    "swim:timestamps": [
      1767100876,
      1767100917,
      1767100944,
      1767100961,
      1767100991,
      1767101014,
      1767101088,
      1767101120,
      1767101139,
      1767101163,
      1767101219,
      1767101238,
      1767101257,
      1767101300,
      1767101324,
      1767101345,
      1767101363,
      1767101388,
      1767101428,
      1767101435,
      1767101468,
      1767101494
    ],
    "wof:geomhash": "60a24c2340680e58dc641afed0826908",
    "wof:id": 2014439383,
    "wof:repo": "sfomuseum-data-flights-2025-12"
  },
  "bbox": [
    -122.36486,
    37.63131,
    -121.30128,
    37.95543
  ],
  "geometry": {"coordinates":[[-122.36486,37.63131],[-122.33949,37.65505],[-122.31522,37.66673],[-122.29958,37.6744],[-122.26383,37.69165],[-122.23464,37.70664],[-122.13323,37.76023],[-122.08776,37.78372],[-122.05878,37.79879],[-122.0198,37.8187],[-121.91372,37.84379],[-121.87379,37.85099],[-121.83495,37.85834],[-121.74372,37.87486],[-121.69222,37.88419],[-121.64695,37.89242],[-121.60756,37.8996],[-121.5505,37.91002],[-121.45879,37.92682],[-121.44248,37.9298],[-121.36512,37.94385],[-121.30128,37.95543]],"type":"LineString"}
}
