{
  "id": 2014430673,
  "type": "Feature",
  "properties": {
    "geom:area": 0,
    "geom:bbox": "-122.361890,37.635580,-121.250180,38.122620",
    "geom:latitude": 37.893625598478195,
    "geom:longitude": -121.81352480637211,
    "src:alt_label": "swim-takeoff",
    "src:geom": "swim",
    "swim:elevations": [
      213,
      616,
      909,
      1065,
      1254,
      1410,
      1523,
      2314,
      2537,
      3046,
      3351,
      3443,
      3629,
      3873,
      4034,
      4069,
      4159,
      4302,
      4581,
      5117,
      5427,
      5469,
      5792,
      5791,
      5803,
      6052
    ],
    "swim:geom": "takeoff",
    "swim:timestamps": [
      1766997896,
      1766997923,
      1766997952,
      1766997977,
      1766998015,
      1766998038,
      1766998051,
      1766998108,
      1766998126,
      1766998168,
      1766998195,
      1766998209,
      1766998237,
      1766998286,
      1766998312,
      1766998321,
      1766998334,
      1766998352,
      1766998387,
      1766998431,
      1766998465,
      1766998474,
      1766998529,
      1766998537,
      1766998579,
      1766998605
    ],
    "wof:geomhash": "d50287810fb2d5e510482cd4c49b52e0",
    "wof:id": 2014430673,
    "wof:repo": "sfomuseum-data-flights-2025-12"
  },
  "bbox": [
    -122.36189,
    37.63558,
    -121.25018,
    38.12262
  ],
  "geometry": {"coordinates":[[-122.36189,37.63558],[-122.3456,37.65217],[-122.31941,37.66153],[-122.29721,37.67213],[-122.25818,37.69422],[-122.22991,37.70968],[-122.21294,37.71839],[-122.13694,37.75705],[-122.11352,37.76975],[-122.05658,37.79846],[-122.01974,37.81767],[-122.00091,37.8275],[-121.95614,37.84584],[-121.87157,37.87845],[-121.82285,37.89743],[-121.80578,37.90426],[-121.78146,37.91386],[-121.74434,37.92828],[-121.67654,37.95535],[-121.5888,37.98963],[-121.52171,38.01536],[-121.50528,38.02192],[-121.39996,38.06426],[-121.38384,38.0708],[-121.3013,38.10302],[-121.25018,38.12262]],"type":"LineString"}
}
