{
  "id": 2014421761,
  "type": "Feature",
  "properties": {
    "geom:area": 0,
    "geom:bbox": "-122.361180,37.636490,-121.251370,37.955340",
    "geom:latitude": 37.85165146626409,
    "geom:longitude": -121.88836988691243,
    "src:alt_label": "swim-takeoff",
    "src:geom": "swim",
    "swim:elevations": [
      370,
      577,
      689,
      1176,
      1551,
      1845,
      2165,
      2871,
      3137,
      3192,
      3372,
      3475,
      3682,
      4202,
      4645,
      4934,
      5200,
      5396,
      5671,
      5728,
      5774,
      6171,
      6582,
      6809,
      6989,
      7107,
      7335
    ],
    "swim:geom": "takeoff",
    "swim:timestamps": [
      1766964328,
      1766964349,
      1766964367,
      1766964412,
      1766964440,
      1766964460,
      1766964484,
      1766964532,
      1766964550,
      1766964556,
      1766964590,
      1766964611,
      1766964643,
      1766964677,
      1766964716,
      1766964743,
      1766964770,
      1766964787,
      1766964826,
      1766964860,
      1766964870,
      1766964914,
      1766964956,
      1766964988,
      1766965013,
      1766965031,
      1766965061
    ],
    "wof:geomhash": "528534c599aebfc293d5623591eda900",
    "wof:id": 2014421761,
    "wof:repo": "sfomuseum-data-flights-2025-12"
  },
  "bbox": [
    -122.36118,
    37.63649,
    -121.25137,
    37.95534
  ],
  "geometry": {"coordinates":[[-122.36118,37.63649],[-122.34863,37.64813],[-122.33547,37.65906],[-122.31239,37.69819],[-122.32726,37.73022],[-122.34019,37.75269],[-122.35517,37.78145],[-122.34481,37.83576],[-122.3205,37.84591],[-122.31136,37.84742],[-122.25397,37.85465],[-122.21606,37.85947],[-122.15165,37.8674],[-122.08123,37.8762],[-121.99733,37.88115],[-121.93999,37.86939],[-121.88098,37.85686],[-121.84382,37.84843],[-121.75547,37.83505],[-121.68374,37.84987],[-121.66294,37.85518],[-121.57089,37.87803],[-121.48146,37.89959],[-121.41434,37.91581],[-121.35866,37.92938],[-121.31858,37.93911],[-121.25137,37.95534]],"type":"LineString"}
}
