{
  "id": 2014409317,
  "type": "Feature",
  "properties": {
    "geom:area": 0,
    "geom:bbox": "-122.354490,37.491640,-121.248130,37.612430",
    "geom:latitude": 37.54662241918425,
    "geom:longitude": -121.80611035285857,
    "src:alt_label": "swim-approach",
    "src:geom": "swim",
    "swim:elevations": [
      4576,
      4564,
      4350,
      4131,
      3978,
      3747,
      3721,
      3660,
      3627,
      3479,
      3286,
      3038,
      2854,
      2818,
      2493,
      2344,
      2260,
      2133,
      1957,
      1890,
      1680,
      1522,
      1367,
      1306,
      1225,
      1111,
      956,
      856,
      785,
      757,
      643,
      537,
      462,
      393,
      191,
      67,
      29
    ],
    "swim:geom": "approach",
    "swim:timestamps": [
      1766869878,
      1766869882,
      1766869913,
      1766869943,
      1766869964,
      1766870004,
      1766870010,
      1766870031,
      1766870047,
      1766870083,
      1766870109,
      1766870148,
      1766870185,
      1766870190,
      1766870235,
      1766870256,
      1766870268,
      1766870293,
      1766870338,
      1766870356,
      1766870397,
      1766870425,
      1766870458,
      1766870473,
      1766870488,
      1766870509,
      1766870546,
      1766870569,
      1766870586,
      1766870594,
      1766870620,
      1766870643,
      1766870659,
      1766870676,
      1766870726,
      1766870758,
      1766870764
    ],
    "wof:geomhash": "aec1df74d266d80dfaeee794e406cc81",
    "wof:id": 2014409317,
    "wof:repo": "sfomuseum-data-flights-2025-12"
  },
  "bbox": [
    -122.35449,
    37.49164,
    -121.24813,
    37.61243
  ],
  "geometry": {"coordinates":[[-121.24813,37.59472],[-121.25495,37.59376],[-121.30771,37.58726],[-121.36039,37.58159],[-121.39681,37.57741],[-121.46557,37.56929],[-121.47552,37.56818],[-121.50898,37.56441],[-121.53209,37.56185],[-121.58472,37.55542],[-121.62304,37.5508],[-121.67856,37.538],[-121.72926,37.52581],[-121.73672,37.52396],[-121.7988,37.50917],[-121.82832,37.50212],[-121.84455,37.4983],[-121.87741,37.49164],[-121.93866,37.4924],[-121.96302,37.49304],[-122.01462,37.50322],[-122.04701,37.51379],[-122.08281,37.52537],[-122.09753,37.53014],[-122.11391,37.53534],[-122.13407,37.54207],[-122.16822,37.55298],[-122.18787,37.55951],[-122.20388,37.56483],[-122.21074,37.56699],[-122.23401,37.57438],[-122.25465,37.58107],[-122.26842,37.58517],[-122.28277,37.58927],[-122.32397,37.60163],[-122.3499,37.61052],[-122.35449,37.61243]],"type":"LineString"}
}
