{
  "id": 2014424429,
  "type": "Feature",
  "properties": {
    "geom:area": 0,
    "geom:bbox": "-122.359670,37.491070,-121.297220,37.614610",
    "geom:latitude": 37.54505920009882,
    "geom:longitude": -121.83315092207543,
    "src:alt_label": "swim-approach",
    "src:geom": "swim",
    "swim:elevations": [
      4381,
      4189,
      3826,
      3626,
      3376,
      3170,
      3160,
      2942,
      2696,
      2480,
      2388,
      2095,
      1983,
      1920,
      1687,
      1538,
      1371,
      1286,
      1077,
      759,
      630,
      503,
      340,
      322,
      196,
      101
    ],
    "swim:geom": "approach",
    "swim:timestamps": [
      1767005817,
      1767005835,
      1767005877,
      1767005906,
      1767005937,
      1767005967,
      1767005972,
      1767006016,
      1767006047,
      1767006080,
      1767006093,
      1767006145,
      1767006171,
      1767006188,
      1767006231,
      1767006255,
      1767006282,
      1767006300,
      1767006332,
      1767006388,
      1767006417,
      1767006440,
      1767006477,
      1767006483,
      1767006514,
      1767006555
    ],
    "wof:geomhash": "df2e43e5602bc31d67c30d31fbd07d61",
    "wof:id": 2014424429,
    "wof:repo": "sfomuseum-data-flights-2025-12"
  },
  "bbox": [
    -122.35967,
    37.49107,
    -121.29722,
    37.61461
  ],
  "geometry": {"coordinates":[[-121.29722,37.58844],[-121.337,37.5843],[-121.42807,37.57374],[-121.48857,37.56651],[-121.55047,37.55952],[-121.60896,37.55282],[-121.61857,37.55158],[-121.69281,37.5347],[-121.74258,37.52277],[-121.79468,37.5102],[-121.81433,37.50544],[-121.89106,37.49107],[-121.93043,37.4924],[-121.95607,37.49299],[-122.01528,37.50349],[-122.04654,37.51363],[-122.08142,37.52488],[-122.10358,37.53211],[-122.14315,37.54506],[-122.20645,37.56531],[-122.2367,37.57534],[-122.25954,37.58267],[-122.29249,37.59219],[-122.29781,37.59382],[-122.32478,37.60186],[-122.35967,37.61461]],"type":"LineString"}
}
