{
  "id": 2014432709,
  "type": "Feature",
  "properties": {
    "geom:area": 0,
    "geom:bbox": "-123.500780,36.851810,-122.105980,37.610850",
    "geom:latitude": 37.25202376496477,
    "geom:longitude": -122.71235375820793,
    "src:alt_label": "swim-approach",
    "src:geom": "swim",
    "swim:elevations": [
      6187,
      6037,
      5581,
      5533,
      5536,
      5260,
      4724,
      4657,
      4212,
      3884,
      3722,
      3308,
      3193,
      3138,
      3075,
      3048,
      3048,
      3048,
      3048,
      3048,
      3048,
      3048,
      3048,
      3048,
      3002,
      2831,
      2608,
      2289,
      1926,
      1795,
      1549,
      1524,
      1524,
      1524,
      1341,
      1157,
      1070,
      915,
      853,
      620,
      497,
      367,
      304,
      118,
      17
    ],
    "swim:geom": "approach",
    "swim:timestamps": [
      1767092120,
      1767092138,
      1767092185,
      1767092190,
      1767092210,
      1767092225,
      1767092274,
      1767092282,
      1767092327,
      1767092362,
      1767092378,
      1767092425,
      1767092445,
      1767092471,
      1767092490,
      1767092541,
      1767092574,
      1767092584,
      1767092637,
      1767092654,
      1767092689,
      1767092719,
      1767092738,
      1767092785,
      1767092830,
      1767092856,
      1767092893,
      1767092930,
      1767092968,
      1767092986,
      1767093025,
      1767093055,
      1767093082,
      1767093111,
      1767093145,
      1767093173,
      1767093189,
      1767093226,
      1767093255,
      1767093298,
      1767093323,
      1767093355,
      1767093372,
      1767093417,
      1767093439
    ],
    "wof:geomhash": "c0f2703758b60d14e0e07c6c4534f44b",
    "wof:id": 2014432709,
    "wof:repo": "sfomuseum-data-flights-2025-12"
  },
  "bbox": [
    -123.50078,
    36.85181,
    -122.10598,
    37.61085
  ],
  "geometry": {"coordinates":[[-123.50078,36.85181],[-123.46755,36.87205],[-123.38243,36.92732],[-123.37311,36.93344],[-123.33678,36.95605],[-123.30964,36.97414],[-123.22189,37.0304],[-123.20782,37.03941],[-123.1284,37.09004],[-123.06999,37.12695],[-123.04535,37.14255],[-122.97361,37.1879],[-122.9433,37.20721],[-122.90761,37.22972],[-122.88138,37.24622],[-122.80731,37.27056],[-122.75936,37.2819],[-122.744,37.2855],[-122.66591,37.30361],[-122.64154,37.30335],[-122.59668,37.28887],[-122.55908,37.27609],[-122.53439,37.26788],[-122.47269,37.25365],[-122.41933,37.28292],[-122.39123,37.30283],[-122.35227,37.33097],[-122.31231,37.3578],[-122.26697,37.37939],[-122.24504,37.38884],[-122.19591,37.41097],[-122.16137,37.42203],[-122.13034,37.42354],[-122.10598,37.44074],[-122.1077,37.47514],[-122.12272,37.50012],[-122.13314,37.51265],[-122.16842,37.53192],[-122.19701,37.54385],[-122.23956,37.56179],[-122.26312,37.57169],[-122.28931,37.58272],[-122.30309,37.58851],[-122.33865,37.60344],[-122.35632,37.61085]],"type":"LineString"}
}
