{
  "id": 2014442429,
  "type": "Feature",
  "properties": {
    "geom:area": 0,
    "geom:bbox": "-122.360110,37.493460,-121.253400,37.612260",
    "geom:latitude": 37.54303937177433,
    "geom:longitude": -121.81316358347648,
    "src:alt_label": "swim-approach",
    "src:geom": "swim",
    "swim:elevations": [
      4621,
      4502,
      4178,
      3784,
      3557,
      3375,
      3263,
      3157,
      2944,
      2798,
      2764,
      2594,
      2498,
      2438,
      2180,
      2143,
      1858,
      1797,
      1583,
      1401,
      1255,
      1093,
      1024,
      904,
      593,
      550,
      386,
      216,
      60,
      96
    ],
    "swim:geom": "approach",
    "swim:timestamps": [
      1767187249,
      1767187262,
      1767187301,
      1767187348,
      1767187377,
      1767187398,
      1767187416,
      1767187442,
      1767187490,
      1767187511,
      1767187529,
      1767187552,
      1767187566,
      1767187592,
      1767187641,
      1767187650,
      1767187698,
      1767187726,
      1767187758,
      1767187781,
      1767187803,
      1767187857,
      1767187868,
      1767187892,
      1767187944,
      1767187950,
      1767187983,
      1767188024,
      1767188062,
      1767188079
    ],
    "wof:geomhash": "17b466e1be3673e20cc923bf57e8ccf6",
    "wof:id": 2014442429,
    "wof:repo": "sfomuseum-data-flights-2025-12"
  },
  "bbox": [
    -122.36011,
    37.49346,
    -121.2534,
    37.61226
  ],
  "geometry": {"coordinates":[[-121.2534,37.59446],[-121.2775,37.59117],[-121.34633,37.58284],[-121.426,37.57386],[-121.47253,37.56843],[-121.50668,37.56439],[-121.53378,37.56129],[-121.57549,37.5564],[-121.64862,37.54504],[-121.67783,37.53794],[-121.70285,37.53192],[-121.73395,37.52455],[-121.75198,37.52018],[-121.78644,37.5119],[-121.85205,37.4963],[-121.8639,37.49346],[-121.93222,37.49517],[-121.97206,37.49887],[-122.01599,37.50248],[-122.04923,37.50509],[-122.08095,37.50757],[-122.14965,37.52394],[-122.16256,37.52933],[-122.1912,37.54142],[-122.24899,37.56577],[-122.25494,37.56822],[-122.28727,37.58185],[-122.32017,37.5957],[-122.34776,37.6073],[-122.36011,37.61226]],"type":"LineString"}
}
