{
  "id": 2014431227,
  "type": "Feature",
  "properties": {
    "geom:area": 0,
    "geom:bbox": "-122.525610,37.629190,-122.050280,38.507500",
    "geom:latitude": 38.01797874500355,
    "geom:longitude": -122.28543096466183,
    "src:alt_label": "swim-takeoff",
    "src:geom": "swim",
    "swim:elevations": [
      213,
      504,
      710,
      988,
      1293,
      1637,
      1774,
      1827,
      2369,
      2733,
      2972,
      3336,
      3546,
      3755,
      3972,
      4292,
      4509,
      4888,
      5021,
      5418,
      5664,
      5939,
      6126,
      6278,
      6450,
      6664,
      6878
    ],
    "swim:geom": "takeoff",
    "swim:timestamps": [
      1767038368,
      1767038392,
      1767038409,
      1767038433,
      1767038473,
      1767038518,
      1767038545,
      1767038563,
      1767038605,
      1767038623,
      1767038645,
      1767038696,
      1767038724,
      1767038747,
      1767038768,
      1767038792,
      1767038810,
      1767038843,
      1767038852,
      1767038891,
      1767038922,
      1767038953,
      1767038978,
      1767038995,
      1767039014,
      1767039037,
      1767039063
    ],
    "wof:geomhash": "78674821e595363b2184d8ae9c4aa2d1",
    "wof:id": 2014431227,
    "wof:repo": "sfomuseum-data-flights-2025-12"
  },
  "bbox": [
    -122.52561,
    37.62919,
    -122.05028,
    38.5075
  ],
  "geometry": {"coordinates":[[-122.39981,37.62919],[-122.42287,37.63905],[-122.43976,37.6459],[-122.46265,37.65605],[-122.50356,37.67428],[-122.52561,37.71898],[-122.5177,37.75261],[-122.49734,37.76908],[-122.43011,37.78583],[-122.40184,37.79202],[-122.37275,37.8061],[-122.3335,37.8727],[-122.31506,37.91469],[-122.29809,37.95148],[-122.28159,37.98448],[-122.26218,38.02368],[-122.24792,38.05351],[-122.22091,38.10922],[-122.21352,38.12438],[-122.18176,38.19181],[-122.15597,38.24623],[-122.13009,38.30012],[-122.10967,38.3465],[-122.09756,38.37775],[-122.08438,38.41392],[-122.06794,38.45887],[-122.05028,38.5075]],"type":"LineString"}
}
