{
  "id": 2014422105,
  "type": "Feature",
  "properties": {
    "geom:area": 0,
    "geom:bbox": "-122.457630,36.724070,-121.445790,37.703210",
    "geom:latitude": 37.214194909925496,
    "geom:longitude": -122.05272731910277,
    "src:alt_label": "swim-takeoff",
    "src:geom": "swim",
    "swim:elevations": [
      424,
      1021,
      1148,
      1365,
      1919,
      2219,
      2711,
      3002,
      3312,
      3574,
      3903,
      4154,
      4827,
      5299,
      5440,
      5704,
      6191,
      6672,
      6945,
      7238,
      7618,
      7800,
      8024,
      8156,
      8230,
      8230,
      8230,
      8230,
      8230,
      8230,
      8230
    ],
    "swim:geom": "takeoff",
    "swim:timestamps": [
      1766949589,
      1766949628,
      1766949650,
      1766949672,
      1766949712,
      1766949727,
      1766949757,
      1766949775,
      1766949803,
      1766949827,
      1766949854,
      1766949872,
      1766949918,
      1766949953,
      1766949971,
      1766949991,
      1766950030,
      1766950074,
      1766950098,
      1766950122,
      1766950158,
      1766950186,
      1766950217,
      1766950233,
      1766950288,
      1766950301,
      1766950331,
      1766950345,
      1766950363,
      1766950385,
      1766950425
    ],
    "wof:geomhash": "24c73bed89c183c65a0db51976b3d68f",
    "wof:id": 2014422105,
    "wof:repo": "sfomuseum-data-flights-2025-12"
  },
  "bbox": [
    -122.45763,
    36.72407,
    -121.44579,
    37.70321
  ],
  "geometry": {"coordinates":[[-122.36524,37.64116],[-122.36306,37.66814],[-122.36231,37.68601],[-122.38028,37.70321],[-122.43892,37.69622],[-122.45353,37.67995],[-122.45763,37.63938],[-122.45517,37.61409],[-122.45159,37.57335],[-122.44885,37.53483],[-122.44463,37.48852],[-122.43051,37.46028],[-122.36196,37.40497],[-122.30679,37.36428],[-122.2781,37.34329],[-122.24429,37.31844],[-122.17815,37.26999],[-122.10241,37.21397],[-122.05976,37.18224],[-122.01751,37.15101],[-121.95269,37.10289],[-121.90075,37.06408],[-121.84485,37.0223],[-121.81403,36.99936],[-121.71017,36.92325],[-121.68623,36.90525],[-121.62739,36.86106],[-121.60084,36.84091],[-121.56625,36.81469],[-121.52478,36.78284],[-121.44579,36.72407]],"type":"LineString"}
}
