{
  "id": 2014443591,
  "type": "Feature",
  "properties": {
    "geom:area": 0,
    "geom:bbox": "-122.352770,37.481740,-121.285200,37.618960",
    "geom:latitude": 37.55313076150106,
    "geom:longitude": -121.8253741864508,
    "src:alt_label": "swim-approach",
    "src:geom": "swim",
    "swim:elevations": [
      4202,
      4168,
      4008,
      3809,
      3649,
      3414,
      3247,
      3044,
      3048,
      3048,
      3048,
      3048,
      3048,
      2738,
      2553,
      2330,
      2183,
      2011,
      1879,
      1763,
      1667,
      1329,
      1280,
      1066,
      893,
      869,
      618,
      543,
      319,
      271,
      91,
      53
    ],
    "swim:geom": "approach",
    "swim:timestamps": [
      1767197454,
      1767197463,
      1767197500,
      1767197568,
      1767197608,
      1767197637,
      1767197664,
      1767197694,
      1767197700,
      1767197758,
      1767197787,
      1767197805,
      1767197826,
      1767197875,
      1767197903,
      1767197932,
      1767197958,
      1767197997,
      1767198025,
      1767198045,
      1767198063,
      1767198118,
      1767198124,
      1767198176,
      1767198207,
      1767198211,
      1767198259,
      1767198273,
      1767198323,
      1767198332,
      1767198378,
      1767198393
    ],
    "wof:geomhash": "8c95b938e70a586d817486c3a410de8d",
    "wof:id": 2014443591,
    "wof:repo": "sfomuseum-data-flights-2025-12"
  },
  "bbox": [
    -122.35277,
    37.48174,
    -121.2852,
    37.61896
  ],
  "geometry": {"coordinates":[[-121.2852,37.58996],[-121.30236,37.58794],[-121.37131,37.58042],[-121.48396,37.56745],[-121.54181,37.56059],[-121.58427,37.55568],[-121.62393,37.55183],[-121.66327,37.56769],[-121.67054,37.57208],[-121.74066,37.61395],[-121.78141,37.61896],[-121.8005,37.60651],[-121.8135,37.58635],[-121.84197,37.53958],[-121.8584,37.51366],[-121.87751,37.48788],[-121.9101,37.48174],[-121.95955,37.48784],[-121.99369,37.49014],[-122.01798,37.49019],[-122.03933,37.49015],[-122.10224,37.50614],[-122.10897,37.50895],[-122.16469,37.53249],[-122.1965,37.54596],[-122.20035,37.54758],[-122.24884,37.568],[-122.26225,37.57357],[-122.30347,37.59095],[-122.31022,37.59384],[-122.34235,37.60733],[-122.35277,37.61161]],"type":"LineString"}
}
