{
  "id": 2014426083,
  "type": "Feature",
  "properties": {
    "geom:area": 0,
    "geom:bbox": "-122.360650,36.723770,-121.879610,37.614520",
    "geom:latitude": 37.2180964668403,
    "geom:longitude": -122.0713040214477,
    "src:alt_label": "swim-approach",
    "src:geom": "swim",
    "swim:elevations": [
      5536,
      5409,
      5037,
      4699,
      4313,
      4029,
      3886,
      3603,
      3168,
      3066,
      3015,
      2812,
      2536,
      2394,
      2160,
      2091,
      2011,
      1818,
      1616,
      1463,
      1309,
      1214,
      936,
      788,
      670,
      479,
      327,
      251,
      131,
      0
    ],
    "swim:geom": "approach",
    "swim:timestamps": [
      1767047186,
      1767047207,
      1767047236,
      1767047269,
      1767047304,
      1767047331,
      1767047347,
      1767047372,
      1767047417,
      1767047455,
      1767047471,
      1767047504,
      1767047543,
      1767047564,
      1767047595,
      1767047604,
      1767047616,
      1767047643,
      1767047691,
      1767047721,
      1767047745,
      1767047766,
      1767047811,
      1767047835,
      1767047860,
      1767047897,
      1767047935,
      1767047950,
      1767047987,
      1767048020
    ],
    "wof:geomhash": "f21f917d2851a62d86172739707a9a2a",
    "wof:id": 2014426083,
    "wof:repo": "sfomuseum-data-flights-2025-12"
  },
  "bbox": [
    -122.36065,
    36.72377,
    -121.87961,
    37.61452
  ],
  "geometry": {"coordinates":[[-121.87961,36.72377],[-121.8967,36.75512],[-121.91071,36.80141],[-121.9254,36.85354],[-121.94142,36.91098],[-121.95407,36.95476],[-121.96346,36.97875],[-121.9788,37.0186],[-122.00581,37.08743],[-122.02739,37.14244],[-122.03578,37.16367],[-122.05225,37.20567],[-122.07163,37.25487],[-122.08164,37.28094],[-122.09646,37.3183],[-122.10077,37.32932],[-122.10636,37.34379],[-122.11883,37.3757],[-122.13772,37.42954],[-122.1484,37.46117],[-122.15648,37.48612],[-122.16339,37.50741],[-122.17807,37.55071],[-122.19983,37.56422],[-122.22765,37.57219],[-122.26498,37.5843],[-122.2974,37.59362],[-122.30903,37.59698],[-122.3369,37.60536],[-122.36065,37.61452]],"type":"LineString"}
}
