{
  "id": 2014441663,
  "type": "Feature",
  "properties": {
    "geom:area": 0,
    "geom:bbox": "-122.355320,37.492710,-121.267310,37.612700",
    "geom:latitude": 37.541966046979674,
    "geom:longitude": -121.81827074542866,
    "src:alt_label": "swim-approach",
    "src:geom": "swim",
    "swim:elevations": [
      4667,
      4591,
      4057,
      3848,
      3543,
      3505,
      3451,
      3292,
      3199,
      3138,
      2968,
      2710,
      2412,
      2295,
      2160,
      1978,
      1790,
      1642,
      1554,
      1521,
      1462,
      1283,
      1155,
      1092,
      923,
      663,
      641,
      546,
      363,
      268,
      237,
      24
    ],
    "swim:geom": "approach",
    "swim:timestamps": [
      1767223885,
      1767223891,
      1767223944,
      1767223966,
      1767224007,
      1767224028,
      1767224050,
      1767224091,
      1767224118,
      1767224130,
      1767224157,
      1767224188,
      1767224218,
      1767224230,
      1767224260,
      1767224298,
      1767224336,
      1767224366,
      1767224384,
      1767224396,
      1767224405,
      1767224450,
      1767224478,
      1767224503,
      1767224532,
      1767224578,
      1767224581,
      1767224602,
      1767224638,
      1767224664,
      1767224673,
      1767224723
    ],
    "wof:geomhash": "f6f6489e714326bb9a126bad34fca48e",
    "wof:id": 2014441663,
    "wof:repo": "sfomuseum-data-flights-2025-12"
  },
  "bbox": [
    -122.35532,
    37.49271,
    -121.26731,
    37.6127
  ],
  "geometry": {"coordinates":[[-121.26731,37.59217],[-121.27913,37.59059],[-121.3845,37.57892],[-121.42624,37.57399],[-121.5072,37.56472],[-121.54505,37.5603],[-121.58105,37.55597],[-121.64647,37.54584],[-121.68433,37.53679],[-121.7007,37.53287],[-121.73644,37.52446],[-121.77518,37.51501],[-121.81388,37.50553],[-121.82954,37.50162],[-121.86781,37.49271],[-121.9193,37.49317],[-121.97012,37.49628],[-122.007,37.49856],[-122.02805,37.49966],[-122.04182,37.5003],[-122.05207,37.50081],[-122.10261,37.50628],[-122.13231,37.51883],[-122.15753,37.52965],[-122.18831,37.54249],[-122.23662,37.56289],[-122.2396,37.56412],[-122.25995,37.57263],[-122.29043,37.58549],[-122.31054,37.59395],[-122.31725,37.59679],[-122.35532,37.6127]],"type":"LineString"}
}
