{
  "id": 2014436793,
  "type": "Feature",
  "properties": {
    "geom:area": 0,
    "geom:bbox": "-122.480640,36.718640,-121.266330,37.711610",
    "geom:latitude": 37.22928932237858,
    "geom:longitude": -121.95515101440891,
    "src:alt_label": "swim-takeoff",
    "src:geom": "swim",
    "swim:elevations": [
      152,
      670,
      787,
      1017,
      1398,
      1715,
      2189,
      2529,
      3010,
      3253,
      3561,
      3894,
      4012,
      4117,
      4457,
      4798,
      5103,
      5393,
      5606,
      5928,
      6073,
      6170,
      6439,
      6725,
      6988,
      7194,
      7324,
      7468,
      7645,
      7798,
      8010,
      8134,
      8241,
      8443,
      8584,
      8717
    ],
    "swim:geom": "takeoff",
    "swim:timestamps": [
      1767134462,
      1767134516,
      1767134537,
      1767134562,
      1767134600,
      1767134621,
      1767134653,
      1767134677,
      1767134720,
      1767134752,
      1767134787,
      1767134816,
      1767134827,
      1767134836,
      1767134870,
      1767134904,
      1767134934,
      1767134966,
      1767134993,
      1767135026,
      1767135046,
      1767135060,
      1767135093,
      1767135139,
      1767135176,
      1767135200,
      1767135217,
      1767135238,
      1767135263,
      1767135281,
      1767135320,
      1767135344,
      1767135365,
      1767135408,
      1767135431,
      1767135465
    ],
    "wof:geomhash": "ca72f5b68c483972e559b4046f677864",
    "wof:id": 2014436793,
    "wof:repo": "sfomuseum-data-flights-2025-12"
  },
  "bbox": [
    -122.48064,
    36.71864,
    -121.26633,
    37.71161
  ],
  "geometry": {"coordinates":[[-122.36678,37.63244],[-122.36193,37.67666],[-122.36885,37.69749],[-122.39893,37.71161],[-122.44855,37.69328],[-122.45897,37.66919],[-122.47174,37.63163],[-122.48064,37.60226],[-122.44904,37.55836],[-122.40908,37.53065],[-122.36118,37.49649],[-122.32057,37.46797],[-122.30504,37.45708],[-122.2932,37.44883],[-122.2441,37.41468],[-122.19286,37.37882],[-122.14752,37.34693],[-122.09975,37.31334],[-122.05839,37.28412],[-122.00751,37.24821],[-121.97603,37.22593],[-121.95341,37.21007],[-121.90095,37.17295],[-121.82557,37.11941],[-121.76334,37.07513],[-121.72302,37.04648],[-121.69577,37.02701],[-121.66041,37.00177],[-121.61782,36.97148],[-121.58696,36.94989],[-121.52083,36.90207],[-121.47829,36.87219],[-121.44222,36.84569],[-121.36746,36.79269],[-121.32574,36.76217],[-121.26633,36.71864]],"type":"LineString"}
}
