{
  "id": 2014447431,
  "type": "Feature",
  "properties": {
    "geom:area": 0,
    "geom:bbox": "-123.507420,37.022780,-122.746250,37.518900",
    "geom:latitude": 37.27160527110875,
    "geom:longitude": -123.12733529834424,
    "src:alt_label": "swim-takeoff",
    "src:geom": "swim",
    "swim:elevations": [
      3478,
      3666,
      3856,
      4181,
      4203,
      4529,
      4705,
      4984,
      5396,
      5734,
      5987,
      6244,
      6493,
      6602,
      7046,
      7280,
      7487,
      7551
    ],
    "swim:geom": "takeoff",
    "swim:timestamps": [
      1767200681,
      1767200709,
      1767200727,
      1767200757,
      1767200760,
      1767200788,
      1767200806,
      1767200832,
      1767200869,
      1767200905,
      1767200936,
      1767200965,
      1767200994,
      1767201004,
      1767201055,
      1767201086,
      1767201115,
      1767201124
    ],
    "wof:geomhash": "6dbd9a6bffe554d5885dcca129222414",
    "wof:id": 2014447431,
    "wof:repo": "sfomuseum-data-flights-2025-12"
  },
  "bbox": [
    -123.50742,
    37.02278,
    -122.74625,
    37.5189
  ],
  "geometry": {"coordinates":[[-122.74625,37.5189],[-122.78831,37.49192],[-122.81602,37.47404],[-122.86335,37.44348],[-122.86815,37.4404],[-122.91298,37.41133],[-122.94171,37.39269],[-122.98552,37.36431],[-123.04751,37.32411],[-123.10849,37.28434],[-123.16278,37.24888],[-123.21494,37.21495],[-123.26755,37.18054],[-123.28507,37.16908],[-123.37862,37.10766],[-123.43519,37.07043],[-123.48914,37.0352],[-123.50742,37.02278]],"type":"LineString"}
}
