{
  "id": 2014447335,
  "type": "Feature",
  "properties": {
    "geom:area": 0,
    "geom:bbox": "-122.364390,37.631500,-121.254810,37.963680",
    "geom:latitude": 37.837626383936765,
    "geom:longitude": -121.82420105976495,
    "src:alt_label": "swim-takeoff",
    "src:geom": "swim",
    "swim:elevations": [
      183,
      504,
      602,
      1124,
      1260,
      1687,
      2349,
      2601,
      3318,
      3479,
      3762,
      3959,
      4171,
      4245,
      4476,
      4640,
      5035,
      5439,
      5683,
      5823,
      6105,
      6346,
      6636,
      6705
    ],
    "swim:geom": "takeoff",
    "swim:timestamps": [
      1767212908,
      1767212932,
      1767212940,
      1767212992,
      1767213017,
      1767213050,
      1767213086,
      1767213098,
      1767213146,
      1767213168,
      1767213200,
      1767213215,
      1767213236,
      1767213242,
      1767213262,
      1767213278,
      1767213317,
      1767213354,
      1767213387,
      1767213408,
      1767213446,
      1767213475,
      1767213506,
      1767213515
    ],
    "wof:geomhash": "e2a6ce42b25cc109f32e726ffd79ab9a",
    "wof:id": 2014447335,
    "wof:repo": "sfomuseum-data-flights-2025-12"
  },
  "bbox": [
    -122.36439,
    37.6315,
    -121.25481,
    37.96368
  ],
  "geometry": {"coordinates":[[-122.36439,37.6315],[-122.35019,37.64584],[-122.34366,37.64955],[-122.29534,37.67384],[-122.26683,37.69027],[-122.22166,37.71399],[-122.1702,37.74045],[-122.15304,37.74876],[-122.08433,37.7843],[-122.05035,37.80203],[-121.99439,37.82518],[-121.96446,37.8328],[-121.92128,37.84041],[-121.90871,37.84297],[-121.86771,37.85152],[-121.83256,37.85849],[-121.74546,37.87377],[-121.66022,37.88993],[-121.5811,37.90399],[-121.52986,37.91331],[-121.43465,37.93077],[-121.35933,37.94463],[-121.27825,37.95947],[-121.25481,37.96368]],"type":"LineString"}
}
