{
  "id": 2014423689,
  "type": "Feature",
  "properties": {
    "geom:area": 0,
    "geom:bbox": "-122.353510,37.491310,-121.259680,37.611990",
    "geom:latitude": 37.54600069372714,
    "geom:longitude": -121.81134955529143,
    "src:alt_label": "swim-approach",
    "src:geom": "swim",
    "swim:elevations": [
      4759,
      4537,
      4446,
      4090,
      3918,
      3663,
      3404,
      3066,
      2811,
      2645,
      2386,
      2225,
      2080,
      1957,
      1919,
      1747,
      1667,
      1492,
      1173,
      1118,
      852,
      734,
      675,
      535,
      394,
      194,
      84,
      35
    ],
    "swim:geom": "approach",
    "swim:timestamps": [
      1767041126,
      1767041150,
      1767041160,
      1767041200,
      1767041222,
      1767041254,
      1767041287,
      1767041329,
      1767041363,
      1767041388,
      1767041427,
      1767041454,
      1767041487,
      1767041518,
      1767041525,
      1767041565,
      1767041580,
      1767041612,
      1767041667,
      1767041679,
      1767041725,
      1767041757,
      1767041766,
      1767041790,
      1767041823,
      1767041865,
      1767041894,
      1767041902
    ],
    "wof:geomhash": "40b4f7c7740b59ad1dee03c550b7ddc9",
    "wof:id": 2014423689,
    "wof:repo": "sfomuseum-data-flights-2025-12"
  },
  "bbox": [
    -122.35351,
    37.49131,
    -121.25968,
    37.61199
  ],
  "geometry": {"coordinates":[[-121.25968,37.59306],[-121.31159,37.58669],[-121.3344,37.58423],[-121.41773,37.5753],[-121.46119,37.57043],[-121.52251,37.5629],[-121.58291,37.55556],[-121.65717,37.54263],[-121.71384,37.52929],[-121.75537,37.51956],[-121.81509,37.50533],[-121.85561,37.49543],[-121.9004,37.49131],[-121.94268,37.49257],[-121.95162,37.49292],[-122.00284,37.49926],[-122.02064,37.50508],[-122.05809,37.5173],[-122.12209,37.53818],[-122.13573,37.54266],[-122.18627,37.55906],[-122.21937,37.56973],[-122.22877,37.57263],[-122.25358,37.58072],[-122.2859,37.59019],[-122.32273,37.60118],[-122.34736,37.60949],[-122.35351,37.61199]],"type":"LineString"}
}
