{
  "id": 2014438925,
  "type": "Feature",
  "properties": {
    "geom:area": 0,
    "geom:bbox": "-122.366920,37.627890,-121.428110,38.519290",
    "geom:latitude": 38.070077336024895,
    "geom:longitude": -121.89576213757078,
    "src:alt_label": "swim-takeoff",
    "src:geom": "swim",
    "swim:elevations": [
      122,
      329,
      435,
      781,
      849,
      1104,
      1699,
      2040,
      2532,
      2791,
      3167,
      3356,
      3455,
      3826,
      4246,
      4581,
      4774,
      5221,
      5433,
      5948,
      6267,
      6412,
      6799,
      7064,
      7446,
      7697
    ],
    "swim:geom": "takeoff",
    "swim:timestamps": [
      1767121271,
      1767121287,
      1767121300,
      1767121347,
      1767121353,
      1767121383,
      1767121432,
      1767121456,
      1767121492,
      1767121512,
      1767121543,
      1767121576,
      1767121594,
      1767121630,
      1767121670,
      1767121697,
      1767121714,
      1767121748,
      1767121774,
      1767121819,
      1767121848,
      1767121860,
      1767121900,
      1767121927,
      1767121970,
      1767122003
    ],
    "wof:geomhash": "02b6c678d8b9ee3ff2dc7081cda4b5d7",
    "wof:id": 2014438925,
    "wof:repo": "sfomuseum-data-flights-2025-12"
  },
  "bbox": [
    -122.36692,
    37.62789,
    -121.42811,
    38.51929
  ],
  "geometry": {"coordinates":[[-122.36692,37.62789],[-122.3594,37.63808],[-122.3497,37.64436],[-122.3066,37.66768],[-122.29977,37.67147],[-122.26735,37.69035],[-122.20667,37.72667],[-122.18422,37.75115],[-122.14919,37.79017],[-122.12869,37.81295],[-122.09815,37.84681],[-122.06161,37.88684],[-122.04056,37.90986],[-121.99604,37.95866],[-121.94433,38.01503],[-121.90822,38.05422],[-121.885,38.07983],[-121.83772,38.13198],[-121.80216,38.17123],[-121.73659,38.2428],[-121.695,38.2881],[-121.67737,38.30733],[-121.61719,38.37257],[-121.57619,38.41656],[-121.4955,38.4779],[-121.42811,38.51929]],"type":"LineString"}
}
