{
  "id": 2014420229,
  "type": "Feature",
  "properties": {
    "geom:area": 0,
    "geom:bbox": "-122.365720,37.629670,-121.258550,38.342380",
    "geom:latitude": 38.05021467672977,
    "geom:longitude": -121.8651014961288,
    "src:alt_label": "swim-takeoff",
    "src:geom": "swim",
    "swim:elevations": [
      183,
      461,
      529,
      911,
      1406,
      1703,
      2248,
      2722,
      3145,
      3260,
      3538,
      3940,
      4524,
      4845,
      5387,
      5435,
      5970,
      6107,
      6174,
      6561,
      6771,
      6889,
      7010,
      7193,
      7326,
      7473,
      7684,
      7833,
      7967
    ],
    "swim:geom": "takeoff",
    "swim:timestamps": [
      1766915841,
      1766915871,
      1766915881,
      1766915922,
      1766915959,
      1766915981,
      1766916019,
      1766916053,
      1766916082,
      1766916099,
      1766916123,
      1766916151,
      1766916199,
      1766916227,
      1766916268,
      1766916278,
      1766916325,
      1766916338,
      1766916344,
      1766916384,
      1766916407,
      1766916423,
      1766916465,
      1766916505,
      1766916530,
      1766916554,
      1766916583,
      1766916610,
      1766916634
    ],
    "wof:geomhash": "25b458d3044797f7d5e9faab01f51cd1",
    "wof:id": 2014420229,
    "wof:repo": "sfomuseum-data-flights-2025-12"
  },
  "bbox": [
    -122.36572,
    37.62967,
    -121.25855,
    38.34238
  ],
  "geometry": {"coordinates":[[-122.36572,37.62967],[-122.34459,37.6457],[-122.33511,37.65084],[-122.29449,37.67468],[-122.25946,37.70369],[-122.25578,37.72877],[-122.25228,37.77388],[-122.23818,37.81388],[-122.20734,37.84101],[-122.18974,37.85827],[-122.16335,37.88371],[-122.13057,37.91386],[-122.07438,37.96563],[-122.03936,37.9979],[-121.98818,38.04488],[-121.97494,38.05598],[-121.90128,38.09888],[-121.88027,38.11018],[-121.86985,38.11579],[-121.80218,38.15015],[-121.75888,38.16578],[-121.728,38.17682],[-121.64259,38.20737],[-121.55612,38.2379],[-121.5015,38.25716],[-121.44672,38.27638],[-121.3805,38.29946],[-121.31587,38.32213],[-121.25855,38.34238]],"type":"LineString"}
}
