{
  "id": 2014422553,
  "type": "Feature",
  "properties": {
    "geom:area": 0,
    "geom:bbox": "-122.364780,37.630720,-121.428660,38.518810",
    "geom:latitude": 38.07152391028331,
    "geom:longitude": -121.89491820247964,
    "src:alt_label": "swim-takeoff",
    "src:geom": "swim",
    "swim:elevations": [
      122,
      624,
      978,
      1220,
      1451,
      1800,
      2088,
      2789,
      3215,
      3438,
      3633,
      3878,
      3939,
      4431,
      4752,
      5238,
      5416,
      5570,
      6058,
      6127,
      6237,
      6374,
      6741,
      6976,
      7260,
      7442,
      7810,
      7841
    ],
    "swim:geom": "takeoff",
    "swim:timestamps": [
      1766912146,
      1766912177,
      1766912204,
      1766912237,
      1766912268,
      1766912295,
      1766912314,
      1766912361,
      1766912392,
      1766912428,
      1766912455,
      1766912485,
      1766912491,
      1766912537,
      1766912572,
      1766912601,
      1766912619,
      1766912643,
      1766912693,
      1766912705,
      1766912719,
      1766912737,
      1766912776,
      1766912801,
      1766912833,
      1766912854,
      1766912903,
      1766912910
    ],
    "wof:geomhash": "2cb2079a6dce476083cdeceb0867aa89",
    "wof:id": 2014422553,
    "wof:repo": "sfomuseum-data-flights-2025-12"
  },
  "bbox": [
    -122.36478,
    37.63072,
    -121.42866,
    38.51881
  ],
  "geometry": {"coordinates":[[-122.36478,37.63072],[-122.34196,37.6483],[-122.31913,37.65989],[-122.29058,37.67723],[-122.25748,37.69587],[-122.22239,37.71386],[-122.20282,37.73045],[-122.16091,37.7772],[-122.13221,37.80884],[-122.09756,37.84734],[-122.06772,37.88096],[-122.03241,37.92004],[-122.02512,37.92802],[-121.96846,37.99013],[-121.92345,38.04046],[-121.88611,38.08069],[-121.8631,38.10584],[-121.83221,38.13997],[-121.76724,38.2106],[-121.7514,38.22775],[-121.73162,38.24935],[-121.7068,38.27622],[-121.65255,38.3346],[-121.6168,38.37324],[-121.57313,38.42008],[-121.53774,38.45033],[-121.4439,38.50947],[-121.42866,38.51881]],"type":"LineString"}
}
