{
  "id": 2014409953,
  "type": "Feature",
  "properties": {
    "geom:area": 0,
    "geom:bbox": "-123.133390,37.539090,-122.107030,38.514930",
    "geom:latitude": 37.92992717863078,
    "geom:longitude": -122.5756876542859,
    "src:alt_label": "swim-approach",
    "src:geom": "swim",
    "swim:elevations": [
      7572,
      7222,
      7030,
      6684,
      6507,
      6228,
      6114,
      5759,
      5500,
      5318,
      4880,
      4761,
      4547,
      4200,
      3874,
      3605,
      3440,
      3351,
      3318,
      3210,
      2833,
      2566,
      2443,
      2167,
      2096,
      1765,
      1636,
      1386,
      1127,
      1023,
      943,
      681,
      454,
      352,
      318,
      137,
      0
    ],
    "swim:geom": "approach",
    "swim:timestamps": [
      1766903195,
      1766903237,
      1766903259,
      1766903303,
      1766903323,
      1766903358,
      1766903371,
      1766903412,
      1766903442,
      1766903472,
      1766903516,
      1766903528,
      1766903557,
      1766903598,
      1766903627,
      1766903653,
      1766903692,
      1766903725,
      1766903749,
      1766903770,
      1766903817,
      1766903846,
      1766903864,
      1766903904,
      1766903913,
      1766903960,
      1766903979,
      1766904023,
      1766904052,
      1766904076,
      1766904096,
      1766904138,
      1766904164,
      1766904204,
      1766904213,
      1766904260,
      1766904287
    ],
    "wof:geomhash": "3df50b725251cf90fc736e004d9909d3",
    "wof:id": 2014409953,
    "wof:repo": "sfomuseum-data-flights-2025-12"
  },
  "bbox": [
    -123.13339,
    37.53909,
    -122.10703,
    38.51493
  ],
  "geometry": {"coordinates":[[-123.13339,38.51493],[-123.05857,38.45712],[-123.01901,38.42539],[-122.94308,38.36488],[-122.90911,38.33781],[-122.85084,38.2912],[-122.83028,38.27481],[-122.76946,38.2153],[-122.74853,38.16014],[-122.73224,38.10486],[-122.71002,38.02648],[-122.70417,38.00605],[-122.69011,37.95749],[-122.66057,37.88987],[-122.62203,37.85076],[-122.58556,37.81643],[-122.53371,37.76784],[-122.49359,37.72989],[-122.46067,37.7085],[-122.42721,37.6971],[-122.35342,37.67248],[-122.30876,37.66011],[-122.28034,37.6536],[-122.21695,37.63925],[-122.20319,37.63602],[-122.13213,37.61744],[-122.11111,37.60149],[-122.10703,37.55324],[-122.14152,37.53909],[-122.16993,37.5459],[-122.18967,37.55604],[-122.22897,37.5725],[-122.25475,37.58109],[-122.28923,37.59117],[-122.29661,37.59345],[-122.33566,37.60498],[-122.35677,37.61339]],"type":"LineString"}
}
