{
  "id": 2014433799,
  "type": "Feature",
  "properties": {
    "geom:area": 0,
    "geom:bbox": "-122.352150,37.491300,-121.257270,37.611390",
    "geom:latitude": 37.54601257482629,
    "geom:longitude": -121.80944792020829,
    "src:alt_label": "swim-approach",
    "src:geom": "swim",
    "swim:elevations": [
      4691,
      4357,
      3824,
      3526,
      3301,
      3171,
      3048,
      2788,
      2620,
      2502,
      2346,
      2147,
      2106,
      1910,
      1729,
      1384,
      1156,
      1112,
      830,
      718,
      607,
      570,
      426,
      335,
      241,
      153,
      59
    ],
    "swim:geom": "approach",
    "swim:timestamps": [
      1767111216,
      1767111249,
      1767111297,
      1767111326,
      1767111349,
      1767111365,
      1767111413,
      1767111440,
      1767111464,
      1767111485,
      1767111530,
      1767111563,
      1767111575,
      1767111617,
      1767111646,
      1767111684,
      1767111712,
      1767111722,
      1767111769,
      1767111801,
      1767111832,
      1767111840,
      1767111871,
      1767111897,
      1767111921,
      1767111941,
      1767111968
    ],
    "wof:geomhash": "be95e1471d225420eda66e8e293ec9a2",
    "wof:id": 2014433799,
    "wof:repo": "sfomuseum-data-flights-2025-12"
  },
  "bbox": [
    -122.35215,
    37.4913,
    -121.25727,
    37.61139
  ],
  "geometry": {"coordinates":[[-121.25727,37.59327],[-121.32243,37.58567],[-121.41987,37.5748],[-121.47569,37.56809],[-121.52312,37.56293],[-121.55478,37.55914],[-121.64286,37.5463],[-121.6865,37.53616],[-121.72567,37.52675],[-121.75837,37.51877],[-121.8239,37.50315],[-121.87304,37.49231],[-121.89091,37.4913],[-121.95655,37.49272],[-122.00059,37.49889],[-122.05534,37.51657],[-122.09381,37.52911],[-122.10745,37.53367],[-122.16608,37.55244],[-122.20155,37.56399],[-122.23465,37.57468],[-122.24287,37.57739],[-122.27463,37.58712],[-122.2972,37.59363],[-122.31606,37.59926],[-122.3316,37.60383],[-122.35215,37.61139]],"type":"LineString"}
}
