{
  "id": 2014432003,
  "type": "Feature",
  "properties": {
    "geom:area": 0,
    "geom:bbox": "-122.363590,37.492030,-121.266300,37.613250",
    "geom:latitude": 37.54251012181339,
    "geom:longitude": -121.8214537597117,
    "src:alt_label": "swim-approach",
    "src:geom": "swim",
    "swim:elevations": [
      4551,
      4234,
      3838,
      3612,
      3390,
      3314,
      3125,
      3054,
      2979,
      2615,
      2437,
      2438,
      2281,
      2133,
      2032,
      1827,
      1649,
      1394,
      1332,
      1219,
      1130,
      922,
      765,
      652,
      546,
      336,
      263,
      148,
      315
    ],
    "swim:geom": "approach",
    "swim:timestamps": [
      1767141103,
      1767141136,
      1767141171,
      1767141196,
      1767141232,
      1767141247,
      1767141274,
      1767141298,
      1767141316,
      1767141354,
      1767141387,
      1767141413,
      1767141443,
      1767141476,
      1767141497,
      1767141533,
      1767141560,
      1767141595,
      1767141604,
      1767141642,
      1767141678,
      1767141715,
      1767141742,
      1767141763,
      1767141785,
      1767141828,
      1767141850,
      1767141881,
      1767141920
    ],
    "wof:geomhash": "bea7d98be37fc0dd5c01950201024013",
    "wof:id": 2014432003,
    "wof:repo": "sfomuseum-data-flights-2025-12"
  },
  "bbox": [
    -122.36359,
    37.49203,
    -121.2663,
    37.61325
  ],
  "geometry": {"coordinates":[[-121.2663,37.59222],[-121.3322,37.58445],[-121.39877,37.57684],[-121.44552,37.57143],[-121.51192,37.56382],[-121.53802,37.56082],[-121.58383,37.55547],[-121.62391,37.55039],[-121.65309,37.54371],[-121.71227,37.52953],[-121.76236,37.51763],[-121.8002,37.50863],[-121.84021,37.49899],[-121.88474,37.49203],[-121.91394,37.49402],[-121.96071,37.4977],[-121.99446,37.50044],[-122.03821,37.5039],[-122.04949,37.50477],[-122.09571,37.50844],[-122.13891,37.51963],[-122.18095,37.53707],[-122.21079,37.54967],[-122.23322,37.55912],[-122.25503,37.5683],[-122.2924,37.58405],[-122.30907,37.59102],[-122.33278,37.60098],[-122.36359,37.61325]],"type":"LineString"}
}
