{
  "id": 2014443577,
  "type": "Feature",
  "properties": {
    "geom:area": 0,
    "geom:bbox": "-122.342980,36.740110,-121.889410,37.607630",
    "geom:latitude": 37.215335082830364,
    "geom:longitude": -122.06942399586578,
    "src:alt_label": "swim-approach",
    "src:geom": "swim",
    "swim:elevations": [
      5007,
      4705,
      4388,
      4065,
      4030,
      3681,
      3453,
      3141,
      3108,
      2898,
      2685,
      2479,
      2437,
      2273,
      2013,
      1672,
      1526,
      1441,
      1244,
      898,
      781,
      622,
      431,
      304,
      181,
      100
    ],
    "swim:geom": "approach",
    "swim:timestamps": [
      1767205009,
      1767205040,
      1767205072,
      1767205107,
      1767205111,
      1767205151,
      1767205178,
      1767205220,
      1767205232,
      1767205281,
      1767205315,
      1767205348,
      1767205366,
      1767205386,
      1767205422,
      1767205466,
      1767205492,
      1767205504,
      1767205533,
      1767205588,
      1767205609,
      1767205637,
      1767205672,
      1767205700,
      1767205727,
      1767205745
    ],
    "wof:geomhash": "adff1547902040847276a4787d32bf76",
    "wof:id": 2014443577,
    "wof:repo": "sfomuseum-data-flights-2025-12"
  },
  "bbox": [
    -122.34298,
    36.74011,
    -121.88941,
    37.60763
  ],
  "geometry": {"coordinates":[[-121.88941,36.74011],[-121.90842,36.79257],[-121.92386,36.84751],[-121.9402,36.90499],[-121.94163,36.91009],[-121.96169,36.97401],[-121.97705,37.01406],[-122.00204,37.07753],[-122.00887,37.09502],[-122.03486,37.16108],[-122.05205,37.20518],[-122.06902,37.24896],[-122.07833,37.27253],[-122.08872,37.29896],[-122.10688,37.34501],[-122.12852,37.4024],[-122.13969,37.43542],[-122.14488,37.45059],[-122.15663,37.48637],[-122.18732,37.54371],[-122.21333,37.5533],[-122.24586,37.56675],[-122.28163,37.5817],[-122.30609,37.59208],[-122.32844,37.60146],[-122.34298,37.60763]],"type":"LineString"}
}
