{
  "id": 2014413641,
  "type": "Feature",
  "properties": {
    "geom:area": 0,
    "geom:bbox": "-123.444360,37.537200,-122.392500,37.685310",
    "geom:latitude": 37.6287027464568,
    "geom:longitude": -122.91615397057927,
    "src:alt_label": "swim-takeoff",
    "src:geom": "swim",
    "swim:elevations": [
      91,
      241,
      612,
      762,
      1086,
      1252,
      1400,
      1800,
      2138,
      2374,
      2715,
      3164,
      3274,
      3467,
      3523,
      4092,
      4370,
      4490,
      4769,
      5178,
      5366,
      5441,
      5444
    ],
    "swim:geom": "takeoff",
    "swim:timestamps": [
      1766881453,
      1766881464,
      1766881491,
      1766881509,
      1766881554,
      1766881578,
      1766881599,
      1766881644,
      1766881668,
      1766881693,
      1766881718,
      1766881761,
      1766881797,
      1766881824,
      1766881833,
      1766881887,
      1766881917,
      1766881929,
      1766881955,
      1766882000,
      1766882020,
      1766882038,
      1766882041
    ],
    "wof:geomhash": "037d88c235169fcb58d58686e0d873f3",
    "wof:id": 2014413641,
    "wof:repo": "sfomuseum-data-flights-2025-12"
  },
  "bbox": [
    -123.44436,
    37.5372,
    -122.3925,
    37.68531
  ],
  "geometry": {"coordinates":[[-122.3925,37.62608],[-122.40355,37.63071],[-122.43051,37.64245],[-122.44882,37.65051],[-122.49633,37.6718],[-122.528,37.67708],[-122.55908,37.67911],[-122.63042,37.68284],[-122.6705,37.68531],[-122.713,37.68273],[-122.75458,37.67478],[-122.82875,37.66028],[-122.89668,37.64685],[-122.952,37.6361],[-122.97116,37.63233],[-123.08708,37.60887],[-123.15506,37.5953],[-123.18232,37.58988],[-123.24183,37.57804],[-123.34556,37.55724],[-123.39404,37.54744],[-123.43713,37.53866],[-123.44436,37.5372]],"type":"LineString"}
}
