{
  "id": 2014447651,
  "type": "Feature",
  "properties": {
    "geom:area": 0,
    "geom:bbox": "-122.447090,37.368680,-121.245120,37.710350",
    "geom:latitude": 37.49471475353378,
    "geom:longitude": -121.94198956147434,
    "src:alt_label": "swim-takeoff",
    "src:geom": "swim",
    "swim:elevations": [
      213,
      546,
      754,
      1098,
      1262,
      1600,
      2127,
      3106,
      3356,
      3744,
      4323,
      4509,
      5017,
      5483,
      5742,
      6326,
      6588,
      7119,
      7225,
      7284,
      7578,
      8006,
      8304,
      8575,
      8900,
      8998,
      9276,
      9430
    ],
    "swim:geom": "takeoff",
    "swim:timestamps": [
      1767217971,
      1767218000,
      1767218018,
      1767218050,
      1767218075,
      1767218101,
      1767218136,
      1767218187,
      1767218215,
      1767218239,
      1767218278,
      1767218291,
      1767218322,
      1767218355,
      1767218373,
      1767218415,
      1767218436,
      1767218474,
      1767218507,
      1767218529,
      1767218558,
      1767218604,
      1767218637,
      1767218661,
      1767218687,
      1767218697,
      1767218724,
      1767218736
    ],
    "wof:geomhash": "1d1177c8a2ab3b6b0a03dc65c8d69204",
    "wof:id": 2014447651,
    "wof:repo": "sfomuseum-data-flights-2025-12"
  },
  "bbox": [
    -122.44709,
    37.36868,
    -121.24512,
    37.71035
  ],
  "geometry": {"coordinates":[[-122.36844,37.62981],[-122.36419,37.65074],[-122.36354,37.66536],[-122.36404,37.69369],[-122.38998,37.71035],[-122.42451,37.70534],[-122.4413,37.66665],[-122.44709,37.60398],[-122.41649,37.57798],[-122.37365,37.56902],[-122.30269,37.55217],[-122.27743,37.54572],[-122.21818,37.53018],[-122.15515,37.51362],[-122.11968,37.50429],[-122.03419,37.48195],[-121.99041,37.47054],[-121.90928,37.45219],[-121.83218,37.44264],[-121.78033,37.43629],[-121.70495,37.42686],[-121.58616,37.41201],[-121.50002,37.40111],[-121.43711,37.39325],[-121.37064,37.38504],[-121.3448,37.38147],[-121.27577,37.37272],[-121.24512,37.36868]],"type":"LineString"}
}
