{
  "id": 2014415135,
  "type": "Feature",
  "properties": {
    "geom:area": 0,
    "geom:bbox": "-122.649700,37.548070,-122.141580,38.476060",
    "geom:latitude": 37.907342689005574,
    "geom:longitude": -122.41528192744046,
    "src:alt_label": "swim-approach",
    "src:geom": "swim",
    "swim:elevations": [
      8400,
      7752,
      7115,
      6738,
      6313,
      5810,
      5684,
      5525,
      4969,
      4743,
      4406,
      4292,
      3967,
      3659,
      3454,
      3360,
      3353,
      3320,
      3253,
      2849,
      2653,
      2491,
      2058,
      1858,
      1765,
      1318,
      1256,
      1225,
      1196,
      895,
      763,
      580,
      288,
      136,
      66
    ],
    "swim:geom": "approach",
    "swim:timestamps": [
      1766964798,
      1766964835,
      1766964867,
      1766964882,
      1766964905,
      1766964941,
      1766964953,
      1766964964,
      1766965016,
      1766965031,
      1766965070,
      1766965091,
      1766965124,
      1766965163,
      1766965195,
      1766965223,
      1766965250,
      1766965281,
      1766965292,
      1766965347,
      1766965370,
      1766965390,
      1766965436,
      1766965462,
      1766965472,
      1766965523,
      1766965535,
      1766965586,
      1766965604,
      1766965646,
      1766965664,
      1766965697,
      1766965733,
      1766965760,
      1766965778
    ],
    "wof:geomhash": "f87ebe7526c53fc7c4ef143e4648c08b",
    "wof:id": 2014415135,
    "wof:repo": "sfomuseum-data-flights-2025-12"
  },
  "bbox": [
    -122.6497,
    37.54807,
    -122.14158,
    38.47606
  ],
  "geometry": {"coordinates":[[-122.2956,38.47606],[-122.34775,38.39433],[-122.39181,38.3287],[-122.41263,38.2975],[-122.44433,38.24978],[-122.49301,38.17564],[-122.50851,38.1518],[-122.52265,38.13018],[-122.58701,38.03161],[-122.60528,38.00348],[-122.64785,37.93147],[-122.6497,37.89294],[-122.61807,37.84621],[-122.57032,37.80329],[-122.5324,37.7674],[-122.50225,37.73847],[-122.46717,37.72106],[-122.42729,37.70821],[-122.41301,37.70357],[-122.34483,37.68116],[-122.31666,37.67204],[-122.29203,37.66423],[-122.23631,37.64706],[-122.20474,37.63777],[-122.19268,37.6343],[-122.14973,37.59727],[-122.14158,37.58703],[-122.16743,37.54807],[-122.18884,37.5491],[-122.22667,37.57058],[-122.24475,37.57768],[-122.27734,37.58784],[-122.31006,37.59679],[-122.33324,37.60359],[-122.347,37.60923]],"type":"LineString"}
}
