{
  "id": 2014443933,
  "type": "Feature",
  "properties": {
    "geom:area": 0,
    "geom:bbox": "-122.358040,37.506750,-121.256800,37.614070",
    "geom:latitude": 37.55168900029561,
    "geom:longitude": -121.81486024126563,
    "src:alt_label": "swim-approach",
    "src:geom": "swim",
    "swim:elevations": [
      4310,
      4205,
      4121,
      3914,
      3607,
      3479,
      3352,
      3126,
      3042,
      2775,
      2684,
      2298,
      2130,
      1946,
      1754,
      1609,
      1440,
      1219,
      1135,
      978,
      790,
      580,
      452,
      367,
      276,
      181,
      65,
      0
    ],
    "swim:geom": "approach",
    "swim:timestamps": [
      1767186837,
      1767186855,
      1767186874,
      1767186906,
      1767186954,
      1767186966,
      1767187008,
      1767187039,
      1767187062,
      1767187100,
      1767187112,
      1767187160,
      1767187186,
      1767187216,
      1767187258,
      1767187283,
      1767187310,
      1767187345,
      1767187377,
      1767187402,
      1767187430,
      1767187467,
      1767187490,
      1767187508,
      1767187526,
      1767187549,
      1767187580,
      1767187592
    ],
    "wof:geomhash": "67bf6bf0547be6c52ecf7b606aa67fa8",
    "wof:id": 2014443933,
    "wof:repo": "sfomuseum-data-flights-2025-12"
  },
  "bbox": [
    -122.35804,
    37.50675,
    -121.2568,
    37.61407
  ],
  "geometry": {"coordinates":[[-121.2568,37.59347],[-121.29392,37.58912],[-121.33387,37.5853],[-121.39799,37.57903],[-121.49146,37.56924],[-121.51636,37.56655],[-121.59592,37.55803],[-121.65076,37.55217],[-121.6896,37.54796],[-121.75228,37.54117],[-121.77201,37.53901],[-121.85092,37.53047],[-121.89293,37.52598],[-121.93672,37.52121],[-121.99499,37.51463],[-122.02988,37.51084],[-122.06692,37.50675],[-122.11424,37.51094],[-122.15237,37.52726],[-122.18277,37.54013],[-122.21506,37.55372],[-122.25578,37.57089],[-122.27945,37.58084],[-122.29523,37.58747],[-122.31025,37.59384],[-122.32765,37.6011],[-122.34956,37.61032],[-122.35804,37.61407]],"type":"LineString"}
}
