{
  "id": 2014430009,
  "type": "Feature",
  "properties": {
    "date:inception_lower": "2025-12-29",
    "date:inception_upper": "2025-12-29",
    "edtf:cessation": "",
    "edtf:inception": "2025-12-29",
    "flysfo:actual_timestamp": -1,
    "flysfo:airline": "PD",
    "flysfo:date": "2025-12-29",
    "flysfo:estimated_timestamp": -1,
    "flysfo:event": "D",
    "flysfo:flight_number": "PD11222",
    "flysfo:gate": "",
    "flysfo:journey": "SFO-YYZ",
    "flysfo:scheduled_timestamp": 1767070800,
    "flysfo:timestamp": 1767070800,
    "geom:area": 0,
    "geom:bbox": "-122.370943,37.617990,-79.628342,43.676352",
    "geom:latitude": 40.647171,
    "geom:longitude": -100.9996425,
    "iata:airline": "PD",
    "icao:airline": "POE",
    "lbl:latitude": 37.61799,
    "lbl:longitude": -122.370943,
    "sfomuseum:airline_id": 1880585295,
    "sfomuseum:arrival_id": 102555091,
    "sfomuseum:departure_id": 102527513,
    "sfomuseum:flight_id": "20251229-D-POE-11222",
    "sfomuseum:flight_number": [
      "POE11222",
      "PD11222"
    ],
    "sfomuseum:placetype": "flight",
    "src:geom": "flysfo",
    "wof:belongsto": [],
    "wof:country": "US",
    "wof:created": 1767111301,
    "wof:geomhash": "1a30ef2f5f82135186aeb20f0187ac62",
    "wof:hierarchy": [
      {
        "custom_id": 2014430009,
        "flight_id": 2014430009
      }
    ],
    "wof:id": 2014430009,
    "wof:involves": [
      102555091,
      102527513,
      1880585295,
      -1
    ],
    "wof:lastmodified": 1767111301,
    "wof:name": "PD11222 (SFO-YYZ)",
    "wof:parent_id": -1,
    "wof:placetype": "custom",
    "wof:placetype_alt": [
      "flight"
    ],
    "wof:repo": "sfomuseum-data-flights-2025-12",
    "wof:superseded_by": [],
    "wof:supersedes": []
  },
  "bbox": [
    -122.370943,
    37.61799,
    -79.628342,
    43.676352
  ],
  "geometry": {"coordinates":[[-122.370943,37.61799],[-79.628342,43.676352]],"type":"MultiPoint"}
}
