{
  "id": 2014444933,
  "type": "Feature",
  "properties": {
    "geom:area": 0,
    "geom:bbox": "-122.361310,37.635610,-122.114510,38.516420",
    "geom:latitude": 38.04222560993935,
    "geom:longitude": -122.17713303987445,
    "src:alt_label": "swim-takeoff",
    "src:geom": "swim",
    "swim:elevations": [
      335,
      733,
      1029,
      1220,
      1251,
      1626,
      2192,
      2686,
      3153,
      3202,
      3304,
      3427,
      3646,
      4207,
      4518,
      4644,
      5064,
      5450,
      5573,
      5804,
      6031,
      6399,
      6472
    ],
    "swim:geom": "takeoff",
    "swim:timestamps": [
      1767207025,
      1767207054,
      1767207081,
      1767207113,
      1767207121,
      1767207162,
      1767207201,
      1767207231,
      1767207266,
      1767207276,
      1767207297,
      1767207318,
      1767207338,
      1767207386,
      1767207414,
      1767207426,
      1767207465,
      1767207507,
      1767207519,
      1767207551,
      1767207576,
      1767207621,
      1767207631
    ],
    "wof:geomhash": "4dafc24429f94f184bba01bb888185df",
    "wof:id": 2014444933,
    "wof:repo": "sfomuseum-data-flights-2025-12"
  },
  "bbox": [
    -122.36131,
    37.63561,
    -122.11451,
    38.51642
  ],
  "geometry": {"coordinates":[[-122.36131,37.63561],[-122.33751,37.649],[-122.31557,37.66133],[-122.28542,37.67925],[-122.27683,37.6844],[-122.22563,37.71369],[-122.20697,37.76484],[-122.20053,37.80666],[-122.19202,37.85479],[-122.18953,37.86975],[-122.18413,37.90225],[-122.17848,37.93735],[-122.17315,37.97055],[-122.15916,38.05503],[-122.15088,38.10475],[-122.14731,38.12648],[-122.13574,38.19738],[-122.12294,38.275],[-122.1192,38.2975],[-122.11451,38.35737],[-122.11792,38.4083],[-122.12384,38.49693],[-122.12441,38.51642]],"type":"LineString"}
}
