{
  "id": 2014433831,
  "type": "Feature",
  "properties": {
    "geom:area": 0,
    "geom:bbox": "-122.757090,37.441800,-122.160870,38.402560",
    "geom:latitude": 37.82834910132033,
    "geom:longitude": -122.49534011369323,
    "src:alt_label": "swim-approach",
    "src:geom": "swim",
    "swim:elevations": [
      7559,
      7437,
      7162,
      6627,
      6407,
      6266,
      5908,
      5522,
      5332,
      5258,
      4838,
      4614,
      4528,
      3963,
      3788,
      3588,
      3394,
      3353,
      3350,
      3353,
      3353,
      3288,
      3071,
      2867,
      2609,
      2285,
      2181,
      1775,
      1554,
      1524,
      1387,
      1121,
      1087,
      856,
      821,
      710,
      608,
      445,
      403,
      273,
      176,
      64,
      52
    ],
    "swim:geom": "approach",
    "swim:timestamps": [
      1767083247,
      1767083259,
      1767083284,
      1767083336,
      1767083360,
      1767083373,
      1767083414,
      1767083456,
      1767083485,
      1767083496,
      1767083543,
      1767083573,
      1767083581,
      1767083637,
      1767083658,
      1767083689,
      1767083713,
      1767083731,
      1767083781,
      1767083812,
      1767083818,
      1767083840,
      1767083875,
      1767083901,
      1767083928,
      1767083968,
      1767083977,
      1767084017,
      1767084043,
      1767084080,
      1767084111,
      1767084147,
      1767084150,
      1767084206,
      1767084212,
      1767084230,
      1767084250,
      1767084290,
      1767084300,
      1767084327,
      1767084355,
      1767084385,
      1767084390
    ],
    "wof:geomhash": "3c0b2933db5a70bac63c9da6dc770947",
    "wof:id": 2014433831,
    "wof:repo": "sfomuseum-data-flights-2025-12"
  },
  "bbox": [
    -122.75709,
    37.4418,
    -122.16087,
    38.40256
  ],
  "geometry": {"coordinates":[[-122.58464,38.40256],[-122.60442,38.38342],[-122.64218,38.34673],[-122.72133,38.26966],[-122.75048,38.23335],[-122.75709,38.2111],[-122.74417,38.14362],[-122.72522,38.07872],[-122.7118,38.03271],[-122.70705,38.01633],[-122.68564,37.94246],[-122.6675,37.89753],[-122.65932,37.88736],[-122.58974,37.82106],[-122.56444,37.79708],[-122.52938,37.76354],[-122.50274,37.73828],[-122.48392,37.72051],[-122.43888,37.67824],[-122.41224,37.65312],[-122.40701,37.64825],[-122.38803,37.63036],[-122.36118,37.60107],[-122.34724,37.57648],[-122.33236,37.55092],[-122.30997,37.51348],[-122.30497,37.50528],[-122.27776,37.46992],[-122.24676,37.45754],[-122.20325,37.4418],[-122.16834,37.4512],[-122.16087,37.48455],[-122.16272,37.4872],[-122.20221,37.53288],[-122.20635,37.53751],[-122.22024,37.55053],[-122.23858,37.56116],[-122.27741,37.5777],[-122.28663,37.58158],[-122.30931,37.59112],[-122.32992,37.59972],[-122.35088,37.60849],[-122.35421,37.6099]],"type":"LineString"}
}
