{
  "id": 2014417883,
  "type": "Feature",
  "properties": {
    "geom:area": 0,
    "geom:bbox": "-123.485230,36.975700,-122.123490,37.614130",
    "geom:latitude": 37.28910454913465,
    "geom:longitude": -122.70079827224532,
    "src:alt_label": "swim-approach",
    "src:geom": "swim",
    "swim:elevations": [
      7362,
      7160,
      6643,
      6329,
      5844,
      5769,
      5541,
      5227,
      5032,
      4682,
      4220,
      3692,
      3190,
      3048,
      3048,
      3048,
      2946,
      2812,
      2542,
      2443,
      2438,
      2435,
      2438,
      2438,
      2438,
      2438,
      2438,
      2438,
      2327,
      2234,
      1972,
      1847,
      1462,
      1370,
      1234,
      1219,
      1186,
      953,
      905,
      693,
      491,
      381,
      331,
      268,
      189,
      0
    ],
    "swim:geom": "approach",
    "swim:timestamps": [
      1766989582,
      1766989598,
      1766989640,
      1766989664,
      1766989706,
      1766989712,
      1766989733,
      1766989765,
      1766989780,
      1766989806,
      1766989839,
      1766989878,
      1766989914,
      1766989948,
      1766989958,
      1766989985,
      1766990035,
      1766990054,
      1766990091,
      1766990108,
      1766990124,
      1766990155,
      1766990178,
      1766990213,
      1766990248,
      1766990275,
      1766990302,
      1766990319,
      1766990337,
      1766990354,
      1766990390,
      1766990405,
      1766990451,
      1766990465,
      1766990498,
      1766990543,
      1766990570,
      1766990606,
      1766990621,
      1766990660,
      1766990692,
      1766990721,
      1766990730,
      1766990745,
      1766990763,
      1766990800
    ],
    "wof:geomhash": "ed19497af8a06fc9552450b7237b21bb",
    "wof:id": 2014417883,
    "wof:repo": "sfomuseum-data-flights-2025-12"
  },
  "bbox": [
    -123.48523,
    36.9757,
    -122.12349,
    37.61413
  ],
  "geometry": {"coordinates":[[-123.48523,36.9757],[-123.45414,36.98982],[-123.37202,37.02747],[-123.32776,37.04792],[-123.24954,37.08355],[-123.23856,37.08853],[-123.20053,37.10574],[-123.14403,37.13126],[-123.11752,37.14317],[-123.07244,37.16349],[-123.01457,37.18947],[-122.94864,37.21941],[-122.88581,37.24744],[-122.8231,37.26674],[-122.80383,37.27138],[-122.75636,37.28272],[-122.67474,37.30173],[-122.64622,37.30833],[-122.59136,37.32103],[-122.56513,37.32707],[-122.54298,37.33226],[-122.5014,37.34185],[-122.47232,37.34851],[-122.42737,37.35102],[-122.38226,37.35183],[-122.34716,37.3523],[-122.3127,37.35294],[-122.29076,37.35317],[-122.26682,37.35364],[-122.24381,37.35384],[-122.20046,37.36613],[-122.18335,37.37349],[-122.15449,37.41591],[-122.14796,37.43006],[-122.13246,37.46285],[-122.12349,37.50263],[-122.14296,37.52217],[-122.18063,37.53918],[-122.19567,37.54557],[-122.23519,37.56221],[-122.26717,37.5758],[-122.2931,37.5865],[-122.30067,37.58984],[-122.31318,37.59514],[-122.32831,37.60135],[-122.35861,37.61413]],"type":"LineString"}
}
