{
  "id": 2014439523,
  "type": "Feature",
  "properties": {
    "geom:area": 0,
    "geom:bbox": "-122.386040,37.637170,-121.272330,38.040940",
    "geom:latitude": 37.936643410292206,
    "geom:longitude": -121.94352936857115,
    "src:alt_label": "swim-takeoff",
    "src:geom": "swim",
    "swim:elevations": [
      305,
      696,
      756,
      944,
      1257,
      1546,
      1706,
      2462,
      2821,
      3063,
      3385,
      3481,
      3643,
      4232,
      4584,
      4720,
      5296,
      5524,
      5563,
      5789,
      5792,
      5927,
      6370,
      6611,
      6827,
      6947,
      7012,
      7138
    ],
    "swim:geom": "takeoff",
    "swim:timestamps": [
      1767135743,
      1767135773,
      1767135781,
      1767135794,
      1767135837,
      1767135864,
      1767135876,
      1767135925,
      1767135950,
      1767135969,
      1767136014,
      1767136035,
      1767136059,
      1767136102,
      1767136133,
      1767136143,
      1767136197,
      1767136227,
      1767136230,
      1767136257,
      1767136263,
      1767136298,
      1767136342,
      1767136372,
      1767136403,
      1767136421,
      1767136432,
      1767136465
    ],
    "wof:geomhash": "2d6b9aaff0d98f526fc19d4b6ee47111",
    "wof:id": 2014439523,
    "wof:repo": "sfomuseum-data-flights-2025-12"
  },
  "bbox": [
    -122.38604,
    37.63717,
    -121.27233,
    38.04094
  ],
  "geometry": {"coordinates":[[-122.36053,37.63717],[-122.34018,37.65436],[-122.33431,37.6593],[-122.32426,37.66794],[-122.31542,37.70894],[-122.3336,37.73948],[-122.3415,37.75402],[-122.37225,37.81621],[-122.38542,37.84987],[-122.38604,37.8755],[-122.35707,37.93742],[-122.31994,37.95579],[-122.26841,37.96302],[-122.17011,37.96459],[-122.10146,37.96675],[-122.07772,37.96762],[-121.94892,37.97092],[-121.87607,37.97311],[-121.8687,37.97338],[-121.80358,37.9751],[-121.78865,37.97547],[-121.70162,37.98023],[-121.59222,37.99646],[-121.51721,38.00675],[-121.43761,38.01761],[-121.3905,38.02431],[-121.36001,38.02871],[-121.27233,38.04094]],"type":"LineString"}
}
