{
  "id": 2014439277,
  "type": "Feature",
  "properties": {
    "geom:area": 0,
    "geom:bbox": "-122.357850,37.636770,-121.255970,37.972290",
    "geom:latitude": 37.8727281991041,
    "geom:longitude": -121.85475807717664,
    "src:alt_label": "swim-takeoff",
    "src:geom": "swim",
    "swim:elevations": [
      382,
      640,
      1041,
      1148,
      1245,
      1627,
      2145,
      2210,
      2910,
      2948,
      3575,
      3751,
      3866,
      4067,
      4214,
      4514,
      4715,
      5033,
      5143,
      5212,
      5449,
      5576,
      5663,
      5843
    ],
    "swim:geom": "takeoff",
    "swim:timestamps": [
      1767114835,
      1767114853,
      1767114895,
      1767114914,
      1767114938,
      1767114984,
      1767115016,
      1767115021,
      1767115078,
      1767115081,
      1767115127,
      1767115165,
      1767115194,
      1767115213,
      1767115234,
      1767115272,
      1767115296,
      1767115345,
      1767115375,
      1767115393,
      1767115435,
      1767115465,
      1767115477,
      1767115506
    ],
    "wof:geomhash": "70c30fe90c771497740b9e180427fda0",
    "wof:id": 2014439277,
    "wof:repo": "sfomuseum-data-flights-2025-12"
  },
  "bbox": [
    -122.35785,
    37.63677,
    -121.25597,
    37.97229
  ],
  "geometry": {"coordinates":[[-122.35785,37.63677],[-122.34424,37.64504],[-122.31045,37.66468],[-122.29749,37.67863],[-122.2901,37.70402],[-122.27573,37.7625],[-122.26533,37.80469],[-122.26352,37.81067],[-122.19118,37.85001],[-122.18631,37.85056],[-122.114,37.86044],[-122.04875,37.86961],[-121.99302,37.87716],[-121.95405,37.88204],[-121.91192,37.88751],[-121.83226,37.89799],[-121.77847,37.90506],[-121.66879,37.91952],[-121.59723,37.92884],[-121.55231,37.93459],[-121.44412,37.94846],[-121.36681,37.95824],[-121.33385,37.96242],[-121.25597,37.97229]],"type":"LineString"}
}
