{
  "id": 2014439511,
  "type": "Feature",
  "properties": {
    "geom:area": 0,
    "geom:bbox": "-122.467910,37.194180,-121.264280,37.709090",
    "geom:latitude": 37.38779929722431,
    "geom:longitude": -121.99090375970802,
    "src:alt_label": "swim-takeoff",
    "src:geom": "swim",
    "swim:elevations": [
      183,
      612,
      869,
      947,
      1062,
      1235,
      1515,
      2007,
      2523,
      2837,
      3016,
      3286,
      3473,
      3807,
      4083,
      4484,
      4605,
      5060,
      5354,
      5411,
      5642,
      5773,
      5920,
      6006,
      6250,
      6441,
      6708,
      7109,
      7280,
      7413,
      7643,
      7745
    ],
    "swim:geom": "takeoff",
    "swim:timestamps": [
      1767102587,
      1767102627,
      1767102657,
      1767102669,
      1767102694,
      1767102721,
      1767102750,
      1767102791,
      1767102827,
      1767102858,
      1767102876,
      1767102922,
      1767102945,
      1767102975,
      1767102997,
      1767103041,
      1767103052,
      1767103101,
      1767103137,
      1767103152,
      1767103182,
      1767103200,
      1767103222,
      1767103237,
      1767103271,
      1767103297,
      1767103330,
      1767103378,
      1767103398,
      1767103417,
      1767103455,
      1767103474
    ],
    "wof:geomhash": "17928c8ea2e383150686a331443feff9",
    "wof:id": 2014439511,
    "wof:repo": "sfomuseum-data-flights-2025-12"
  },
  "bbox": [
    -122.46791,
    37.19418,
    -121.26428,
    37.70909
  ],
  "geometry": {"coordinates":[[-122.36836,37.63019],[-122.36318,37.66057],[-122.36251,37.68699],[-122.3674,37.69636],[-122.39062,37.70909],[-122.42454,37.70088],[-122.43722,37.67087],[-122.44679,37.62313],[-122.45579,37.57941],[-122.46349,37.54076],[-122.46791,37.51763],[-122.42903,37.46345],[-122.39287,37.44295],[-122.34427,37.41665],[-122.3048,37.40488],[-122.21686,37.38779],[-122.19571,37.38346],[-122.09483,37.36289],[-122.02067,37.34808],[-121.98828,37.34172],[-121.9252,37.3291],[-121.88584,37.32108],[-121.83888,37.31161],[-121.80549,37.3048],[-121.73028,37.28957],[-121.67116,37.27763],[-121.59581,37.26244],[-121.48668,37.24003],[-121.44082,37.23055],[-121.39845,37.22186],[-121.30851,37.20336],[-121.26428,37.19418]],"type":"LineString"}
}
