{
  "id": 2014422485,
  "type": "Feature",
  "properties": {
    "geom:area": 0,
    "geom:bbox": "-123.486500,37.036750,-122.405820,37.667600",
    "geom:latitude": 37.380906439646814,
    "geom:longitude": -122.95184548238635,
    "src:alt_label": "swim-takeoff",
    "src:geom": "swim",
    "swim:elevations": [
      338,
      468,
      916,
      916,
      935,
      1028,
      1708,
      2055,
      2473,
      2598,
      3042,
      3233,
      3292,
      3625,
      3984,
      4269,
      4460,
      5025,
      5267,
      5363,
      5591,
      5972,
      6337,
      6581,
      6706
    ],
    "swim:geom": "takeoff",
    "swim:timestamps": [
      1766914673,
      1766914682,
      1766914735,
      1766914738,
      1766914752,
      1766914777,
      1766914824,
      1766914851,
      1766914887,
      1766914896,
      1766914937,
      1766914960,
      1766914981,
      1766915019,
      1766915060,
      1766915084,
      1766915101,
      1766915152,
      1766915178,
      1766915191,
      1766915228,
      1766915267,
      1766915305,
      1766915338,
      1766915350
    ],
    "wof:geomhash": "1fb3994c3099039017c96273129595a3",
    "wof:id": 2014422485,
    "wof:repo": "sfomuseum-data-flights-2025-12"
  },
  "bbox": [
    -123.4865,
    37.03675,
    -122.40582,
    37.6676
  ],
  "geometry": {"coordinates":[[-122.40582,37.63145],[-122.41403,37.63507],[-122.4637,37.65689],[-122.46695,37.65833],[-122.48253,37.66541],[-122.51821,37.6676],[-122.57803,37.62903],[-122.61102,37.60616],[-122.65834,37.57514],[-122.67051,37.5675],[-122.72622,37.53193],[-122.75878,37.51108],[-122.79053,37.49084],[-122.85106,37.45153],[-122.92377,37.40471],[-122.96628,37.37702],[-122.99804,37.35651],[-123.09157,37.29525],[-123.14077,37.26346],[-123.16559,37.24738],[-123.24026,37.19855],[-123.31744,37.14775],[-123.39553,37.09652],[-123.46107,37.05367],[-123.4865,37.03675]],"type":"LineString"}
}
