{
  "id": 2014414073,
  "type": "Feature",
  "properties": {
    "geom:area": 0,
    "geom:bbox": "-123.460480,37.440060,-122.398470,37.663310",
    "geom:latitude": 37.533003655324855,
    "geom:longitude": -122.91777554589596,
    "src:alt_label": "swim-takeoff",
    "src:geom": "swim",
    "swim:elevations": [
      152,
      364,
      592,
      1016,
      1221,
      1338,
      1715,
      1970,
      2166,
      2555,
      2864,
      3178,
      3383,
      3449,
      3722,
      3792,
      3977,
      4355,
      4567,
      4918,
      5107,
      5144,
      5260,
      5457,
      5617,
      5710
    ],
    "swim:geom": "takeoff",
    "swim:timestamps": [
      1766878473,
      1766878488,
      1766878506,
      1766878549,
      1766878583,
      1766878602,
      1766878643,
      1766878664,
      1766878676,
      1766878706,
      1766878733,
      1766878759,
      1766878788,
      1766878806,
      1766878854,
      1766878862,
      1766878879,
      1766878916,
      1766878940,
      1766878977,
      1766878998,
      1766879004,
      1766879016,
      1766879043,
      1766879067,
      1766879076
    ],
    "wof:geomhash": "a3763add39efef7213f177b6194f2e4a",
    "wof:id": 2014414073,
    "wof:repo": "sfomuseum-data-flights-2025-12"
  },
  "bbox": [
    -123.46048,
    37.44006,
    -122.39847,
    37.66331
  ],
  "geometry": {"coordinates":[[-122.39847,37.62844],[-122.4133,37.63477],[-122.4308,37.64249],[-122.47346,37.6614],[-122.51664,37.66331],[-122.53959,37.65228],[-122.58966,37.61951],[-122.61807,37.60128],[-122.63388,37.59106],[-122.67384,37.56528],[-122.71034,37.54277],[-122.75372,37.53],[-122.80604,37.52411],[-122.84024,37.52053],[-122.94037,37.50952],[-122.95716,37.50771],[-122.99468,37.50341],[-123.07968,37.4938],[-123.13511,37.48706],[-123.22115,37.47675],[-123.27125,37.47084],[-123.28562,37.46907],[-123.31462,37.46541],[-123.3806,37.45741],[-123.43908,37.44667],[-123.46048,37.44006]],"type":"LineString"}
}
