{
  "id": 2014418353,
  "type": "Feature",
  "properties": {
    "geom:area": 0,
    "geom:bbox": "-123.494220,36.908560,-122.119670,37.614980",
    "geom:latitude": 37.27636984659854,
    "geom:longitude": -122.72050526328213,
    "src:alt_label": "swim-approach",
    "src:geom": "swim",
    "swim:elevations": [
      5791,
      5517,
      5273,
      5182,
      4755,
      4168,
      3948,
      3591,
      3363,
      3321,
      3197,
      3167,
      3106,
      3048,
      2963,
      2834,
      2751,
      2563,
      2489,
      2437,
      2438,
      2438,
      2438,
      2438,
      2317,
      2046,
      1797,
      1786,
      1600,
      1424,
      1217,
      1219,
      1219,
      1219,
      1156,
      830,
      759,
      555,
      516,
      302,
      215,
      143,
      0
    ],
    "swim:geom": "approach",
    "swim:timestamps": [
      1766917258,
      1766917286,
      1766917318,
      1766917322,
      1766917358,
      1766917408,
      1766917429,
      1766917458,
      1766917495,
      1766917511,
      1766917558,
      1766917573,
      1766917592,
      1766917639,
      1766917665,
      1766917700,
      1766917721,
      1766917767,
      1766917784,
      1766917803,
      1766917848,
      1766917875,
      1766917916,
      1766917924,
      1766917961,
      1766917998,
      1766918038,
      1766918042,
      1766918072,
      1766918105,
      1766918145,
      1766918165,
      1766918209,
      1766918238,
      1766918251,
      1766918308,
      1766918326,
      1766918367,
      1766918375,
      1766918423,
      1766918445,
      1766918461,
      1766918503
    ],
    "wof:geomhash": "43ede516e217297c4291ad428f6209c1",
    "wof:id": 2014418353,
    "wof:repo": "sfomuseum-data-flights-2025-12"
  },
  "bbox": [
    -123.49422,
    36.90856,
    -122.11967,
    37.61498
  ],
  "geometry": {"coordinates":[[-123.49422,36.90856],[-123.43917,36.93825],[-123.37856,36.97267],[-123.37078,36.97706],[-123.30336,37.01514],[-123.20748,37.06896],[-123.16831,37.09025],[-123.11458,37.11948],[-123.04968,37.15526],[-123.02318,37.16991],[-122.95214,37.20907],[-122.93052,37.22102],[-122.90542,37.23471],[-122.83935,37.26336],[-122.79951,37.27251],[-122.74519,37.28533],[-122.71288,37.29284],[-122.6423,37.30923],[-122.61694,37.31503],[-122.58721,37.32193],[-122.51956,37.33773],[-122.4794,37.347],[-122.41991,37.36063],[-122.40901,37.36317],[-122.36194,37.37395],[-122.31609,37.38461],[-122.26473,37.39618],[-122.25941,37.39737],[-122.22198,37.40597],[-122.18185,37.41523],[-122.15243,37.44334],[-122.14286,37.46168],[-122.11967,37.49406],[-122.13251,37.51468],[-122.14434,37.52141],[-122.19912,37.54478],[-122.2161,37.55189],[-122.25369,37.56772],[-122.26164,37.57104],[-122.30275,37.58833],[-122.32045,37.59579],[-122.33325,37.60115],[-122.36581,37.61498]],"type":"LineString"}
}
