{
  "id": 2014418381,
  "type": "Feature",
  "properties": {
    "geom:area": 0,
    "geom:bbox": "-122.360180,36.720530,-121.877400,37.614250",
    "geom:latitude": 37.20927430108168,
    "geom:longitude": -122.07020806123153,
    "src:alt_label": "swim-approach",
    "src:geom": "swim",
    "swim:elevations": [
      5895,
      5720,
      5432,
      5282,
      4883,
      4609,
      4243,
      4052,
      3665,
      3394,
      3206,
      3170,
      3054,
      3014,
      2665,
      2389,
      2232,
      1952,
      1857,
      1683,
      1636,
      1532,
      1310,
      1199,
      1057,
      923,
      625,
      496,
      312,
      243,
      220
    ],
    "swim:geom": "approach",
    "swim:timestamps": [
      1766959495,
      1766959515,
      1766959552,
      1766959571,
      1766959604,
      1766959635,
      1766959671,
      1766959693,
      1766959735,
      1766959765,
      1766959787,
      1766959826,
      1766959853,
      1766959862,
      1766959913,
      1766959947,
      1766959970,
      1766960007,
      1766960022,
      1766960053,
      1766960072,
      1766960105,
      1766960157,
      1766960181,
      1766960207,
      1766960228,
      1766960272,
      1766960293,
      1766960330,
      1766960342,
      1766960396
    ],
    "wof:geomhash": "c7cdf79e1348ddc285698183a197bef5",
    "wof:id": 2014418381,
    "wof:repo": "sfomuseum-data-flights-2025-12"
  },
  "bbox": [
    -122.36018,
    36.72053,
    -121.8774,
    37.61425
  ],
  "geometry": {"coordinates":[[-121.8774,36.72053],[-121.89458,36.74936],[-121.9103,36.80068],[-121.91752,36.82662],[-121.93101,36.87381],[-121.94332,36.91631],[-121.95942,36.96763],[-121.97106,36.99752],[-121.99361,37.05583],[-122.00906,37.09593],[-122.02017,37.12551],[-122.03849,37.17268],[-122.05088,37.20138],[-122.05492,37.21081],[-122.07463,37.26385],[-122.08813,37.29838],[-122.09785,37.32202],[-122.11272,37.35884],[-122.11853,37.37372],[-122.13042,37.40414],[-122.13633,37.42272],[-122.14652,37.45597],[-122.17335,37.50241],[-122.18666,37.52065],[-122.20171,37.54089],[-122.21652,37.55523],[-122.26034,37.57274],[-122.2794,37.58072],[-122.30905,37.59329],[-122.31844,37.59729],[-122.36018,37.61425]],"type":"LineString"}
}
