{
  "id": 2014414151,
  "type": "Feature",
  "properties": {
    "geom:area": 0,
    "geom:bbox": "-123.483890,37.038760,-122.404950,37.667280",
    "geom:latitude": 37.38180688556359,
    "geom:longitude": -122.95027637664312,
    "src:alt_label": "swim-takeoff",
    "src:geom": "swim",
    "swim:elevations": [
      299,
      764,
      847,
      1038,
      1299,
      1577,
      1856,
      2195,
      2666,
      2769,
      3172,
      3354,
      3553,
      3722,
      4030,
      4228,
      4332,
      4769,
      4913,
      5041,
      5386,
      5580,
      5792,
      5980,
      6005
    ],
    "swim:geom": "takeoff",
    "swim:timestamps": [
      1766880317,
      1766880358,
      1766880366,
      1766880399,
      1766880446,
      1766880473,
      1766880494,
      1766880521,
      1766880561,
      1766880572,
      1766880613,
      1766880645,
      1766880688,
      1766880712,
      1766880748,
      1766880772,
      1766880787,
      1766880837,
      1766880861,
      1766880877,
      1766880919,
      1766880955,
      1766880988,
      1766881018,
      1766881021
    ],
    "wof:geomhash": "31d1d3359b93efa5c7b0941e3a64a00c",
    "wof:id": 2014414151,
    "wof:repo": "sfomuseum-data-flights-2025-12"
  },
  "bbox": [
    -123.48389,
    37.03876,
    -122.40495,
    37.66728
  ],
  "geometry": {"coordinates":[[-122.40495,37.63115],[-122.4447,37.64871],[-122.45246,37.65216],[-122.4861,37.66728],[-122.54624,37.65484],[-122.57638,37.63022],[-122.60178,37.61234],[-122.63599,37.58998],[-122.68727,37.55703],[-122.70213,37.54751],[-122.7564,37.51266],[-122.80274,37.48274],[-122.86879,37.43988],[-122.90885,37.4142],[-122.97055,37.37425],[-123.01252,37.34695],[-123.0391,37.32969],[-123.13031,37.27024],[-123.1763,37.24036],[-123.20459,37.22172],[-123.28457,37.16915],[-123.35387,37.12373],[-123.41831,37.08158],[-123.47762,37.04286],[-123.48389,37.03876]],"type":"LineString"}
}
