{
  "id": 2014426601,
  "type": "Feature",
  "properties": {
    "geom:area": 0,
    "geom:bbox": "-123.506290,37.262540,-122.133650,37.609160",
    "geom:latitude": 37.37932886794779,
    "geom:longitude": -122.7108418049163,
    "src:alt_label": "swim-approach",
    "src:geom": "swim",
    "swim:elevations": [
      5770,
      5745,
      5607,
      5428,
      4988,
      4602,
      4366,
      4083,
      3757,
      3626,
      3484,
      3373,
      3172,
      3117,
      3047,
      3048,
      3048,
      2978,
      2804,
      2624,
      2586,
      2463,
      2438,
      2436,
      2435,
      2438,
      2438,
      2438,
      2411,
      2223,
      2186,
      2016,
      1747,
      1699,
      1523,
      1524,
      1418,
      1286,
      1135,
      857,
      588,
      471,
      401,
      211,
      57
    ],
    "swim:geom": "approach",
    "swim:timestamps": [
      1766998318,
      1766998321,
      1766998334,
      1766998352,
      1766998397,
      1766998436,
      1766998461,
      1766998490,
      1766998523,
      1766998537,
      1766998552,
      1766998565,
      1766998609,
      1766998633,
      1766998670,
      1766998698,
      1766998726,
      1766998745,
      1766998793,
      1766998824,
      1766998834,
      1766998855,
      1766998884,
      1766998918,
      1766998929,
      1766998961,
      1766999000,
      1766999018,
      1766999044,
      1766999080,
      1766999088,
      1766999107,
      1766999153,
      1766999167,
      1766999197,
      1766999232,
      1766999273,
      1766999292,
      1766999324,
      1766999358,
      1766999397,
      1766999421,
      1766999431,
      1766999470,
      1766999509
    ],
    "wof:geomhash": "857ca69b61530f317b81558f00ee833d",
    "wof:id": 2014426601,
    "wof:repo": "sfomuseum-data-flights-2025-12"
  },
  "bbox": [
    -123.50629,
    37.26254,
    -122.13365,
    37.60916
  ],
  "geometry": {"coordinates":[[-123.50629,37.45778],[-123.5003,37.45593],[-123.4752,37.44825],[-123.43771,37.43665],[-123.34786,37.40898],[-123.27187,37.38528],[-123.22251,37.36995],[-123.16742,37.35285],[-123.1036,37.33321],[-123.07726,37.32494],[-123.04811,37.31577],[-123.02435,37.3083],[-122.94514,37.2833],[-122.90516,37.27075],[-122.84577,37.26254],[-122.80201,37.27169],[-122.75925,37.28179],[-122.73163,37.28842],[-122.66384,37.30441],[-122.62158,37.31422],[-122.60903,37.31707],[-122.5799,37.32383],[-122.54156,37.33261],[-122.4966,37.34297],[-122.48209,37.34633],[-122.43963,37.35611],[-122.38794,37.36057],[-122.36497,37.35291],[-122.33112,37.34072],[-122.28309,37.3434],[-122.2736,37.34572],[-122.24945,37.35577],[-122.19975,37.38726],[-122.18583,37.3964],[-122.15604,37.41628],[-122.13365,37.44786],[-122.1345,37.48843],[-122.14886,37.50412],[-122.17527,37.52967],[-122.21209,37.54848],[-122.25441,37.56718],[-122.27856,37.57717],[-122.2881,37.58105],[-122.31938,37.59516],[-122.35211,37.60916]],"type":"LineString"}
}
