{
  "id": 2014441575,
  "type": "Feature",
  "properties": {
    "geom:area": 0,
    "geom:bbox": "-122.358760,37.491930,-121.264650,37.614300",
    "geom:latitude": 37.542367256615194,
    "geom:longitude": -121.81867871632268,
    "src:alt_label": "swim-approach",
    "src:geom": "swim",
    "swim:elevations": [
      4427,
      4062,
      3829,
      3788,
      3758,
      3278,
      3205,
      3046,
      2970,
      2698,
      2500,
      2382,
      2276,
      2128,
      1942,
      1829,
      1790,
      1479,
      1364,
      1216,
      1056,
      903,
      615,
      577,
      408,
      252,
      28,
      71
    ],
    "swim:geom": "approach",
    "swim:timestamps": [
      1767186107,
      1767186147,
      1767186174,
      1767186177,
      1767186180,
      1767186235,
      1767186247,
      1767186298,
      1767186313,
      1767186354,
      1767186384,
      1767186417,
      1767186435,
      1767186464,
      1767186499,
      1767186530,
      1767186543,
      1767186596,
      1767186608,
      1767186630,
      1767186673,
      1767186695,
      1767186745,
      1767186751,
      1767186783,
      1767186818,
      1767186867,
      1767186874
    ],
    "wof:geomhash": "7fc737e4fe8add1bad2a642d2716f725",
    "wof:id": 2014441575,
    "wof:repo": "sfomuseum-data-flights-2025-12"
  },
  "bbox": [
    -122.35876,
    37.49193,
    -121.26465,
    37.6143
  ],
  "geometry": {"coordinates":[[-121.26465,37.59257],[-121.34797,37.58303],[-121.40197,37.57709],[-121.40789,37.57644],[-121.41379,37.57571],[-121.52184,37.56155],[-121.55139,37.56158],[-121.63156,37.54916],[-121.65558,37.5434],[-121.71855,37.52838],[-121.76376,37.51755],[-121.81114,37.50622],[-121.83663,37.50009],[-121.87793,37.49193],[-121.93007,37.49407],[-121.97684,37.49658],[-121.99409,37.49759],[-122.06847,37.50205],[-122.08585,37.5032],[-122.11514,37.51134],[-122.1667,37.53344],[-122.19195,37.54396],[-122.24776,37.56749],[-122.2539,37.5701],[-122.2846,37.58307],[-122.31363,37.59526],[-122.35343,37.61196],[-122.35876,37.6143]],"type":"LineString"}
}
