{
  "id": 2014409363,
  "type": "Feature",
  "properties": {
    "geom:area": 0,
    "geom:bbox": "-122.350290,37.491470,-121.242760,37.610580",
    "geom:latitude": 37.54658102133911,
    "geom:longitude": -121.80129295601802,
    "src:alt_label": "swim-approach",
    "src:geom": "swim",
    "swim:elevations": [
      4607,
      4563,
      4191,
      3805,
      3506,
      3392,
      3136,
      3072,
      2844,
      2699,
      2496,
      2345,
      2284,
      2211,
      2069,
      1897,
      1823,
      1536,
      1370,
      1307,
      1152,
      882,
      755,
      511,
      488,
      368,
      268,
      193,
      62
    ],
    "swim:geom": "approach",
    "swim:timestamps": [
      1766905400,
      1766905415,
      1766905454,
      1766905496,
      1766905526,
      1766905538,
      1766905584,
      1766905605,
      1766905633,
      1766905654,
      1766905700,
      1766905726,
      1766905737,
      1766905748,
      1766905775,
      1766905819,
      1766905838,
      1766905886,
      1766905914,
      1766905924,
      1766905952,
      1766906001,
      1766906025,
      1766906068,
      1766906096,
      1766906118,
      1766906147,
      1766906163,
      1766906200
    ],
    "wof:geomhash": "e39a5457e65282621d1f2c245fb4f9a8",
    "wof:id": 2014409363,
    "wof:repo": "sfomuseum-data-flights-2025-12"
  },
  "bbox": [
    -122.35029,
    37.49147,
    -121.24276,
    37.61058
  ],
  "geometry": {"coordinates":[[-121.24276,37.5953],[-121.27176,37.59143],[-121.34779,37.58303],[-121.43027,37.57387],[-121.48795,37.56693],[-121.5109,37.5642],[-121.59726,37.55409],[-121.63369,37.54863],[-121.68093,37.5374],[-121.71531,37.5292],[-121.78797,37.51187],[-121.82636,37.50266],[-121.84166,37.49895],[-121.8584,37.49493],[-121.89905,37.49147],[-121.96107,37.49293],[-121.98633,37.49492],[-122.04426,37.51286],[-122.07798,37.52388],[-122.08953,37.52763],[-122.1222,37.53815],[-122.17571,37.55522],[-122.19954,37.5634],[-122.24161,37.57702],[-122.26805,37.58506],[-122.28611,37.59034],[-122.30932,37.59713],[-122.3218,37.60082],[-122.35029,37.61058]],"type":"LineString"}
}
