{
  "id": 2014410409,
  "type": "Feature",
  "properties": {
    "geom:area": 0,
    "geom:bbox": "-122.446870,36.749390,-121.335380,37.711230",
    "geom:latitude": 37.22041056983756,
    "geom:longitude": -121.99571703811885,
    "src:alt_label": "swim-takeoff",
    "src:geom": "swim",
    "swim:elevations": [
      301,
      460,
      685,
      1312,
      1580,
      2023,
      2433,
      2626,
      3180,
      3330,
      3398,
      4016,
      4274,
      4659,
      5227,
      5474,
      5735,
      6094,
      6539,
      6702,
      7068,
      7533,
      7864,
      8040,
      8157,
      8495,
      8620,
      8841,
      8839,
      8839
    ],
    "swim:geom": "takeoff",
    "swim:timestamps": [
      1766841498,
      1766841510,
      1766841542,
      1766841589,
      1766841609,
      1766841640,
      1766841678,
      1766841690,
      1766841739,
      1766841769,
      1766841781,
      1766841834,
      1766841854,
      1766841884,
      1766841925,
      1766841949,
      1766841968,
      1766842000,
      1766842036,
      1766842050,
      1766842087,
      1766842134,
      1766842168,
      1766842190,
      1766842203,
      1766842242,
      1766842269,
      1766842314,
      1766842325,
      1766842357
    ],
    "wof:geomhash": "de250c44f840745abdc9e14ba55a13d5",
    "wof:id": 2014410409,
    "wof:repo": "sfomuseum-data-flights-2025-12"
  },
  "bbox": [
    -122.44687,
    36.74939,
    -121.33538,
    37.71123
  ],
  "geometry": {"coordinates":[[-122.3638,37.63836],[-122.36289,37.64805],[-122.36219,37.67672],[-122.39681,37.71123],[-122.42414,37.70631],[-122.44687,37.67542],[-122.44222,37.62707],[-122.4407,37.61065],[-122.43375,37.54271],[-122.42955,37.49595],[-122.42612,37.47736],[-122.34675,37.4148],[-122.31176,37.3936],[-122.26036,37.36098],[-122.18686,37.31288],[-122.14452,37.28524],[-122.10857,37.26173],[-122.04928,37.22277],[-121.98168,37.17822],[-121.95506,37.16061],[-121.88367,37.11359],[-121.79191,37.05296],[-121.72433,37.00839],[-121.68015,36.97896],[-121.65399,36.96154],[-121.57521,36.90927],[-121.51949,36.87237],[-121.42549,36.80952],[-121.40277,36.79426],[-121.33538,36.74939]],"type":"LineString"}
}
