{
  "id": 2014429229,
  "type": "Feature",
  "properties": {
    "geom:area": 0,
    "geom:bbox": "-122.525000,37.622690,-121.242920,38.427280",
    "geom:latitude": 38.0311656985559,
    "geom:longitude": -121.95217415776999,
    "src:alt_label": "swim-takeoff",
    "src:geom": "swim",
    "swim:elevations": [
      183,
      811,
      912,
      1391,
      1576,
      1786,
      2138,
      2620,
      2991,
      3286,
      3589,
      4166,
      4341,
      4743,
      4896,
      5311,
      5441,
      5671,
      6105,
      6166,
      6580,
      6826,
      6924,
      7354,
      7476,
      7653,
      7869,
      8073,
      8199,
      8365,
      8412,
      8505,
      8599
    ],
    "swim:geom": "takeoff",
    "swim:timestamps": [
      1767003543,
      1767003588,
      1767003600,
      1767003658,
      1767003680,
      1767003708,
      1767003731,
      1767003768,
      1767003792,
      1767003822,
      1767003858,
      1767003898,
      1767003915,
      1767003953,
      1767003971,
      1767004012,
      1767004035,
      1767004060,
      1767004107,
      1767004112,
      1767004163,
      1767004194,
      1767004204,
      1767004251,
      1767004275,
      1767004304,
      1767004340,
      1767004373,
      1767004401,
      1767004431,
      1767004440,
      1767004460,
      1767004474
    ],
    "wof:geomhash": "cb1a7703bd62fa972b00d25f54bb6564",
    "wof:id": 2014429229,
    "wof:repo": "sfomuseum-data-flights-2025-12"
  },
  "bbox": [
    -122.525,
    37.62269,
    -121.24292,
    38.42728
  ],
  "geometry": {"coordinates":[[-122.38439,37.62269],[-122.42265,37.63931],[-122.43292,37.6437],[-122.49142,37.66871],[-122.5157,37.68257],[-122.525,37.71612],[-122.51306,37.74356],[-122.4674,37.77223],[-122.43566,37.78905],[-122.39457,37.81085],[-122.33962,37.84009],[-122.27686,37.87338],[-122.25127,37.88691],[-122.18958,37.91948],[-122.15866,37.9358],[-122.08877,37.97259],[-122.05026,37.99291],[-122.00602,38.01604],[-121.92191,38.06016],[-121.91347,38.06456],[-121.81991,38.11343],[-121.7641,38.14249],[-121.74569,38.15212],[-121.65887,38.19722],[-121.61421,38.22039],[-121.56102,38.24804],[-121.49223,38.28332],[-121.42864,38.31555],[-121.37646,38.34474],[-121.32257,38.3782],[-121.30601,38.3876],[-121.2685,38.4109],[-121.24292,38.42728]],"type":"LineString"}
}
