{
  "id": 2014426749,
  "type": "Feature",
  "properties": {
    "geom:area": 0,
    "geom:bbox": "-122.356630,37.491760,-121.268700,37.613270",
    "geom:latitude": 37.54583306708358,
    "geom:longitude": -121.81747140356288,
    "src:alt_label": "swim-approach",
    "src:geom": "swim",
    "swim:elevations": [
      4379,
      4281,
      4102,
      3960,
      3799,
      3668,
      3432,
      3248,
      2998,
      2844,
      2700,
      2549,
      2289,
      2201,
      2134,
      2051,
      1932,
      1837,
      1539,
      1506,
      1328,
      1237,
      1136,
      1024,
      874,
      761,
      678,
      637,
      461,
      290,
      275,
      181,
      40,
      0
    ],
    "swim:geom": "approach",
    "swim:timestamps": [
      1767036173,
      1767036186,
      1767036207,
      1767036229,
      1767036262,
      1767036286,
      1767036323,
      1767036344,
      1767036383,
      1767036410,
      1767036442,
      1767036467,
      1767036503,
      1767036519,
      1767036559,
      1767036579,
      1767036591,
      1767036613,
      1767036657,
      1767036665,
      1767036699,
      1767036711,
      1767036731,
      1767036751,
      1767036778,
      1767036799,
      1767036828,
      1767036843,
      1767036888,
      1767036927,
      1767036931,
      1767036955,
      1767036987,
      1767036990
    ],
    "wof:geomhash": "ce821ab8a0bc4657ddff051cda660cef",
    "wof:id": 2014426749,
    "wof:repo": "sfomuseum-data-flights-2025-12"
  },
  "bbox": [
    -122.35663,
    37.49176,
    -121.2687,
    37.61327
  ],
  "geometry": {"coordinates":[[-121.2687,37.59198],[-121.2953,37.58866],[-121.34042,37.58396],[-121.38549,37.57877],[-121.4494,37.5713],[-121.49257,37.56621],[-121.55473,37.559],[-121.59007,37.55482],[-121.65462,37.54335],[-121.69652,37.53361],[-121.7461,37.52182],[-121.78409,37.5127],[-121.83716,37.50009],[-121.85958,37.49462],[-121.91239,37.49176],[-121.93909,37.49245],[-121.95494,37.49299],[-121.98366,37.49474],[-122.03593,37.51001],[-122.04464,37.51287],[-122.08059,37.5248],[-122.0925,37.52857],[-122.11279,37.53513],[-122.13213,37.54152],[-122.15947,37.55024],[-122.18045,37.55702],[-122.20938,37.56667],[-122.22485,37.57158],[-122.26826,37.5851],[-122.30341,37.59545],[-122.30629,37.59627],[-122.32772,37.60252],[-122.3543,37.6123],[-122.35663,37.61327]],"type":"LineString"}
}
