{
  "id": 2014443669,
  "type": "Feature",
  "properties": {
    "geom:area": 0,
    "geom:bbox": "-122.362350,37.492760,-121.254120,37.615920",
    "geom:latitude": 37.54293776472262,
    "geom:longitude": -121.81540611580174,
    "src:alt_label": "swim-approach",
    "src:geom": "swim",
    "swim:elevations": [
      4603,
      4333,
      4059,
      3964,
      3503,
      3371,
      3301,
      3134,
      2805,
      2709,
      2530,
      2405,
      2215,
      1953,
      1859,
      1660,
      1590,
      1260,
      1206,
      1005,
      853,
      721,
      583,
      355,
      205,
      153,
      91,
      0
    ],
    "swim:geom": "approach",
    "swim:timestamps": [
      1767201174,
      1767201203,
      1767201236,
      1767201245,
      1767201298,
      1767201317,
      1767201335,
      1767201374,
      1767201418,
      1767201431,
      1767201468,
      1767201498,
      1767201530,
      1767201568,
      1767201586,
      1767201625,
      1767201631,
      1767201678,
      1767201690,
      1767201734,
      1767201775,
      1767201799,
      1767201820,
      1767201867,
      1767201898,
      1767201911,
      1767201926,
      1767201950
    ],
    "wof:geomhash": "4d79fa4f24777d7ce617cfb2b07f82f1",
    "wof:id": 2014443669,
    "wof:repo": "sfomuseum-data-flights-2025-12"
  },
  "bbox": [
    -122.36235,
    37.49276,
    -121.25412,
    37.61592
  ],
  "geometry": {"coordinates":[[-121.25412,37.59382],[-121.31327,37.58657],[-121.37893,37.57929],[-121.39675,37.57724],[-121.49985,37.56527],[-121.53479,37.56114],[-121.56847,37.55721],[-121.63449,37.54829],[-121.70224,37.532],[-121.72172,37.52741],[-121.77685,37.51427],[-121.82115,37.50358],[-121.86768,37.49276],[-121.92375,37.49383],[-121.95227,37.49537],[-122.0086,37.49845],[-122.01736,37.49891],[-122.08349,37.50271],[-122.10055,37.50615],[-122.15681,37.52916],[-122.20541,37.54967],[-122.23092,37.56056],[-122.25247,37.56946],[-122.29882,37.58908],[-122.32442,37.59984],[-122.33317,37.60347],[-122.34456,37.60825],[-122.36235,37.61592]],"type":"LineString"}
}
