{
  "id": 2014426533,
  "type": "Feature",
  "properties": {
    "geom:area": 0,
    "geom:bbox": "-122.355840,37.491640,-121.248480,37.613060",
    "geom:latitude": 37.54672845307687,
    "geom:longitude": -121.80703955502796,
    "src:alt_label": "swim-approach",
    "src:geom": "swim",
    "swim:elevations": [
      4353,
      4059,
      3844,
      3611,
      3368,
      3219,
      3147,
      2846,
      2765,
      2745,
      2657,
      2589,
      2496,
      2042,
      1941,
      1860,
      1601,
      1401,
      1155,
      1004,
      822,
      613,
      512,
      336,
      276,
      95,
      24
    ],
    "swim:geom": "approach",
    "swim:timestamps": [
      1767008862,
      1767008900,
      1767008927,
      1767008962,
      1767008995,
      1767009021,
      1767009031,
      1767009079,
      1767009094,
      1767009106,
      1767009133,
      1767009151,
      1767009185,
      1767009236,
      1767009264,
      1767009284,
      1767009321,
      1767009347,
      1767009381,
      1767009405,
      1767009437,
      1767009489,
      1767009520,
      1767009557,
      1767009581,
      1767009627,
      1767009642
    ],
    "wof:geomhash": "64abd13417cdbb29eac7fe5eda1367c4",
    "wof:id": 2014426533,
    "wof:repo": "sfomuseum-data-flights-2025-12"
  },
  "bbox": [
    -122.35584,
    37.49164,
    -121.24848,
    37.61306
  ],
  "geometry": {"coordinates":[[-121.24848,37.59455],[-121.33262,37.58437],[-121.39076,37.5781],[-121.46273,37.56991],[-121.52821,37.56211],[-121.57554,37.55655],[-121.59395,37.55439],[-121.67565,37.53861],[-121.70118,37.5326],[-121.72034,37.52801],[-121.76113,37.51823],[-121.78884,37.51167],[-121.8367,37.5001],[-121.90611,37.49164],[-121.94506,37.49264],[-121.97152,37.49341],[-122.02074,37.50526],[-122.05372,37.51605],[-122.09734,37.53016],[-122.12688,37.53972],[-122.16546,37.55225],[-122.22421,37.57125],[-122.25476,37.58083],[-122.28741,37.59061],[-122.30648,37.59647],[-122.34388,37.6078],[-122.35584,37.61306]],"type":"LineString"}
}
