{
  "id": 2014409573,
  "type": "Feature",
  "properties": {
    "geom:area": 0,
    "geom:bbox": "-122.357050,37.491470,-121.290280,37.613510",
    "geom:latitude": 37.54495909072444,
    "geom:longitude": -121.82841184558686,
    "src:alt_label": "swim-approach",
    "src:geom": "swim",
    "swim:elevations": [
      4419,
      4097,
      4045,
      3725,
      3623,
      3336,
      3168,
      3080,
      2899,
      2729,
      2594,
      2440,
      2162,
      2068,
      1931,
      1848,
      1732,
      1644,
      1482,
      1340,
      1142,
      999,
      883,
      762,
      548,
      427,
      344,
      190,
      36,
      16
    ],
    "swim:geom": "approach",
    "swim:timestamps": [
      1766868439,
      1766868474,
      1766868480,
      1766868516,
      1766868524,
      1766868557,
      1766868587,
      1766868616,
      1766868653,
      1766868685,
      1766868706,
      1766868727,
      1766868775,
      1766868799,
      1766868836,
      1766868855,
      1766868876,
      1766868894,
      1766868921,
      1766868947,
      1766868979,
      1766869012,
      1766869036,
      1766869059,
      1766869106,
      1766869135,
      1766869150,
      1766869192,
      1766869226,
      1766869230
    ],
    "wof:geomhash": "d55c390c585c3f4b3ca5fd94fd115b3f",
    "wof:id": 2014409573,
    "wof:repo": "sfomuseum-data-flights-2025-12"
  },
  "bbox": [
    -122.35705,
    37.49147,
    -121.29028,
    37.61351
  ],
  "geometry": {"coordinates":[[-121.29028,37.58928],[-121.36026,37.5816],[-121.37191,37.58022],[-121.44022,37.57232],[-121.45645,37.57042],[-121.51823,37.56327],[-121.57394,37.55686],[-121.62582,37.55018],[-121.685,37.5364],[-121.73471,37.5246],[-121.76494,37.51732],[-121.79614,37.50985],[-121.86485,37.49352],[-121.90174,37.49147],[-121.95316,37.49277],[-121.97912,37.49395],[-122.00536,37.50033],[-122.02736,37.50758],[-122.06062,37.51816],[-122.09076,37.528],[-122.1272,37.53983],[-122.16046,37.55061],[-122.18432,37.55844],[-122.20737,37.56576],[-122.25297,37.58052],[-122.27832,37.58791],[-122.29165,37.59186],[-122.32635,37.60204],[-122.35358,37.612],[-122.35705,37.61351]],"type":"LineString"}
}
