{
  "id": 2014422635,
  "type": "Feature",
  "properties": {
    "geom:area": 0,
    "geom:bbox": "-123.474830,37.626140,-122.392920,37.730890",
    "geom:latitude": 37.69751819013624,
    "geom:longitude": -122.92953435247136,
    "src:alt_label": "swim-takeoff",
    "src:geom": "swim",
    "swim:elevations": [
      152,
      544,
      773,
      838,
      1096,
      1287,
      1537,
      1776,
      2290,
      2502,
      3153,
      3231,
      3348,
      3608,
      3970,
      4195,
      4462,
      4872,
      5142,
      5269,
      5606
    ],
    "swim:geom": "takeoff",
    "swim:timestamps": [
      1766939345,
      1766939371,
      1766939396,
      1766939403,
      1766939444,
      1766939475,
      1766939507,
      1766939537,
      1766939569,
      1766939589,
      1766939636,
      1766939661,
      1766939678,
      1766939719,
      1766939752,
      1766939771,
      1766939796,
      1766939842,
      1766939872,
      1766939886,
      1766939924
    ],
    "wof:geomhash": "501aea7163f31533b616acc66641dceb",
    "wof:id": 2014422635,
    "wof:repo": "sfomuseum-data-flights-2025-12"
  },
  "bbox": [
    -123.47483,
    37.62614,
    -122.39292,
    37.73089
  ],
  "geometry": {"coordinates":[[-122.39292,37.62614],[-122.4196,37.63713],[-122.44378,37.64837],[-122.45063,37.65151],[-122.49467,37.67102],[-122.5379,37.67768],[-122.58999,37.6799],[-122.64282,37.68319],[-122.70048,37.68654],[-122.73529,37.68883],[-122.82171,37.69377],[-122.86798,37.69677],[-122.90379,37.69886],[-122.99077,37.70375],[-123.06393,37.70792],[-123.1086,37.71055],[-123.16715,37.71394],[-123.27301,37.71982],[-123.34683,37.72386],[-123.38154,37.72579],[-123.47483,37.73089]],"type":"LineString"}
}
