{
  "id": 2014447573,
  "type": "Feature",
  "properties": {
    "geom:area": 0,
    "geom:bbox": "-123.503110,37.416710,-122.393610,37.672190",
    "geom:latitude": 37.55649157722824,
    "geom:longitude": -122.94609195482255,
    "src:alt_label": "swim-takeoff",
    "src:geom": "swim",
    "swim:elevations": [
      183,
      449,
      626,
      951,
      1137,
      1403,
      1767,
      1973,
      2586,
      2708,
      3229,
      3292,
      3353,
      3506,
      3678,
      3846,
      4183,
      4559,
      4883,
      5082,
      5293,
      5592,
      5721
    ],
    "swim:geom": "takeoff",
    "swim:timestamps": [
      1767184284,
      1767184304,
      1767184323,
      1767184360,
      1767184385,
      1767184427,
      1767184462,
      1767184477,
      1767184524,
      1767184534,
      1767184583,
      1767184596,
      1767184611,
      1767184638,
      1767184667,
      1767184696,
      1767184727,
      1767184759,
      1767184796,
      1767184820,
      1767184844,
      1767184883,
      1767184898
    ],
    "wof:geomhash": "4a32028014aa0345c9bbad6efe8369a2",
    "wof:id": 2014447573,
    "wof:repo": "sfomuseum-data-flights-2025-12"
  },
  "bbox": [
    -123.50311,
    37.41671,
    -122.39361,
    37.67219
  ],
  "geometry": {"coordinates":[[-122.39361,37.62683],[-122.41294,37.63539],[-122.43085,37.64352],[-122.47103,37.66093],[-122.50004,37.67219],[-122.55645,37.66141],[-122.60982,37.64735],[-122.63381,37.64107],[-122.7074,37.62191],[-122.72338,37.61777],[-122.80394,37.59689],[-122.82814,37.59055],[-122.85484,37.58358],[-122.90742,37.57],[-122.96897,37.55439],[-123.03207,37.53844],[-123.10215,37.52053],[-123.17357,37.50216],[-123.25897,37.48008],[-123.3148,37.46559],[-123.37213,37.4508],[-123.46648,37.42629],[-123.50311,37.41671]],"type":"LineString"}
}
