{
  "id": 2014439459,
  "type": "Feature",
  "properties": {
    "geom:area": 0,
    "geom:bbox": "-122.408230,37.147640,-121.265930,37.670740",
    "geom:latitude": 37.345719671932585,
    "geom:longitude": -121.93533134131413,
    "src:alt_label": "swim-takeoff",
    "src:geom": "swim",
    "swim:elevations": [
      122,
      521,
      646,
      987,
      1224,
      1649,
      1810,
      2416,
      3036,
      3275,
      3487,
      3815,
      4074,
      4518,
      4726,
      5426,
      5770,
      5932,
      6378,
      6590,
      6985,
      7591,
      7618,
      7620,
      7620,
      7620,
      7620,
      7620
    ],
    "swim:geom": "takeoff",
    "swim:timestamps": [
      1767094738,
      1767094768,
      1767094780,
      1767094810,
      1767094847,
      1767094888,
      1767094899,
      1767094936,
      1767094971,
      1767094998,
      1767095015,
      1767095046,
      1767095064,
      1767095091,
      1767095109,
      1767095157,
      1767095189,
      1767095200,
      1767095241,
      1767095262,
      1767095298,
      1767095361,
      1767095374,
      1767095418,
      1767095437,
      1767095478,
      1767095518,
      1767095521
    ],
    "wof:geomhash": "c71ed5d63607e3f82b0e1876054de59d",
    "wof:id": 2014439459,
    "wof:repo": "sfomuseum-data-flights-2025-12"
  },
  "bbox": [
    -122.40823,
    37.14764,
    -121.26593,
    37.67074
  ],
  "geometry": {"coordinates":[[-122.3705,37.62692],[-122.36327,37.64641],[-122.36353,37.65548],[-122.3838,37.67074],[-122.40823,37.65311],[-122.40326,37.61],[-122.40131,37.59637],[-122.39604,37.55043],[-122.39322,37.50604],[-122.37774,37.47416],[-122.35616,37.45615],[-122.31127,37.4257],[-122.27799,37.41362],[-122.22514,37.40256],[-122.18993,37.39531],[-122.09274,37.36364],[-122.0295,37.34391],[-122.00489,37.33633],[-121.91873,37.31055],[-121.87372,37.29702],[-121.79334,37.27375],[-121.64792,37.23046],[-121.61798,37.22148],[-121.51602,37.1933],[-121.4694,37.18343],[-121.37129,37.16577],[-121.27317,37.14886],[-121.26593,37.14764]],"type":"LineString"}
}
