{
  "id": 2014430891,
  "type": "Feature",
  "properties": {
    "geom:area": 0,
    "geom:bbox": "-122.366190,37.628750,-121.249480,38.423420",
    "geom:latitude": 38.03656768336795,
    "geom:longitude": -121.81737209053897,
    "src:alt_label": "swim-takeoff",
    "src:geom": "swim",
    "swim:elevations": [
      183,
      394,
      581,
      951,
      1173,
      1297,
      1431,
      1831,
      2148,
      2402,
      2799,
      3294,
      3371,
      3956,
      4175,
      4601,
      4896,
      5030,
      5236,
      5375,
      5484,
      5567,
      5845,
      5935,
      6207,
      6316,
      6524,
      6544,
      6852,
      6991,
      7033
    ],
    "swim:geom": "takeoff",
    "swim:timestamps": [
      1767028887,
      1767028899,
      1767028912,
      1767028938,
      1767028974,
      1767028993,
      1767029016,
      1767029055,
      1767029079,
      1767029094,
      1767029118,
      1767029158,
      1767029164,
      1767029211,
      1767029232,
      1767029274,
      1767029307,
      1767029325,
      1767029358,
      1767029379,
      1767029407,
      1767029418,
      1767029444,
      1767029453,
      1767029482,
      1767029507,
      1767029548,
      1767029552,
      1767029607,
      1767029636,
      1767029642
    ],
    "wof:geomhash": "57d517665a66b1e9e41216228c6d6e71",
    "wof:id": 2014430891,
    "wof:repo": "sfomuseum-data-flights-2025-12"
  },
  "bbox": [
    -122.36619,
    37.62875,
    -121.24948,
    38.42342
  ],
  "geometry": {"coordinates":[[-122.36619,37.62875],[-122.35889,37.63612],[-122.34941,37.64226],[-122.33017,37.65346],[-122.30117,37.67009],[-122.28329,37.68087],[-122.25873,37.69514],[-122.20918,37.72272],[-122.1852,37.74749],[-122.17144,37.76425],[-122.14972,37.78964],[-122.11185,37.83149],[-122.10555,37.83852],[-122.05273,37.89186],[-122.02116,37.91263],[-121.95095,37.95897],[-121.89569,37.99736],[-121.8633,38.01916],[-121.80425,38.05849],[-121.76573,38.08483],[-121.71323,38.12049],[-121.69171,38.13473],[-121.64088,38.16797],[-121.62412,38.17888],[-121.56886,38.21606],[-121.52137,38.24838],[-121.44231,38.30123],[-121.43322,38.30731],[-121.32197,38.37882],[-121.26109,38.41621],[-121.24948,38.42342]],"type":"LineString"}
}
