{
  "id": 2014445577,
  "type": "Feature",
  "properties": {
    "geom:area": 0,
    "geom:bbox": "-122.442950,37.217260,-121.277470,37.710740",
    "geom:latitude": 37.41012870383353,
    "geom:longitude": -121.9713486964376,
    "src:alt_label": "swim-takeoff",
    "src:geom": "swim",
    "swim:elevations": [
      244,
      404,
      699,
      886,
      1283,
      1621,
      2287,
      2552,
      2984,
      3276,
      3396,
      3881,
      3970,
      4645,
      4882,
      5029,
      5653,
      5954,
      6090,
      6284,
      6600,
      6716,
      6852,
      6923,
      7234,
      7466,
      7658,
      8017,
      8175,
      8229
    ],
    "swim:geom": "takeoff",
    "swim:timestamps": [
      1767200186,
      1767200195,
      1767200246,
      1767200273,
      1767200300,
      1767200319,
      1767200360,
      1767200378,
      1767200410,
      1767200440,
      1767200465,
      1767200514,
      1767200520,
      1767200578,
      1767200598,
      1767200610,
      1767200662,
      1767200689,
      1767200703,
      1767200721,
      1767200757,
      1767200770,
      1767200788,
      1767200798,
      1767200838,
      1767200862,
      1767200890,
      1767200932,
      1767200962,
      1767200971
    ],
    "wof:geomhash": "3a66713b7635bdfa3c751eab5e26b377",
    "wof:id": 2014445577,
    "wof:repo": "sfomuseum-data-flights-2025-12"
  },
  "bbox": [
    -122.44295,
    37.21726,
    -121.27747,
    37.71074
  ],
  "geometry": {"coordinates":[[-122.36686,37.63211],[-122.36406,37.63871],[-122.36197,37.68582],[-122.3876,37.71074],[-122.4276,37.70753],[-122.44295,37.68903],[-122.43262,37.64304],[-122.42491,37.62307],[-122.41026,37.58568],[-122.39578,37.54867],[-122.38284,37.51474],[-122.33603,37.44693],[-122.32452,37.44253],[-122.20009,37.41771],[-122.15548,37.40844],[-122.12871,37.40288],[-122.01182,37.37779],[-121.9513,37.36463],[-121.91783,37.35735],[-121.87653,37.3484],[-121.793,37.33019],[-121.7626,37.3236],[-121.72025,37.31443],[-121.69638,37.30936],[-121.60024,37.28832],[-121.54217,37.27573],[-121.47517,37.26105],[-121.37409,37.23826],[-121.3008,37.22216],[-121.27747,37.21726]],"type":"LineString"}
}
