{
  "id": 2014407977,
  "type": "Feature",
  "properties": {
    "geom:area": 0,
    "geom:bbox": "-122.748460,37.557560,-122.083050,38.493450",
    "geom:latitude": 37.94138305125967,
    "geom:longitude": -122.45743179617537,
    "src:alt_label": "swim-approach",
    "src:geom": "swim",
    "swim:elevations": [
      7773,
      7471,
      7173,
      6799,
      6600,
      6263,
      6054,
      5878,
      5819,
      5487,
      5352,
      5277,
      4966,
      4566,
      4316,
      4033,
      3832,
      3634,
      3354,
      3345,
      3190,
      2985,
      2702,
      2511,
      2208,
      1944,
      1578,
      1429,
      1368,
      1281,
      1115,
      916,
      914,
      819,
      728,
      685,
      598,
      484,
      419,
      299,
      184,
      57,
      348
    ],
    "swim:geom": "approach",
    "swim:timestamps": [
      1766873178,
      1766873208,
      1766873242,
      1766873276,
      1766873294,
      1766873327,
      1766873363,
      1766873396,
      1766873408,
      1766873456,
      1766873485,
      1766873496,
      1766873531,
      1766873577,
      1766873604,
      1766873637,
      1766873660,
      1766873684,
      1766873725,
      1766873743,
      1766873777,
      1766873814,
      1766873844,
      1766873865,
      1766873899,
      1766873928,
      1766873966,
      1766873995,
      1766874006,
      1766874034,
      1766874064,
      1766874106,
      1766874134,
      1766874175,
      1766874199,
      1766874208,
      1766874230,
      1766874248,
      1766874267,
      1766874297,
      1766874324,
      1766874358,
      1766874377
    ],
    "wof:geomhash": "f0749e2d0b5d749faea4a9b79288e851",
    "wof:id": 2014407977,
    "wof:repo": "sfomuseum-data-flights-2025-12"
  },
  "bbox": [
    -122.74846,
    37.55756,
    -122.08305,
    38.49345
  ],
  "geometry": {"coordinates":[[-122.29379,38.49345],[-122.36083,38.45554],[-122.43385,38.41429],[-122.50677,38.37301],[-122.54518,38.35123],[-122.61404,38.31206],[-122.68513,38.27152],[-122.73907,38.22666],[-122.74846,38.2058],[-122.73713,38.11938],[-122.72261,38.06988],[-122.71693,38.05034],[-122.6996,37.99087],[-122.67607,37.9136],[-122.64712,37.87503],[-122.60373,37.8339],[-122.57383,37.80566],[-122.54353,37.777],[-122.4936,37.73033],[-122.46647,37.71768],[-122.41298,37.70511],[-122.36111,37.69339],[-122.32084,37.68361],[-122.29268,37.67681],[-122.24654,37.66577],[-122.2088,37.65689],[-122.16078,37.64506],[-122.12358,37.63623],[-122.11047,37.63328],[-122.08305,37.62114],[-122.08833,37.59547],[-122.11978,37.56922],[-122.15168,37.56449],[-122.19737,37.55756],[-122.22341,37.55887],[-122.23258,37.5616],[-122.25219,37.56932],[-122.26739,37.57578],[-122.28219,37.58203],[-122.30479,37.5915],[-122.32464,37.59985],[-122.34943,37.61029],[-122.36462,37.61607]],"type":"LineString"}
}
