{
  "id": 2014430765,
  "type": "Feature",
  "properties": {
    "geom:area": 0,
    "geom:bbox": "-122.386870,37.632110,-121.242860,38.427590",
    "geom:latitude": 38.08646720475241,
    "geom:longitude": -121.92538866815157,
    "src:alt_label": "swim-takeoff",
    "src:geom": "swim",
    "swim:elevations": [
      244,
      651,
      919,
      1134,
      1188,
      1612,
      1874,
      2232,
      2600,
      3086,
      3236,
      3292,
      3325,
      3450,
      3805,
      4138,
      4518,
      4792,
      5018,
      5253,
      5371,
      5654,
      5875,
      5946,
      6094,
      6308,
      6522,
      6689,
      6856
    ],
    "swim:geom": "takeoff",
    "swim:timestamps": [
      1767071420,
      1767071451,
      1767071479,
      1767071512,
      1767071524,
      1767071578,
      1767071596,
      1767071624,
      1767071658,
      1767071697,
      1767071718,
      1767071755,
      1767071770,
      1767071800,
      1767071837,
      1767071873,
      1767071906,
      1767071932,
      1767071962,
      1767071992,
      1767072007,
      1767072052,
      1767072082,
      1767072097,
      1767072121,
      1767072151,
      1767072187,
      1767072217,
      1767072256
    ],
    "wof:geomhash": "bc1fb955038fc07d4177b7ba9b6a41b7",
    "wof:id": 2014430765,
    "wof:repo": "sfomuseum-data-flights-2025-12"
  },
  "bbox": [
    -122.38687,
    37.63211,
    -121.24286,
    38.42759
  ],
  "geometry": {"coordinates":[[-122.36383,37.63211],[-122.34439,37.64956],[-122.32678,37.66527],[-122.30749,37.68778],[-122.30847,37.69928],[-122.34231,37.75682],[-122.35347,37.77787],[-122.36967,37.81152],[-122.38687,37.8545],[-122.38488,37.9082],[-122.37429,37.93584],[-122.31653,37.96748],[-122.28838,37.97883],[-122.22869,38.00315],[-122.15339,38.03311],[-122.07789,38.06358],[-122.00778,38.09183],[-121.95163,38.11427],[-121.88719,38.14006],[-121.82164,38.16602],[-121.78867,38.17917],[-121.68883,38.21868],[-121.62199,38.24508],[-121.58809,38.25845],[-121.53348,38.27997],[-121.46507,38.30685],[-121.3851,38.34076],[-121.32341,38.37819],[-121.24286,38.42759]],"type":"LineString"}
}
