{
  "id": 2014435275,
  "type": "Feature",
  "properties": {
    "geom:area": 0,
    "geom:bbox": "-123.502920,36.965580,-122.181060,37.607900",
    "geom:latitude": 37.27488420265697,
    "geom:longitude": -122.76298113565326,
    "src:alt_label": "swim-approach",
    "src:geom": "swim",
    "swim:elevations": [
      6340,
      5944,
      5695,
      5430,
      5126,
      4902,
      4580,
      4425,
      4033,
      3845,
      3365,
      3197,
      3048,
      3048,
      2963,
      2865,
      2767,
      2616,
      2511,
      2412,
      2273,
      2056,
      2039,
      1753,
      1721,
      1676,
      1586,
      1494,
      1131,
      915,
      794,
      577,
      515,
      412,
      304,
      102,
      68
    ],
    "swim:geom": "approach",
    "swim:timestamps": [
      1767134714,
      1767134758,
      1767134787,
      1767134816,
      1767134848,
      1767134869,
      1767134901,
      1767134916,
      1767134957,
      1767134975,
      1767135023,
      1767135037,
      1767135086,
      1767135105,
      1767135139,
      1767135173,
      1767135197,
      1767135234,
      1767135257,
      1767135284,
      1767135317,
      1767135356,
      1767135362,
      1767135416,
      1767135421,
      1767135443,
      1767135467,
      1767135487,
      1767135535,
      1767135562,
      1767135583,
      1767135624,
      1767135632,
      1767135651,
      1767135673,
      1767135717,
      1767135726
    ],
    "wof:geomhash": "75e752bbfe4a6dc6808a0f9eda974103",
    "wof:id": 2014435275,
    "wof:repo": "sfomuseum-data-flights-2025-12"
  },
  "bbox": [
    -123.50292,
    36.96558,
    -122.18106,
    37.6079
  ],
  "geometry": {"coordinates":[[-123.50292,36.96558],[-123.41494,37.00675],[-123.35776,37.03217],[-123.30219,37.05787],[-123.24228,37.08531],[-123.20221,37.10353],[-123.14269,37.13062],[-123.11611,37.1428],[-123.04146,37.17697],[-123.00917,37.19163],[-122.9241,37.22997],[-122.89846,37.24155],[-122.8118,37.26953],[-122.7782,37.27763],[-122.72012,37.29127],[-122.66482,37.30398],[-122.6261,37.31291],[-122.56653,37.32686],[-122.53078,37.33515],[-122.4873,37.34506],[-122.43436,37.35724],[-122.37129,37.37186],[-122.36175,37.37404],[-122.28298,37.40488],[-122.27759,37.40839],[-122.24989,37.42663],[-122.22303,37.44414],[-122.20287,37.45725],[-122.18106,37.50314],[-122.20025,37.52907],[-122.21824,37.54668],[-122.25801,37.56939],[-122.26674,37.57274],[-122.28535,37.58078],[-122.30468,37.58895],[-122.34184,37.60475],[-122.34928,37.6079]],"type":"LineString"}
}
