{
  "id": 2014421285,
  "type": "Feature",
  "properties": {
    "geom:area": 0,
    "geom:bbox": "-122.385720,37.637250,-121.245480,37.990960",
    "geom:latitude": 37.93725677565918,
    "geom:longitude": -121.9356885120594,
    "src:alt_label": "swim-takeoff",
    "src:geom": "swim",
    "swim:elevations": [
      370,
      644,
      768,
      973,
      1281,
      1554,
      2225,
      2396,
      2848,
      3213,
      3297,
      3416,
      3601,
      4058,
      4256,
      4682,
      4970,
      5260,
      5440,
      5494,
      5806,
      5998,
      6369,
      6668,
      6958,
      7171,
      7273,
      7426
    ],
    "swim:geom": "takeoff",
    "swim:timestamps": [
      1766971105,
      1766971138,
      1766971162,
      1766971192,
      1766971216,
      1766971237,
      1766971285,
      1766971300,
      1766971334,
      1766971373,
      1766971388,
      1766971412,
      1766971445,
      1766971493,
      1766971511,
      1766971552,
      1766971582,
      1766971612,
      1766971642,
      1766971651,
      1766971690,
      1766971711,
      1766971762,
      1766971787,
      1766971820,
      1766971853,
      1766971877,
      1766971910
    ],
    "wof:geomhash": "0b2926e3affaa470057e519f12091caf",
    "wof:id": 2014421285,
    "wof:repo": "sfomuseum-data-flights-2025-12"
  },
  "bbox": [
    -122.38572,
    37.63725,
    -121.24548,
    37.99096
  ],
  "geometry": {"coordinates":[[-122.36017,37.63725],[-122.33852,37.65604],[-122.31957,37.67165],[-122.31077,37.70243],[-122.32514,37.72989],[-122.33956,37.75362],[-122.36938,37.8098],[-122.37822,37.82794],[-122.38572,37.87159],[-122.379,37.92236],[-122.36438,37.93916],[-122.32565,37.95322],[-122.26367,37.96441],[-122.16756,37.98349],[-122.1303,37.9879],[-122.0445,37.98828],[-121.97983,37.98865],[-121.91478,37.98902],[-121.84912,37.98936],[-121.82927,37.98946],[-121.74249,37.98997],[-121.69541,37.99017],[-121.58016,37.99052],[-121.52312,37.99077],[-121.45049,37.99085],[-121.37658,37.99084],[-121.32199,37.99096],[-121.24548,37.99089]],"type":"LineString"}
}
