{
  "id": 2014409423,
  "type": "Feature",
  "properties": {
    "geom:area": 0,
    "geom:bbox": "-122.358910,36.726970,-121.882670,37.611980",
    "geom:latitude": 37.211929373664674,
    "geom:longitude": -122.07101012418316,
    "src:alt_label": "swim-approach",
    "src:geom": "swim",
    "swim:elevations": [
      5075,
      4833,
      4671,
      4384,
      4079,
      4044,
      3759,
      3383,
      3246,
      3087,
      2944,
      2786,
      2685,
      2558,
      2438,
      2438,
      2438,
      2285,
      2143,
      1863,
      1573,
      1524,
      1421,
      1171,
      1081,
      840,
      817,
      767,
      520,
      433,
      320,
      215,
      47,
      49
    ],
    "swim:geom": "approach",
    "swim:timestamps": [
      1766865310,
      1766865337,
      1766865355,
      1766865384,
      1766865417,
      1766865420,
      1766865454,
      1766865503,
      1766865527,
      1766865544,
      1766865568,
      1766865598,
      1766865614,
      1766865637,
      1766865685,
      1766865697,
      1766865743,
      1766865775,
      1766865794,
      1766865828,
      1766865865,
      1766865881,
      1766865909,
      1766865940,
      1766865952,
      1766865988,
      1766866018,
      1766866027,
      1766866076,
      1766866096,
      1766866125,
      1766866152,
      1766866196,
      1766866204
    ],
    "wof:geomhash": "4d0c214a5a7f655538411ba709ce5c54",
    "wof:id": 2014409423,
    "wof:repo": "sfomuseum-data-flights-2025-12"
  },
  "bbox": [
    -122.35891,
    36.72697,
    -121.88267,
    37.61198
  ],
  "geometry": {"coordinates":[[-121.88267,36.72697],[-121.90008,36.76455],[-121.9073,36.78971],[-121.91922,36.83181],[-121.93211,36.87784],[-121.93331,36.8822],[-121.94642,36.9292],[-121.96998,36.99597],[-121.98148,37.02566],[-121.98904,37.04522],[-122.00071,37.07497],[-122.0149,37.1105],[-122.02213,37.12936],[-122.03273,37.15653],[-122.05483,37.21321],[-122.06017,37.22679],[-122.08117,37.28034],[-122.09522,37.31621],[-122.10403,37.33868],[-122.11888,37.37642],[-122.13305,37.41694],[-122.13862,37.4333],[-122.14929,37.46149],[-122.1645,37.49039],[-122.17162,37.50023],[-122.19058,37.52705],[-122.20704,37.54703],[-122.21434,37.55123],[-122.26138,37.57106],[-122.27999,37.57893],[-122.30281,37.58818],[-122.32233,37.59645],[-122.35361,37.60974],[-122.35891,37.61198]],"type":"LineString"}
}
