{
  "id": 2014427593,
  "type": "Feature",
  "properties": {
    "geom:area": 0,
    "geom:bbox": "-123.317750,37.626250,-122.393580,38.494190",
    "geom:latitude": 38.01874254015339,
    "geom:longitude": -122.88891029439618,
    "src:alt_label": "swim-takeoff",
    "src:geom": "swim",
    "swim:elevations": [
      152,
      432,
      803,
      886,
      1027,
      1370,
      1828,
      2154,
      2434,
      2587,
      3110,
      3213,
      3354,
      3498,
      3645,
      3810,
      4150,
      4454,
      4612,
      5054,
      5135,
      5439,
      5495,
      5691,
      6160,
      6274,
      6492
    ],
    "swim:geom": "takeoff",
    "swim:timestamps": [
      1767054833,
      1767054855,
      1767054894,
      1767054906,
      1767054950,
      1767054972,
      1767055011,
      1767055043,
      1767055070,
      1767055088,
      1767055136,
      1767055154,
      1767055190,
      1767055220,
      1767055232,
      1767055253,
      1767055286,
      1767055313,
      1767055331,
      1767055378,
      1767055390,
      1767055435,
      1767055450,
      1767055475,
      1767055526,
      1767055544,
      1767055576
    ],
    "wof:geomhash": "15099a42a5257c26d4abe7871e6ad3fd",
    "wof:id": 2014427593,
    "wof:repo": "sfomuseum-data-flights-2025-12"
  },
  "bbox": [
    -123.31775,
    37.62625,
    -122.39358,
    38.49419
  ],
  "geometry": {"coordinates":[[-122.39358,37.62625],[-122.41382,37.6344],[-122.44912,37.65091],[-122.46087,37.6563],[-122.51268,37.68049],[-122.53909,37.69614],[-122.58602,37.7237],[-122.62662,37.7476],[-122.66271,37.76877],[-122.68747,37.78336],[-122.75518,37.82406],[-122.77465,37.8447],[-122.81256,37.89198],[-122.84804,37.93463],[-122.8627,37.95218],[-122.88866,37.98338],[-122.93003,38.03307],[-122.96432,38.07412],[-122.98722,38.10155],[-123.04732,38.17334],[-123.06297,38.19213],[-123.12314,38.26394],[-123.14362,38.28828],[-123.17801,38.32911],[-123.24876,38.41249],[-123.27341,38.44177],[-123.31775,38.49419]],"type":"LineString"}
}
