{
  "id": 2014430303,
  "type": "Feature",
  "properties": {
    "geom:area": 0,
    "geom:bbox": "-122.365500,37.630000,-121.244500,38.425650",
    "geom:latitude": 38.02727228106388,
    "geom:longitude": -121.80484659473716,
    "src:alt_label": "swim-takeoff",
    "src:geom": "swim",
    "swim:elevations": [
      183,
      508,
      842,
      1078,
      1179,
      1684,
      2009,
      3049,
      3343,
      3486,
      3919,
      4183,
      4469,
      5135,
      5306,
      5692,
      6190,
      6576,
      6961,
      7205,
      7439,
      7810,
      8070,
      8406,
      8746,
      8779
    ],
    "swim:geom": "takeoff",
    "swim:timestamps": [
      1767017183,
      1767017216,
      1767017248,
      1767017273,
      1767017288,
      1767017331,
      1767017348,
      1767017398,
      1767017424,
      1767017455,
      1767017489,
      1767017507,
      1767017525,
      1767017573,
      1767017587,
      1767017627,
      1767017665,
      1767017696,
      1767017725,
      1767017747,
      1767017771,
      1767017815,
      1767017848,
      1767017876,
      1767017908,
      1767017912
    ],
    "wof:geomhash": "0ec3b90a410df22dcf3d44cd17774063",
    "wof:id": 2014430303,
    "wof:repo": "sfomuseum-data-flights-2025-12"
  },
  "bbox": [
    -122.3655,
    37.63,
    -121.2445,
    38.42565
  ],
  "geometry": {"coordinates":[[-122.3655,37.63],[-122.34259,37.64637],[-122.31316,37.66316],[-122.28799,37.67802],[-122.27127,37.68796],[-122.21609,37.71838],[-122.19577,37.73381],[-122.13748,37.77788],[-122.10619,37.8016],[-122.06293,37.83392],[-122.01099,37.87306],[-121.98238,37.89454],[-121.95206,37.9175],[-121.8732,37.97667],[-121.84991,37.99407],[-121.77961,38.04672],[-121.71202,38.09715],[-121.65727,38.13795],[-121.60493,38.17688],[-121.564,38.20731],[-121.52191,38.2385],[-121.43863,38.29977],[-121.37534,38.3448],[-121.31861,38.38005],[-121.25303,38.42014],[-121.2445,38.42565]],"type":"LineString"}
}
