{
  "id": 2014447507,
  "type": "Feature",
  "properties": {
    "geom:area": 0,
    "geom:bbox": "-122.467210,36.759200,-121.354950,37.710480",
    "geom:latitude": 37.22746396612408,
    "geom:longitude": -122.01564649676789,
    "src:alt_label": "swim-takeoff",
    "src:geom": "swim",
    "swim:elevations": [
      274,
      620,
      847,
      1072,
      1278,
      1674,
      1864,
      2360,
      2593,
      3026,
      3334,
      3511,
      3739,
      4353,
      4591,
      4963,
      5213,
      5397,
      5924,
      6310,
      6630,
      6771,
      6971,
      7209,
      7336,
      7654,
      7834,
      7917,
      8088,
      8247,
      8514,
      8659,
      8975,
      9094
    ],
    "swim:geom": "takeoff",
    "swim:timestamps": [
      1767179633,
      1767179662,
      1767179686,
      1767179714,
      1767179749,
      1767179787,
      1767179799,
      1767179828,
      1767179843,
      1767179871,
      1767179908,
      1767179929,
      1767179952,
      1767179998,
      1767180020,
      1767180056,
      1767180079,
      1767180096,
      1767180136,
      1767180169,
      1767180207,
      1767180224,
      1767180247,
      1767180280,
      1767180304,
      1767180354,
      1767180376,
      1767180390,
      1767180414,
      1767180437,
      1767180472,
      1767180497,
      1767180531,
      1767180546
    ],
    "wof:geomhash": "9ed75a776a862c4ca29d0e3ba1bfb933",
    "wof:id": 2014447507,
    "wof:repo": "sfomuseum-data-flights-2025-12"
  },
  "bbox": [
    -122.46721,
    36.7592,
    -121.35495,
    37.71048
  ],
  "geometry": {"coordinates":[[-122.36642,37.63375],[-122.36372,37.65563],[-122.36215,37.67544],[-122.36837,37.69918],[-122.4107,37.71048],[-122.43997,37.67722],[-122.4424,37.66351],[-122.44823,37.62838],[-122.45145,37.61042],[-122.45801,37.57634],[-122.46721,37.52724],[-122.46281,37.49689],[-122.43918,37.46773],[-122.36675,37.4205],[-122.33107,37.39743],[-122.27126,37.35891],[-122.23125,37.33343],[-122.20221,37.31423],[-122.13101,37.2684],[-122.07404,37.23159],[-122.00703,37.18793],[-121.9769,37.16823],[-121.93343,37.1399],[-121.87257,37.10014],[-121.82804,37.07104],[-121.73255,37.00856],[-121.689,36.97985],[-121.6626,36.96234],[-121.61385,36.9302],[-121.57022,36.90135],[-121.49994,36.85474],[-121.45042,36.82228],[-121.383,36.77746],[-121.35495,36.7592]],"type":"LineString"}
}
