{
  "id": 2014413595,
  "type": "Feature",
  "properties": {
    "geom:area": 0,
    "geom:bbox": "-122.358970,37.637950,-121.242540,38.125990",
    "geom:latitude": 37.896707763893964,
    "geom:longitude": -121.80758928607426,
    "src:alt_label": "swim-takeoff",
    "src:geom": "swim",
    "swim:elevations": [
      296,
      510,
      841,
      1160,
      1255,
      1520,
      2008,
      2813,
      3110,
      3118,
      3795,
      4337,
      4420,
      4948,
      5283,
      5533,
      5635,
      5977,
      6525,
      6827,
      7116,
      7193,
      7344,
      7666,
      7750
    ],
    "swim:geom": "takeoff",
    "swim:timestamps": [
      1766826238,
      1766826256,
      1766826282,
      1766826326,
      1766826336,
      1766826360,
      1766826390,
      1766826441,
      1766826476,
      1766826480,
      1766826529,
      1766826568,
      1766826575,
      1766826623,
      1766826653,
      1766826682,
      1766826692,
      1766826725,
      1766826775,
      1766826805,
      1766826838,
      1766826849,
      1766826870,
      1766826916,
      1766826930
    ],
    "wof:geomhash": "6ef39d11aed513862b1c0e9b00188ea0",
    "wof:id": 2014413595,
    "wof:repo": "sfomuseum-data-flights-2025-12"
  },
  "bbox": [
    -122.35897,
    37.63795,
    -121.24254,
    38.12599
  ],
  "geometry": {"coordinates":[[-122.35897,37.63795],[-122.34487,37.64631],[-122.32302,37.65823],[-122.28164,37.68234],[-122.27103,37.68848],[-122.24031,37.70451],[-122.20105,37.72466],[-122.1334,37.76001],[-122.08325,37.78623],[-122.07836,37.78876],[-121.99945,37.8282],[-121.93376,37.85456],[-121.92033,37.85996],[-121.83583,37.89346],[-121.7821,37.91454],[-121.7287,37.93552],[-121.7105,37.9427],[-121.64685,37.96782],[-121.55179,38.00509],[-121.49395,38.02775],[-121.43066,38.05262],[-121.40867,38.06126],[-121.36553,38.0781],[-121.27067,38.11496],[-121.24254,38.12599]],"type":"LineString"}
}
