{
  "id": 2014406759,
  "type": "Feature",
  "properties": {
    "geom:area": 0,
    "geom:bbox": "-122.347690,36.760470,-121.898870,37.607120",
    "geom:latitude": 37.22675965456467,
    "geom:longitude": -122.07443810393819,
    "src:alt_label": "swim-approach",
    "src:geom": "swim",
    "swim:elevations": [
      5308,
      5230,
      4978,
      4573,
      4212,
      4159,
      3908,
      3466,
      3169,
      2932,
      2957,
      2812,
      2646,
      2470,
      2397,
      2196,
      2032,
      1959,
      1592,
      1441,
      1298,
      1258,
      1159,
      1060,
      816,
      752,
      663,
      485,
      389,
      258,
      106,
      65
    ],
    "swim:geom": "approach",
    "swim:timestamps": [
      1766833432,
      1766833442,
      1766833472,
      1766833517,
      1766833554,
      1766833563,
      1766833591,
      1766833633,
      1766833663,
      1766833698,
      1766833710,
      1766833741,
      1766833772,
      1766833801,
      1766833820,
      1766833856,
      1766833880,
      1766833893,
      1766833945,
      1766833977,
      1766834001,
      1766834006,
      1766834029,
      1766834044,
      1766834080,
      1766834118,
      1766834136,
      1766834176,
      1766834204,
      1766834233,
      1766834273,
      1766834284
    ],
    "wof:geomhash": "32bf5f0cf3a4ed0688aea33a7781bac1",
    "wof:id": 2014406759,
    "wof:repo": "sfomuseum-data-flights-2025-12"
  },
  "bbox": [
    -122.34769,
    36.76047,
    -121.89887,
    37.60712
  ],
  "geometry": {"coordinates":[[-121.89887,36.76047],[-121.90351,36.77509],[-121.91532,36.81707],[-121.93324,36.88158],[-121.94834,36.93509],[-121.95174,36.94709],[-121.96617,36.98518],[-121.98751,37.04071],[-122.00354,37.08144],[-122.02201,37.1285],[-122.02749,37.14264],[-122.04188,37.17924],[-122.05573,37.2152],[-122.06888,37.24818],[-122.07752,37.27011],[-122.09407,37.31248],[-122.10499,37.33995],[-122.11094,37.35489],[-122.13225,37.41375],[-122.14413,37.44733],[-122.15188,37.47061],[-122.15334,37.47509],[-122.1605,37.49573],[-122.16474,37.50801],[-122.1789,37.53489],[-122.21355,37.55093],[-122.23029,37.55788],[-122.26535,37.57264],[-122.28721,37.58179],[-122.30908,37.59103],[-122.33911,37.60348],[-122.34769,37.60712]],"type":"LineString"}
}
