{
  "id": 2014428741,
  "type": "Feature",
  "properties": {
    "geom:area": 0,
    "geom:bbox": "-122.363440,37.632750,-122.114110,38.450280",
    "geom:latitude": 38.00836587987146,
    "geom:longitude": -122.18155654841513,
    "src:alt_label": "swim-takeoff",
    "src:geom": "swim",
    "swim:elevations": [
      213,
      525,
      627,
      1033,
      1329,
      1960,
      2447,
      2789,
      3290,
      3474,
      3612,
      4404,
      4676,
      4961,
      5308,
      5495,
      5897,
      6136,
      6591,
      6852,
      7097,
      7269,
      7422
    ],
    "swim:geom": "takeoff",
    "swim:timestamps": [
      1767027686,
      1767027713,
      1767027732,
      1767027768,
      1767027793,
      1767027833,
      1767027863,
      1767027883,
      1767027925,
      1767027952,
      1767027963,
      1767028012,
      1767028030,
      1767028051,
      1767028077,
      1767028100,
      1767028134,
      1767028152,
      1767028196,
      1767028227,
      1767028253,
      1767028273,
      1767028291
    ],
    "wof:geomhash": "5d3e82003d2cdd6de44a29a68289b345",
    "wof:id": 2014428741,
    "wof:repo": "sfomuseum-data-flights-2025-12"
  },
  "bbox": [
    -122.36344,
    37.63275,
    -122.11411,
    38.45028
  ],
  "geometry": {"coordinates":[[-122.36344,37.63275],[-122.34334,37.64707],[-122.32576,37.65637],[-122.28607,37.67895],[-122.25551,37.69645],[-122.21171,37.73147],[-122.20488,37.76926],[-122.20162,37.796],[-122.19269,37.85086],[-122.18592,37.89124],[-122.18295,37.90822],[-122.17031,37.98581],[-122.16595,38.01311],[-122.16061,38.04574],[-122.15377,38.08742],[-122.14772,38.12466],[-122.13872,38.17962],[-122.13394,38.20869],[-122.12171,38.28263],[-122.11411,38.33573],[-122.11604,38.38174],[-122.11842,38.41805],[-122.12065,38.45028]],"type":"LineString"}
}
