{
  "id": 2014417861,
  "type": "Feature",
  "properties": {
    "geom:area": 0,
    "geom:bbox": "-122.661830,37.456740,-122.150820,38.517790",
    "geom:latitude": 37.88738675921881,
    "geom:longitude": -122.44313079471685,
    "src:alt_label": "swim-approach",
    "src:geom": "swim",
    "swim:elevations": [
      7283,
      7192,
      7147,
      7069,
      6888,
      6601,
      6187,
      5735,
      5527,
      5305,
      4909,
      4707,
      4407,
      4178,
      3756,
      3650,
      3430,
      3356,
      3353,
      3353,
      3353,
      3353,
      3190,
      3136,
      2887,
      2695,
      2330,
      1976,
      1911,
      1589,
      1200,
      1012,
      945,
      945,
      927,
      668,
      611,
      406,
      308,
      241,
      68,
      0
    ],
    "swim:geom": "approach",
    "swim:timestamps": [
      1766963897,
      1766963928,
      1766963940,
      1766963964,
      1766963994,
      1766964021,
      1766964052,
      1766964084,
      1766964116,
      1766964146,
      1766964174,
      1766964195,
      1766964225,
      1766964250,
      1766964298,
      1766964310,
      1766964352,
      1766964388,
      1766964397,
      1766964427,
      1766964466,
      1766964496,
      1766964535,
      1766964541,
      1766964565,
      1766964583,
      1766964620,
      1766964656,
      1766964662,
      1766964698,
      1766964746,
      1766964770,
      1766964801,
      1766964826,
      1766964851,
      1766964896,
      1766964908,
      1766964953,
      1766964979,
      1766964995,
      1766965043,
      1766965055
    ],
    "wof:geomhash": "c3d2d0154107aeacfcf83d4a73214ea3",
    "wof:id": 2014417861,
    "wof:repo": "sfomuseum-data-flights-2025-12"
  },
  "bbox": [
    -122.66183,
    37.45674,
    -122.15082,
    38.51779
  ],
  "geometry": {"coordinates":[[-122.33628,38.51779],[-122.40167,38.47355],[-122.42865,38.45525],[-122.47643,38.41854],[-122.52172,38.36447],[-122.54695,38.30752],[-122.56689,38.24414],[-122.58714,38.17692],[-122.60688,38.11232],[-122.6249,38.05408],[-122.63996,38.00534],[-122.65142,37.96858],[-122.66183,37.91711],[-122.64721,37.87782],[-122.58979,37.82037],[-122.57544,37.80693],[-122.52656,37.76125],[-122.48907,37.72579],[-122.48006,37.71727],[-122.44869,37.68806],[-122.40804,37.64977],[-122.37751,37.62083],[-122.35078,37.58238],[-122.34768,37.57592],[-122.33411,37.55075],[-122.32313,37.53212],[-122.29979,37.49612],[-122.2602,37.47575],[-122.2531,37.47301],[-122.21019,37.45674],[-122.1599,37.46636],[-122.15082,37.48847],[-122.15874,37.51683],[-122.17352,37.53508],[-122.19769,37.54622],[-122.24034,37.56434],[-122.25067,37.56871],[-122.28658,37.58392],[-122.30595,37.592],[-122.31744,37.59684],[-122.35275,37.6118],[-122.36179,37.61565]],"type":"LineString"}
}
