{
  "id": 2014435343,
  "type": "Feature",
  "properties": {
    "geom:area": 0,
    "geom:bbox": "-122.355200,37.491440,-121.254380,37.612670",
    "geom:latitude": 37.54634360363923,
    "geom:longitude": -121.80960846814843,
    "src:alt_label": "swim-approach",
    "src:geom": "swim",
    "swim:elevations": [
      4589,
      4378,
      4226,
      3860,
      3696,
      3306,
      3208,
      3158,
      3018,
      2964,
      2733,
      2491,
      2314,
      2291,
      2154,
      2134,
      1910,
      1879,
      1708,
      1425,
      1350,
      1194,
      1155,
      964,
      882,
      671,
      581,
      438,
      414,
      280,
      184,
      32
    ],
    "swim:geom": "approach",
    "swim:timestamps": [
      1767123628,
      1767123648,
      1767123666,
      1767123705,
      1767123720,
      1767123763,
      1767123777,
      1767123793,
      1767123838,
      1767123846,
      1767123880,
      1767123922,
      1767123954,
      1767123960,
      1767123983,
      1767124000,
      1767124048,
      1767124052,
      1767124091,
      1767124134,
      1767124145,
      1767124166,
      1767124172,
      1767124216,
      1767124231,
      1767124284,
      1767124304,
      1767124341,
      1767124354,
      1767124390,
      1767124417,
      1767124457
    ],
    "wof:geomhash": "e19e93676e289641de51f6463e08e204",
    "wof:id": 2014435343,
    "wof:repo": "sfomuseum-data-flights-2025-12"
  },
  "bbox": [
    -122.3552,
    37.49144,
    -121.25438,
    37.61267
  ],
  "geometry": {"coordinates":[[-121.25438,37.59391],[-121.29498,37.58862],[-121.33115,37.58463],[-121.40625,37.57639],[-121.4367,37.57293],[-121.51972,37.56319],[-121.54582,37.56012],[-121.57637,37.55654],[-121.65266,37.54421],[-121.66467,37.54142],[-121.71784,37.52868],[-121.78322,37.51287],[-121.83067,37.50148],[-121.8395,37.49934],[-121.87257,37.49246],[-121.89655,37.49144],[-121.95535,37.4929],[-121.9602,37.49304],[-122.00551,37.50011],[-122.05317,37.51564],[-122.06511,37.51941],[-122.08693,37.52697],[-122.09327,37.52916],[-122.13837,37.54344],[-122.15429,37.54873],[-122.20721,37.56579],[-122.22725,37.57234],[-122.26333,37.58389],[-122.27513,37.58743],[-122.30419,37.59558],[-122.3251,37.60145],[-122.3552,37.61267]],"type":"LineString"}
}
