{
  "id": 2014409607,
  "type": "Feature",
  "properties": {
    "geom:area": 0,
    "geom:bbox": "-122.345410,37.491630,-121.245050,37.608500",
    "geom:latitude": 37.54610840342581,
    "geom:longitude": -121.79982625398637,
    "src:alt_label": "swim-approach",
    "src:geom": "swim",
    "swim:elevations": [
      4553,
      4330,
      4046,
      3983,
      3498,
      3290,
      3194,
      3045,
      3028,
      2821,
      2608,
      2389,
      2318,
      2165,
      2054,
      1931,
      1889,
      1710,
      1558,
      1382,
      1280,
      1157,
      1055,
      912,
      668,
      486,
      392,
      329,
      286,
      211,
      77
    ],
    "swim:geom": "approach",
    "swim:timestamps": [
      1766870125,
      1766870148,
      1766870185,
      1766870190,
      1766870247,
      1766870272,
      1766870288,
      1766870338,
      1766870341,
      1766870383,
      1766870416,
      1766870455,
      1766870462,
      1766870488,
      1766870515,
      1766870546,
      1766870559,
      1766870594,
      1766870616,
      1766870649,
      1766870665,
      1766870689,
      1766870705,
      1766870735,
      1766870784,
      1766870818,
      1766870841,
      1766870853,
      1766870868,
      1766870886,
      1766870914
    ],
    "wof:geomhash": "66eb595c2d2ea456ae19ff44254e3501",
    "wof:id": 2014409607,
    "wof:repo": "sfomuseum-data-flights-2025-12"
  },
  "bbox": [
    -122.34541,
    37.49163,
    -121.24505,
    37.6085
  ],
  "geometry": {"coordinates":[[-121.24505,37.59514],[-121.29193,37.58915],[-121.36168,37.58144],[-121.37194,37.58022],[-121.4809,37.56754],[-121.5281,37.56214],[-121.55849,37.55856],[-121.64426,37.54607],[-121.64896,37.54493],[-121.71324,37.52965],[-121.76197,37.51808],[-121.81953,37.50417],[-121.82886,37.502],[-121.86761,37.49293],[-121.9071,37.49163],[-121.95125,37.49279],[-121.96903,37.49333],[-122.01319,37.50304],[-122.04008,37.51157],[-122.07937,37.52432],[-122.09866,37.53063],[-122.12745,37.53987],[-122.14615,37.54602],[-122.17951,37.55677],[-122.22894,37.57283],[-122.26239,37.58354],[-122.2827,37.58903],[-122.29303,37.59198],[-122.30583,37.59587],[-122.3214,37.60052],[-122.34541,37.6085]],"type":"LineString"}
}
