{
  "id": 2014417981,
  "type": "Feature",
  "properties": {
    "geom:area": 0,
    "geom:bbox": "-122.348570,37.491830,-121.250070,37.609920",
    "geom:latitude": 37.54614670545491,
    "geom:longitude": -121.80400906884084,
    "src:alt_label": "swim-approach",
    "src:geom": "swim",
    "swim:elevations": [
      4405,
      4180,
      3943,
      3801,
      3593,
      3203,
      3090,
      2984,
      2953,
      2802,
      2638,
      2529,
      2332,
      2131,
      2048,
      1953,
      1864,
      1766,
      1567,
      1299,
      1095,
      1043,
      783,
      742,
      577,
      489,
      379,
      293,
      225,
      57
    ],
    "swim:geom": "approach",
    "swim:timestamps": [
      1766952244,
      1766952267,
      1766952297,
      1766952312,
      1766952339,
      1766952385,
      1766952418,
      1766952445,
      1766952450,
      1766952471,
      1766952498,
      1766952516,
      1766952558,
      1766952590,
      1766952612,
      1766952632,
      1766952657,
      1766952675,
      1766952702,
      1766952743,
      1766952777,
      1766952788,
      1766952834,
      1766952840,
      1766952865,
      1766952893,
      1766952927,
      1766952947,
      1766952962,
      1766953000
    ],
    "wof:geomhash": "f5743b6f0d456df2f54a5c2d0ee15a58",
    "wof:id": 2014417981,
    "wof:repo": "sfomuseum-data-flights-2025-12"
  },
  "bbox": [
    -122.34857,
    37.49183,
    -121.25007,
    37.60992
  ],
  "geometry": {"coordinates":[[-121.25007,37.59446],[-121.30141,37.58813],[-121.36474,37.58111],[-121.39594,37.57746],[-121.44923,37.57124],[-121.5424,37.56047],[-121.6042,37.55321],[-121.65047,37.54467],[-121.65789,37.54289],[-121.6923,37.53465],[-121.73592,37.52437],[-121.76539,37.51728],[-121.82949,37.50184],[-121.87688,37.49208],[-121.91097,37.49183],[-121.94104,37.49253],[-121.97784,37.49402],[-122.00264,37.49943],[-122.03837,37.51108],[-122.09036,37.5278],[-122.13247,37.54156],[-122.14516,37.54568],[-122.19416,37.56161],[-122.20056,37.56377],[-122.22729,37.57225],[-122.25493,37.58121],[-122.2865,37.5905],[-122.30376,37.5956],[-122.31655,37.59937],[-122.34857,37.60992]],"type":"LineString"}
}
