{
  "id": 2014414145,
  "type": "Feature",
  "properties": {
    "geom:area": 0,
    "geom:bbox": "-123.500750,37.636220,-122.417000,37.732200",
    "geom:latitude": 37.69993225030711,
    "geom:longitude": -122.95527856178036,
    "src:alt_label": "swim-takeoff",
    "src:geom": "swim",
    "swim:elevations": [
      450,
      672,
      850,
      1068,
      1167,
      1300,
      1623,
      2171,
      2210,
      2705,
      2938,
      3233,
      3295,
      3501,
      3605,
      3924,
      4123,
      4332,
      4600,
      4905,
      5173,
      5327
    ],
    "swim:geom": "takeoff",
    "swim:timestamps": [
      1766879758,
      1766879783,
      1766879803,
      1766879840,
      1766879861,
      1766879885,
      1766879923,
      1766879966,
      1766879973,
      1766880019,
      1766880043,
      1766880088,
      1766880097,
      1766880139,
      1766880165,
      1766880204,
      1766880225,
      1766880250,
      1766880279,
      1766880311,
      1766880344,
      1766880366
    ],
    "wof:geomhash": "1c92d3c62060da896b142bf75569bbd9",
    "wof:id": 2014414145,
    "wof:repo": "sfomuseum-data-flights-2025-12"
  },
  "bbox": [
    -123.50075,
    37.63622,
    -122.417,
    37.7322
  ],
  "geometry": {"coordinates":[[-122.417,37.63622],[-122.44119,37.64716],[-122.46099,37.65599],[-122.49913,37.67263],[-122.52614,37.67657],[-122.55952,37.67832],[-122.6185,37.68171],[-122.68664,37.68579],[-122.6964,37.68622],[-122.77052,37.69094],[-122.81059,37.69345],[-122.88759,37.69795],[-122.90402,37.69885],[-122.9847,37.70342],[-123.03774,37.70655],[-123.12325,37.71146],[-123.17026,37.71406],[-123.22722,37.7172],[-123.29469,37.721],[-123.36786,37.72499],[-123.4482,37.72936],[-123.50075,37.7322]],"type":"LineString"}
}
