{
  "id": 2014417889,
  "type": "Feature",
  "properties": {
    "geom:area": 0,
    "geom:bbox": "-123.503890,36.963670,-122.183050,37.613260",
    "geom:latitude": 37.27711613119856,
    "geom:longitude": -122.75874361631624,
    "src:alt_label": "swim-approach",
    "src:geom": "swim",
    "swim:elevations": [
      7132,
      7010,
      6537,
      6370,
      5929,
      5693,
      5332,
      5099,
      4693,
      4417,
      4155,
      3980,
      3576,
      3326,
      3064,
      3048,
      3021,
      2841,
      2592,
      2411,
      2332,
      2131,
      2027,
      1838,
      1829,
      1839,
      1832,
      1828,
      1826,
      1790,
      1767,
      1369,
      1248,
      1096,
      913,
      840,
      643,
      600,
      369,
      279,
      94,
      33
    ],
    "swim:geom": "approach",
    "swim:timestamps": [
      1766990155,
      1766990167,
      1766990209,
      1766990227,
      1766990272,
      1766990294,
      1766990337,
      1766990357,
      1766990393,
      1766990418,
      1766990441,
      1766990465,
      1766990502,
      1766990522,
      1766990546,
      1766990570,
      1766990597,
      1766990624,
      1766990660,
      1766990680,
      1766990692,
      1766990718,
      1766990730,
      1766990754,
      1766990782,
      1766990803,
      1766990844,
      1766990877,
      1766990906,
      1766990938,
      1766990941,
      1766990989,
      1766991019,
      1766991040,
      1766991087,
      1766991116,
      1766991142,
      1766991152,
      1766991202,
      1766991223,
      1766991264,
      1766991282
    ],
    "wof:geomhash": "2aaa52951aeb4f2f475f4940d1bdbf1e",
    "wof:id": 2014417889,
    "wof:repo": "sfomuseum-data-flights-2025-12"
  },
  "bbox": [
    -123.50389,
    36.96367,
    -122.18305,
    37.61326
  ],
  "geometry": {"coordinates":[[-123.50389,36.96367],[-123.48272,36.97453],[-123.4072,37.00644],[-123.37745,37.02184],[-123.30307,37.05588],[-123.26583,37.07316],[-123.19726,37.10463],[-123.164,37.11997],[-123.10591,37.14662],[-123.06674,37.16445],[-123.03028,37.1812],[-122.99301,37.19856],[-122.93753,37.22387],[-122.90515,37.23859],[-122.86656,37.25503],[-122.82752,37.26569],[-122.78649,37.27566],[-122.74438,37.28558],[-122.69015,37.29802],[-122.66111,37.3048],[-122.64194,37.30927],[-122.60332,37.31804],[-122.58559,37.32223],[-122.55014,37.33074],[-122.50901,37.34027],[-122.47943,37.34701],[-122.41969,37.36064],[-122.37124,37.37176],[-122.32733,37.38201],[-122.28191,37.39535],[-122.27836,37.39768],[-122.22847,37.44312],[-122.20011,37.46957],[-122.18305,37.48685],[-122.19099,37.53155],[-122.2101,37.5523],[-122.2373,37.56287],[-122.24732,37.56733],[-122.29165,37.586],[-122.30825,37.59311],[-122.34149,37.60692],[-122.35649,37.61326]],"type":"LineString"}
}
