{
  "id": 2014413815,
  "type": "Feature",
  "properties": {
    "geom:area": 0,
    "geom:bbox": "-122.365420,37.630000,-121.243400,37.966490",
    "geom:latitude": 37.839731251635655,
    "geom:longitude": -121.8199055401773,
    "src:alt_label": "swim-takeoff",
    "src:geom": "swim",
    "swim:elevations": [
      152,
      314,
      508,
      1089,
      1334,
      1514,
      1952,
      2351,
      3060,
      3361,
      3509,
      3616,
      4017,
      4538,
      5000,
      5289,
      5577,
      5806,
      6433,
      6854,
      6973,
      7114,
      7466,
      7558,
      7651
    ],
    "swim:geom": "takeoff",
    "swim:timestamps": [
      1766857755,
      1766857768,
      1766857780,
      1766857824,
      1766857858,
      1766857873,
      1766857907,
      1766857933,
      1766857976,
      1766858001,
      1766858030,
      1766858045,
      1766858081,
      1766858120,
      1766858157,
      1766858178,
      1766858209,
      1766858230,
      1766858276,
      1766858303,
      1766858312,
      1766858336,
      1766858362,
      1766858370,
      1766858393
    ],
    "wof:geomhash": "4b52c6c7f0943bef06342ddd156786de",
    "wof:id": 2014413815,
    "wof:repo": "sfomuseum-data-flights-2025-12"
  },
  "bbox": [
    -122.36542,
    37.63,
    -121.2434,
    37.96649
  ],
  "geometry": {"coordinates":[[-122.36542,37.63],[-122.35969,37.63861],[-122.35146,37.64579],[-122.31571,37.66444],[-122.28338,37.68153],[-122.26687,37.69028],[-122.22595,37.71193],[-122.19277,37.72947],[-122.13587,37.75896],[-122.10106,37.77707],[-122.05783,37.79982],[-122.03232,37.81243],[-121.96044,37.83656],[-121.87583,37.85166],[-121.79401,37.86568],[-121.74413,37.87511],[-121.67444,37.88864],[-121.62442,37.89805],[-121.51598,37.91722],[-121.45328,37.9288],[-121.43271,37.93273],[-121.3766,37.94315],[-121.31593,37.95438],[-121.29698,37.95776],[-121.2434,37.96649]],"type":"LineString"}
}
