{
  "id": 2014430729,
  "type": "Feature",
  "properties": {
    "geom:area": 0,
    "geom:bbox": "-122.385670,37.628280,-121.270240,38.389780",
    "geom:latitude": 38.07597975387672,
    "geom:longitude": -121.94314336534262,
    "src:alt_label": "swim-takeoff",
    "src:geom": "swim",
    "swim:elevations": [
      183,
      689,
      895,
      1219,
      1370,
      1682,
      1730,
      2359,
      2734,
      2864,
      3424,
      3615,
      3965,
      4180,
      4268,
      4624,
      4735,
      5084,
      5336,
      5430,
      5672,
      5818,
      5990,
      6388,
      6468,
      7119,
      7396,
      7628,
      7867,
      7979
    ],
    "swim:geom": "takeoff",
    "swim:timestamps": [
      1767075144,
      1767075175,
      1767075190,
      1767075235,
      1767075257,
      1767075299,
      1767075302,
      1767075349,
      1767075386,
      1767075396,
      1767075443,
      1767075466,
      1767075508,
      1767075536,
      1767075548,
      1767075595,
      1767075610,
      1767075652,
      1767075688,
      1767075699,
      1767075742,
      1767075760,
      1767075784,
      1767075835,
      1767075846,
      1767075898,
      1767075928,
      1767075952,
      1767075982,
      1767075996
    ],
    "wof:geomhash": "af86703132971072a70289465eab886a",
    "wof:id": 2014430729,
    "wof:repo": "sfomuseum-data-flights-2025-12"
  },
  "bbox": [
    -122.38567,
    37.62828,
    -121.27024,
    38.38978
  ],
  "geometry": {"coordinates":[[-122.3665,37.62828],[-122.348,37.64892],[-122.33807,37.6576],[-122.30843,37.68689],[-122.31264,37.70819],[-122.33967,37.75208],[-122.34166,37.75556],[-122.37067,37.81292],[-122.38567,37.86194],[-122.38507,37.8753],[-122.37128,37.9384],[-122.33979,37.95791],[-122.27043,37.9861],[-122.22163,38.00606],[-122.19988,38.0148],[-122.11202,38.05004],[-122.08286,38.06179],[-121.99885,38.09535],[-121.92464,38.12494],[-121.90153,38.13411],[-121.8091,38.17074],[-121.77036,38.18609],[-121.71837,38.20669],[-121.60752,38.25054],[-121.58377,38.25993],[-121.47222,38.30382],[-121.40908,38.32854],[-121.3595,38.34972],[-121.2975,38.37729],[-121.27024,38.38978]],"type":"LineString"}
}
