{
  "id": 2014442803,
  "type": "Feature",
  "properties": {
    "geom:area": 0,
    "geom:bbox": "-122.358230,37.492120,-121.246380,37.614060",
    "geom:latitude": 37.543141254625276,
    "geom:longitude": -121.80931717458313,
    "src:alt_label": "swim-approach",
    "src:geom": "swim",
    "swim:elevations": [
      4527,
      4429,
      4209,
      3881,
      3652,
      3393,
      3134,
      3074,
      2961,
      2661,
      2438,
      2438,
      2391,
      2240,
      1972,
      1931,
      1825,
      1614,
      1524,
      1494,
      1319,
      1121,
      1019,
      693,
      635,
      425,
      243,
      81,
      105
    ],
    "swim:geom": "approach",
    "swim:timestamps": [
      1767188277,
      1767188288,
      1767188312,
      1767188348,
      1767188375,
      1767188406,
      1767188458,
      1767188475,
      1767188499,
      1767188521,
      1767188564,
      1767188605,
      1767188618,
      1767188649,
      1767188696,
      1767188702,
      1767188738,
      1767188779,
      1767188808,
      1767188827,
      1767188863,
      1767188892,
      1767188911,
      1767188965,
      1767188973,
      1767189009,
      1767189045,
      1767189087,
      1767189102
    ],
    "wof:geomhash": "7806ecf571bc0590e9c70cf386e1688e",
    "wof:id": 2014442803,
    "wof:repo": "sfomuseum-data-flights-2025-12"
  },
  "bbox": [
    -122.35823,
    37.49212,
    -121.24638,
    37.61406
  ],
  "geometry": {"coordinates":[[-121.24638,37.59473],[-121.26886,37.5917],[-121.3177,37.58566],[-121.38985,37.57767],[-121.44053,37.57204],[-121.49518,37.56595],[-121.58332,37.55598],[-121.60958,37.55276],[-121.64408,37.54636],[-121.67626,37.53845],[-121.73672,37.52399],[-121.78949,37.51152],[-121.80704,37.5073],[-121.84859,37.49722],[-121.91229,37.49212],[-121.92156,37.4927],[-121.96817,37.49623],[-122.01775,37.49907],[-122.05377,37.50117],[-122.07711,37.50246],[-122.11975,37.51355],[-122.15224,37.52722],[-122.17422,37.53652],[-122.23511,37.56226],[-122.24409,37.56596],[-122.28281,37.58237],[-122.31525,37.59592],[-122.34749,37.60952],[-122.35823,37.61406]],"type":"LineString"}
}
