{
  "id": 2014435739,
  "type": "Feature",
  "properties": {
    "geom:area": 0,
    "geom:bbox": "-122.756340,37.439430,-122.125150,38.472890",
    "geom:latitude": 37.82464332511843,
    "geom:longitude": -122.48628799644138,
    "src:alt_label": "swim-approach",
    "src:geom": "swim",
    "swim:elevations": [
      7526,
      7239,
      6905,
      6821,
      6337,
      6316,
      6017,
      5740,
      5438,
      5434,
      5161,
      5080,
      4630,
      4267,
      4055,
      3812,
      3494,
      3390,
      3353,
      3353,
      3257,
      2797,
      2485,
      1954,
      1599,
      1555,
      1536,
      1375,
      1242,
      1219,
      1219,
      1219,
      1131,
      1047,
      1009,
      914,
      736,
      529,
      400,
      315,
      215,
      123,
      0
    ],
    "swim:geom": "approach",
    "swim:timestamps": [
      1767099023,
      1767099059,
      1767099088,
      1767099095,
      1767099146,
      1767099153,
      1767099195,
      1767099222,
      1767099259,
      1767099268,
      1767099295,
      1767099304,
      1767099345,
      1767099388,
      1767099412,
      1767099434,
      1767099465,
      1767099498,
      1767099522,
      1767099542,
      1767099583,
      1767099623,
      1767099647,
      1767099687,
      1767099717,
      1767099729,
      1767099774,
      1767099808,
      1767099830,
      1767099867,
      1767099871,
      1767099919,
      1767099955,
      1767099983,
      1767100008,
      1767100034,
      1767100067,
      1767100106,
      1767100134,
      1767100155,
      1767100182,
      1767100201,
      1767100232
    ],
    "wof:geomhash": "80aef9e74a4aea385550cf6510a2d7de",
    "wof:id": 2014435739,
    "wof:repo": "sfomuseum-data-flights-2025-12"
  },
  "bbox": [
    -122.75634,
    37.43943,
    -122.12515,
    38.47289
  ],
  "geometry": {"coordinates":[[-122.65314,38.47289],[-122.68241,38.40956],[-122.70648,38.35729],[-122.71218,38.34484],[-122.75241,38.25689],[-122.75634,38.24523],[-122.75314,38.17583],[-122.74028,38.13048],[-122.72292,38.07069],[-122.71867,38.05626],[-122.70612,38.01398],[-122.70218,38.00041],[-122.68337,37.93511],[-122.64785,37.87552],[-122.61826,37.84727],[-122.59196,37.82263],[-122.5548,37.78774],[-122.51584,37.75105],[-122.48958,37.72622],[-122.46885,37.70685],[-122.42687,37.6673],[-122.38641,37.62914],[-122.36283,37.60641],[-122.33988,37.56067],[-122.32142,37.52853],[-122.31413,37.51665],[-122.288,37.47636],[-122.25381,37.46038],[-122.22711,37.45295],[-122.18302,37.44074],[-122.17821,37.43943],[-122.12515,37.44798],[-122.12581,37.48266],[-122.14472,37.50455],[-122.16339,37.52353],[-122.18516,37.53928],[-122.2188,37.55268],[-122.25889,37.56969],[-122.28492,37.58082],[-122.30137,37.58753],[-122.3214,37.59619],[-122.3355,37.60209],[-122.35908,37.61178]],"type":"LineString"}
}
