{
  "id": 2014447389,
  "type": "Feature",
  "properties": {
    "geom:area": 0,
    "geom:bbox": "-122.366190,37.628810,-121.279370,38.404830",
    "geom:latitude": 38.05566207401019,
    "geom:longitude": -121.87788968341013,
    "src:alt_label": "swim-takeoff",
    "src:geom": "swim",
    "swim:elevations": [
      244,
      744,
      929,
      1088,
      1224,
      1529,
      1787,
      1996,
      2290,
      2452,
      2813,
      3231,
      3297,
      3541,
      3953,
      4125,
      4731,
      4951,
      5162,
      5476,
      5807,
      5882,
      6083,
      6123,
      6317,
      6562,
      6956,
      7082,
      7268,
      7426
    ],
    "swim:geom": "takeoff",
    "swim:timestamps": [
      1767170026,
      1767170062,
      1767170084,
      1767170107,
      1767170131,
      1767170188,
      1767170208,
      1767170223,
      1767170246,
      1767170258,
      1767170288,
      1767170337,
      1767170352,
      1767170390,
      1767170426,
      1767170443,
      1767170485,
      1767170509,
      1767170530,
      1767170567,
      1767170604,
      1767170613,
      1767170638,
      1767170645,
      1767170673,
      1767170704,
      1767170754,
      1767170771,
      1767170798,
      1767170825
    ],
    "wof:geomhash": "b3021bc54968ffc8b6cdbbbed4266de5",
    "wof:id": 2014447389,
    "wof:repo": "sfomuseum-data-flights-2025-12"
  },
  "bbox": [
    -122.36619,
    37.62881,
    -121.27937,
    38.40483
  ],
  "geometry": {"coordinates":[[-122.36619,37.62881],[-122.34212,37.64575],[-122.32691,37.65483],[-122.31061,37.66634],[-122.30397,37.68686],[-122.28997,37.75069],[-122.29309,37.77683],[-122.29948,37.79637],[-122.29228,37.82719],[-122.28491,37.84239],[-122.25484,37.87442],[-122.18449,37.91332],[-122.16062,37.92619],[-122.09474,37.96172],[-122.03064,37.99637],[-122.00005,38.01274],[-121.9239,38.05362],[-121.88175,38.07597],[-121.84376,38.09618],[-121.77526,38.13258],[-121.70659,38.16914],[-121.68973,38.17803],[-121.64248,38.20304],[-121.63012,38.20959],[-121.57637,38.23801],[-121.51543,38.27019],[-121.4154,38.32281],[-121.38242,38.34086],[-121.3312,38.37285],[-121.27937,38.40483]],"type":"LineString"}
}
