{
  "id": 2014409533,
  "type": "Feature",
  "properties": {
    "geom:area": 0,
    "geom:bbox": "-122.358600,37.491800,-121.248330,37.614020",
    "geom:latitude": 37.546870361202366,
    "geom:longitude": -121.80833058188749,
    "src:alt_label": "swim-approach",
    "src:geom": "swim",
    "swim:elevations": [
      4553,
      4356,
      3988,
      3829,
      3465,
      3425,
      3141,
      3085,
      2911,
      2686,
      2637,
      2445,
      2209,
      2061,
      1936,
      1735,
      1583,
      1393,
      1217,
      1072,
      900,
      768,
      661,
      606,
      424,
      272,
      94,
      0
    ],
    "swim:geom": "approach",
    "swim:timestamps": [
      1766860706,
      1766860729,
      1766860768,
      1766860788,
      1766860828,
      1766860834,
      1766860883,
      1766860908,
      1766860940,
      1766860974,
      1766860993,
      1766861028,
      1766861061,
      1766861088,
      1766861118,
      1766861157,
      1766861182,
      1766861216,
      1766861246,
      1766861273,
      1766861306,
      1766861334,
      1766861361,
      1766861370,
      1766861410,
      1766861447,
      1766861487,
      1766861504
    ],
    "wof:geomhash": "35c035e11b5ea37fbf1976f8f4be388b",
    "wof:id": 2014409533,
    "wof:repo": "sfomuseum-data-flights-2025-12"
  },
  "bbox": [
    -122.3586,
    37.4918,
    -121.24833,
    37.61402
  ],
  "geometry": {"coordinates":[[-121.24833,37.59475],[-121.29336,37.58874],[-121.37092,37.58028],[-121.40974,37.57601],[-121.48669,37.56693],[-121.49809,37.56559],[-121.58928,37.55494],[-121.63144,37.54906],[-121.6839,37.53667],[-121.73754,37.52404],[-121.7674,37.51683],[-121.82019,37.50394],[-121.86815,37.49275],[-121.90825,37.4918],[-121.95227,37.49293],[-122.00632,37.50047],[-122.03755,37.51073],[-122.07776,37.52377],[-122.11358,37.53537],[-122.14434,37.5453],[-122.17924,37.55666],[-122.20689,37.56554],[-122.23379,37.57423],[-122.24249,37.57705],[-122.27895,37.58805],[-122.31011,37.59757],[-122.34394,37.60838],[-122.3586,37.61402]],"type":"LineString"}
}
