{
  "id": 2014422133,
  "type": "Feature",
  "properties": {
    "geom:area": 0,
    "geom:bbox": "-122.457740,36.735620,-121.286740,37.709380",
    "geom:latitude": 37.23512845985543,
    "geom:longitude": -121.95435309309272,
    "src:alt_label": "swim-takeoff",
    "src:geom": "swim",
    "swim:elevations": [
      183,
      438,
      873,
      1126,
      1281,
      1456,
      2347,
      2696,
      2980,
      3312,
      3486,
      3606,
      4112,
      4463,
      4524,
      4827,
      5121,
      5334,
      5415,
      5710,
      6152,
      6292,
      6610,
      6844,
      6931,
      7096,
      7247,
      7495,
      7610,
      7856,
      8050,
      8116,
      8190,
      8262
    ],
    "swim:geom": "takeoff",
    "swim:timestamps": [
      1766949469,
      1766949487,
      1766949517,
      1766949557,
      1766949589,
      1766949610,
      1766949657,
      1766949681,
      1766949699,
      1766949730,
      1766949751,
      1766949766,
      1766949803,
      1766949838,
      1766949851,
      1766949893,
      1766949922,
      1766949948,
      1766949967,
      1766949994,
      1766950038,
      1766950053,
      1766950095,
      1766950130,
      1766950142,
      1766950166,
      1766950186,
      1766950214,
      1766950233,
      1766950276,
      1766950312,
      1766950330,
      1766950348,
      1766950357
    ],
    "wof:geomhash": "a5283d11753383ed0e80f823debbfab0",
    "wof:id": 2014422133,
    "wof:repo": "sfomuseum-data-flights-2025-12"
  },
  "bbox": [
    -122.45774,
    36.73562,
    -121.28674,
    37.70938
  ],
  "geometry": {"coordinates":[[-122.36933,37.62933],[-122.3657,37.64121],[-122.36335,37.66091],[-122.36228,37.68857],[-122.38962,37.70938],[-122.4234,37.70658],[-122.45774,37.65494],[-122.45524,37.62206],[-122.45245,37.59731],[-122.43161,37.55768],[-122.404,37.53598],[-122.38204,37.52038],[-122.3262,37.48204],[-122.27126,37.44407],[-122.25053,37.42901],[-122.17917,37.37866],[-122.12744,37.34152],[-122.08063,37.3079],[-122.04673,37.28368],[-121.99561,37.24714],[-121.91391,37.18871],[-121.88588,37.16861],[-121.80551,37.11109],[-121.73844,37.06288],[-121.71532,37.04621],[-121.66837,37.01236],[-121.62721,36.98269],[-121.57371,36.94392],[-121.53491,36.91588],[-121.45036,36.85536],[-121.37634,36.80136],[-121.34087,36.77546],[-121.30445,36.74861],[-121.28674,36.73562]],"type":"LineString"}
}
