{
  "id": 2014424935,
  "type": "Feature",
  "properties": {
    "geom:area": 0,
    "geom:bbox": "-123.071940,37.431360,-122.097680,38.466420",
    "geom:latitude": 37.83904945910932,
    "geom:longitude": -122.54411969996039,
    "src:alt_label": "swim-approach",
    "src:geom": "swim",
    "swim:elevations": [
      7529,
      7151,
      6862,
      6683,
      6454,
      6072,
      5716,
      5561,
      5350,
      4993,
      4933,
      4548,
      4451,
      4420,
      4226,
      3991,
      3830,
      3660,
      3484,
      3415,
      3353,
      3353,
      3353,
      3353,
      3287,
      3038,
      2625,
      2486,
      1821,
      1731,
      1455,
      1288,
      1220,
      1219,
      1219,
      1219,
      1219,
      1219,
      1219,
      941,
      915,
      696,
      548,
      459,
      308,
      210,
      87,
      45,
      0
    ],
    "swim:geom": "approach",
    "swim:timestamps": [
      1767035856,
      1767035901,
      1767035934,
      1767035957,
      1767035981,
      1767036017,
      1767036058,
      1767036076,
      1767036103,
      1767036143,
      1767036152,
      1767036197,
      1767036207,
      1767036212,
      1767036233,
      1767036259,
      1767036280,
      1767036300,
      1767036347,
      1767036362,
      1767036410,
      1767036438,
      1767036470,
      1767036506,
      1767036519,
      1767036551,
      1767036587,
      1767036600,
      1767036657,
      1767036665,
      1767036691,
      1767036711,
      1767036728,
      1767036751,
      1767036764,
      1767036792,
      1767036834,
      1767036863,
      1767036871,
      1767036927,
      1767036935,
      1767036981,
      1767037011,
      1767037035,
      1767037071,
      1767037094,
      1767037125,
      1767037137,
      1767037146
    ],
    "wof:geomhash": "44555f8bd6cbee3907a69e9950c716e9",
    "wof:id": 2014424935,
    "wof:repo": "sfomuseum-data-flights-2025-12"
  },
  "bbox": [
    -123.07194,
    37.43136,
    -122.09768,
    38.46642
  ],
  "geometry": {"coordinates":[[-123.07194,38.46642],[-122.99661,38.40749],[-122.94545,38.36386],[-122.91755,38.33085],[-122.89352,38.29126],[-122.86088,38.23323],[-122.82423,38.1679],[-122.80761,38.13835],[-122.78324,38.09523],[-122.74723,38.03108],[-122.73961,38.01751],[-122.69966,37.94637],[-122.69133,37.93158],[-122.68741,37.92471],[-122.66558,37.89415],[-122.63433,37.86299],[-122.60868,37.83874],[-122.58487,37.81633],[-122.53088,37.76514],[-122.51394,37.74919],[-122.46526,37.70316],[-122.43907,37.6786],[-122.4095,37.65085],[-122.37631,37.61956],[-122.36454,37.608],[-122.34688,37.57406],[-122.32544,37.53495],[-122.31714,37.52149],[-122.28007,37.46282],[-122.27481,37.45462],[-122.24617,37.43708],[-122.21773,37.43357],[-122.19338,37.43136],[-122.16374,37.43714],[-122.15098,37.44529],[-122.12554,37.46386],[-122.09768,37.49063],[-122.11383,37.50865],[-122.12154,37.51183],[-122.17366,37.53396],[-122.18125,37.53725],[-122.22447,37.55543],[-122.25161,37.56682],[-122.27165,37.57526],[-122.3005,37.58737],[-122.31933,37.59534],[-122.34436,37.60584],[-122.35412,37.60989],[-122.36106,37.6132]],"type":"LineString"}
}
