{
  "id": 2014412233,
  "type": "Feature",
  "properties": {
    "geom:area": 0,
    "geom:bbox": "-122.526790,37.632360,-121.890920,38.515890",
    "geom:latitude": 38.06727329167692,
    "geom:longitude": -122.26971084245703,
    "src:alt_label": "swim-takeoff",
    "src:geom": "swim",
    "swim:elevations": [
      183,
      357,
      498,
      780,
      1008,
      1119,
      1162,
      1435,
      1816,
      1869,
      2450,
      2637,
      3027,
      3243,
      3295,
      3415,
      3650,
      3771,
      4065,
      4349,
      4688,
      4803,
      5151,
      5329,
      5482,
      5532,
      5640,
      5746,
      6102,
      6188
    ],
    "swim:geom": "takeoff",
    "swim:timestamps": [
      1766875555,
      1766875581,
      1766875598,
      1766875637,
      1766875673,
      1766875706,
      1766875720,
      1766875762,
      1766875795,
      1766875801,
      1766875853,
      1766875871,
      1766875907,
      1766875947,
      1766875956,
      1766875991,
      1766876024,
      1766876036,
      1766876066,
      1766876095,
      1766876125,
      1766876140,
      1766876181,
      1766876212,
      1766876247,
      1766876259,
      1766876274,
      1766876288,
      1766876331,
      1766876346
    ],
    "wof:geomhash": "a18ad80f47c6d6b7e94ad4bbc147c49f",
    "wof:id": 2014412233,
    "wof:repo": "sfomuseum-data-flights-2025-12"
  },
  "bbox": [
    -122.52679,
    37.63236,
    -121.89092,
    38.51589
  ],
  "geometry": {"coordinates":[[-122.40261,37.63236],[-122.42522,37.64144],[-122.43998,37.64763],[-122.47435,37.66226],[-122.50631,37.67548],[-122.52529,37.69879],[-122.52583,37.71173],[-122.52679,37.75894],[-122.52377,37.79747],[-122.51907,37.8037],[-122.44646,37.83278],[-122.42599,37.84816],[-122.40209,37.88945],[-122.37162,37.93561],[-122.36414,37.94708],[-122.33293,37.99551],[-122.30154,38.04429],[-122.29,38.06215],[-122.26084,38.10716],[-122.2319,38.15198],[-122.20225,38.19758],[-122.18727,38.22074],[-122.14615,38.28423],[-122.1131,38.33314],[-122.05431,38.38136],[-122.03458,38.39769],[-122.0111,38.41741],[-121.98685,38.43769],[-121.91506,38.49633],[-121.89092,38.51589]],"type":"LineString"}
}
