{
  "id": 2014411693,
  "type": "Feature",
  "properties": {
    "geom:area": 0,
    "geom:bbox": "-122.587730,36.725010,-121.295060,37.720180",
    "geom:latitude": 37.25688344512361,
    "geom:longitude": -122.04110217460081,
    "src:alt_label": "swim-takeoff",
    "src:geom": "swim",
    "swim:elevations": [
      152,
      406,
      493,
      633,
      941,
      1570,
      2191,
      2591,
      3012,
      3081,
      3417,
      3917,
      4140,
      4327,
      4430,
      4769,
      4946,
      5037,
      5551,
      5692,
      6195,
      6416,
      6543,
      6798,
      6902,
      7196,
      7354,
      7717,
      7956,
      8133,
      8228,
      8299,
      8591,
      8709,
      9063,
      9132,
      9427,
      9449
    ],
    "swim:geom": "takeoff",
    "swim:timestamps": [
      1766863573,
      1766863588,
      1766863603,
      1766863626,
      1766863654,
      1766863701,
      1766863737,
      1766863767,
      1766863796,
      1766863815,
      1766863844,
      1766863885,
      1766863900,
      1766863936,
      1766863958,
      1766863987,
      1766864002,
      1766864012,
      1766864065,
      1766864077,
      1766864122,
      1766864144,
      1766864156,
      1766864183,
      1766864197,
      1766864233,
      1766864253,
      1766864295,
      1766864334,
      1766864361,
      1766864372,
      1766864382,
      1766864423,
      1766864436,
      1766864478,
      1766864494,
      1766864543,
      1766864565
    ],
    "wof:geomhash": "065f692109fe1683f1811d2d8c126a80",
    "wof:id": 2014411693,
    "wof:repo": "sfomuseum-data-flights-2025-12"
  },
  "bbox": [
    -122.58773,
    36.72501,
    -121.29506,
    37.72018
  ],
  "geometry": {"coordinates":[[-122.36814,37.63033],[-122.36236,37.64109],[-122.36127,37.65315],[-122.36111,37.67479],[-122.36894,37.70392],[-122.43205,37.72018],[-122.48816,37.70557],[-122.53395,37.68907],[-122.56299,37.6571],[-122.58021,37.6352],[-122.58773,37.59461],[-122.53945,37.55309],[-122.51695,37.53975],[-122.46479,37.50571],[-122.42715,37.48106],[-122.37886,37.44934],[-122.35261,37.43215],[-122.33444,37.42024],[-122.24112,37.35885],[-122.21823,37.34383],[-122.13746,37.29036],[-122.09753,37.26393],[-122.07559,37.24941],[-122.02653,37.21684],[-122.00109,37.1999],[-121.93396,37.15522],[-121.89667,37.13032],[-121.8164,37.07653],[-121.74209,37.02688],[-121.69108,36.9925],[-121.66898,36.97773],[-121.6489,36.96395],[-121.57008,36.91124],[-121.54362,36.89356],[-121.46372,36.83855],[-121.43302,36.81845],[-121.338,36.75401],[-121.29506,36.72501]],"type":"LineString"}
}
