{
  "id": 2014413683,
  "type": "Feature",
  "properties": {
    "geom:area": 0,
    "geom:bbox": "-122.385020,37.629580,-121.258860,37.984200",
    "geom:latitude": 37.913555951772366,
    "geom:longitude": -121.93871826644238,
    "src:alt_label": "swim-takeoff",
    "src:geom": "swim",
    "swim:elevations": [
      122,
      230,
      706,
      1186,
      1291,
      1343,
      1675,
      2013,
      2546,
      3016,
      3494,
      3641,
      3874,
      4096,
      4697,
      4931,
      5110,
      5402,
      5621,
      5687,
      5855,
      5955,
      5998,
      6420,
      6781,
      7015,
      7218,
      7507,
      7771,
      7882,
      8044,
      8383
    ],
    "swim:geom": "takeoff",
    "swim:timestamps": [
      1766878554,
      1766878562,
      1766878599,
      1766878646,
      1766878667,
      1766878673,
      1766878697,
      1766878724,
      1766878759,
      1766878791,
      1766878827,
      1766878851,
      1766878879,
      1766878897,
      1766878947,
      1766878967,
      1766878983,
      1766879007,
      1766879037,
      1766879043,
      1766879061,
      1766879070,
      1766879076,
      1766879116,
      1766879152,
      1766879181,
      1766879205,
      1766879244,
      1766879277,
      1766879293,
      1766879311,
      1766879354
    ],
    "wof:geomhash": "a6ca1b5978c22defe16589dec0df5fbf",
    "wof:id": 2014413683,
    "wof:repo": "sfomuseum-data-flights-2025-12"
  },
  "bbox": [
    -122.38502,
    37.62958,
    -121.25886,
    37.9842
  ],
  "geometry": {"coordinates":[[-122.36581,37.62958],[-122.36222,37.63505],[-122.33828,37.65621],[-122.31122,37.68458],[-122.31346,37.70559],[-122.31717,37.71145],[-122.33206,37.73612],[-122.34729,37.76604],[-122.36656,37.80621],[-122.3849,37.84421],[-122.38502,37.89012],[-122.36751,37.91944],[-122.31806,37.93238],[-122.2818,37.93346],[-122.17873,37.93948],[-122.13536,37.94187],[-122.10181,37.94357],[-122.05073,37.94613],[-121.98635,37.94942],[-121.97334,37.95009],[-121.93406,37.952],[-121.91419,37.95301],[-121.90093,37.95372],[-121.81288,37.95814],[-121.73117,37.96219],[-121.66525,37.96536],[-121.61041,37.96799],[-121.52023,37.97228],[-121.44273,37.97578],[-121.40478,37.97763],[-121.3617,37.97956],[-121.25886,37.9842]],"type":"LineString"}
}
