{
  "id": 2014435725,
  "type": "Feature",
  "properties": {
    "geom:area": 0,
    "geom:bbox": "-123.459710,37.263230,-122.169300,37.614010",
    "geom:latitude": 37.3812948205959,
    "geom:longitude": -122.71687003505255,
    "src:alt_label": "swim-approach",
    "src:geom": "swim",
    "swim:elevations": [
      5445,
      5196,
      4885,
      4564,
      4488,
      3992,
      3691,
      3434,
      3174,
      3048,
      3048,
      3048,
      3048,
      3048,
      3048,
      3048,
      2989,
      2875,
      2673,
      2585,
      2469,
      2440,
      2283,
      2115,
      1860,
      1802,
      1649,
      1470,
      1370,
      1151,
      1058,
      856,
      752,
      559,
      458,
      390,
      272,
      181,
      120,
      156
    ],
    "swim:geom": "approach",
    "swim:timestamps": [
      1767083456,
      1767083480,
      1767083512,
      1767083543,
      1767083551,
      1767083599,
      1767083632,
      1767083661,
      1767083693,
      1767083728,
      1767083758,
      1767083784,
      1767083815,
      1767083821,
      1767083840,
      1767083854,
      1767083907,
      1767083925,
      1767083968,
      1767083989,
      1767084009,
      1767084017,
      1767084049,
      1767084074,
      1767084118,
      1767084143,
      1767084175,
      1767084203,
      1767084217,
      1767084262,
      1767084280,
      1767084327,
      1767084348,
      1767084385,
      1767084403,
      1767084417,
      1767084447,
      1767084469,
      1767084484,
      1767084515
    ],
    "wof:geomhash": "c1fa7a736300313a77330a52c37a813f",
    "wof:id": 2014435725,
    "wof:repo": "sfomuseum-data-flights-2025-12"
  },
  "bbox": [
    -123.45971,
    37.26323,
    -122.1693,
    37.61401
  ],
  "geometry": {"coordinates":[[-123.45971,37.44318],[-123.40715,37.42699],[-123.34016,37.40619],[-123.277,37.3866],[-123.26019,37.38145],[-123.1628,37.35127],[-123.0968,37.33082],[-123.04087,37.31335],[-122.97912,37.29402],[-122.91339,37.27329],[-122.85573,37.26323],[-122.80558,37.27092],[-122.74606,37.28478],[-122.7345,37.28758],[-122.69819,37.29626],[-122.67266,37.30229],[-122.58453,37.32273],[-122.55684,37.32912],[-122.49274,37.34399],[-122.46363,37.35068],[-122.43561,37.35702],[-122.42572,37.35927],[-122.38314,37.36903],[-122.35105,37.37643],[-122.29245,37.38992],[-122.26102,37.39718],[-122.22183,37.40879],[-122.20377,37.434],[-122.197,37.44748],[-122.17507,37.49145],[-122.1693,37.50828],[-122.19563,37.54369],[-122.21744,37.55228],[-122.2546,37.56806],[-122.2719,37.57537],[-122.28517,37.58095],[-122.31056,37.59157],[-122.32739,37.59856],[-122.33939,37.60369],[-122.36317,37.61401]],"type":"LineString"}
}
