{
  "id": 2014424981,
  "type": "Feature",
  "properties": {
    "geom:area": 0,
    "geom:bbox": "-122.360210,37.491870,-121.260310,37.615980",
    "geom:latitude": 37.546628903432826,
    "geom:longitude": -121.81538710908447,
    "src:alt_label": "swim-approach",
    "src:geom": "swim",
    "swim:elevations": [
      4385,
      4313,
      3949,
      3754,
      3398,
      3173,
      3048,
      3038,
      2693,
      2650,
      2422,
      2385,
      2285,
      2186,
      1870,
      1835,
      1589,
      1308,
      1062,
      929,
      850,
      655,
      444,
      276,
      209,
      29,
      330
    ],
    "swim:geom": "approach",
    "swim:timestamps": [
      1767018383,
      1767018391,
      1767018430,
      1767018453,
      1767018495,
      1767018522,
      1767018567,
      1767018575,
      1767018625,
      1767018632,
      1767018676,
      1767018707,
      1767018747,
      1767018764,
      1767018807,
      1767018811,
      1767018840,
      1767018886,
      1767018927,
      1767018947,
      1767018961,
      1767019003,
      1767019043,
      1767019076,
      1767019091,
      1767019135,
      1767019143
    ],
    "wof:geomhash": "3e53b7d42b0dd1eaec8aae5e5ff75029",
    "wof:id": 2014424981,
    "wof:repo": "sfomuseum-data-flights-2025-12"
  },
  "bbox": [
    -122.36021,
    37.49187,
    -121.26031,
    37.61598
  ],
  "geometry": {"coordinates":[[-121.26031,37.59308],[-121.27695,37.59085],[-121.35969,37.58154],[-121.40761,37.57619],[-121.49221,37.56628],[-121.54714,37.55975],[-121.63076,37.54924],[-121.64463,37.54605],[-121.72586,37.52675],[-121.73744,37.52403],[-121.80898,37.50677],[-121.85533,37.49554],[-121.91588,37.49187],[-121.94225,37.49254],[-122.00277,37.49961],[-122.00797,37.50137],[-122.045,37.51329],[-122.09871,37.53087],[-122.14822,37.54616],[-122.17134,37.55401],[-122.18657,37.55927],[-122.23181,37.5744],[-122.27366,37.58686],[-122.30338,37.59554],[-122.31731,37.59943],[-122.35437,37.61238],[-122.36021,37.61598]],"type":"LineString"}
}
