{
  "id": 2014447477,
  "type": "Feature",
  "properties": {
    "geom:area": 0,
    "geom:bbox": "-122.439770,37.197020,-121.305240,37.708370",
    "geom:latitude": 37.383975533526,
    "geom:longitude": -122.00486748225961,
    "src:alt_label": "swim-takeoff",
    "src:geom": "swim",
    "swim:elevations": [
      353,
      469,
      881,
      1151,
      1406,
      1681,
      2008,
      2352,
      2544,
      3282,
      3542,
      3612,
      4373,
      4552,
      4862,
      5344,
      5683,
      6018,
      6436,
      6738,
      7014,
      7360,
      7648,
      8013,
      8159,
      8469,
      8839,
      8839,
      8839,
      8839,
      8839
    ],
    "swim:geom": "takeoff",
    "swim:timestamps": [
      1767208735,
      1767208744,
      1767208783,
      1767208810,
      1767208846,
      1767208866,
      1767208887,
      1767208914,
      1767208928,
      1767208972,
      1767209006,
      1767209012,
      1767209065,
      1767209079,
      1767209106,
      1767209149,
      1767209177,
      1767209202,
      1767209238,
      1767209267,
      1767209297,
      1767209331,
      1767209360,
      1767209395,
      1767209410,
      1767209446,
      1767209485,
      1767209515,
      1767209542,
      1767209563,
      1767209581
    ],
    "wof:geomhash": "0c08235505ed5285f4b0fcf03c168f2a",
    "wof:id": 2014447477,
    "wof:repo": "sfomuseum-data-flights-2025-12"
  },
  "bbox": [
    -122.43977,
    37.19702,
    -121.30524,
    37.70837
  ],
  "geometry": {"coordinates":[[-122.36456,37.63768],[-122.36431,37.64446],[-122.362,37.67696],[-122.36972,37.69987],[-122.4141,37.70837],[-122.43444,37.69302],[-122.43977,37.67069],[-122.43715,37.63911],[-122.43506,37.62199],[-122.42857,37.56606],[-122.42263,37.51942],[-122.4215,37.51061],[-122.40467,37.4322],[-122.39411,37.41281],[-122.3507,37.38968],[-122.26276,37.38316],[-122.20496,37.37519],[-122.15093,37.36505],[-122.07572,37.34996],[-122.01397,37.33773],[-121.94769,37.32462],[-121.8729,37.30993],[-121.80752,37.29714],[-121.72814,37.28137],[-121.69422,37.27469],[-121.61237,37.25825],[-121.52358,37.2406],[-121.4555,37.22697],[-121.39401,37.21462],[-121.34633,37.20507],[-121.30524,37.19702]],"type":"LineString"}
}
