{
  "id": 2014435345,
  "type": "Feature",
  "properties": {
    "geom:area": 0,
    "geom:bbox": "-122.362890,37.491620,-121.258150,37.616900",
    "geom:latitude": 37.546724666538914,
    "geom:longitude": -121.815655250653,
    "src:alt_label": "swim-approach",
    "src:geom": "swim",
    "swim:elevations": [
      4689,
      4409,
      4193,
      3955,
      3771,
      3492,
      3303,
      3179,
      2944,
      2867,
      2700,
      2432,
      2224,
      2010,
      1887,
      1625,
      1210,
      1179,
      886,
      886,
      692,
      642,
      484,
      419,
      334,
      162,
      130,
      0
    ],
    "swim:geom": "approach",
    "swim:timestamps": [
      1767114534,
      1767114567,
      1767114594,
      1767114625,
      1767114647,
      1767114686,
      1767114709,
      1767114721,
      1767114763,
      1767114784,
      1767114810,
      1767114853,
      1767114882,
      1767114914,
      1767114938,
      1767114973,
      1767115016,
      1767115021,
      1767115072,
      1767115081,
      1767115133,
      1767115140,
      1767115176,
      1767115194,
      1767115210,
      1767115251,
      1767115261,
      1767115296
    ],
    "wof:geomhash": "756b9d9da60894a7f17ae44b6d30f750",
    "wof:id": 2014435345,
    "wof:repo": "sfomuseum-data-flights-2025-12"
  },
  "bbox": [
    -122.36289,
    37.49162,
    -121.25815,
    37.6169
  ],
  "geometry": {"coordinates":[[-121.25815,37.59325],[-121.32448,37.5852],[-121.37918,37.5792],[-121.44014,37.57223],[-121.48372,37.56713],[-121.55675,37.55865],[-121.59856,37.55373],[-121.62095,37.55091],[-121.69284,37.53421],[-121.72571,37.52647],[-121.766,37.51693],[-121.83159,37.50115],[-121.87644,37.49162],[-121.92643,37.49249],[-121.96381,37.4934],[-122.01646,37.50412],[-122.0808,37.52495],[-122.08751,37.52709],[-122.15738,37.54968],[-122.16818,37.55317],[-122.2243,37.57121],[-122.23146,37.57361],[-122.26665,37.58477],[-122.28345,37.58955],[-122.29754,37.59341],[-122.33004,37.60315],[-122.33731,37.60551],[-122.36289,37.6169]],"type":"LineString"}
}
