{
  "id": 2014433747,
  "type": "Feature",
  "properties": {
    "geom:area": 0,
    "geom:bbox": "-122.360340,37.491210,-121.334460,37.614850",
    "geom:latitude": 37.54349082841773,
    "geom:longitude": -121.85201022892281,
    "src:alt_label": "swim-approach",
    "src:geom": "swim",
    "swim:elevations": [
      4056,
      3995,
      3720,
      3493,
      3199,
      3169,
      2925,
      2820,
      2714,
      2530,
      2119,
      2040,
      1794,
      1771,
      1592,
      1224,
      1178,
      933,
      787,
      688,
      619,
      514,
      285,
      217,
      61,
      0
    ],
    "swim:geom": "approach",
    "swim:timestamps": [
      1767100765,
      1767100773,
      1767100812,
      1767100837,
      1767100885,
      1767100894,
      1767100944,
      1767100961,
      1767100981,
      1767101010,
      1767101088,
      1767101106,
      1767101157,
      1767101163,
      1767101190,
      1767101248,
      1767101257,
      1767101300,
      1767101327,
      1767101348,
      1767101363,
      1767101382,
      1767101428,
      1767101448,
      1767101484,
      1767101498
    ],
    "wof:geomhash": "c7b632e1fe68cca5732ab25e710e20c6",
    "wof:id": 2014433747,
    "wof:repo": "sfomuseum-data-flights-2025-12"
  },
  "bbox": [
    -122.36034,
    37.49121,
    -121.33446,
    37.61485
  ],
  "geometry": {"coordinates":[[-121.33446,37.5841],[-121.35101,37.58236],[-121.4266,37.57433],[-121.473,37.56872],[-121.56264,37.5581],[-121.57798,37.55621],[-121.66362,37.54092],[-121.68946,37.53487],[-121.72192,37.52723],[-121.7683,37.51641],[-121.88834,37.49121],[-121.91675,37.49208],[-121.9911,37.49605],[-121.9993,37.49813],[-122.03534,37.51001],[-122.11039,37.53469],[-122.12227,37.53862],[-122.17229,37.55404],[-122.20174,37.56364],[-122.224,37.57111],[-122.2392,37.57602],[-122.25907,37.58245],[-122.30179,37.59488],[-122.31876,37.59991],[-122.34912,37.61027],[-122.36034,37.61485]],"type":"LineString"}
}
