{
  "id": 2014424463,
  "type": "Feature",
  "properties": {
    "geom:area": 0,
    "geom:bbox": "-122.849190,37.449630,-122.171760,38.502970",
    "geom:latitude": 37.855334694073136,
    "geom:longitude": -122.52903060204173,
    "src:alt_label": "swim-approach",
    "src:geom": "swim",
    "swim:elevations": [
      7377,
      6877,
      6649,
      6273,
      5998,
      5716,
      5431,
      5338,
      5074,
      4858,
      4590,
      4315,
      4151,
      3740,
      3572,
      3466,
      3351,
      3353,
      3353,
      3319,
      3321,
      3191,
      2973,
      2581,
      2332,
      1936,
      1827,
      1557,
      1525,
      1524,
      1374,
      1194,
      1046,
      837,
      648,
      546,
      387,
      316,
      87,
      285
    ],
    "swim:geom": "approach",
    "swim:timestamps": [
      1767016054,
      1767016104,
      1767016127,
      1767016166,
      1767016195,
      1767016224,
      1767016253,
      1767016271,
      1767016299,
      1767016325,
      1767016359,
      1767016392,
      1767016415,
      1767016465,
      1767016485,
      1767016503,
      1767016547,
      1767016585,
      1767016615,
      1767016632,
      1767016649,
      1767016673,
      1767016701,
      1767016733,
      1767016759,
      1767016797,
      1767016808,
      1767016856,
      1767016872,
      1767016893,
      1767016924,
      1767016976,
      1767017001,
      1767017030,
      1767017065,
      1767017087,
      1767017124,
      1767017135,
      1767017189,
      1767017216
    ],
    "wof:geomhash": "9cab61f3c9f33a4e758ba135c8d6bc60",
    "wof:id": 2014424463,
    "wof:repo": "sfomuseum-data-flights-2025-12"
  },
  "bbox": [
    -122.84919,
    37.44963,
    -122.17176,
    38.50297
  ],
  "geometry": {"coordinates":[[-122.84919,38.50297],[-122.82104,38.40696],[-122.80862,38.36443],[-122.78749,38.29324],[-122.77274,38.24212],[-122.75754,38.1901],[-122.74292,38.13991],[-122.73414,38.1096],[-122.72074,38.06306],[-122.70848,38.02051],[-122.69243,37.96525],[-122.67616,37.91358],[-122.65585,37.88345],[-122.59556,37.82596],[-122.57289,37.8047],[-122.55125,37.78433],[-122.50231,37.73807],[-122.46203,37.7002],[-122.43019,37.6704],[-122.4122,37.65332],[-122.39643,37.63826],[-122.37399,37.61701],[-122.35184,37.591],[-122.33572,37.55861],[-122.32159,37.53225],[-122.29951,37.49521],[-122.29326,37.48498],[-122.24367,37.4615],[-122.22731,37.45613],[-122.20555,37.44963],[-122.17594,37.46128],[-122.17176,37.50453],[-122.1875,37.52095],[-122.2073,37.54099],[-122.23536,37.5617],[-122.25575,37.57128],[-122.28914,37.58491],[-122.29805,37.58869],[-122.3416,37.60704],[-122.36357,37.61578]],"type":"LineString"}
}
