{
  "id": 2014413837,
  "type": "Feature",
  "properties": {
    "geom:area": 0,
    "geom:bbox": "-123.495970,37.629440,-122.401310,37.731880",
    "geom:latitude": 37.69854531683833,
    "geom:longitude": -122.94484441565034,
    "src:alt_label": "swim-takeoff",
    "src:geom": "swim",
    "swim:elevations": [
      213,
      335,
      499,
      793,
      1024,
      1303,
      1449,
      1947,
      2252,
      2761,
      3043,
      3109,
      3139,
      3212,
      3313,
      3589,
      3965,
      4173,
      4377,
      4744,
      5076,
      5449,
      5469,
      5757
    ],
    "swim:geom": "takeoff",
    "swim:timestamps": [
      1766835529,
      1766835538,
      1766835549,
      1766835577,
      1766835604,
      1766835654,
      1766835672,
      1766835708,
      1766835733,
      1766835774,
      1766835797,
      1766835817,
      1766835835,
      1766835847,
      1766835858,
      1766835888,
      1766835928,
      1766835948,
      1766835968,
      1766836003,
      1766836035,
      1766836078,
      1766836088,
      1766836119
    ],
    "wof:geomhash": "76b25e93355aff5e848a2f96d6a342e5",
    "wof:id": 2014413837,
    "wof:repo": "sfomuseum-data-flights-2025-12"
  },
  "bbox": [
    -123.49597,
    37.62944,
    -122.40131,
    37.73188
  ],
  "geometry": {"coordinates":[[-122.40131,37.62944],[-122.41025,37.63306],[-122.42005,37.63732],[-122.44745,37.64988],[-122.47366,37.66126],[-122.5368,37.67695],[-122.56554,37.67843],[-122.62403,37.68193],[-122.66336,37.68433],[-122.73282,37.68855],[-122.77219,37.69098],[-122.80781,37.69299],[-122.84161,37.69479],[-122.86692,37.69622],[-122.8907,37.6976],[-122.95453,37.70165],[-123.04245,37.70696],[-123.08882,37.70955],[-123.13348,37.71208],[-123.21506,37.71652],[-123.28995,37.72072],[-123.39467,37.72648],[-123.41768,37.72773],[-123.49597,37.73188]],"type":"LineString"}
}
