{
  "id": 2014414655,
  "type": "Feature",
  "properties": {
    "geom:area": 0,
    "geom:bbox": "-122.315750,37.491620,-121.262880,37.599140",
    "geom:latitude": 37.54370741824674,
    "geom:longitude": -121.79363128106115,
    "src:alt_label": "swim-approach",
    "src:geom": "swim",
    "swim:elevations": [
      4752,
      4599,
      4458,
      4134,
      3979,
      3708,
      3410,
      3351,
      3204,
      2773,
      2633,
      2467,
      2249,
      2045,
      1925,
      1860,
      1803,
      1474,
      1270,
      1176,
      1000,
      914,
      790,
      571,
      542,
      503,
      446,
      382,
      241
    ],
    "swim:geom": "approach",
    "swim:timestamps": [
      1766955138,
      1766955154,
      1766955167,
      1766955205,
      1766955222,
      1766955255,
      1766955295,
      1766955306,
      1766955336,
      1766955384,
      1766955408,
      1766955431,
      1766955466,
      1766955506,
      1766955539,
      1766955557,
      1766955572,
      1766955626,
      1766955656,
      1766955670,
      1766955708,
      1766955721,
      1766955742,
      1766955778,
      1766955786,
      1766955802,
      1766955827,
      1766955845,
      1766955879
    ],
    "wof:geomhash": "9298af8aa1c49c1da391f499da74ef52",
    "wof:id": 2014414655,
    "wof:repo": "sfomuseum-data-flights-2025-12"
  },
  "bbox": [
    -122.31575,
    37.49162,
    -121.26288,
    37.59914
  ],
  "geometry": {"coordinates":[[-121.26288,37.59295],[-121.2987,37.58833],[-121.32919,37.58484],[-121.41056,37.57598],[-121.44539,37.57191],[-121.51081,37.56418],[-121.58526,37.55544],[-121.60654,37.55297],[-121.65664,37.54302],[-121.73111,37.52524],[-121.7669,37.51674],[-121.79938,37.50882],[-121.84871,37.49708],[-121.90441,37.49162],[-121.94967,37.4929],[-121.97542,37.49368],[-121.99501,37.49704],[-122.05925,37.51804],[-122.09582,37.52935],[-122.11249,37.5348],[-122.15496,37.54869],[-122.16888,37.55335],[-122.19005,37.56033],[-122.22672,37.57227],[-122.23367,37.57458],[-122.24821,37.57916],[-122.27061,37.58576],[-122.28622,37.59036],[-122.31575,37.59914]],"type":"LineString"}
}
