{
  "id": 2014431215,
  "type": "Feature",
  "properties": {
    "geom:area": 0,
    "geom:bbox": "-123.313530,37.626890,-122.394420,38.488310",
    "geom:latitude": 38.016294887804406,
    "geom:longitude": -122.88711899541359,
    "src:alt_label": "swim-takeoff",
    "src:geom": "swim",
    "swim:elevations": [
      122,
      274,
      673,
      1008,
      1271,
      1482,
      1969,
      2124,
      2674,
      2940,
      3102,
      3334,
      3383,
      3522,
      3713,
      3980,
      4272,
      4576,
      5020,
      5239,
      5475,
      5640,
      5880,
      6088,
      6309,
      6462
    ],
    "swim:geom": "takeoff",
    "swim:timestamps": [
      1767009895,
      1767009904,
      1767009932,
      1767009979,
      1767010012,
      1767010039,
      1767010074,
      1767010088,
      1767010133,
      1767010162,
      1767010175,
      1767010215,
      1767010239,
      1767010263,
      1767010293,
      1767010325,
      1767010355,
      1767010386,
      1767010432,
      1767010459,
      1767010496,
      1767010527,
      1767010557,
      1767010581,
      1767010611,
      1767010620
    ],
    "wof:geomhash": "3a6a5ba33b0bc8a918ede275b1bbc4c9",
    "wof:id": 2014431215,
    "wof:repo": "sfomuseum-data-flights-2025-12"
  },
  "bbox": [
    -123.31353,
    37.62689,
    -122.39442,
    38.48831
  ],
  "geometry": {"coordinates":[[-122.39442,37.62689],[-122.40394,37.63089],[-122.43206,37.64328],[-122.48334,37.66598],[-122.52313,37.68643],[-122.55674,37.70635],[-122.6023,37.733],[-122.62028,37.74342],[-122.67995,37.77854],[-122.72018,37.80209],[-122.73865,37.81297],[-122.78432,37.85638],[-122.80977,37.88848],[-122.83725,37.92128],[-122.87397,37.96513],[-122.91388,38.01342],[-122.95271,38.05959],[-122.99384,38.10868],[-123.05356,38.18018],[-123.09022,38.22385],[-123.13972,38.28286],[-123.18269,38.33391],[-123.22463,38.38329],[-123.25808,38.42328],[-123.30097,38.47331],[-123.31353,38.48831]],"type":"LineString"}
}
