{
  "id": 2014407415,
  "type": "Feature",
  "properties": {
    "geom:area": 0,
    "geom:bbox": "-122.358930,36.730580,-121.884420,37.612050",
    "geom:latitude": 37.211857533750326,
    "geom:longitude": -122.07180359197297,
    "src:alt_label": "swim-approach",
    "src:geom": "swim",
    "swim:elevations": [
      5689,
      5438,
      5425,
      5098,
      5026,
      4669,
      4318,
      4060,
      3849,
      3730,
      3495,
      3283,
      3166,
      3074,
      2905,
      2639,
      2455,
      2375,
      2055,
      1944,
      1716,
      1569,
      1463,
      1217,
      1044,
      776,
      730,
      497,
      425,
      243,
      154,
      72,
      0
    ],
    "swim:geom": "approach",
    "swim:timestamps": [
      1766876422,
      1766876456,
      1766876466,
      1766876484,
      1766876490,
      1766876523,
      1766876558,
      1766876585,
      1766876606,
      1766876618,
      1766876642,
      1766876663,
      1766876681,
      1766876711,
      1766876750,
      1766876788,
      1766876815,
      1766876827,
      1766876872,
      1766876887,
      1766876924,
      1766876962,
      1766876976,
      1766877003,
      1766877034,
      1766877082,
      1766877091,
      1766877142,
      1766877156,
      1766877199,
      1766877219,
      1766877236,
      1766877251
    ],
    "wof:geomhash": "e5f69b4e09bbe3d3afec59186b984c68",
    "wof:id": 2014407415,
    "wof:repo": "sfomuseum-data-flights-2025-12"
  },
  "bbox": [
    -122.35893,
    36.73058,
    -121.88442,
    37.61205
  ],
  "geometry": {"coordinates":[[-121.88442,36.73058],[-121.90553,36.783],[-121.90964,36.79732],[-121.91739,36.82486],[-121.91999,36.83425],[-121.93434,36.88582],[-121.94948,36.93894],[-121.96378,36.97821],[-121.97525,37.00851],[-121.98182,37.02559],[-121.99511,37.05948],[-122.00663,37.08892],[-122.01633,37.11405],[-122.03176,37.15356],[-122.05012,37.20074],[-122.0673,37.24477],[-122.07952,37.2755],[-122.08443,37.28798],[-122.10476,37.33913],[-122.11112,37.35548],[-122.12655,37.39724],[-122.13991,37.43629],[-122.14469,37.44998],[-122.15636,37.47613],[-122.17616,37.50283],[-122.21454,37.53643],[-122.2214,37.54229],[-122.26346,37.57191],[-122.27774,37.57773],[-122.31638,37.59407],[-122.33243,37.60071],[-122.34686,37.60685],[-122.35893,37.61205]],"type":"LineString"}
}
