{
  "id": 2014447475,
  "type": "Feature",
  "properties": {
    "geom:area": 0,
    "geom:bbox": "-122.386510,37.630390,-121.243120,38.426990",
    "geom:latitude": 38.08735066189649,
    "geom:longitude": -121.9252022326589,
    "src:alt_label": "swim-takeoff",
    "src:geom": "swim",
    "swim:elevations": [
      183,
      381,
      771,
      904,
      1189,
      1233,
      1328,
      1936,
      2139,
      2644,
      3195,
      3391,
      3553,
      3840,
      4142,
      4434,
      4995,
      5190,
      5394,
      5685,
      6108,
      6383,
      6697,
      6851,
      7260,
      7338,
      7710,
      7910,
      8154,
      8295,
      8410
    ],
    "swim:geom": "takeoff",
    "swim:timestamps": [
      1767222806,
      1767222825,
      1767222861,
      1767222876,
      1767222924,
      1767222930,
      1767222942,
      1767222988,
      1767223000,
      1767223033,
      1767223078,
      1767223105,
      1767223129,
      1767223148,
      1767223170,
      1767223206,
      1767223254,
      1767223274,
      1767223298,
      1767223331,
      1767223371,
      1767223398,
      1767223432,
      1767223447,
      1767223495,
      1767223504,
      1767223548,
      1767223575,
      1767223615,
      1767223637,
      1767223658
    ],
    "wof:geomhash": "e921f2bf917a11bf9bb1710da027c241",
    "wof:id": 2014447475,
    "wof:repo": "sfomuseum-data-flights-2025-12"
  },
  "bbox": [
    -122.38651,
    37.63039,
    -121.24312,
    38.42699
  ],
  "geometry": {"coordinates":[[-122.36486,37.63039],[-122.35376,37.64239],[-122.32845,37.66361],[-122.31773,37.67326],[-122.31989,37.71943],[-122.32344,37.72602],[-122.33136,37.73973],[-122.36436,37.7976],[-122.37203,37.81284],[-122.38651,37.8564],[-122.38247,37.92036],[-122.35682,37.95312],[-122.31578,37.97146],[-122.28112,37.98433],[-122.23989,37.99963],[-122.17154,38.0264],[-122.07985,38.06309],[-122.04211,38.07799],[-121.99476,38.09677],[-121.92899,38.12314],[-121.84671,38.15596],[-121.79086,38.17808],[-121.71928,38.20646],[-121.68765,38.21896],[-121.58533,38.2593],[-121.56594,38.26695],[-121.47193,38.30375],[-121.41272,38.32702],[-121.32989,38.37321],[-121.28583,38.40023],[-121.24312,38.42699]],"type":"LineString"}
}
