{
  "id": 2014409587,
  "type": "Feature",
  "properties": {
    "geom:area": 0,
    "geom:bbox": "-122.362630,36.720190,-121.877520,37.613370",
    "geom:latitude": 37.20927042395398,
    "geom:longitude": -122.07075992770027,
    "src:alt_label": "swim-approach",
    "src:geom": "swim",
    "swim:elevations": [
      4997,
      4711,
      4613,
      4316,
      4028,
      3881,
      3787,
      3659,
      3603,
      3512,
      3262,
      3130,
      2981,
      2867,
      2706,
      2522,
      2454,
      2257,
      2164,
      1907,
      1831,
      1808,
      1495,
      1331,
      1250,
      1250,
      939,
      815,
      677,
      516,
      423,
      266,
      153,
      126,
      0
    ],
    "swim:geom": "approach",
    "swim:timestamps": [
      1766904688,
      1766904716,
      1766904728,
      1766904758,
      1766904796,
      1766904828,
      1766904854,
      1766904887,
      1766904902,
      1766904914,
      1766904956,
      1766904983,
      1766905013,
      1766905034,
      1766905070,
      1766905104,
      1766905117,
      1766905158,
      1766905177,
      1766905225,
      1766905252,
      1766905276,
      1766905316,
      1766905343,
      1766905376,
      1766905382,
      1766905430,
      1766905463,
      1766905493,
      1766905526,
      1766905544,
      1766905581,
      1766905611,
      1766905620,
      1766905654
    ],
    "wof:geomhash": "99a041ae30caa371d92016a3a78f745a",
    "wof:id": 2014409587,
    "wof:repo": "sfomuseum-data-flights-2025-12"
  },
  "bbox": [
    -122.36263,
    36.72019,
    -121.87752,
    37.61337
  ],
  "geometry": {"coordinates":[[-121.87752,36.72019],[-121.89915,36.76043],[-121.90446,36.77859],[-121.91723,36.82368],[-121.93263,36.8786],[-121.94461,36.92193],[-121.95388,36.95342],[-121.96816,36.9899],[-121.97437,37.00563],[-121.9793,37.01818],[-121.99619,37.06168],[-122.00695,37.0895],[-122.01866,37.11977],[-122.02678,37.14068],[-122.04087,37.17645],[-122.05381,37.20963],[-122.05916,37.22308],[-122.07518,37.26378],[-122.08242,37.28241],[-122.10056,37.32881],[-122.11066,37.35452],[-122.11967,37.37737],[-122.13249,37.41449],[-122.14139,37.44014],[-122.15392,37.47073],[-122.1564,37.4763],[-122.18498,37.51873],[-122.20558,37.54509],[-122.23334,37.55913],[-122.26369,37.57183],[-122.28028,37.57889],[-122.30998,37.59128],[-122.33185,37.60051],[-122.3384,37.60324],[-122.36263,37.61337]],"type":"LineString"}
}
