{
  "id": 2014443647,
  "type": "Feature",
  "properties": {
    "geom:area": 0,
    "geom:bbox": "-122.357840,37.491470,-121.245580,37.613840",
    "geom:latitude": 37.54324122438413,
    "geom:longitude": -121.80878546712611,
    "src:alt_label": "swim-approach",
    "src:geom": "swim",
    "swim:elevations": [
      4695,
      4656,
      4331,
      4305,
      4020,
      3562,
      3420,
      3094,
      3050,
      2736,
      2629,
      2438,
      2289,
      2141,
      1947,
      1830,
      1829,
      1691,
      1613,
      1377,
      1201,
      1035,
      888,
      760,
      619,
      454,
      300,
      285,
      168,
      49,
      0
    ],
    "swim:geom": "approach",
    "swim:timestamps": [
      1767215038,
      1767215047,
      1767215098,
      1767215101,
      1767215133,
      1767215185,
      1767215200,
      1767215237,
      1767215259,
      1767215304,
      1767215320,
      1767215351,
      1767215395,
      1767215424,
      1767215457,
      1767215478,
      1767215509,
      1767215543,
      1767215557,
      1767215602,
      1767215637,
      1767215666,
      1767215696,
      1767215717,
      1767215747,
      1767215783,
      1767215818,
      1767215821,
      1767215848,
      1767215875,
      1767215882
    ],
    "wof:geomhash": "47a5ec6ea9af7c1e1bb3203f0a61880f",
    "wof:id": 2014443647,
    "wof:repo": "sfomuseum-data-flights-2025-12"
  },
  "bbox": [
    -122.35784,
    37.49147,
    -121.24558,
    37.61384
  ],
  "geometry": {"coordinates":[[-121.24558,37.59496],[-121.26311,37.59268],[-121.35671,37.58208],[-121.362,37.58148],[-121.41888,37.57499],[-121.51004,37.56432],[-121.5359,37.56124],[-121.59831,37.55397],[-121.63504,37.54887],[-121.7072,37.53189],[-121.73196,37.52587],[-121.78055,37.5138],[-121.84507,37.49802],[-121.88759,37.49147],[-121.93653,37.49449],[-121.96584,37.49577],[-122.00527,37.49816],[-122.04392,37.50016],[-122.05913,37.50144],[-122.10762,37.50824],[-122.14171,37.52262],[-122.16983,37.5346],[-122.19855,37.54686],[-122.21804,37.55507],[-122.24613,37.56689],[-122.27759,37.58002],[-122.30683,37.59241],[-122.30928,37.59343],[-122.33097,37.60245],[-122.35324,37.61186],[-122.35784,37.61384]],"type":"LineString"}
}
