{
  "id": 2014412141,
  "type": "Feature",
  "properties": {
    "geom:area": 0,
    "geom:bbox": "-122.454900,36.718320,-121.319950,37.698840",
    "geom:latitude": 37.2312871111287,
    "geom:longitude": -121.95649271569584,
    "src:alt_label": "swim-takeoff",
    "src:geom": "swim",
    "swim:elevations": [
      122,
      305,
      414,
      550,
      677,
      1027,
      1644,
      2168,
      2727,
      2835,
      3036,
      3234,
      3391,
      3732,
      3994,
      4486,
      4880,
      5283,
      5447,
      6051,
      6182,
      6722,
      6765,
      6971,
      7124,
      7196,
      7320,
      7745,
      7963,
      8244,
      8470,
      8679,
      8710,
      8924,
      9031,
      9324
    ],
    "swim:geom": "takeoff",
    "swim:timestamps": [
      1766868887,
      1766868897,
      1766868904,
      1766868925,
      1766868943,
      1766868970,
      1766869012,
      1766869042,
      1766869075,
      1766869085,
      1766869106,
      1766869138,
      1766869150,
      1766869187,
      1766869212,
      1766869244,
      1766869275,
      1766869307,
      1766869330,
      1766869376,
      1766869387,
      1766869438,
      1766869442,
      1766869462,
      1766869480,
      1766869489,
      1766869503,
      1766869552,
      1766869580,
      1766869615,
      1766869648,
      1766869676,
      1766869681,
      1766869708,
      1766869720,
      1766869759
    ],
    "wof:geomhash": "cb5f9de9ddd9f77a19afe7c3120f69c9",
    "wof:id": 2014412141,
    "wof:repo": "sfomuseum-data-flights-2025-12"
  },
  "bbox": [
    -122.4549,
    36.71832,
    -121.31995,
    37.69884
  ],
  "geometry": {"coordinates":[[-122.36892,37.62883],[-122.36467,37.63542],[-122.36301,37.64016],[-122.3617,37.65663],[-122.36185,37.67402],[-122.3764,37.69884],[-122.43712,37.69774],[-122.4549,37.66217],[-122.4474,37.61871],[-122.43828,37.60641],[-122.41319,37.58533],[-122.37287,37.55323],[-122.35692,37.54012],[-122.30703,37.4981],[-122.27031,37.4669],[-122.22279,37.42657],[-122.17551,37.38739],[-122.12461,37.34461],[-122.08729,37.31553],[-122.01125,37.25701],[-121.99269,37.24276],[-121.90508,37.17575],[-121.89706,37.16955],[-121.86311,37.14323],[-121.83162,37.11883],[-121.81517,37.10605],[-121.78969,37.08626],[-121.7025,37.01849],[-121.65155,36.97886],[-121.58846,36.92957],[-121.52713,36.88148],[-121.47458,36.84053],[-121.46519,36.83308],[-121.41494,36.7938],[-121.39251,36.77599],[-121.31995,36.71832]],"type":"LineString"}
}
