{
  "id": 2014434991,
  "type": "Feature",
  "properties": {
    "geom:area": 0,
    "geom:bbox": "-123.506260,37.260660,-122.146160,37.610560",
    "geom:latitude": 37.3843156474751,
    "geom:longitude": -122.72603580963269,
    "src:alt_label": "swim-approach",
    "src:geom": "swim",
    "swim:elevations": [
      5333,
      5172,
      4853,
      4601,
      4295,
      4104,
      4016,
      3601,
      3248,
      3069,
      3048,
      3048,
      3048,
      3048,
      3048,
      3016,
      2824,
      2527,
      2438,
      2438,
      2383,
      2263,
      2139,
      2016,
      1961,
      1847,
      1677,
      1512,
      1340,
      1197,
      1135,
      916,
      914,
      644,
      476,
      315,
      181,
      21
    ],
    "swim:geom": "approach",
    "swim:timestamps": [
      1767101363,
      1767101382,
      1767101419,
      1767101448,
      1767101484,
      1767101508,
      1767101520,
      1767101566,
      1767101608,
      1767101638,
      1767101658,
      1767101691,
      1767101713,
      1767101746,
      1767101769,
      1767101797,
      1767101832,
      1767101878,
      1767101908,
      1767101922,
      1767101961,
      1767101987,
      1767102014,
      1767102052,
      1767102066,
      1767102090,
      1767102127,
      1767102169,
      1767102199,
      1767102238,
      1767102251,
      1767102297,
      1767102303,
      1767102352,
      1767102371,
      1767102394,
      1767102421,
      1767102458
    ],
    "wof:geomhash": "3e1a9cefabb0a8f886eb25fb545eac82",
    "wof:id": 2014434991,
    "wof:repo": "sfomuseum-data-flights-2025-12"
  },
  "bbox": [
    -123.50626,
    37.26066,
    -122.14616,
    37.61056
  ],
  "geometry": {"coordinates":[[-123.50626,37.45731],[-123.46856,37.44572],[-123.39563,37.42346],[-123.33954,37.40622],[-123.2704,37.3847],[-123.22601,37.37075],[-123.20387,37.36402],[-123.11686,37.33698],[-123.04025,37.31317],[-122.98743,37.29651],[-122.95182,37.28535],[-122.89402,37.26723],[-122.85468,37.26066],[-122.79287,37.27367],[-122.75178,37.28354],[-122.70595,37.2945],[-122.65082,37.3076],[-122.57962,37.32378],[-122.53334,37.33442],[-122.51291,37.33917],[-122.45569,37.35236],[-122.4174,37.36129],[-122.37916,37.37003],[-122.32357,37.38274],[-122.30382,37.3873],[-122.26977,37.39509],[-122.21734,37.40845],[-122.17579,37.44565],[-122.1496,37.47378],[-122.14616,37.51443],[-122.15634,37.5255],[-122.20608,37.54773],[-122.2124,37.55036],[-122.26386,37.57203],[-122.2836,37.58036],[-122.30481,37.58919],[-122.32656,37.59833],[-122.3557,37.61056]],"type":"LineString"}
}
