{
  "id": 2014441933,
  "type": "Feature",
  "properties": {
    "geom:area": 0,
    "geom:bbox": "-123.506820,37.264150,-122.158620,37.613220",
    "geom:latitude": 37.384502947276914,
    "geom:longitude": -122.73676626333007,
    "src:alt_label": "swim-approach",
    "src:geom": "swim",
    "swim:elevations": [
      5667,
      5395,
      4953,
      4729,
      4554,
      4256,
      3901,
      3846,
      3618,
      3359,
      3219,
      3165,
      3076,
      3048,
      3048,
      2896,
      2724,
      2552,
      2426,
      2251,
      2111,
      1982,
      1893,
      1829,
      1829,
      1829,
      1819,
      1405,
      1400,
      1374,
      1224,
      1054,
      934,
      855,
      602,
      468,
      427,
      196,
      145,
      0
    ],
    "swim:geom": "approach",
    "swim:timestamps": [
      1767189580,
      1767189608,
      1767189658,
      1767189681,
      1767189700,
      1767189733,
      1767189775,
      1767189781,
      1767189806,
      1767189838,
      1767189863,
      1767189884,
      1767189916,
      1767189956,
      1767189982,
      1767190014,
      1767190045,
      1767190074,
      1767190096,
      1767190131,
      1767190157,
      1767190183,
      1767190202,
      1767190250,
      1767190266,
      1767190299,
      1767190324,
      1767190377,
      1767190380,
      1767190406,
      1767190437,
      1767190461,
      1767190483,
      1767190511,
      1767190555,
      1767190581,
      1767190590,
      1767190641,
      1767190653,
      1767190682
    ],
    "wof:geomhash": "9fc75eb30bf8d7134e809d50996cc0c6",
    "wof:id": 2014441933,
    "wof:repo": "sfomuseum-data-flights-2025-12"
  },
  "bbox": [
    -123.50682,
    37.26415,
    -122.15862,
    37.61322
  ],
  "geometry": {"coordinates":[[-123.50682,37.45786],[-123.45001,37.44037],[-123.35043,37.40969],[-123.30426,37.39535],[-123.26737,37.3839],[-123.20243,37.36357],[-123.12247,37.33889],[-123.11148,37.33544],[-123.06634,37.3213],[-123.01139,37.30412],[-122.96865,37.29067],[-122.93447,37.27994],[-122.88347,37.26415],[-122.82006,37.26753],[-122.78027,37.27663],[-122.73035,37.28867],[-122.68345,37.29984],[-122.63884,37.31016],[-122.60602,37.31765],[-122.55291,37.32993],[-122.5151,37.33868],[-122.47655,37.34757],[-122.44938,37.35391],[-122.38126,37.36946],[-122.35834,37.37473],[-122.31056,37.38572],[-122.27443,37.39534],[-122.2135,37.43773],[-122.2101,37.44012],[-122.18288,37.46062],[-122.16622,37.49174],[-122.15862,37.51566],[-122.16905,37.53478],[-122.20187,37.5478],[-122.25006,37.56849],[-122.27561,37.57918],[-122.28375,37.58271],[-122.3252,37.6001],[-122.33447,37.60404],[-122.35649,37.61322]],"type":"LineString"}
}
