{
  "id": 2014430911,
  "type": "Feature",
  "properties": {
    "geom:area": 0,
    "geom:bbox": "-122.384940,37.642020,-121.293930,38.312200",
    "geom:latitude": 38.05495238446124,
    "geom:longitude": -121.9535098301984,
    "src:alt_label": "swim-takeoff",
    "src:geom": "swim",
    "swim:elevations": [
      363,
      627,
      1021,
      1046,
      1194,
      1314,
      1877,
      2064,
      2402,
      2901,
      3083,
      3189,
      3410,
      3802,
      4159,
      4892,
      5173,
      5243,
      5401,
      5666,
      5776,
      6314,
      6481,
      6834,
      7128,
      7184,
      7336,
      7650,
      7829,
      7858
    ],
    "swim:geom": "takeoff",
    "swim:timestamps": [
      1767051321,
      1767051338,
      1767051387,
      1767051390,
      1767051415,
      1767051433,
      1767051478,
      1767051493,
      1767051528,
      1767051566,
      1767051585,
      1767051608,
      1767051636,
      1767051671,
      1767051701,
      1767051746,
      1767051777,
      1767051784,
      1767051806,
      1767051828,
      1767051843,
      1767051895,
      1767051911,
      1767051945,
      1767051988,
      1767052003,
      1767052025,
      1767052064,
      1767052105,
      1767052111
    ],
    "wof:geomhash": "7b6bd76613d45df66fbbd3b175eec16e",
    "wof:id": 2014430911,
    "wof:repo": "sfomuseum-data-flights-2025-12"
  },
  "bbox": [
    -122.38494,
    37.64202,
    -121.29393,
    38.3122
  ],
  "geometry": {"coordinates":[[-122.35564,37.64202],[-122.34301,37.6519],[-122.31327,37.68283],[-122.31247,37.68548],[-122.3162,37.7102],[-122.32607,37.72815],[-122.35304,37.77775],[-122.36186,37.79528],[-122.38298,37.83759],[-122.38494,37.88826],[-122.38309,37.91407],[-122.36704,37.9424],[-122.3242,37.96457],[-122.26246,37.98914],[-122.20712,38.01199],[-122.11959,38.04386],[-122.05522,38.06479],[-122.04167,38.06939],[-121.99501,38.08499],[-121.94736,38.10065],[-121.91426,38.11157],[-121.79425,38.1505],[-121.75934,38.16173],[-121.68099,38.18731],[-121.58285,38.21905],[-121.54785,38.23024],[-121.49668,38.24658],[-121.40543,38.27643],[-121.30818,38.30751],[-121.29393,38.3122]],"type":"LineString"}
}
