{
  "id": 2014409615,
  "type": "Feature",
  "properties": {
    "geom:area": 0,
    "geom:bbox": "-122.343350,37.492330,-121.249010,37.607710",
    "geom:latitude": 37.54204360537411,
    "geom:longitude": -121.80289279817418,
    "src:alt_label": "swim-approach",
    "src:geom": "swim",
    "swim:elevations": [
      4354,
      4088,
      3958,
      3798,
      3476,
      3226,
      3168,
      2984,
      2951,
      2716,
      2563,
      2454,
      2251,
      2108,
      1857,
      1828,
      1538,
      1368,
      1308,
      1036,
      971,
      795,
      669,
      431,
      270,
      226,
      112
    ],
    "swim:geom": "approach",
    "swim:timestamps": [
      1766844265,
      1766844297,
      1766844310,
      1766844332,
      1766844369,
      1766844404,
      1766844421,
      1766844478,
      1766844486,
      1766844520,
      1766844546,
      1766844576,
      1766844607,
      1766844630,
      1766844680,
      1766844693,
      1766844744,
      1766844775,
      1766844784,
      1766844835,
      1766844858,
      1766844889,
      1766844919,
      1766844970,
      1766845010,
      1766845021,
      1766845050
    ],
    "wof:geomhash": "72fc425dda26ba0df7c038b7a5b10efc",
    "wof:id": 2014409615,
    "wof:repo": "sfomuseum-data-flights-2025-12"
  },
  "bbox": [
    -122.34335,
    37.49233,
    -121.24901,
    37.60771
  ],
  "geometry": {"coordinates":[[-121.24901,37.59449],[-121.31302,37.58655],[-121.33788,37.58393],[-121.38091,37.57928],[-121.44999,37.5714],[-121.51823,37.56338],[-121.55031,37.55952],[-121.64599,37.54562],[-121.65891,37.54268],[-121.71199,37.53004],[-121.75277,37.5202],[-121.79829,37.50926],[-121.84417,37.49825],[-121.87815,37.49233],[-121.95075,37.49494],[-121.96879,37.49608],[-122.04097,37.50038],[-122.08247,37.50282],[-122.09372,37.50437],[-122.15271,37.52849],[-122.17825,37.53943],[-122.21192,37.5525],[-122.24049,37.56448],[-122.28385,37.58274],[-122.31368,37.59536],[-122.32129,37.59853],[-122.34335,37.60771]],"type":"LineString"}
}
