{
  "id": 2014422605,
  "type": "Feature",
  "properties": {
    "geom:area": 0,
    "geom:bbox": "-122.484450,36.728620,-121.434260,37.688370",
    "geom:latitude": 37.218615859085816,
    "geom:longitude": -122.03318351846605,
    "src:alt_label": "swim-takeoff",
    "src:geom": "swim",
    "swim:elevations": [
      122,
      152,
      607,
      985,
      1035,
      1245,
      1574,
      1989,
      2366,
      2533,
      2972,
      3199,
      3395,
      3491,
      4006,
      4164,
      4472,
      5051,
      5239,
      5462,
      5544,
      5839,
      6021,
      6351,
      6557,
      6820,
      6913,
      7121,
      7193,
      7432
    ],
    "swim:geom": "takeoff",
    "swim:timestamps": [
      1766930128,
      1766930130,
      1766930164,
      1766930216,
      1766930229,
      1766930273,
      1766930308,
      1766930335,
      1766930363,
      1766930374,
      1766930408,
      1766930432,
      1766930469,
      1766930491,
      1766930536,
      1766930550,
      1766930580,
      1766930636,
      1766930660,
      1766930697,
      1766930704,
      1766930739,
      1766930764,
      1766930811,
      1766930837,
      1766930878,
      1766930895,
      1766930938,
      1766930953,
      1766930992
    ],
    "wof:geomhash": "3d88ce521a827db7a9d27010281d0f92",
    "wof:id": 2014422605,
    "wof:repo": "sfomuseum-data-flights-2025-12"
  },
  "bbox": [
    -122.48445,
    36.72862,
    -121.43426,
    37.68837
  ],
  "geometry": {"coordinates":[[-122.37072,37.62664],[-122.36931,37.62842],[-122.36395,37.6515],[-122.37024,37.68571],[-122.38384,37.68837],[-122.42376,37.65769],[-122.45489,37.62053],[-122.47939,37.59064],[-122.48445,37.55239],[-122.47536,37.53891],[-122.43314,37.50567],[-122.40119,37.48196],[-122.34797,37.44112],[-122.31347,37.41474],[-122.24169,37.35947],[-122.21896,37.34207],[-122.16899,37.3033],[-122.07598,37.231],[-122.03549,37.19953],[-121.97247,37.15056],[-121.96001,37.14086],[-121.89875,37.09307],[-121.85488,37.05888],[-121.77155,36.99398],[-121.72428,36.95701],[-121.64861,36.8977],[-121.61712,36.87291],[-121.53741,36.81015],[-121.50785,36.78668],[-121.43426,36.72862]],"type":"LineString"}
}
