{
  "id": 2014447377,
  "type": "Feature",
  "properties": {
    "geom:area": 0,
    "geom:bbox": "-122.359210,37.636400,-121.251090,38.235680",
    "geom:latitude": 37.985040150017184,
    "geom:longitude": -121.83189017034597,
    "src:alt_label": "swim-takeoff",
    "src:geom": "swim",
    "swim:elevations": [
      381,
      645,
      852,
      1067,
      1245,
      1416,
      2058,
      2264,
      2787,
      2970,
      3136,
      3384,
      3548,
      3834,
      4074,
      4415,
      4795,
      5119,
      5368,
      5617,
      5891,
      5963,
      6292,
      6583,
      6686,
      6735,
      6827,
      6892,
      6950
    ],
    "swim:geom": "takeoff",
    "swim:timestamps": [
      1767201263,
      1767201281,
      1767201303,
      1767201335,
      1767201366,
      1767201398,
      1767201448,
      1767201465,
      1767201504,
      1767201519,
      1767201533,
      1767201568,
      1767201589,
      1767201625,
      1767201646,
      1767201669,
      1767201699,
      1767201724,
      1767201746,
      1767201775,
      1767201807,
      1767201817,
      1767201858,
      1767201895,
      1767201911,
      1767201923,
      1767201958,
      1767201976,
      1767201993
    ],
    "wof:geomhash": "f977a2af0d98a413ad27e23740948165",
    "wof:id": 2014447377,
    "wof:repo": "sfomuseum-data-flights-2025-12"
  },
  "bbox": [
    -122.35921,
    37.6364,
    -121.25109,
    38.23568
  ],
  "geometry": {"coordinates":[[-122.35921,37.6364],[-122.3465,37.64387],[-122.33034,37.65328],[-122.30495,37.66797],[-122.27494,37.68558],[-122.23748,37.70527],[-122.18289,37.75268],[-122.16694,37.77033],[-122.12671,37.81503],[-122.1112,37.83199],[-122.09652,37.84808],[-122.05672,37.88737],[-122.02406,37.90984],[-121.96685,37.94852],[-121.93271,37.97182],[-121.89588,37.99661],[-121.84746,38.02935],[-121.80798,38.05603],[-121.76975,38.07707],[-121.71232,38.09489],[-121.65053,38.11406],[-121.63032,38.12028],[-121.54606,38.14607],[-121.46744,38.17003],[-121.43573,38.17969],[-121.40908,38.18781],[-121.33074,38.2116],[-121.28947,38.22403],[-121.25109,38.23568]],"type":"LineString"}
}
