{
  "id": 2014437853,
  "type": "Feature",
  "properties": {
    "geom:area": 0,
    "geom:bbox": "-123.331380,37.631440,-122.405280,38.509200",
    "geom:latitude": 38.03001118141655,
    "geom:longitude": -122.90081115818987,
    "src:alt_label": "swim-takeoff",
    "src:geom": "swim",
    "swim:elevations": [
      244,
      557,
      787,
      1186,
      1352,
      1656,
      1964,
      2399,
      2475,
      2828,
      3080,
      3334,
      3449,
      3862,
      4250,
      4597,
      4695,
      5243,
      5360,
      5667,
      5799,
      6093,
      6356,
      6456,
      6665
    ],
    "swim:geom": "takeoff",
    "swim:timestamps": [
      1767138709,
      1767138731,
      1767138755,
      1767138805,
      1767138827,
      1767138854,
      1767138881,
      1767138920,
      1767138935,
      1767138984,
      1767139007,
      1767139040,
      1767139055,
      1767139100,
      1767139134,
      1767139167,
      1767139176,
      1767139228,
      1767139240,
      1767139281,
      1767139298,
      1767139332,
      1767139374,
      1767139380,
      1767139418
    ],
    "wof:geomhash": "8acb19b2ab6b3645612d2ec7815eada6",
    "wof:id": 2014437853,
    "wof:repo": "sfomuseum-data-flights-2025-12"
  },
  "bbox": [
    -123.33138,
    37.63144,
    -122.40528,
    38.5092
  ],
  "geometry": {"coordinates":[[-122.40528,37.63144],[-122.42915,37.64169],[-122.45554,37.65362],[-122.51453,37.68123],[-122.54054,37.69647],[-122.5747,37.71661],[-122.60919,37.73734],[-122.65995,37.767],[-122.68035,37.7788],[-122.75309,37.82364],[-122.77992,37.85157],[-122.81777,37.89714],[-122.83563,37.91871],[-122.89108,37.9858],[-122.93538,38.03883],[-122.97853,38.09047],[-122.99044,38.10471],[-123.05973,38.18751],[-123.0761,38.20703],[-123.13267,38.27447],[-123.15618,38.30239],[-123.20506,38.36054],[-123.26489,38.43082],[-123.2737,38.44137],[-123.33138,38.5092]],"type":"LineString"}
}
