{
  "id": 2014415831,
  "type": "Feature",
  "properties": {
    "geom:area": 0,
    "geom:bbox": "-122.356800,37.447490,-121.247590,37.613380",
    "geom:latitude": 37.53977667860322,
    "geom:longitude": -121.80799909145408,
    "src:alt_label": "swim-approach",
    "src:geom": "swim",
    "swim:elevations": [
      5132,
      5040,
      4762,
      4580,
      4550,
      4365,
      4297,
      4147,
      4046,
      3794,
      3644,
      3452,
      3412,
      3113,
      2832,
      2617,
      2435,
      2234,
      2133,
      1933,
      1787,
      1742,
      1559,
      1294,
      1254,
      1088,
      1057,
      879,
      860,
      741,
      581,
      499,
      366,
      224,
      127,
      17
    ],
    "swim:geom": "approach",
    "swim:timestamps": [
      1766956879,
      1766956888,
      1766956913,
      1766956932,
      1766956935,
      1766956964,
      1766956976,
      1766957004,
      1766957020,
      1766957067,
      1766957093,
      1766957124,
      1766957130,
      1766957175,
      1766957214,
      1766957247,
      1766957268,
      1766957297,
      1766957313,
      1766957340,
      1766957368,
      1766957376,
      1766957409,
      1766957455,
      1766957465,
      1766957500,
      1766957505,
      1766957543,
      1766957546,
      1766957567,
      1766957604,
      1766957622,
      1766957652,
      1766957684,
      1766957714,
      1766957732
    ],
    "wof:geomhash": "d37555ff36a37b7eb0b594af1adf1316",
    "wof:id": 2014415831,
    "wof:repo": "sfomuseum-data-flights-2025-12"
  },
  "bbox": [
    -122.3568,
    37.44749,
    -121.24759,
    37.61338
  ],
  "geometry": {"coordinates":[[-121.24759,37.59495],[-121.26651,37.59237],[-121.31914,37.58599],[-121.35787,37.58175],[-121.36404,37.58107],[-121.42261,37.5744],[-121.44593,37.57182],[-121.49732,37.56573],[-121.52689,37.56217],[-121.60677,37.55278],[-121.64888,37.54487],[-121.696,37.53381],[-121.705,37.53167],[-121.76831,37.51158],[-121.80918,37.47809],[-121.84393,37.45132],[-121.8734,37.44749],[-121.90981,37.46112],[-121.92962,37.46961],[-121.96185,37.48338],[-121.99575,37.49728],[-122.00548,37.50047],[-122.04464,37.51326],[-122.09543,37.52946],[-122.10658,37.53294],[-122.14461,37.54543],[-122.14925,37.54699],[-122.18829,37.55956],[-122.19118,37.56051],[-122.21129,37.56726],[-122.24705,37.57871],[-122.26333,37.58383],[-122.2894,37.59129],[-122.31648,37.59928],[-122.34208,37.60746],[-122.3568,37.61338]],"type":"LineString"}
}
