{
  "id": 2014425653,
  "type": "Feature",
  "properties": {
    "geom:area": 0,
    "geom:bbox": "-122.755040,37.553040,-122.086780,38.500000",
    "geom:latitude": 37.89586069572749,
    "geom:longitude": -122.48129505555819,
    "src:alt_label": "swim-approach",
    "src:geom": "swim",
    "swim:elevations": [
      6797,
      6677,
      6573,
      6362,
      6288,
      6104,
      5972,
      5789,
      5697,
      5582,
      5515,
      5232,
      4777,
      4546,
      4356,
      4304,
      4084,
      3946,
      3765,
      3422,
      3410,
      3193,
      3060,
      2751,
      2610,
      2167,
      2133,
      2134,
      2134,
      2134,
      1889,
      1835,
      1419,
      1325,
      1079,
      914,
      914,
      809,
      770,
      594,
      457,
      392,
      211,
      189,
      0
    ],
    "swim:geom": "approach",
    "swim:timestamps": [
      1767036898,
      1767036921,
      1767036938,
      1767036981,
      1767036995,
      1767037031,
      1767037056,
      1767037094,
      1767037115,
      1767037137,
      1767037149,
      1767037182,
      1767037224,
      1767037244,
      1767037262,
      1767037269,
      1767037291,
      1767037306,
      1767037324,
      1767037378,
      1767037387,
      1767037437,
      1767037457,
      1767037490,
      1767037506,
      1767037553,
      1767037567,
      1767037596,
      1767037631,
      1767037667,
      1767037707,
      1767037714,
      1767037765,
      1767037775,
      1767037803,
      1767037843,
      1767037858,
      1767037885,
      1767037894,
      1767037941,
      1767037976,
      1767037993,
      1767038036,
      1767038043,
      1767038089
    ],
    "wof:geomhash": "a5dd8af2840c82a5380e4b092992255c",
    "wof:id": 2014425653,
    "wof:repo": "sfomuseum-data-flights-2025-12"
  },
  "bbox": [
    -122.75504,
    37.55304,
    -122.08678,
    38.5
  ],
  "geometry": {"coordinates":[[-122.55189,38.5],[-122.58243,38.46131],[-122.604,38.43387],[-122.65815,38.36492],[-122.67474,38.34371],[-122.72079,38.28479],[-122.75097,38.24414],[-122.75504,38.1789],[-122.74318,38.14273],[-122.73234,38.10582],[-122.7264,38.0852],[-122.71056,38.02847],[-122.69011,37.95579],[-122.68023,37.92091],[-122.66733,37.89236],[-122.65989,37.88376],[-122.63006,37.85622],[-122.61023,37.83848],[-122.58675,37.81702],[-122.52308,37.75699],[-122.51355,37.74802],[-122.45962,37.71198],[-122.4332,37.70511],[-122.39172,37.69323],[-122.37212,37.68756],[-122.31299,37.67166],[-122.29584,37.66721],[-122.25692,37.65716],[-122.21069,37.64511],[-122.16452,37.63285],[-122.11253,37.61906],[-122.10484,37.61703],[-122.08678,37.57575],[-122.09087,37.56707],[-122.1158,37.55304],[-122.15777,37.56129],[-122.17322,37.56435],[-122.19809,37.56892],[-122.20575,37.57032],[-122.24363,37.579],[-122.27186,37.58637],[-122.28507,37.59019],[-122.31869,37.5999],[-122.32382,37.60149],[-122.35737,37.61359]],"type":"LineString"}
}
