{
  "id": 2014418037,
  "type": "Feature",
  "properties": {
    "geom:area": 0,
    "geom:bbox": "-122.352960,37.492180,-121.297220,37.611760",
    "geom:latitude": 37.54438979516105,
    "geom:longitude": -121.82972716754455,
    "src:alt_label": "swim-approach",
    "src:geom": "swim",
    "swim:elevations": [
      4365,
      4024,
      3947,
      3648,
      3193,
      3111,
      3045,
      2781,
      2629,
      2491,
      2312,
      2151,
      1973,
      1848,
      1737,
      1623,
      1418,
      1231,
      1036,
      868,
      622,
      475,
      420,
      246,
      136,
      57
    ],
    "swim:geom": "approach",
    "swim:timestamps": [
      1766973384,
      1766973417,
      1766973423,
      1766973452,
      1766973498,
      1766973528,
      1766973550,
      1766973590,
      1766973612,
      1766973642,
      1766973676,
      1766973703,
      1766973747,
      1766973776,
      1766973792,
      1766973813,
      1766973844,
      1766973874,
      1766973908,
      1766973940,
      1766973985,
      1766974018,
      1766974030,
      1766974071,
      1766974097,
      1766974115
    ],
    "wof:geomhash": "c61a0f2ee1ec083db8c571f0b3f41d11",
    "wof:id": 2014418037,
    "wof:repo": "sfomuseum-data-flights-2025-12"
  },
  "bbox": [
    -122.35296,
    37.49218,
    -121.29722,
    37.61176
  ],
  "geometry": {"coordinates":[[-121.29722,37.58842],[-121.36756,37.58074],[-121.38005,37.57934],[-121.43983,37.57255],[-121.53176,37.5615],[-121.58911,37.55467],[-121.62938,37.54935],[-121.69761,37.53358],[-121.73371,37.52511],[-121.78138,37.51345],[-121.83252,37.50099],[-121.873,37.49218],[-121.93864,37.49249],[-121.98138,37.49445],[-122.00316,37.49955],[-122.03074,37.50849],[-122.07091,37.52133],[-122.10906,37.53387],[-122.15087,37.54737],[-122.1887,37.5597],[-122.23689,37.57524],[-122.26813,37.58504],[-122.27897,37.5882],[-122.31509,37.59896],[-122.3382,37.60563],[-122.35296,37.61176]],"type":"LineString"}
}
