{
  "id": 2014435081,
  "type": "Feature",
  "properties": {
    "geom:area": 0,
    "geom:bbox": "-122.344600,36.727480,-121.882220,37.605830",
    "geom:latitude": 37.205880828418074,
    "geom:longitude": -122.06689880206957,
    "src:alt_label": "swim-approach",
    "src:geom": "swim",
    "swim:elevations": [
      5117,
      4970,
      4468,
      4388,
      4095,
      3758,
      3406,
      3203,
      3109,
      3090,
      3046,
      2991,
      2658,
      2473,
      2419,
      2046,
      1797,
      1712,
      1490,
      1377,
      1222,
      943,
      812,
      568,
      454,
      354,
      223,
      101
    ],
    "swim:geom": "approach",
    "swim:timestamps": [
      1767118492,
      1767118505,
      1767118558,
      1767118567,
      1767118598,
      1767118637,
      1767118676,
      1767118703,
      1767118738,
      1767118746,
      1767118763,
      1767118774,
      1767118827,
      1767118856,
      1767118863,
      1767118911,
      1767118946,
      1767118961,
      1767119007,
      1767119022,
      1767119045,
      1767119081,
      1767119105,
      1767119147,
      1767119172,
      1767119194,
      1767119220,
      1767119252
    ],
    "wof:geomhash": "fe2fd03487024901d85e1354727dbb45",
    "wof:id": 2014435081,
    "wof:repo": "sfomuseum-data-flights-2025-12"
  },
  "bbox": [
    -122.3446,
    36.72748,
    -121.88222,
    37.60583
  ],
  "geometry": {"coordinates":[[-121.88222,36.72748],[-121.89386,36.74895],[-121.92122,36.83857],[-121.92535,36.85351],[-121.93947,36.90359],[-121.95838,36.96515],[-121.98193,37.02594],[-121.99761,37.06618],[-122.01697,37.11595],[-122.02139,37.12725],[-122.03036,37.14976],[-122.03607,37.16401],[-122.06235,37.23178],[-122.07685,37.26819],[-122.08058,37.27761],[-122.10453,37.3395],[-122.12222,37.38425],[-122.12867,37.40379],[-122.14696,37.45635],[-122.1549,37.47283],[-122.16922,37.49619],[-122.19289,37.53034],[-122.21151,37.54928],[-122.25531,37.56834],[-122.27835,37.57836],[-122.29751,37.58602],[-122.31905,37.59513],[-122.3446,37.60583]],"type":"LineString"}
}
