{
  "id": 2014422071,
  "type": "Feature",
  "properties": {
    "geom:area": 0,
    "geom:bbox": "-122.357170,37.640170,-121.269410,37.954890",
    "geom:latitude": 37.823695903582504,
    "geom:longitude": -121.82285026327868,
    "src:alt_label": "swim-takeoff",
    "src:geom": "swim",
    "swim:elevations": [
      305,
      481,
      1064,
      1085,
      1370,
      1654,
      1719,
      1914,
      2263,
      2746,
      3103,
      3293,
      3388,
      3862,
      4294,
      4533,
      4779,
      5117,
      5430,
      5669,
      5789,
      6243,
      6472,
      6703,
      6926
    ],
    "swim:geom": "takeoff",
    "swim:timestamps": [
      1766912547,
      1766912561,
      1766912607,
      1766912611,
      1766912662,
      1766912685,
      1766912690,
      1766912702,
      1766912725,
      1766912757,
      1766912785,
      1766912814,
      1766912826,
      1766912867,
      1766912903,
      1766912929,
      1766912956,
      1766912987,
      1766913023,
      1766913049,
      1766913061,
      1766913113,
      1766913139,
      1766913164,
      1766913189
    ],
    "wof:geomhash": "d8ccdf593238e2c5c217a027671e4a00",
    "wof:id": 2014422071,
    "wof:repo": "sfomuseum-data-flights-2025-12"
  },
  "bbox": [
    -122.35717,
    37.64017,
    -121.26941,
    37.95489
  ],
  "geometry": {"coordinates":[[-122.35717,37.64017],[-122.34581,37.64651],[-122.3084,37.66673],[-122.30596,37.66815],[-122.25349,37.69801],[-122.22453,37.71259],[-122.21808,37.71586],[-122.20265,37.72356],[-122.17174,37.73909],[-122.12966,37.76035],[-122.08693,37.77258],[-122.03797,37.78388],[-122.0165,37.7887],[-121.94079,37.80561],[-121.87345,37.82089],[-121.82333,37.8323],[-121.76728,37.84489],[-121.70419,37.85877],[-121.62921,37.87552],[-121.5744,37.88764],[-121.54897,37.89335],[-121.43714,37.91811],[-121.37982,37.93072],[-121.32508,37.94269],[-121.26941,37.95489]],"type":"LineString"}
}
