{
  "id": 2014433261,
  "type": "Feature",
  "properties": {
    "geom:area": 0,
    "geom:bbox": "-122.359600,37.492010,-121.251650,37.614930",
    "geom:latitude": 37.54687395969725,
    "geom:longitude": -121.81059058991885,
    "src:alt_label": "swim-approach",
    "src:geom": "swim",
    "swim:elevations": [
      4539,
      4209,
      3976,
      3901,
      3413,
      3259,
      3140,
      3046,
      2755,
      2695,
      2465,
      2220,
      2130,
      1980,
      1884,
      1631,
      1499,
      1382,
      1178,
      1035,
      815,
      779,
      579,
      432,
      307,
      172,
      115,
      419
    ],
    "swim:geom": "approach",
    "swim:timestamps": [
      1767096319,
      1767096354,
      1767096381,
      1767096390,
      1767096443,
      1767096459,
      1767096484,
      1767096513,
      1767096561,
      1767096570,
      1767096612,
      1767096655,
      1767096670,
      1767096706,
      1767096731,
      1767096777,
      1767096800,
      1767096818,
      1767096861,
      1767096886,
      1767096928,
      1767096937,
      1767096976,
      1767097014,
      1767097041,
      1767097077,
      1767097090,
      1767097115
    ],
    "wof:geomhash": "e84188aeed0f482594a3e92132527755",
    "wof:id": 2014433261,
    "wof:repo": "sfomuseum-data-flights-2025-12"
  },
  "bbox": [
    -122.3596,
    37.49201,
    -121.25165,
    37.61493
  ],
  "geometry": {"coordinates":[[-121.25165,37.59442],[-121.32096,37.58574],[-121.37212,37.5802],[-121.39137,37.57813],[-121.4966,37.56602],[-121.52838,37.56219],[-121.57591,37.5566],[-121.62922,37.54955],[-121.70821,37.53091],[-121.72267,37.52747],[-121.79062,37.51123],[-121.85562,37.49575],[-121.87733,37.49201],[-121.93141,37.49255],[-121.96731,37.49339],[-122.02851,37.50744],[-122.05633,37.5168],[-122.07677,37.52353],[-122.12332,37.53853],[-122.15012,37.5469],[-122.19411,37.5614],[-122.20331,37.56465],[-122.24407,37.57759],[-122.2772,37.58771],[-122.29955,37.59442],[-122.32963,37.6034],[-122.34023,37.60691],[-122.3596,37.61493]],"type":"LineString"}
}
