{
  "id": 2014440421,
  "type": "Feature",
  "properties": {
    "geom:area": 0,
    "geom:bbox": "-122.352750,37.492920,-121.286800,37.609340",
    "geom:latitude": 37.54300317424847,
    "geom:longitude": -121.82525669248272,
    "src:alt_label": "swim-approach",
    "src:geom": "swim",
    "swim:elevations": [
      4612,
      4340,
      4211,
      3815,
      3607,
      3518,
      3296,
      2962,
      2838,
      2651,
      2379,
      2268,
      2207,
      2080,
      1823,
      1682,
      1484,
      1369,
      943,
      879,
      730,
      599,
      393,
      308,
      181,
      109,
      58
    ],
    "swim:geom": "approach",
    "swim:timestamps": [
      1767212927,
      1767212958,
      1767212976,
      1767213023,
      1767213053,
      1767213065,
      1767213092,
      1767213138,
      1767213155,
      1767213185,
      1767213224,
      1767213242,
      1767213251,
      1767213272,
      1767213320,
      1767213337,
      1767213368,
      1767213399,
      1767213446,
      1767213475,
      1767213497,
      1767213524,
      1767213561,
      1767213582,
      1767213611,
      1767213632,
      1767213647
    ],
    "wof:geomhash": "376dc6e26256a849d98f295753607863",
    "wof:id": 2014440421,
    "wof:repo": "sfomuseum-data-flights-2025-12"
  },
  "bbox": [
    -122.35275,
    37.49292,
    -121.2868,
    37.60934
  ],
  "geometry": {"coordinates":[[-121.2868,37.58976],[-121.34986,37.58272],[-121.38564,37.57872],[-121.47524,37.56842],[-121.53091,37.56197],[-121.55256,37.55942],[-121.6005,37.55355],[-121.67983,37.53761],[-121.70758,37.53101],[-121.7548,37.51975],[-121.81594,37.50521],[-121.84363,37.49855],[-121.85746,37.49516],[-121.89138,37.49292],[-121.96962,37.50418],[-121.99587,37.5081],[-122.04549,37.5154],[-122.09026,37.52175],[-122.15216,37.5307],[-122.18971,37.54013],[-122.21578,37.55197],[-122.24683,37.56495],[-122.28395,37.58048],[-122.30207,37.58806],[-122.32463,37.5975],[-122.34102,37.60444],[-122.35275,37.60934]],"type":"LineString"}
}
