{
  "id": 2014413609,
  "type": "Feature",
  "properties": {
    "geom:area": 0,
    "geom:bbox": "-122.550020,36.751190,-122.317260,36.992940",
    "geom:latitude": 36.869095393313465,
    "geom:longitude": -122.43681541481001,
    "src:alt_label": "swim-takeoff",
    "src:geom": "swim",
    "swim:elevations": [
      6843,
      7373,
      7531,
      7811,
      8480,
      8621
    ],
    "swim:geom": "takeoff",
    "swim:timestamps": [
      1766854833,
      1766854888,
      1766854900,
      1766854920,
      1766854969,
      1766854989
    ],
    "wof:geomhash": "fbe2dc5cf04ec35914091a195e43c2c4",
    "wof:id": 2014413609,
    "wof:repo": "sfomuseum-data-flights-2025-12"
  },
  "bbox": [
    -122.55002,
    36.75119,
    -122.31726,
    36.99294
  ],
  "geometry": {"coordinates":[[-122.55002,36.99294],[-122.47378,36.90156],[-122.45471,36.88322],[-122.42371,36.85299],[-122.34788,36.78034],[-122.31726,36.75119]],"type":"LineString"}
}
