{
  "id": 2014447309,
  "type": "Feature",
  "properties": {
    "geom:area": 0,
    "geom:bbox": "-123.504540,37.633660,-122.404820,37.692310",
    "geom:latitude": 37.68043795608295,
    "geom:longitude": -122.95137314802534,
    "src:alt_label": "swim-takeoff",
    "src:geom": "swim",
    "swim:elevations": [
      424,
      744,
      851,
      908,
      1166,
      1260,
      1460,
      1583,
      1973,
      2581,
      2829,
      3585,
      3637,
      3687,
      3934,
      4102,
      4594,
      4773,
      5064,
      5348,
      5500,
      5827,
      6165
    ],
    "swim:geom": "takeoff",
    "swim:timestamps": [
      1767180830,
      1767180863,
      1767180894,
      1767180907,
      1767180952,
      1767180962,
      1767180985,
      1767180994,
      1767181020,
      1767181062,
      1767181080,
      1767181137,
      1767181144,
      1767181156,
      1767181192,
      1767181207,
      1767181252,
      1767181273,
      1767181306,
      1767181338,
      1767181357,
      1767181392,
      1767181434
    ],
    "wof:geomhash": "b99436f4a77097cc43c967a99e410e31",
    "wof:id": 2014447309,
    "wof:repo": "sfomuseum-data-flights-2025-12"
  },
  "bbox": [
    -123.50454,
    37.63366,
    -122.40482,
    37.69231
  ],
  "geometry": {"coordinates":[[-122.40482,37.63366],[-122.43974,37.64769],[-122.47428,37.6612],[-122.48833,37.66694],[-122.54458,37.67649],[-122.55936,37.67723],[-122.59473,37.67961],[-122.60978,37.68064],[-122.65214,37.68343],[-122.72352,37.68798],[-122.7558,37.68996],[-122.85644,37.69231],[-122.86922,37.69193],[-122.89205,37.69119],[-122.96502,37.68896],[-122.99598,37.68818],[-123.09204,37.68574],[-123.13646,37.68435],[-123.21009,37.68221],[-123.28062,37.67995],[-123.32329,37.67861],[-123.40577,37.67598],[-123.50454,37.6728]],"type":"LineString"}
}
