{
  "id": 2014446705,
  "type": "Feature",
  "properties": {
    "geom:area": 0,
    "geom:bbox": "-122.365940,37.628940,-121.257940,37.963050",
    "geom:latitude": 37.83705129285887,
    "geom:longitude": -121.82703068074005,
    "src:alt_label": "swim-takeoff",
    "src:geom": "swim",
    "swim:elevations": [
      152,
      541,
      674,
      833,
      972,
      1388,
      1658,
      2386,
      2666,
      2782,
      3264,
      3440,
      3446,
      3481,
      3895,
      4584,
      4913,
      5156,
      5369,
      5690,
      6065,
      6224,
      6431,
      6629
    ],
    "swim:geom": "takeoff",
    "swim:timestamps": [
      1767188756,
      1767188785,
      1767188808,
      1767188839,
      1767188859,
      1767188892,
      1767188911,
      1767188965,
      1767188988,
      1767189000,
      1767189049,
      1767189081,
      1767189084,
      1767189090,
      1767189121,
      1767189172,
      1767189204,
      1767189228,
      1767189247,
      1767189277,
      1767189326,
      1767189342,
      1767189373,
      1767189403
    ],
    "wof:geomhash": "f165f3287560a2d5a9dbdc51bd0974ea",
    "wof:id": 2014446705,
    "wof:repo": "sfomuseum-data-flights-2025-12"
  },
  "bbox": [
    -122.36594,
    37.62894,
    -121.25794,
    37.96305
  ],
  "geometry": {"coordinates":[[-122.36594,37.62894],[-122.34958,37.64426],[-122.3301,37.65484],[-122.29912,37.67168],[-122.27653,37.68438],[-122.23588,37.70722],[-122.21066,37.72039],[-122.13689,37.75811],[-122.104,37.77506],[-122.08656,37.784],[-122.01175,37.82204],[-121.95061,37.8361],[-121.94455,37.83714],[-121.93225,37.83928],[-121.86851,37.85105],[-121.76204,37.87099],[-121.69577,37.88322],[-121.6453,37.89241],[-121.60394,37.90002],[-121.53843,37.91213],[-121.43117,37.93158],[-121.39659,37.93788],[-121.32798,37.95037],[-121.25794,37.96305]],"type":"LineString"}
}
