{
  "id": 2014413661,
  "type": "Feature",
  "properties": {
    "geom:area": 0,
    "geom:bbox": "-122.386830,37.636920,-121.261320,38.409350",
    "geom:latitude": 38.085439680460574,
    "geom:longitude": -121.93424850065888,
    "src:alt_label": "swim-takeoff",
    "src:geom": "swim",
    "swim:elevations": [
      244,
      360,
      786,
      1099,
      1418,
      1747,
      2131,
      2408,
      2871,
      3262,
      3457,
      3568,
      4001,
      4316,
      4490,
      4769,
      5004,
      5364,
      5485,
      5681,
      5849,
      5954,
      6305,
      6465,
      6626,
      6856,
      6940,
      7160,
      7429,
      7602
    ],
    "swim:geom": "takeoff",
    "swim:timestamps": [
      1766883413,
      1766883421,
      1766883451,
      1766883489,
      1766883538,
      1766883562,
      1766883589,
      1766883611,
      1766883644,
      1766883680,
      1766883713,
      1766883732,
      1766883777,
      1766883806,
      1766883827,
      1766883854,
      1766883875,
      1766883915,
      1766883939,
      1766883962,
      1766883980,
      1766883992,
      1766884046,
      1766884076,
      1766884103,
      1766884136,
      1766884147,
      1766884182,
      1766884224,
      1766884248
    ],
    "wof:geomhash": "34960aced662b35d7160ef3d145bf57e",
    "wof:id": 2014413661,
    "wof:repo": "sfomuseum-data-flights-2025-12"
  },
  "bbox": [
    -122.38683,
    37.63692,
    -121.26132,
    38.40935
  ],
  "geometry": {"coordinates":[[-122.361,37.63692],[-122.35614,37.64239],[-122.33523,37.65918],[-122.31358,37.68225],[-122.32664,37.73066],[-122.34202,37.75622],[-122.35755,37.78658],[-122.37047,37.81189],[-122.38683,37.85143],[-122.38546,37.89856],[-122.36729,37.94291],[-122.33723,37.95983],[-122.25486,37.99219],[-122.19865,38.01494],[-122.15794,38.03157],[-122.10479,38.053],[-122.06336,38.06965],[-121.98357,38.10144],[-121.9331,38.12147],[-121.88718,38.1397],[-121.84983,38.15458],[-121.82473,38.16455],[-121.70981,38.21017],[-121.64374,38.23654],[-121.58518,38.26318],[-121.51287,38.29609],[-121.48767,38.30753],[-121.40961,38.34284],[-121.31543,38.38508],[-121.26132,38.40935]],"type":"LineString"}
}
