{
  "id": 2014417983,
  "type": "Feature",
  "properties": {
    "geom:area": 0,
    "geom:bbox": "-122.360880,37.491700,-121.259760,37.612740",
    "geom:latitude": 37.54519067671334,
    "geom:longitude": -121.81577009825817,
    "src:alt_label": "swim-approach",
    "src:geom": "swim",
    "swim:elevations": [
      4303,
      4056,
      3823,
      3679,
      3596,
      3306,
      3087,
      2863,
      2749,
      2474,
      2438,
      2367,
      2161,
      1933,
      1859,
      1602,
      1339,
      1257,
      976,
      859,
      819,
      682,
      586,
      506,
      417,
      271,
      190,
      105,
      156
    ],
    "swim:geom": "approach",
    "swim:timestamps": [
      1766943108,
      1766943140,
      1766943178,
      1766943203,
      1766943227,
      1766943266,
      1766943293,
      1766943327,
      1766943346,
      1766943380,
      1766943407,
      1766943431,
      1766943464,
      1766943498,
      1766943511,
      1766943567,
      1766943594,
      1766943605,
      1766943653,
      1766943684,
      1766943703,
      1766943734,
      1766943752,
      1766943764,
      1766943790,
      1766943824,
      1766943846,
      1766943870,
      1766943902
    ],
    "wof:geomhash": "0e4f5a6fd42a6d83ca82653cd895def7",
    "wof:id": 2014417983,
    "wof:repo": "sfomuseum-data-flights-2025-12"
  },
  "bbox": [
    -122.36088,
    37.4917,
    -121.25976,
    37.61274
  ],
  "geometry": {"coordinates":[[-121.25976,37.59336],[-121.32516,37.585],[-121.39942,37.57672],[-121.44945,37.57126],[-121.49352,37.5661],[-121.56256,37.55798],[-121.61097,37.55223],[-121.66754,37.54026],[-121.69816,37.53297],[-121.74828,37.52116],[-121.78955,37.51129],[-121.82625,37.50242],[-121.87571,37.4917],[-121.9261,37.49242],[-121.94544,37.49292],[-122.02222,37.50635],[-122.05837,37.51763],[-122.0718,37.522],[-122.13225,37.54121],[-122.17107,37.55095],[-122.1942,37.55301],[-122.22956,37.55843],[-122.24827,37.56543],[-122.26001,37.57021],[-122.28288,37.57996],[-122.30746,37.59037],[-122.3232,37.5969],[-122.33964,37.60384],[-122.36088,37.61274]],"type":"LineString"}
}
