{
  "id": 2014443637,
  "type": "Feature",
  "properties": {
    "geom:area": 0,
    "geom:bbox": "-122.757870,37.435080,-122.100250,38.443950",
    "geom:latitude": 37.82413068569031,
    "geom:longitude": -122.47084603121652,
    "src:alt_label": "swim-approach",
    "src:geom": "swim",
    "swim:elevations": [
      7847,
      7558,
      7497,
      7076,
      6742,
      6552,
      6280,
      5840,
      5761,
      5504,
      5148,
      4939,
      4638,
      4277,
      4124,
      3727,
      3565,
      3536,
      3445,
      3369,
      3353,
      3353,
      3353,
      3280,
      3138,
      2844,
      2724,
      2549,
      2187,
      2069,
      1813,
      1712,
      1645,
      1406,
      1217,
      1219,
      1219,
      1187,
      1071,
      915,
      853,
      775,
      548,
      489,
      363,
      358,
      152,
      0,
      0
    ],
    "swim:geom": "approach",
    "swim:timestamps": [
      1767200936,
      1767200965,
      1767200971,
      1767201013,
      1767201047,
      1767201068,
      1767201097,
      1767201144,
      1767201153,
      1767201180,
      1767201221,
      1767201245,
      1767201280,
      1767201320,
      1767201335,
      1767201380,
      1767201401,
      1767201434,
      1767201477,
      1767201498,
      1767201513,
      1767201530,
      1767201548,
      1767201589,
      1767201610,
      1767201656,
      1767201669,
      1767201690,
      1767201731,
      1767201746,
      1767201778,
      1767201790,
      1767201810,
      1767201849,
      1767201889,
      1767201911,
      1767201926,
      1767201950,
      1767201967,
      1767202014,
      1767202033,
      1767202053,
      1767202096,
      1767202114,
      1767202134,
      1767202140,
      1767202189,
      1767202227,
      1767202230
    ],
    "wof:geomhash": "dc99622276b156a165ff43491710ea28",
    "wof:id": 2014443637,
    "wof:repo": "sfomuseum-data-flights-2025-12"
  },
  "bbox": [
    -122.75787,
    37.43508,
    -122.10025,
    38.44395
  ],
  "geometry": {"coordinates":[[-122.54218,38.44395],[-122.58504,38.40199],[-122.59388,38.39349],[-122.65468,38.33438],[-122.70353,38.2868],[-122.73285,38.25824],[-122.75787,38.21399],[-122.74114,38.13585],[-122.73689,38.12104],[-122.72434,38.07685],[-122.7053,38.01054],[-122.69439,37.97273],[-122.67862,37.9183],[-122.63874,37.86723],[-122.61965,37.84914],[-122.56442,37.79692],[-122.53938,37.77314],[-122.50358,37.7394],[-122.46322,37.70148],[-122.44483,37.68399],[-122.43163,37.67164],[-122.4164,37.65742],[-122.40048,37.64238],[-122.36718,37.60708],[-122.3575,37.58615],[-122.32918,37.54347],[-122.32173,37.53156],[-122.30994,37.5123],[-122.28611,37.47579],[-122.27037,37.46704],[-122.23154,37.45645],[-122.21717,37.45258],[-122.1951,37.44681],[-122.15612,37.43657],[-122.11556,37.43508],[-122.10192,37.45228],[-122.10025,37.46775],[-122.11424,37.489],[-122.12748,37.50393],[-122.17111,37.53258],[-122.19169,37.54153],[-122.21284,37.55059],[-122.25531,37.56839],[-122.27197,37.57537],[-122.28942,37.58274],[-122.29418,37.58477],[-122.33175,37.60053],[-122.35935,37.61193],[-122.36186,37.61235]],"type":"LineString"}
}
