{
  "id": 2014439565,
  "type": "Feature",
  "properties": {
    "geom:area": 0,
    "geom:bbox": "-122.365890,37.629390,-121.259260,37.963010",
    "geom:latitude": 37.83705076000636,
    "geom:longitude": -121.82728476808666,
    "src:alt_label": "swim-takeoff",
    "src:geom": "swim",
    "swim:elevations": [
      213,
      707,
      916,
      1096,
      1407,
      1427,
      2175,
      2383,
      2999,
      3317,
      3414,
      3644,
      3776,
      3874,
      4458,
      4726,
      5311,
      5405,
      5660,
      5792,
      5993,
      6253
    ],
    "swim:geom": "takeoff",
    "swim:timestamps": [
      1767116174,
      1767116210,
      1767116228,
      1767116256,
      1767116307,
      1767116310,
      1767116367,
      1767116379,
      1767116425,
      1767116456,
      1767116472,
      1767116511,
      1767116535,
      1767116556,
      1767116602,
      1767116619,
      1767116669,
      1767116690,
      1767116717,
      1767116735,
      1767116761,
      1767116799
    ],
    "wof:geomhash": "c9c1d5e5c3866e7e7d439f1725938e35",
    "wof:id": 2014439565,
    "wof:repo": "sfomuseum-data-flights-2025-12"
  },
  "bbox": [
    -122.36589,
    37.62939,
    -121.25926,
    37.96301
  ],
  "geometry": {"coordinates":[[-122.36589,37.62939],[-122.34217,37.64737],[-122.329,37.65442],[-122.30655,37.66678],[-122.25457,37.69657],[-122.25094,37.69858],[-122.17342,37.73875],[-122.15715,37.74736],[-122.09423,37.77992],[-122.05026,37.80255],[-122.02548,37.81546],[-121.95604,37.83548],[-121.90747,37.84433],[-121.86196,37.85292],[-121.758,37.87219],[-121.71684,37.8797],[-121.59915,37.90122],[-121.54565,37.91099],[-121.4757,37.92378],[-121.42972,37.93214],[-121.36125,37.94458],[-121.25926,37.96301]],"type":"LineString"}
}
