{
  "id": 2014429443,
  "type": "Feature",
  "properties": {
    "geom:area": 0,
    "geom:bbox": "-122.365340,37.630320,-121.259820,38.416840",
    "geom:latitude": 38.02520635092426,
    "geom:longitude": -121.81376065777148,
    "src:alt_label": "swim-takeoff",
    "src:geom": "swim",
    "swim:elevations": [
      269,
      406,
      776,
      1091,
      1232,
      1903,
      2212,
      2929,
      3327,
      3714,
      4199,
      4585,
      4999,
      5326,
      5572,
      5789,
      5791,
      5791,
      5791,
      5791,
      5791,
      5791,
      6267,
      6467,
      7043,
      7331,
      7599,
      7634
    ],
    "swim:geom": "takeoff",
    "swim:timestamps": [
      1767017608,
      1767017619,
      1767017660,
      1767017696,
      1767017708,
      1767017747,
      1767017764,
      1767017805,
      1767017835,
      1767017876,
      1767017908,
      1767017935,
      1767017966,
      1767017995,
      1767018025,
      1767018055,
      1767018067,
      1767018105,
      1767018145,
      1767018178,
      1767018206,
      1767018210,
      1767018262,
      1767018275,
      1767018325,
      1767018358,
      1767018387,
      1767018391
    ],
    "wof:geomhash": "a40c0dc6a113c2eb443253866bf97397",
    "wof:id": 2014429443,
    "wof:repo": "sfomuseum-data-flights-2025-12"
  },
  "bbox": [
    -122.36534,
    37.63032,
    -121.25982,
    38.41684
  ],
  "geometry": {"coordinates":[[-122.36534,37.63032],[-122.35914,37.63498],[-122.32733,37.65444],[-122.29012,37.67691],[-122.27556,37.68585],[-122.22771,37.71871],[-122.20815,37.73375],[-122.15972,37.77073],[-122.12473,37.79692],[-122.06943,37.83797],[-122.02432,37.87167],[-121.98556,37.90027],[-121.94023,37.93341],[-121.89678,37.96533],[-121.85104,37.999],[-121.80317,38.03431],[-121.78504,38.04771],[-121.72549,38.09151],[-121.66324,38.13721],[-121.60992,38.17611],[-121.5662,38.20802],[-121.55991,38.21266],[-121.47671,38.27333],[-121.45609,38.28834],[-121.37553,38.34524],[-121.31873,38.37987],[-121.26691,38.41242],[-121.25982,38.41684]],"type":"LineString"}
}
