{
  "id": 2014447463,
  "type": "Feature",
  "properties": {
    "geom:area": 0,
    "geom:bbox": "-122.529010,37.628690,-122.046080,38.519090",
    "geom:latitude": 38.03810602315526,
    "geom:longitude": -122.30455867391416,
    "src:alt_label": "swim-takeoff",
    "src:geom": "swim",
    "swim:elevations": [
      289,
      528,
      982,
      1066,
      1192,
      1316,
      1422,
      1994,
      2550,
      2897,
      3136,
      3515,
      3661,
      3777,
      4206,
      4477,
      4757,
      5200,
      5423,
      5605,
      5785,
      5931,
      6253,
      6457,
      6726
    ],
    "swim:geom": "takeoff",
    "swim:timestamps": [
      1767203803,
      1767203825,
      1767203874,
      1767203892,
      1767203910,
      1767203934,
      1767203949,
      1767203989,
      1767204028,
      1767204053,
      1767204070,
      1767204118,
      1767204143,
      1767204159,
      1767204204,
      1767204224,
      1767204249,
      1767204290,
      1767204311,
      1767204329,
      1767204350,
      1767204365,
      1767204401,
      1767204425,
      1767204458
    ],
    "wof:geomhash": "222c094d7de75fee5d94b3488d0c75aa",
    "wof:id": 2014447463,
    "wof:repo": "sfomuseum-data-flights-2025-12"
  },
  "bbox": [
    -122.52901,
    37.62869,
    -122.04608,
    38.51909
  ],
  "geometry": {"coordinates":[[-122.39858,37.62869],[-122.41839,37.63726],[-122.46759,37.65865],[-122.48687,37.6667],[-122.5075,37.67566],[-122.52704,37.69953],[-122.52901,37.71967],[-122.52682,37.77708],[-122.48998,37.81886],[-122.45241,37.8337],[-122.42894,37.84984],[-122.38619,37.91189],[-122.36304,37.94845],[-122.3471,37.97387],[-122.29942,38.04803],[-122.27792,38.08105],[-122.25037,38.12388],[-122.20437,38.19486],[-122.1803,38.23191],[-122.15944,38.26389],[-122.13482,38.30173],[-122.11885,38.32979],[-122.08856,38.40187],[-122.07084,38.45054],[-122.04608,38.51909]],"type":"LineString"}
}
