{
  "id": 2014426885,
  "type": "Feature",
  "properties": {
    "geom:area": 0,
    "geom:bbox": "-122.358130,37.481630,-121.242770,37.614040",
    "geom:latitude": 37.5442139197841,
    "geom:longitude": -121.80487834068317,
    "src:alt_label": "swim-approach",
    "src:geom": "swim",
    "swim:elevations": [
      4532,
      4267,
      4111,
      3870,
      3674,
      3528,
      3218,
      3114,
      3050,
      2889,
      2759,
      2588,
      2356,
      2291,
      2134,
      2099,
      1940,
      1774,
      1615,
      1500,
      1438,
      1213,
      1117,
      932,
      806,
      717,
      516,
      345,
      311,
      196,
      0
    ],
    "swim:geom": "approach",
    "swim:timestamps": [
      1767038903,
      1767038932,
      1767038948,
      1767038975,
      1767038995,
      1767039011,
      1767039043,
      1767039066,
      1767039091,
      1767039144,
      1767039164,
      1767039188,
      1767039238,
      1767039244,
      1767039291,
      1767039323,
      1767039353,
      1767039383,
      1767039416,
      1767039438,
      1767039452,
      1767039500,
      1767039518,
      1767039560,
      1767039587,
      1767039600,
      1767039645,
      1767039684,
      1767039693,
      1767039720,
      1767039760
    ],
    "wof:geomhash": "e2f3d3dfe4b2c7fe8600bfa40cb5a04e",
    "wof:id": 2014426885,
    "wof:repo": "sfomuseum-data-flights-2025-12"
  },
  "bbox": [
    -122.35813,
    37.48163,
    -121.24277,
    37.61404
  ],
  "geometry": {"coordinates":[[-121.24277,37.59557],[-121.30308,37.58789],[-121.33738,37.58435],[-121.39343,37.57786],[-121.43436,37.57303],[-121.46739,37.56919],[-121.53355,37.56132],[-121.57874,37.55606],[-121.62549,37.55018],[-121.70944,37.53027],[-121.73344,37.51705],[-121.75852,37.49746],[-121.82048,37.48163],[-121.82848,37.48218],[-121.8902,37.48677],[-121.93046,37.48971],[-121.96422,37.49225],[-121.99749,37.49781],[-122.03148,37.50876],[-122.05341,37.5158],[-122.06755,37.52044],[-122.11568,37.53615],[-122.13333,37.54188],[-122.1754,37.55544],[-122.20287,37.56425],[-122.21579,37.56849],[-122.25783,37.58207],[-122.29339,37.59239],[-122.30152,37.59487],[-122.32428,37.60152],[-122.35813,37.61404]],"type":"LineString"}
}
