{
  "id": 2014447373,
  "type": "Feature",
  "properties": {
    "geom:area": 0,
    "geom:bbox": "-122.557420,36.730200,-122.362070,37.088550",
    "geom:latitude": 36.90246673288553,
    "geom:longitude": -122.4791337985898,
    "src:alt_label": "swim-takeoff",
    "src:geom": "swim",
    "swim:elevations": [
      6136,
      6506,
      6683,
      7109,
      7373,
      7557,
      7619,
      7883
    ],
    "swim:geom": "takeoff",
    "swim:timestamps": [
      1767201622,
      1767201656,
      1767201672,
      1767201711,
      1767201746,
      1767201775,
      1767201784,
      1767201825
    ],
    "wof:geomhash": "36ed30ee848e0bd7a77a5561176959d4",
    "wof:id": 2014447373,
    "wof:repo": "sfomuseum-data-flights-2025-12"
  },
  "bbox": [
    -122.55742,
    36.7302,
    -122.36207,
    37.08855
  ],
  "geometry": {"coordinates":[[-122.54859,37.08855],[-122.55742,37.0235],[-122.55008,36.9934],[-122.50535,36.92677],[-122.46236,36.86773],[-122.42517,36.81696],[-122.4137,36.80138],[-122.36207,36.7302]],"type":"LineString"}
}
