{
  "id": 2014447533,
  "type": "Feature",
  "properties": {
    "geom:area": 0,
    "geom:bbox": "-122.526060,37.623640,-121.246810,38.425050",
    "geom:latitude": 38.04139162426511,
    "geom:longitude": -121.97266737497034,
    "src:alt_label": "swim-takeoff",
    "src:geom": "swim",
    "swim:elevations": [
      152,
      355,
      803,
      1059,
      1361,
      1492,
      1709,
      2502,
      2648,
      3208,
      3336,
      3832,
      4566,
      5023,
      5310,
      5576,
      6026,
      6312,
      6543,
      6870,
      7198,
      7377,
      7463,
      7709,
      7831,
      8040,
      8201,
      8208,
      8335,
      8373,
      8476,
      8510
    ],
    "swim:geom": "takeoff",
    "swim:timestamps": [
      1767244523,
      1767244538,
      1767244574,
      1767244605,
      1767244643,
      1767244661,
      1767244682,
      1767244736,
      1767244748,
      1767244793,
      1767244805,
      1767244845,
      1767244881,
      1767244905,
      1767244926,
      1767244959,
      1767244989,
      1767245010,
      1767245040,
      1767245086,
      1767245128,
      1767245155,
      1767245173,
      1767245215,
      1767245236,
      1767245272,
      1767245308,
      1767245311,
      1767245338,
      1767245344,
      1767245368,
      1767245379
    ],
    "wof:geomhash": "3c1d6df4b3f044cf5d462373d5eda023",
    "wof:id": 2014447533,
    "wof:repo": "sfomuseum-data-flights-2025-12"
  },
  "bbox": [
    -122.52606,
    37.62364,
    -121.24681,
    38.42505
  ],
  "geometry": {"coordinates":[[-122.38672,37.62364],[-122.39998,37.62946],[-122.43348,37.64411],[-122.46347,37.65652],[-122.50635,37.67678],[-122.52212,37.69468],[-122.52606,37.72318],[-122.51851,37.79697],[-122.50579,37.81014],[-122.4347,37.83813],[-122.41453,37.84703],[-122.34446,37.88084],[-122.27868,37.9127],[-122.23606,37.93345],[-122.19838,37.95175],[-122.13535,37.98124],[-122.07602,38.01],[-122.03473,38.03018],[-121.97384,38.05944],[-121.87821,38.10552],[-121.7894,38.14775],[-121.73206,38.17498],[-121.69346,38.19324],[-121.60188,38.23637],[-121.55578,38.25824],[-121.47668,38.29585],[-121.39655,38.33383],[-121.38992,38.33728],[-121.33307,38.37169],[-121.32059,38.3796],[-121.26989,38.41074],[-121.24681,38.42505]],"type":"LineString"}
}
