{
  "id": 2014408065,
  "type": "Feature",
  "properties": {
    "geom:area": 0,
    "geom:bbox": "-122.755710,37.449320,-122.140490,38.519480",
    "geom:latitude": 37.85296945766791,
    "geom:longitude": -122.50514497760453,
    "src:alt_label": "swim-approach",
    "src:geom": "swim",
    "swim:elevations": [
      7046,
      6791,
      6582,
      6490,
      6017,
      5548,
      5406,
      5222,
      4994,
      4618,
      4383,
      4181,
      3972,
      3722,
      3569,
      3371,
      3353,
      3353,
      3353,
      3238,
      3199,
      3044,
      2672,
      2389,
      2194,
      2029,
      1675,
      1413,
      1167,
      926,
      914,
      877,
      474,
      365,
      232,
      142,
      41
    ],
    "swim:geom": "approach",
    "swim:timestamps": [
      1766838055,
      1766838085,
      1766838108,
      1766838120,
      1766838174,
      1766838234,
      1766838258,
      1766838280,
      1766838308,
      1766838354,
      1766838385,
      1766838415,
      1766838444,
      1766838478,
      1766838499,
      1766838534,
      1766838559,
      1766838583,
      1766838626,
      1766838657,
      1766838668,
      1766838691,
      1766838738,
      1766838772,
      1766838796,
      1766838818,
      1766838853,
      1766838877,
      1766838911,
      1766838948,
      1766838984,
      1766839000,
      1766839077,
      1766839100,
      1766839133,
      1766839156,
      1766839180
    ],
    "wof:geomhash": "bb5eaaf85fe12ab930189326c1cbd7ea",
    "wof:id": 2014408065,
    "wof:repo": "sfomuseum-data-flights-2025-12"
  },
  "bbox": [
    -122.75571,
    37.44932,
    -122.14049,
    38.51948
  ],
  "geometry": {"coordinates":[[-122.685,38.51948],[-122.70179,38.45937],[-122.71419,38.41506],[-122.72014,38.39391],[-122.74841,38.29248],[-122.75571,38.18416],[-122.74343,38.14136],[-122.73199,38.10202],[-122.71775,38.05327],[-122.69489,37.97504],[-122.67973,37.9235],[-122.65068,37.8785],[-122.61104,37.84066],[-122.56647,37.79861],[-122.53945,37.77322],[-122.49793,37.73406],[-122.46933,37.70718],[-122.4414,37.68104],[-122.39458,37.63685],[-122.36306,37.60427],[-122.35639,37.59169],[-122.34304,37.56701],[-122.3127,37.51689],[-122.28598,37.48445],[-122.25773,37.47295],[-122.22991,37.46302],[-122.18811,37.44932],[-122.15861,37.45527],[-122.14049,37.48426],[-122.15607,37.51391],[-122.18109,37.53674],[-122.1958,37.54407],[-122.27028,37.57475],[-122.28893,37.58259],[-122.31619,37.59409],[-122.33487,37.60182],[-122.35402,37.60987]],"type":"LineString"}
}
