{
  "id": 2014427437,
  "type": "Feature",
  "properties": {
    "geom:area": 0,
    "geom:bbox": "-122.385140,37.631970,-121.246080,38.495530",
    "geom:latitude": 38.14291268776568,
    "geom:longitude": -121.93770250013421,
    "src:alt_label": "swim-takeoff",
    "src:geom": "swim",
    "swim:elevations": [
      183,
      304,
      629,
      852,
      1157,
      1230,
      1713,
      2169,
      2255,
      2578,
      3167,
      3381,
      3613,
      3771,
      4154,
      4570,
      4764,
      5110,
      5435,
      5655,
      5845,
      6099,
      6470,
      6689,
      7019,
      7061,
      7345,
      7427,
      7826,
      7926,
      8067,
      8237
    ],
    "swim:geom": "takeoff",
    "swim:timestamps": [
      1767049491,
      1767049503,
      1767049533,
      1767049555,
      1767049584,
      1767049593,
      1767049635,
      1767049673,
      1767049682,
      1767049712,
      1767049757,
      1767049796,
      1767049824,
      1767049840,
      1767049878,
      1767049910,
      1767049928,
      1767049962,
      1767049997,
      1767050026,
      1767050053,
      1767050085,
      1767050126,
      1767050147,
      1767050187,
      1767050195,
      1767050242,
      1767050253,
      1767050308,
      1767050329,
      1767050351,
      1767050381
    ],
    "wof:geomhash": "7e28df0dd6dbbc276699eb662f486ab2",
    "wof:id": 2014427437,
    "wof:repo": "sfomuseum-data-flights-2025-12"
  },
  "bbox": [
    -122.38514,
    37.63197,
    -121.24608,
    38.49553
  ],
  "geometry": {"coordinates":[[-122.36417,37.63197],[-122.35789,37.64009],[-122.33636,37.65757],[-122.31978,37.67203],[-122.313,37.6998],[-122.31656,37.70939],[-122.34071,37.75193],[-122.36208,37.79405],[-122.36734,37.80477],[-122.38514,37.84224],[-122.3842,37.9028],[-122.35983,37.95581],[-122.31756,37.98255],[-122.29161,37.99762],[-122.22841,38.03519],[-122.17438,38.06799],[-122.14446,38.0864],[-122.08826,38.1206],[-122.02815,38.15722],[-121.97695,38.18815],[-121.93047,38.21619],[-121.86828,38.24678],[-121.78583,38.28008],[-121.74226,38.29762],[-121.66123,38.33015],[-121.64482,38.33673],[-121.54614,38.37619],[-121.52402,38.38506],[-121.40493,38.4326],[-121.36025,38.45047],[-121.31182,38.4693],[-121.24608,38.49553]],"type":"LineString"}
}
