{
  "id": 2014407435,
  "type": "Feature",
  "properties": {
    "geom:area": 0,
    "geom:bbox": "-122.356610,37.491600,-121.248490,37.613320",
    "geom:latitude": 37.565203227695356,
    "geom:longitude": -121.8092672596288,
    "src:alt_label": "swim-approach",
    "src:geom": "swim",
    "swim:elevations": [
      4288,
      3982,
      3956,
      3667,
      3500,
      3335,
      3256,
      3105,
      2968,
      2772,
      2566,
      2504,
      2298,
      2135,
      1984,
      1973,
      1797,
      1677,
      1628,
      1452,
      1340,
      1092,
      981,
      780,
      639,
      493,
      460,
      265,
      175,
      43,
      7,
      4772,
      4213,
      3941,
      3863,
      3310,
      3212,
      3073,
      3047,
      2852,
      2528,
      2323,
      2150,
      2035,
      1888,
      1886,
      1629,
      1444,
      1319,
      1188,
      1173,
      963,
      883,
      767,
      640,
      427,
      271,
      209,
      76,
      0
    ],
    "swim:geom": "approach",
    "swim:timestamps": [
      1766822990,
      1766823028,
      1766823031,
      1766823068,
      1766823087,
      1766823109,
      1766823121,
      1766823155,
      1766823202,
      1766823235,
      1766823267,
      1766823281,
      1766823321,
      1766823351,
      1766823385,
      1766823392,
      1766823434,
      1766823454,
      1766823464,
      1766823498,
      1766823517,
      1766823564,
      1766823589,
      1766823626,
      1766823656,
      1766823688,
      1766823696,
      1766823745,
      1766823771,
      1766823807,
      1766823813,
      1766905745,
      1766905797,
      1766905822,
      1766905833,
      1766905886,
      1766905898,
      1766905948,
      1766905955,
      1766905988,
      1766906032,
      1766906068,
      1766906096,
      1766906125,
      1766906158,
      1766906163,
      1766906212,
      1766906247,
      1766906269,
      1766906292,
      1766906295,
      1766906337,
      1766906355,
      1766906376,
      1766906403,
      1766906453,
      1766906489,
      1766906504,
      1766906537,
      1766906550
    ],
    "wof:geomhash": "3013d3c53ee1e4025c8513f27737bbbb",
    "wof:id": 2014407435,
    "wof:repo": "sfomuseum-data-flights-2025-12"
  },
  "bbox": [
    -122.35661,
    37.4916,
    -121.24849,
    37.61332
  ],
  "geometry": {"coordinates":[[-121.26961,37.59183],[-121.34559,37.58228],[-121.35146,37.58169],[-121.42192,37.57403],[-121.45897,37.56999],[-121.49988,37.56533],[-121.52138,37.56271],[-121.58219,37.55638],[-121.65588,37.54285],[-121.70592,37.53075],[-121.75479,37.51924],[-121.77708,37.51413],[-121.83516,37.50073],[-121.87854,37.49178],[-121.92765,37.49248],[-121.937,37.49265],[-121.9922,37.49624],[-122.01681,37.50423],[-122.02875,37.5081],[-122.06856,37.52053],[-122.09061,37.52781],[-122.144,37.54514],[-122.17038,37.55359],[-122.20639,37.56536],[-122.23358,37.57419],[-122.26284,37.58372],[-122.27081,37.586],[-122.3088,37.59705],[-122.32706,37.6024],[-122.3523,37.61143],[-122.35648,37.61325],[-121.24849,37.59464],[-121.35393,37.5822],[-121.40419,37.57681],[-121.42408,37.57453],[-121.52928,37.56191],[-121.55263,37.55921],[-121.64264,37.54646],[-121.65409,37.54365],[-121.70747,37.53106],[-121.77741,37.51438],[-121.83079,37.5016],[-121.87245,37.4921],[-121.91429,37.4916],[-121.96256,37.49294],[-121.9688,37.49319],[-122.02915,37.50783],[-122.06955,37.52016],[-122.0953,37.52767],[-122.12012,37.537],[-122.1233,37.53817],[-122.16616,37.55227],[-122.18414,37.5579],[-122.20432,37.56477],[-122.23019,37.57319],[-122.27744,37.58777],[-122.30762,37.59646],[-122.31998,37.60023],[-122.34661,37.60905],[-122.35661,37.61332]],"type":"LineString"}
}
