{
  "id": 2014446117,
  "type": "Feature",
  "properties": {
    "geom:area": 0,
    "geom:bbox": "-122.368000,37.626110,-121.243640,37.965870",
    "geom:latitude": 37.83821320739228,
    "geom:longitude": -121.82168926709036,
    "src:alt_label": "swim-takeoff",
    "src:geom": "swim",
    "swim:elevations": [
      122,
      287,
      623,
      820,
      1106,
      1683,
      2069,
      2595,
      3222,
      3346,
      3482,
      3687,
      4242,
      4385,
      4719,
      5012,
      5385,
      5819,
      5953,
      6256,
      6435,
      6790
    ],
    "swim:geom": "takeoff",
    "swim:timestamps": [
      1767183594,
      1767183603,
      1767183638,
      1767183662,
      1767183694,
      1767183731,
      1767183756,
      1767183793,
      1767183838,
      1767183856,
      1767183880,
      1767183913,
      1767183958,
      1767183974,
      1767184003,
      1767184027,
      1767184059,
      1767184106,
      1767184120,
      1767184156,
      1767184177,
      1767184222
    ],
    "wof:geomhash": "d5bba2386346bb5b90fc4b63388b910d",
    "wof:id": 2014446117,
    "wof:repo": "sfomuseum-data-flights-2025-12"
  },
  "bbox": [
    -122.368,
    37.62611,
    -121.24364,
    37.96587
  ],
  "geometry": {"coordinates":[[-122.368,37.62611],[-122.36412,37.6323],[-122.34034,37.65021],[-122.31688,37.66314],[-122.27981,37.68324],[-122.23307,37.70822],[-122.19944,37.72533],[-122.14851,37.75182],[-122.08503,37.78496],[-122.05785,37.79899],[-122.01835,37.819],[-121.95321,37.83651],[-121.85807,37.8537],[-121.82263,37.8603],[-121.75878,37.872],[-121.70497,37.8818],[-121.63364,37.89485],[-121.52351,37.91504],[-121.49129,37.92091],[-121.40436,37.93677],[-121.35423,37.94592],[-121.24364,37.96587]],"type":"LineString"}
}
