{
  "id": 2014430231,
  "type": "Feature",
  "properties": {
    "geom:area": 0,
    "geom:bbox": "-122.364750,37.631130,-122.011520,38.503870",
    "geom:latitude": 38.039574237024325,
    "geom:longitude": -122.15850848656046,
    "src:alt_label": "swim-takeoff",
    "src:geom": "swim",
    "swim:elevations": [
      200,
      588,
      998,
      1061,
      1192,
      1366,
      1807,
      2392,
      2516,
      3116,
      3232,
      3382,
      3603,
      3873,
      4090,
      4478,
      4721,
      4846,
      5386,
      5616,
      5764,
      6186,
      6298,
      6561
    ],
    "swim:geom": "takeoff",
    "swim:timestamps": [
      1767028181,
      1767028209,
      1767028253,
      1767028270,
      1767028304,
      1767028333,
      1767028359,
      1767028406,
      1767028413,
      1767028468,
      1767028494,
      1767028527,
      1767028548,
      1767028568,
      1767028584,
      1767028617,
      1767028638,
      1767028652,
      1767028706,
      1767028738,
      1767028750,
      1767028797,
      1767028814,
      1767028845
    ],
    "wof:geomhash": "ebaaa43a02b9f74c221520a84d5d6db7",
    "wof:id": 2014430231,
    "wof:repo": "sfomuseum-data-flights-2025-12"
  },
  "bbox": [
    -122.36475,
    37.63113,
    -122.01152,
    38.50387
  ],
  "geometry": {"coordinates":[[-122.36475,37.63113],[-122.34757,37.64577],[-122.31733,37.66233],[-122.30327,37.6703],[-122.26962,37.6895],[-122.23304,37.70965],[-122.21011,37.73615],[-122.20123,37.7949],[-122.20001,37.80381],[-122.18854,37.87541],[-122.18228,37.91302],[-122.17374,37.96454],[-122.16795,37.99973],[-122.16227,38.03455],[-122.15792,38.06119],[-122.14852,38.11667],[-122.13671,38.15114],[-122.1286,38.17281],[-122.09658,38.26342],[-122.07707,38.31926],[-122.06974,38.33993],[-122.04175,38.41911],[-122.03143,38.44824],[-122.01152,38.50387]],"type":"LineString"}
}
