{
  "id": 2014430731,
  "type": "Feature",
  "properties": {
    "geom:area": 0,
    "geom:bbox": "-122.387420,37.629920,-121.259390,38.416410",
    "geom:latitude": 38.08252595771675,
    "geom:longitude": -121.9335867098303,
    "src:alt_label": "swim-takeoff",
    "src:geom": "swim",
    "swim:elevations": [
      152,
      804,
      898,
      1101,
      1448,
      1624,
      1948,
      2154,
      2737,
      3164,
      3307,
      3448,
      3669,
      3927,
      4389,
      4602,
      5044,
      5162,
      5608,
      5885,
      5984,
      6427,
      6682,
      6907,
      7114,
      7504,
      7649,
      7956,
      7990,
      8128
    ],
    "swim:geom": "takeoff",
    "swim:timestamps": [
      1767055623,
      1767055674,
      1767055689,
      1767055710,
      1767055768,
      1767055792,
      1767055814,
      1767055835,
      1767055883,
      1767055913,
      1767055946,
      1767055967,
      1767056003,
      1767056027,
      1767056063,
      1767056081,
      1767056120,
      1767056132,
      1767056186,
      1767056216,
      1767056228,
      1767056277,
      1767056298,
      1767056325,
      1767056349,
      1767056397,
      1767056412,
      1767056456,
      1767056463,
      1767056479
    ],
    "wof:geomhash": "c2f99ab788efe2749edc5fc5da80d099",
    "wof:id": 2014430731,
    "wof:repo": "sfomuseum-data-flights-2025-12"
  },
  "bbox": [
    -122.38742,
    37.62992,
    -121.25939,
    38.41641
  ],
  "geometry": {"coordinates":[[-122.36542,37.62992],[-122.33686,37.6583],[-122.32745,37.66575],[-122.31367,37.67687],[-122.32504,37.72636],[-122.3401,37.75228],[-122.35259,37.77658],[-122.36476,37.80101],[-122.38742,37.86237],[-122.38534,37.90328],[-122.36431,37.94653],[-122.32974,37.96361],[-122.26272,37.98985],[-122.21583,38.00807],[-122.1442,38.03651],[-122.10823,38.05105],[-122.02926,38.08294],[-122.00474,38.09284],[-121.89228,38.13775],[-121.82707,38.16372],[-121.80136,38.17394],[-121.69576,38.21567],[-121.6497,38.23389],[-121.59075,38.25717],[-121.53766,38.278],[-121.42938,38.32062],[-121.39637,38.33549],[-121.30419,38.38857],[-121.29199,38.39611],[-121.25939,38.41641]],"type":"LineString"}
}
