{
  "id": 2014426475,
  "type": "Feature",
  "properties": {
    "geom:area": 0,
    "geom:bbox": "-122.637510,37.459690,-122.059420,38.385750",
    "geom:latitude": 37.86524914410611,
    "geom:longitude": -122.3684530414909,
    "src:alt_label": "swim-approach",
    "src:geom": "swim",
    "swim:elevations": [
      7925,
      7652,
      7395,
      7054,
      6733,
      6448,
      6129,
      5923,
      5734,
      5419,
      5306,
      4993,
      4631,
      4210,
      3864,
      3546,
      3388,
      3354,
      3351,
      3353,
      3355,
      3301,
      3095,
      2829,
      2468,
      2128,
      1758,
      1532,
      1307,
      1120,
      903,
      853,
      825,
      759,
      521,
      455,
      271,
      209,
      33,
      0
    ],
    "swim:geom": "approach",
    "swim:timestamps": [
      1767068697,
      1767068718,
      1767068745,
      1767068778,
      1767068810,
      1767068840,
      1767068873,
      1767068894,
      1767068912,
      1767068950,
      1767068980,
      1767069010,
      1767069041,
      1767069077,
      1767069107,
      1767069140,
      1767069173,
      1767069206,
      1767069212,
      1767069240,
      1767069270,
      1767069300,
      1767069335,
      1767069368,
      1767069402,
      1767069432,
      1767069463,
      1767069492,
      1767069531,
      1767069561,
      1767069597,
      1767069624,
      1767069642,
      1767069669,
      1767069714,
      1767069729,
      1767069774,
      1767069789,
      1767069834,
      1767069840
    ],
    "wof:geomhash": "cf8b51f65e67b3a9b1424eef9ba59a37",
    "wof:id": 2014426475,
    "wof:repo": "sfomuseum-data-flights-2025-12"
  },
  "bbox": [
    -122.63751,
    37.45969,
    -122.05942,
    38.38575
  ],
  "geometry": {"coordinates":[[-122.05942,38.38575],[-122.10144,38.35854],[-122.15498,38.32254],[-122.22061,38.27971],[-122.28402,38.23811],[-122.34134,38.20022],[-122.39849,38.15557],[-122.4312,38.1254],[-122.45885,38.09971],[-122.51541,38.04703],[-122.55949,38.00624],[-122.60153,37.96658],[-122.63751,37.92302],[-122.63364,37.86653],[-122.59942,37.82919],[-122.55808,37.79042],[-122.51764,37.75283],[-122.48073,37.71805],[-122.47427,37.71201],[-122.44424,37.68368],[-122.41234,37.65351],[-122.383,37.62591],[-122.35551,37.59242],[-122.33884,37.55858],[-122.3199,37.52615],[-122.30144,37.49871],[-122.26618,37.48179],[-122.23103,37.46925],[-122.18394,37.45969],[-122.16206,37.48085],[-122.15817,37.51379],[-122.17709,37.5337],[-122.19249,37.54415],[-122.22,37.55554],[-122.26313,37.57405],[-122.27622,37.57954],[-122.31131,37.59424],[-122.32275,37.59907],[-122.35554,37.61282],[-122.35971,37.6146]],"type":"LineString"}
}
