{
  "id": 2014409355,
  "type": "Feature",
  "properties": {
    "geom:area": 0,
    "geom:bbox": "-122.840200,37.393860,-122.080800,38.472040",
    "geom:latitude": 37.7926629430953,
    "geom:longitude": -122.4739276641972,
    "src:alt_label": "swim-approach",
    "src:geom": "swim",
    "swim:elevations": [
      7197,
      6994,
      6855,
      6577,
      6353,
      6119,
      5862,
      5619,
      5353,
      5165,
      5020,
      4744,
      4636,
      4236,
      4218,
      4119,
      4044,
      3870,
      3783,
      3553,
      3353,
      3353,
      3353,
      2966,
      2843,
      2672,
      2468,
      2180,
      2069,
      1828,
      1829,
      1829,
      1640,
      1469,
      1276,
      1242,
      1215,
      1130,
      1109,
      988,
      910,
      791,
      551,
      374,
      363,
      119,
      9
    ],
    "swim:geom": "approach",
    "swim:timestamps": [
      1766825874,
      1766825895,
      1766825911,
      1766825942,
      1766825965,
      1766825991,
      1766826019,
      1766826047,
      1766826085,
      1766826097,
      1766826114,
      1766826142,
      1766826155,
      1766826203,
      1766826214,
      1766826265,
      1766826296,
      1766826326,
      1766826346,
      1766826381,
      1766826413,
      1766826445,
      1766826450,
      1766826504,
      1766826520,
      1766826549,
      1766826583,
      1766826623,
      1766826640,
      1766826687,
      1766826711,
      1766826746,
      1766826772,
      1766826800,
      1766826829,
      1766826863,
      1766826870,
      1766826916,
      1766826943,
      1766826982,
      1766826999,
      1766827020,
      1766827068,
      1766827107,
      1766827110,
      1766827164,
      1766827188
    ],
    "wof:geomhash": "b19774d605482e269eed040a73b86178",
    "wof:id": 2014409355,
    "wof:repo": "sfomuseum-data-flights-2025-12"
  },
  "bbox": [
    -122.8402,
    37.39386,
    -122.0808,
    38.47204
  ],
  "geometry": {"coordinates":[[-122.8402,38.47204],[-122.82837,38.4324],[-122.81963,38.40264],[-122.80264,38.34496],[-122.79007,38.30179],[-122.77666,38.25566],[-122.76165,38.20432],[-122.74683,38.15486],[-122.72714,38.08703],[-122.72125,38.06626],[-122.71316,38.03774],[-122.6994,37.98939],[-122.69311,37.96733],[-122.66055,37.88959],[-122.64707,37.87502],[-122.58513,37.81611],[-122.55017,37.78325],[-122.51887,37.75383],[-122.49833,37.7348],[-122.46429,37.70239],[-122.43322,37.67304],[-122.40139,37.64298],[-122.39657,37.6385],[-122.34869,37.58727],[-122.33819,37.56864],[-122.32404,37.53676],[-122.30327,37.50176],[-122.27909,37.46182],[-122.26921,37.44534],[-122.21812,37.41911],[-122.18771,37.4087],[-122.14462,37.39386],[-122.11167,37.39749],[-122.09119,37.4218],[-122.0808,37.44808],[-122.10024,37.47412],[-122.10479,37.47916],[-122.13257,37.50933],[-122.14966,37.52477],[-122.18228,37.54036],[-122.19669,37.54632],[-122.21569,37.55404],[-122.25834,37.57189],[-122.29079,37.58559],[-122.29321,37.58663],[-122.33664,37.60486],[-122.3555,37.61292]],"type":"LineString"}
}
