{
  "id": 2014435155,
  "type": "Feature",
  "properties": {
    "geom:area": 0,
    "geom:bbox": "-122.358240,36.732190,-121.886330,37.611720",
    "geom:latitude": 37.21402656739329,
    "geom:longitude": -122.07222888259744,
    "src:alt_label": "swim-approach",
    "src:geom": "swim",
    "swim:elevations": [
      4601,
      4432,
      4228,
      3945,
      3788,
      3656,
      3498,
      3169,
      3085,
      2672,
      2487,
      2438,
      2438,
      2438,
      2386,
      2260,
      1945,
      1708,
      1408,
      1157,
      1070,
      800,
      695,
      473,
      400,
      183,
      53,
      0
    ],
    "swim:geom": "approach",
    "swim:timestamps": [
      1767090232,
      1767090251,
      1767090276,
      1767090309,
      1767090332,
      1767090361,
      1767090390,
      1767090445,
      1767090457,
      1767090505,
      1767090529,
      1767090562,
      1767090592,
      1767090607,
      1767090635,
      1767090662,
      1767090697,
      1767090727,
      1767090771,
      1767090804,
      1767090813,
      1767090851,
      1767090878,
      1767090914,
      1767090944,
      1767090981,
      1767091014,
      1767091022
    ],
    "wof:geomhash": "209c5ddfd293bc096c25513b9833dd39",
    "wof:id": 2014435155,
    "wof:repo": "sfomuseum-data-flights-2025-12"
  },
  "bbox": [
    -122.35824,
    36.73219,
    -121.88633,
    37.61172
  ],
  "geometry": {"coordinates":[[-121.88633,36.73219],[-121.90019,36.76389],[-121.9124,36.80658],[-121.92781,36.86101],[-121.93821,36.89818],[-121.95053,36.94221],[-121.96585,36.98369],[-121.99567,37.06039],[-122.00216,37.0767],[-122.02701,37.14123],[-122.03989,37.17395],[-122.05681,37.21676],[-122.0719,37.25512],[-122.07944,37.27428],[-122.09359,37.31025],[-122.10596,37.34243],[-122.12199,37.3841],[-122.13387,37.41852],[-122.15203,37.46637],[-122.17285,37.50093],[-122.17942,37.50976],[-122.20567,37.5443],[-122.2359,37.55995],[-122.27513,37.57645],[-122.30119,37.58746],[-122.32959,37.5997],[-122.35321,37.60955],[-122.35824,37.61172]],"type":"LineString"}
}
