{
  "id": 2014406753,
  "type": "Feature",
  "properties": {
    "geom:area": 0,
    "geom:bbox": "-122.356540,36.726990,-121.882340,37.610990",
    "geom:latitude": 37.23361665014724,
    "geom:longitude": -122.07822506896512,
    "src:alt_label": "swim-approach",
    "src:geom": "swim",
    "swim:elevations": [
      5918,
      5628,
      5309,
      5127,
      4711,
      4589,
      4442,
      4018,
      3736,
      3494,
      3295,
      3098,
      3011,
      2734,
      2552,
      2414,
      2235,
      1901,
      1838,
      1827,
      1679,
      1561,
      1364,
      1218,
      1106,
      945,
      945,
      945,
      802,
      648,
      552,
      400,
      319,
      229,
      51,
      23
    ],
    "swim:geom": "approach",
    "swim:timestamps": [
      1766829133,
      1766829164,
      1766829205,
      1766829223,
      1766829264,
      1766829277,
      1766829304,
      1766829346,
      1766829385,
      1766829417,
      1766829445,
      1766829473,
      1766829485,
      1766829524,
      1766829564,
      1766829588,
      1766829614,
      1766829657,
      1766829666,
      1766829702,
      1766829748,
      1766829765,
      1766829792,
      1766829832,
      1766829849,
      1766829897,
      1766829924,
      1766829945,
      1766829987,
      1766830018,
      1766830041,
      1766830072,
      1766830100,
      1766830118,
      1766830165,
      1766830172
    ],
    "wof:geomhash": "eed1cd9ddc57b7122657893298bbdb0e",
    "wof:id": 2014406753,
    "wof:repo": "sfomuseum-data-flights-2025-12"
  },
  "bbox": [
    -122.35654,
    36.72699,
    -121.88234,
    37.61099
  ],
  "geometry": {"coordinates":[[-121.88234,36.72699],[-121.90271,36.77112],[-121.91923,36.83185],[-121.92647,36.85734],[-121.94326,36.91644],[-121.9483,36.93455],[-121.96055,36.97116],[-121.98115,37.02376],[-121.99892,37.06984],[-122.0138,37.10771],[-122.02604,37.13865],[-122.0384,37.17033],[-122.04361,37.18386],[-122.07013,37.22327],[-122.12351,37.24158],[-122.14422,37.26279],[-122.15562,37.29201],[-122.17324,37.34085],[-122.17369,37.35131],[-122.14002,37.37845],[-122.09871,37.40633],[-122.08695,37.41919],[-122.07178,37.4409],[-122.07365,37.47261],[-122.08485,37.48422],[-122.12145,37.51175],[-122.14568,37.52249],[-122.16587,37.53072],[-122.20513,37.54734],[-122.23412,37.55946],[-122.25493,37.56823],[-122.28192,37.57958],[-122.30333,37.58858],[-122.31623,37.59401],[-122.35094,37.60858],[-122.35654,37.61099]],"type":"LineString"}
}
