{
  "id": 2014447831,
  "type": "Feature",
  "properties": {
    "geom:area": 0,
    "geom:bbox": "-123.493360,37.092050,-122.411800,37.664750",
    "geom:latitude": 37.40218347399778,
    "geom:longitude": -122.95679360486533,
    "src:alt_label": "swim-takeoff",
    "src:geom": "swim",
    "swim:elevations": [
      329,
      486,
      981,
      1200,
      1607,
      2051,
      2468,
      2648,
      2732,
      2961,
      3207,
      3260,
      3441,
      3980,
      4266,
      4431,
      5027,
      5177,
      5471,
      5927,
      6134,
      6470,
      6667,
      6856,
      7075,
      7299,
      7625,
      7705
    ],
    "swim:geom": "takeoff",
    "swim:timestamps": [
      1767168202,
      1767168216,
      1767168257,
      1767168291,
      1767168324,
      1767168353,
      1767168381,
      1767168393,
      1767168399,
      1767168415,
      1767168432,
      1767168444,
      1767168470,
      1767168508,
      1767168530,
      1767168542,
      1767168598,
      1767168610,
      1767168642,
      1767168688,
      1767168712,
      1767168748,
      1767168769,
      1767168790,
      1767168817,
      1767168844,
      1767168888,
      1767168903
    ],
    "wof:geomhash": "4929b7153ceafee80cd30bf67be625ed",
    "wof:id": 2014447831,
    "wof:repo": "sfomuseum-data-flights-2025-12"
  },
  "bbox": [
    -123.49336,
    37.09205,
    -122.4118,
    37.66475
  ],
  "geometry": {"coordinates":[[-122.4118,37.63461],[-122.42559,37.64058],[-122.4681,37.65901],[-122.51176,37.66475],[-122.55275,37.64359],[-122.58779,37.621],[-122.62239,37.59865],[-122.63838,37.58959],[-122.64636,37.58506],[-122.66832,37.57277],[-122.69149,37.55964],[-122.70834,37.54998],[-122.74764,37.52731],[-122.80611,37.49349],[-122.84025,37.47357],[-122.85965,37.46232],[-122.95214,37.4087],[-122.97227,37.39706],[-123.02553,37.36603],[-123.10573,37.31936],[-123.14829,37.29458],[-123.21227,37.25723],[-123.24968,37.23527],[-123.28633,37.2139],[-123.33583,37.18477],[-123.385,37.15588],[-123.46576,37.10842],[-123.49336,37.09205]],"type":"LineString"}
}
