{
  "id": 2014417563,
  "type": "Feature",
  "properties": {
    "geom:area": 0,
    "geom:bbox": "-122.343160,37.491270,-121.245870,37.607770",
    "geom:latitude": 37.546055930955816,
    "geom:longitude": -121.79908730640366,
    "src:alt_label": "swim-approach",
    "src:geom": "swim",
    "swim:elevations": [
      4738,
      4515,
      4406,
      4150,
      3964,
      3609,
      3256,
      3155,
      3078,
      2869,
      2744,
      2562,
      2288,
      2224,
      2095,
      1982,
      1761,
      1724,
      1419,
      1299,
      1110,
      939,
      846,
      625,
      544,
      401,
      312,
      123,
      91
    ],
    "swim:geom": "approach",
    "swim:timestamps": [
      1766914857,
      1766914879,
      1766914890,
      1766914917,
      1766914934,
      1766914970,
      1766915007,
      1766915027,
      1766915051,
      1766915089,
      1766915109,
      1766915134,
      1766915185,
      1766915194,
      1766915228,
      1766915257,
      1766915305,
      1766915314,
      1766915366,
      1766915392,
      1766915419,
      1766915455,
      1766915473,
      1766915518,
      1766915537,
      1766915576,
      1766915589,
      1766915638,
      1766915647
    ],
    "wof:geomhash": "004c40ff6bf04282e7bd7f5605158a4d",
    "wof:id": 2014417563,
    "wof:repo": "sfomuseum-data-flights-2025-12"
  },
  "bbox": [
    -122.34316,
    37.49127,
    -121.24587,
    37.60777
  ],
  "geometry": {"coordinates":[[-121.24587,37.59524],[-121.28917,37.58934],[-121.31279,37.58653],[-121.36541,37.58083],[-121.39946,37.57707],[-121.46886,37.56917],[-121.53873,37.56108],[-121.57556,37.55663],[-121.61921,37.55137],[-121.68029,37.53756],[-121.71266,37.52976],[-121.75213,37.52021],[-121.82891,37.50197],[-121.84251,37.49868],[-121.89349,37.49127],[-121.93497,37.49261],[-121.99924,37.49786],[-122.00978,37.50156],[-122.07216,37.52201],[-122.10338,37.5321],[-122.13448,37.54248],[-122.1741,37.55473],[-122.19319,37.56114],[-122.2382,37.57575],[-122.25464,37.58109],[-122.28794,37.59077],[-122.29832,37.59377],[-122.33636,37.60532],[-122.34316,37.60777]],"type":"LineString"}
}
