{
  "id": 2014426063,
  "type": "Feature",
  "properties": {
    "geom:area": 0,
    "geom:bbox": "-122.353790,36.720120,-121.876930,37.609770",
    "geom:latitude": 37.208557306087314,
    "geom:longitude": -122.06802672488989,
    "src:alt_label": "swim-approach",
    "src:geom": "swim",
    "swim:elevations": [
      5623,
      5551,
      5062,
      4892,
      4431,
      4187,
      3885,
      3554,
      3388,
      3107,
      3066,
      2762,
      2647,
      2476,
      2412,
      2267,
      2198,
      2074,
      1918,
      1596,
      1541,
      1247,
      1133,
      923,
      836,
      815,
      576,
      424,
      332,
      228,
      146,
      83,
      38
    ],
    "swim:geom": "approach",
    "swim:timestamps": [
      1767039118,
      1767039123,
      1767039176,
      1767039191,
      1767039235,
      1767039260,
      1767039291,
      1767039323,
      1767039341,
      1767039378,
      1767039395,
      1767039443,
      1767039462,
      1767039506,
      1767039524,
      1767039549,
      1767039563,
      1767039581,
      1767039605,
      1767039657,
      1767039666,
      1767039716,
      1767039730,
      1767039760,
      1767039777,
      1767039780,
      1767039831,
      1767039866,
      1767039891,
      1767039915,
      1767039939,
      1767039957,
      1767039969
    ],
    "wof:geomhash": "61d0bc8513c36310fb90b8c6c60d5a5e",
    "wof:id": 2014426063,
    "wof:repo": "sfomuseum-data-flights-2025-12"
  },
  "bbox": [
    -122.35379,
    36.72012,
    -121.87693,
    37.60977
  ],
  "geometry": {"coordinates":[[-121.87693,36.72012],[-121.88301,36.72916],[-121.91361,36.81146],[-121.92029,36.8354],[-121.93938,36.9037],[-121.94977,36.94111],[-121.96733,36.98914],[-121.98636,37.03814],[-121.99677,37.06469],[-122.01884,37.12041],[-122.02833,37.14423],[-122.05262,37.20663],[-122.06244,37.23205],[-122.08304,37.2842],[-122.09097,37.30433],[-122.10155,37.33039],[-122.10761,37.34557],[-122.1148,37.36388],[-122.12362,37.38857],[-122.14156,37.44044],[-122.14491,37.44968],[-122.16017,37.49724],[-122.16464,37.5101],[-122.17798,37.53536],[-122.19416,37.54312],[-122.19714,37.54431],[-122.24642,37.56469],[-122.27715,37.57759],[-122.29619,37.58556],[-122.31402,37.59306],[-122.33183,37.60046],[-122.34501,37.60603],[-122.35379,37.60977]],"type":"LineString"}
}
