{
  "id": 2014416391,
  "type": "Feature",
  "properties": {
    "geom:area": 0,
    "geom:bbox": "-122.800670,37.542850,-122.118980,38.456140",
    "geom:latitude": 37.866480623977644,
    "geom:longitude": -122.50182761015074,
    "src:alt_label": "swim-approach",
    "src:geom": "swim",
    "swim:elevations": [
      7468,
      7135,
      6855,
      6451,
      6045,
      5736,
      5674,
      5457,
      5153,
      5094,
      4775,
      4539,
      4341,
      4157,
      3906,
      3736,
      3418,
      3355,
      3353,
      3104,
      2903,
      2641,
      2607,
      2207,
      1946,
      1857,
      1721,
      1658,
      1464,
      1206,
      1079,
      975,
      837,
      759,
      762,
      680,
      612,
      454,
      317,
      226,
      109,
      20
    ],
    "swim:geom": "approach",
    "swim:timestamps": [
      1766911818,
      1766911847,
      1766911872,
      1766911910,
      1766911948,
      1766911978,
      1766911985,
      1766912006,
      1766912038,
      1766912043,
      1766912077,
      1766912102,
      1766912125,
      1766912145,
      1766912177,
      1766912201,
      1766912247,
      1766912267,
      1766912284,
      1766912336,
      1766912361,
      1766912395,
      1766912401,
      1766912446,
      1766912479,
      1766912494,
      1766912525,
      1766912537,
      1766912569,
      1766912607,
      1766912632,
      1766912649,
      1766912678,
      1766912698,
      1766912702,
      1766912728,
      1766912743,
      1766912776,
      1766912808,
      1766912830,
      1766912863,
      1766912884
    ],
    "wof:geomhash": "eb315840b4a062abffa1acadab153fe6",
    "wof:id": 2014416391,
    "wof:repo": "sfomuseum-data-flights-2025-12"
  },
  "bbox": [
    -122.80067,
    37.54285,
    -122.11898,
    38.45614
  ],
  "geometry": {"coordinates":[[-122.80067,38.45614],[-122.79188,38.39557],[-122.78443,38.34336],[-122.77333,38.26587],[-122.75766,38.19101],[-122.74115,38.13385],[-122.73771,38.12203],[-122.72616,38.08243],[-122.70931,38.02443],[-122.7067,38.01555],[-122.68898,37.95425],[-122.6748,37.91077],[-122.64968,37.87759],[-122.62378,37.85254],[-122.58431,37.81548],[-122.55647,37.78927],[-122.50558,37.74131],[-122.4831,37.72331],[-122.46153,37.7144],[-122.39619,37.69025],[-122.36354,37.68059],[-122.32049,37.66909],[-122.31299,37.66718],[-122.25809,37.65268],[-122.21686,37.64206],[-122.198,37.63736],[-122.1632,37.62839],[-122.15024,37.62323],[-122.1241,37.60167],[-122.11898,37.5694],[-122.13091,37.54923],[-122.14832,37.54285],[-122.17672,37.5524],[-122.19507,37.5599],[-122.19866,37.5615],[-122.22384,37.57102],[-122.23846,37.57578],[-122.27089,37.58588],[-122.29927,37.5942],[-122.31591,37.59907],[-122.34104,37.60707],[-122.35652,37.61326]],"type":"LineString"}
}
