{
  "id": 2014413209,
  "type": "Feature",
  "properties": {
    "geom:area": 0,
    "geom:bbox": "-122.385420,37.635810,-121.248380,38.165260",
    "geom:latitude": 37.99177003996351,
    "geom:longitude": -121.93158042964339,
    "src:alt_label": "swim-takeoff",
    "src:geom": "swim",
    "swim:elevations": [
      244,
      618,
      817,
      993,
      1253,
      1573,
      1948,
      2262,
      2583,
      3159,
      3199,
      3515,
      3856,
      4267,
      4451,
      4999,
      5309,
      5436,
      5844,
      6332,
      6406,
      6710,
      7198,
      7322,
      7770,
      7850,
      8221,
      8438,
      8529
    ],
    "swim:geom": "takeoff",
    "swim:timestamps": [
      1766882598,
      1766882633,
      1766882660,
      1766882671,
      1766882701,
      1766882728,
      1766882755,
      1766882779,
      1766882803,
      1766882848,
      1766882854,
      1766882906,
      1766882933,
      1766882964,
      1766882979,
      1766883021,
      1766883045,
      1766883063,
      1766883098,
      1766883146,
      1766883152,
      1766883182,
      1766883233,
      1766883245,
      1766883296,
      1766883305,
      1766883350,
      1766883380,
      1766883392
    ],
    "wof:geomhash": "610da00a00125adc11b51b7bf2735566",
    "wof:id": 2014413209,
    "wof:repo": "sfomuseum-data-flights-2025-12"
  },
  "bbox": [
    -122.38542,
    37.63581,
    -121.24838,
    38.16526
  ],
  "geometry": {"coordinates":[[-122.36147,37.63581],[-122.33837,37.65641],[-122.31824,37.67465],[-122.31351,37.68432],[-122.31832,37.71387],[-122.33417,37.74264],[-122.35051,37.77246],[-122.36434,37.79962],[-122.37805,37.82739],[-122.38542,37.88293],[-122.38516,37.89119],[-122.33283,37.95031],[-122.27938,37.96148],[-122.21659,37.97438],[-122.18618,37.98055],[-122.09845,37.99828],[-122.04771,38.0083],[-122.0091,38.01606],[-121.93433,38.03094],[-121.82815,38.05214],[-121.81472,38.05475],[-121.74647,38.06812],[-121.62829,38.09134],[-121.60023,38.09686],[-121.47978,38.12037],[-121.45839,38.12458],[-121.35036,38.14551],[-121.27775,38.15952],[-121.24838,38.16526]],"type":"LineString"}
}
