{
  "id": 2014415313,
  "type": "Feature",
  "properties": {
    "geom:area": 0,
    "geom:bbox": "-123.485490,37.268140,-122.170380,37.609810",
    "geom:latitude": 37.379038373279165,
    "geom:longitude": -122.73082607716255,
    "src:alt_label": "swim-approach",
    "src:geom": "swim",
    "swim:elevations": [
      4829,
      4617,
      4142,
      4015,
      3807,
      3555,
      3260,
      3077,
      3048,
      3048,
      3048,
      3048,
      3048,
      3048,
      3020,
      2937,
      2743,
      2743,
      2743,
      2743,
      2690,
      2577,
      2438,
      2438,
      2285,
      2190,
      2083,
      1788,
      1667,
      1585,
      1343,
      940,
      916,
      914,
      773,
      606,
      554,
      461,
      236,
      127,
      35
    ],
    "swim:geom": "approach",
    "swim:timestamps": [
      1766914204,
      1766914230,
      1766914286,
      1766914299,
      1766914322,
      1766914346,
      1766914378,
      1766914401,
      1766914422,
      1766914460,
      1766914489,
      1766914506,
      1766914559,
      1766914579,
      1766914618,
      1766914633,
      1766914677,
      1766914693,
      1766914731,
      1766914746,
      1766914783,
      1766914805,
      1766914848,
      1766914860,
      1766914890,
      1766914908,
      1766914923,
      1766914970,
      1766914997,
      1766915015,
      1766915056,
      1766915097,
      1766915101,
      1766915134,
      1766915178,
      1766915213,
      1766915228,
      1766915250,
      1766915305,
      1766915330,
      1766915351
    ],
    "wof:geomhash": "a82cab5e19cde355692771e3f220221b",
    "wof:id": 2014415313,
    "wof:repo": "sfomuseum-data-flights-2025-12"
  },
  "bbox": [
    -123.48549,
    37.26814,
    -122.17038,
    37.60981
  ],
  "geometry": {"coordinates":[[-123.48549,37.4511],[-123.42877,37.43335],[-123.31189,37.39717],[-123.28449,37.38874],[-123.23837,37.37456],[-123.18944,37.35946],[-123.12632,37.33979],[-123.08103,37.3258],[-123.04015,37.313],[-122.97435,37.29231],[-122.92802,37.27788],[-122.90225,37.26986],[-122.81834,37.26814],[-122.78711,37.27528],[-122.73142,37.28856],[-122.71119,37.2934],[-122.65171,37.30729],[-122.63032,37.31222],[-122.57917,37.32388],[-122.55888,37.32858],[-122.50937,37.34006],[-122.47896,37.34698],[-122.42033,37.35443],[-122.40302,37.35516],[-122.36042,37.35689],[-122.33671,37.36087],[-122.31757,37.36685],[-122.25956,37.38953],[-122.22928,37.40604],[-122.21106,37.41641],[-122.18555,37.45351],[-122.17038,37.49314],[-122.17132,37.49677],[-122.18362,37.5251],[-122.21233,37.55029],[-122.24305,37.56324],[-122.25525,37.56837],[-122.27265,37.57563],[-122.31747,37.59451],[-122.33722,37.60288],[-122.35376,37.60981]],"type":"LineString"}
}
