{
  "id": 2014409625,
  "type": "Feature",
  "properties": {
    "geom:area": 0,
    "geom:bbox": "-123.505030,37.301580,-123.123000,37.364970",
    "geom:latitude": 37.333324090701666,
    "geom:longitude": -123.31400685393491,
    "src:alt_label": "swim-approach",
    "src:geom": "swim",
    "swim:elevations": [
      5516,
      5315,
      4959,
      4522,
      4047,
      3833
    ],
    "swim:geom": "approach",
    "swim:timestamps": [
      1766846477,
      1766846505,
      1766846541,
      1766846586,
      1766846635,
      1766846658
    ],
    "wof:geomhash": "76b26fabc5989257cfd8d7eac83d0dc8",
    "wof:id": 2014409625,
    "wof:repo": "sfomuseum-data-flights-2025-12"
  },
  "bbox": [
    -123.50503,
    37.30158,
    -123.123,
    37.36497
  ],
  "geometry": {"coordinates":[[-123.50503,37.36497],[-123.44367,37.35482],[-123.36452,37.34174],[-123.26987,37.32604],[-123.16963,37.30933],[-123.123,37.30158]],"type":"LineString"}
}
