{
  "id": 2014409305,
  "type": "Feature",
  "properties": {
    "geom:area": 0,
    "geom:bbox": "-122.354210,37.491320,-121.300860,37.612260",
    "geom:latitude": 37.54437770434101,
    "geom:longitude": -121.83212943170142,
    "src:alt_label": "swim-approach",
    "src:geom": "swim",
    "swim:elevations": [
      4273,
      4055,
      3812,
      3623,
      3428,
      3162,
      3048,
      2827,
      2641,
      2535,
      2325,
      2165,
      2075,
      1932,
      1755,
      1551,
      1533,
      1260,
      1036,
      893,
      804,
      640,
      472,
      364,
      278,
      156,
      31
    ],
    "swim:geom": "approach",
    "swim:timestamps": [
      1766882156,
      1766882180,
      1766882210,
      1766882231,
      1766882256,
      1766882288,
      1766882331,
      1766882369,
      1766882396,
      1766882410,
      1766882456,
      1766882473,
      1766882501,
      1766882537,
      1766882575,
      1766882607,
      1766882610,
      1766882648,
      1766882683,
      1766882710,
      1766882722,
      1766882749,
      1766882785,
      1766882809,
      1766882832,
      1766882862,
      1766882891
    ],
    "wof:geomhash": "03d0b45bee52a397833af505eb13dde6",
    "wof:id": 2014409305,
    "wof:repo": "sfomuseum-data-flights-2025-12"
  },
  "bbox": [
    -122.35421,
    37.49132,
    -121.30086,
    37.61226
  ],
  "geometry": {"coordinates":[[-121.30086,37.588],[-121.34834,37.58269],[-121.40557,37.57641],[-121.4446,37.57201],[-121.49126,37.56652],[-121.55043,37.55956],[-121.62497,37.55046],[-121.68663,37.53597],[-121.72994,37.52571],[-121.75303,37.5202],[-121.82461,37.50292],[-121.85099,37.49667],[-121.89471,37.49132],[-121.94882,37.49287],[-122.00388,37.49962],[-122.04755,37.51395],[-122.05165,37.51525],[-122.10387,37.53246],[-122.15101,37.54736],[-122.18698,37.55886],[-122.2016,37.56364],[-122.23296,37.57318],[-122.26694,37.58434],[-122.28739,37.59043],[-122.30577,37.59622],[-122.33144,37.6037],[-122.35421,37.61226]],"type":"LineString"}
}
