{
  "id": 2014418927,
  "type": "Feature",
  "properties": {
    "geom:area": 0,
    "geom:bbox": "-122.452910,36.723500,-121.282360,37.709930",
    "geom:latitude": 37.22335285172701,
    "geom:longitude": -121.96584071427834,
    "src:alt_label": "swim-takeoff",
    "src:geom": "swim",
    "swim:elevations": [
      122,
      628,
      780,
      1112,
      1558,
      2038,
      2292,
      2690,
      3077,
      3161,
      3227,
      3422,
      3474,
      3609,
      3763,
      4198,
      4392,
      4840,
      5141,
      5256,
      5410,
      5754,
      6115,
      6347,
      6591,
      6660,
      6782,
      6945,
      7132,
      7384,
      7541,
      7561,
      7600,
      7620,
      7620
    ],
    "swim:geom": "takeoff",
    "swim:timestamps": [
      1766947892,
      1766947930,
      1766947950,
      1766947994,
      1766948027,
      1766948057,
      1766948077,
      1766948109,
      1766948143,
      1766948155,
      1766948165,
      1766948198,
      1766948210,
      1766948237,
      1766948258,
      1766948306,
      1766948326,
      1766948368,
      1766948398,
      1766948409,
      1766948438,
      1766948476,
      1766948516,
      1766948543,
      1766948573,
      1766948582,
      1766948603,
      1766948621,
      1766948656,
      1766948695,
      1766948722,
      1766948725,
      1766948734,
      1766948764,
      1766948780
    ],
    "wof:geomhash": "96097389e8b28732504363404cf4445e",
    "wof:id": 2014418927,
    "wof:repo": "sfomuseum-data-flights-2025-12"
  },
  "bbox": [
    -122.45291,
    36.7235,
    -121.28236,
    37.70993
  ],
  "geometry": {"coordinates":[[-122.37064,37.62664],[-122.3636,37.65325],[-122.36234,37.67018],[-122.38182,37.70993],[-122.43252,37.70864],[-122.45291,37.67369],[-122.45197,37.6472],[-122.44813,37.60413],[-122.44457,37.55547],[-122.44151,37.53864],[-122.43388,37.52413],[-122.38951,37.4882],[-122.37041,37.47544],[-122.32571,37.44509],[-122.28945,37.42037],[-122.20393,37.36174],[-122.16608,37.3358],[-122.08818,37.28247],[-122.03297,37.24455],[-122.0123,37.23033],[-121.95736,37.19258],[-121.88392,37.14198],[-121.80642,37.08846],[-121.75397,37.05221],[-121.69542,37.01161],[-121.6777,36.99937],[-121.63611,36.97054],[-121.60048,36.94566],[-121.53003,36.89671],[-121.45262,36.84272],[-121.39826,36.80465],[-121.39218,36.80042],[-121.37397,36.7877],[-121.31336,36.74517],[-121.28236,36.7235]],"type":"LineString"}
}
