{
  "id": 2014447117,
  "type": "Feature",
  "properties": {
    "geom:area": 0,
    "geom:bbox": "-122.470230,36.737000,-121.475100,37.715460",
    "geom:latitude": 37.234429630072036,
    "geom:longitude": -122.07377185649175,
    "src:alt_label": "swim-takeoff",
    "src:geom": "swim",
    "swim:elevations": [
      152,
      376,
      551,
      894,
      1262,
      1441,
      1706,
      2268,
      2426,
      3135,
      3375,
      3871,
      4710,
      5123,
      5566,
      5826,
      6440,
      6902,
      7317,
      7658,
      8267,
      8307,
      8364,
      8844,
      9328,
      9971,
      10298,
      10531,
      10561,
      10650,
      10668,
      10668,
      10668,
      10668
    ],
    "swim:geom": "takeoff",
    "swim:timestamps": [
      1767211707,
      1767211726,
      1767211754,
      1767211787,
      1767211811,
      1767211837,
      1767211858,
      1767211888,
      1767211897,
      1767211936,
      1767211963,
      1767211989,
      1767212037,
      1767212061,
      1767212090,
      1767212110,
      1767212155,
      1767212188,
      1767212215,
      1767212233,
      1767212277,
      1767212284,
      1767212317,
      1767212366,
      1767212390,
      1767212423,
      1767212456,
      1767212488,
      1767212518,
      1767212547,
      1767212566,
      1767212591,
      1767212621,
      1767212642
    ],
    "wof:geomhash": "6ddc4a2b0f0fab1175f477036e0a2407",
    "wof:id": 2014447117,
    "wof:repo": "sfomuseum-data-flights-2025-12"
  },
  "bbox": [
    -122.47023,
    36.737,
    -121.4751,
    37.71546
  ],
  "geometry": {"coordinates":[[-122.36906,37.62875],[-122.36468,37.64225],[-122.36296,37.66522],[-122.3672,37.69806],[-122.39257,37.71546],[-122.42794,37.71402],[-122.44819,37.69683],[-122.45549,37.66316],[-122.45688,37.65245],[-122.46217,37.6035],[-122.4659,37.56634],[-122.47023,37.52801],[-122.4382,37.4634],[-122.40312,37.43776],[-122.36122,37.40647],[-122.33127,37.38422],[-122.26126,37.33278],[-122.20842,37.29387],[-122.16428,37.26117],[-122.13523,37.23973],[-122.06815,37.19011],[-122.05754,37.18216],[-122.00356,37.14173],[-121.91646,37.07689],[-121.87502,37.04681],[-121.82294,37.00836],[-121.77292,36.97051],[-121.72452,36.93485],[-121.67637,36.89824],[-121.62939,36.86309],[-121.59706,36.83876],[-121.55484,36.80633],[-121.50811,36.76553],[-121.4751,36.737]],"type":"LineString"}
}
