{
  "id": 2014409959,
  "type": "Feature",
  "properties": {
    "geom:area": 0,
    "geom:bbox": "-123.460590,37.198170,-122.114440,37.615240",
    "geom:latitude": 37.33749973291654,
    "geom:longitude": -122.67838618450796,
    "src:alt_label": "swim-approach",
    "src:geom": "swim",
    "swim:elevations": [
      5678,
      5464,
      5367,
      4984,
      4765,
      4614,
      4324,
      4296,
      3818,
      3471,
      3120,
      3047,
      3071,
      3048,
      2985,
      2833,
      2678,
      2540,
      2438,
      2450,
      2438,
      2440,
      2438,
      2438,
      2435,
      2236,
      2037,
      2018,
      1808,
      1694,
      1605,
      1243,
      1093,
      1091,
      1050,
      950,
      767,
      640,
      449,
      308,
      196,
      87,
      0
    ],
    "swim:geom": "approach",
    "swim:timestamps": [
      1766901715,
      1766901736,
      1766901760,
      1766901803,
      1766901826,
      1766901843,
      1766901896,
      1766901902,
      1766901956,
      1766901983,
      1766902017,
      1766902031,
      1766902058,
      1766902070,
      1766902094,
      1766902129,
      1766902157,
      1766902184,
      1766902215,
      1766902248,
      1766902276,
      1766902294,
      1766902323,
      1766902378,
      1766902402,
      1766902431,
      1766902468,
      1766902472,
      1766902528,
      1766902552,
      1766902564,
      1766902616,
      1766902647,
      1766902665,
      1766902680,
      1766902698,
      1766902729,
      1766902756,
      1766902792,
      1766902822,
      1766902852,
      1766902879,
      1766902903
    ],
    "wof:geomhash": "244d5e1695f2cbc7be80d5cc87fcecbf",
    "wof:id": 2014409959,
    "wof:repo": "sfomuseum-data-flights-2025-12"
  },
  "bbox": [
    -123.46059,
    37.19817,
    -122.11444,
    37.61524
  ],
  "geometry": {"coordinates":[[-123.46059,37.22535],[-123.41261,37.22074],[-123.35837,37.21554],[-123.26323,37.20649],[-123.21309,37.2017],[-123.17666,37.19817],[-123.06932,37.20906],[-123.0583,37.21152],[-122.96719,37.23335],[-122.92386,37.2436],[-122.8711,37.25595],[-122.84758,37.26148],[-122.8057,37.27114],[-122.78714,37.2755],[-122.75018,37.28409],[-122.69469,37.29696],[-122.65092,37.30718],[-122.60846,37.3171],[-122.56076,37.32818],[-122.50976,37.33996],[-122.46629,37.35001],[-122.43833,37.35645],[-122.39335,37.36682],[-122.31449,37.38482],[-122.28381,37.39189],[-122.24585,37.40068],[-122.19818,37.41146],[-122.19337,37.41258],[-122.13161,37.43028],[-122.11953,37.44782],[-122.11444,37.45666],[-122.13267,37.49363],[-122.15382,37.51373],[-122.16579,37.52532],[-122.17603,37.53495],[-122.19148,37.54379],[-122.22078,37.55612],[-122.24564,37.56667],[-122.27887,37.58064],[-122.30407,37.59124],[-122.32669,37.60076],[-122.34615,37.60893],[-122.36347,37.61524]],"type":"LineString"}
}
