{
  "id": 2014430851,
  "type": "Feature",
  "properties": {
    "geom:area": 0,
    "geom:bbox": "-122.546900,36.718780,-121.293940,37.669650",
    "geom:latitude": 37.203878832722,
    "geom:longitude": -122.0011790934595,
    "src:alt_label": "swim-takeoff",
    "src:geom": "swim",
    "swim:elevations": [
      152,
      535,
      1068,
      1248,
      1387,
      1741,
      2277,
      2514,
      2868,
      3305,
      3613,
      4038,
      4084,
      4482,
      4730,
      4972,
      5321,
      5533,
      5705,
      5772,
      5887,
      6223,
      6356,
      6653,
      6751,
      7041,
      7178,
      7402,
      7512,
      7742,
      7802,
      7947
    ],
    "swim:geom": "takeoff",
    "swim:timestamps": [
      1767008088,
      1767008116,
      1767008158,
      1767008187,
      1767008202,
      1767008232,
      1767008273,
      1767008289,
      1767008320,
      1767008351,
      1767008408,
      1767008457,
      1767008462,
      1767008507,
      1767008531,
      1767008559,
      1767008596,
      1767008637,
      1767008657,
      1767008667,
      1767008680,
      1767008718,
      1767008737,
      1767008782,
      1767008795,
      1767008841,
      1767008865,
      1767008896,
      1767008915,
      1767008958,
      1767008974,
      1767009000
    ],
    "wof:geomhash": "73e6d00bfb608d81038a8552b4e6b3b5",
    "wof:id": 2014430851,
    "wof:repo": "sfomuseum-data-flights-2025-12"
  },
  "bbox": [
    -122.5469,
    36.71878,
    -121.29394,
    37.66965
  ],
  "geometry": {"coordinates":[[-122.394,37.62925],[-122.42139,37.64115],[-122.46475,37.65863],[-122.49906,37.66965],[-122.52009,37.66763],[-122.5469,37.64179],[-122.53363,37.59339],[-122.52283,37.57566],[-122.50098,37.53846],[-122.4791,37.50048],[-122.40102,37.44303],[-122.32064,37.39142],[-122.31193,37.38568],[-122.23531,37.33601],[-122.19232,37.30895],[-122.14305,37.27691],[-122.0763,37.23379],[-122.00185,37.18551],[-121.96298,37.16021],[-121.94531,37.14859],[-121.92099,37.1326],[-121.84918,37.08527],[-121.81318,37.06156],[-121.72755,37.0052],[-121.7019,36.9884],[-121.61207,36.92932],[-121.56509,36.8983],[-121.50335,36.85759],[-121.46544,36.83262],[-121.37936,36.77597],[-121.34679,36.75381],[-121.29394,36.71878]],"type":"LineString"}
}
