{
  "id": 2014435321,
  "type": "Feature",
  "properties": {
    "geom:area": 0,
    "geom:bbox": "-122.356500,37.493240,-121.250680,37.613180",
    "geom:latitude": 37.546800520292926,
    "geom:longitude": -121.80841365071979,
    "src:alt_label": "swim-approach",
    "src:geom": "swim",
    "swim:elevations": [
      4563,
      4216,
      4037,
      3929,
      3623,
      3505,
      3113,
      3051,
      2887,
      2721,
      2504,
      2465,
      2284,
      2264,
      1996,
      1856,
      1772,
      1758,
      1709,
      1464,
      1340,
      1195,
      1004,
      726,
      604,
      455,
      331,
      237,
      170,
      24
    ],
    "swim:geom": "approach",
    "swim:timestamps": [
      1767127811,
      1767127847,
      1767127865,
      1767127877,
      1767127911,
      1767127924,
      1767127978,
      1767128002,
      1767128031,
      1767128054,
      1767128093,
      1767128111,
      1767128156,
      1767128165,
      1767128209,
      1767128247,
      1767128264,
      1767128270,
      1767128285,
      1767128327,
      1767128351,
      1767128373,
      1767128408,
      1767128456,
      1767128481,
      1767128511,
      1767128542,
      1767128565,
      1767128580,
      1767128610
    ],
    "wof:geomhash": "396aaa36c3868c1b680f18cd9079e75d",
    "wof:id": 2014435321,
    "wof:repo": "sfomuseum-data-flights-2025-12"
  },
  "bbox": [
    -122.3565,
    37.49324,
    -121.25068,
    37.61318
  ],
  "geometry": {"coordinates":[[-121.25068,37.59454],[-121.32225,37.58569],[-121.35802,37.58181],[-121.38129,37.5793],[-121.44613,37.5719],[-121.47015,37.56904],[-121.57295,37.5568],[-121.61336,37.55213],[-121.66063,37.54229],[-121.69751,37.53359],[-121.75992,37.51858],[-121.7877,37.51195],[-121.85305,37.49625],[-121.86561,37.49362],[-121.92699,37.49324],[-121.97964,37.49433],[-122.00188,37.49892],[-122.00928,37.50129],[-122.02717,37.50728],[-122.07556,37.52376],[-122.10169,37.53216],[-122.12628,37.54023],[-122.16449,37.55221],[-122.216,37.56867],[-122.24176,37.57685],[-122.27161,37.58614],[-122.29836,37.59406],[-122.31833,37.60026],[-122.33142,37.60426],[-122.3565,37.61318]],"type":"LineString"}
}
