{
  "id": 2014422031,
  "type": "Feature",
  "properties": {
    "geom:area": 0,
    "geom:bbox": "-122.552060,36.722240,-122.287840,37.708430",
    "geom:latitude": 37.22999248318872,
    "geom:longitude": -122.46340909244,
    "src:alt_label": "swim-takeoff",
    "src:geom": "swim",
    "swim:elevations": [
      297,
      524,
      1123,
      1322,
      1627,
      1789,
      2677,
      2994,
      3390,
      3772,
      4034,
      4196,
      4884,
      4934,
      5526,
      5765,
      6099,
      6383,
      6742,
      6891,
      7115,
      7270,
      7646,
      7904,
      8075
    ],
    "swim:geom": "takeoff",
    "swim:timestamps": [
      1766944886,
      1766944904,
      1766944946,
      1766944970,
      1766945003,
      1766945014,
      1766945066,
      1766945087,
      1766945127,
      1766945156,
      1766945180,
      1766945192,
      1766945246,
      1766945250,
      1766945303,
      1766945321,
      1766945350,
      1766945383,
      1766945424,
      1766945442,
      1766945471,
      1766945490,
      1766945530,
      1766945564,
      1766945583
    ],
    "wof:geomhash": "1edb049aa5a075e2b5bf384ddcb2b26b",
    "wof:id": 2014422031,
    "wof:repo": "sfomuseum-data-flights-2025-12"
  },
  "bbox": [
    -122.55206,
    36.72224,
    -122.28784,
    37.70843
  ],
  "geometry": {"coordinates":[[-122.36553,37.63595],[-122.36402,37.64942],[-122.36182,37.67924],[-122.36896,37.69822],[-122.41055,37.70843],[-122.42657,37.70073],[-122.4467,37.63488],[-122.45066,37.60548],[-122.46248,37.54629],[-122.47272,37.49826],[-122.48068,37.45787],[-122.4845,37.43691],[-122.50244,37.33934],[-122.50376,37.33252],[-122.52251,37.23141],[-122.52895,37.19637],[-122.53958,37.13933],[-122.55206,37.07181],[-122.54652,36.98741],[-122.52539,36.95413],[-122.47882,36.90589],[-122.44722,36.87594],[-122.37967,36.81127],[-122.32107,36.7543],[-122.28784,36.72224]],"type":"LineString"}
}
