{
  "id": 2014439447,
  "type": "Feature",
  "properties": {
    "geom:area": 0,
    "geom:bbox": "-122.364310,37.631110,-122.114340,38.518800",
    "geom:latitude": 38.04102045078117,
    "geom:longitude": -122.1781486930523,
    "src:alt_label": "swim-takeoff",
    "src:geom": "swim",
    "swim:elevations": [
      305,
      368,
      823,
      1055,
      1220,
      1492,
      1806,
      2370,
      2601,
      3408,
      3584,
      3829,
      4243,
      4377,
      4948,
      5224,
      5448,
      5590,
      5948,
      6136,
      6353,
      6608,
      6827,
      7002
    ],
    "swim:geom": "takeoff",
    "swim:timestamps": [
      1767084807,
      1767084812,
      1767084856,
      1767084889,
      1767084923,
      1767084952,
      1767084972,
      1767085008,
      1767085025,
      1767085077,
      1767085099,
      1767085132,
      1767085162,
      1767085173,
      1767085223,
      1767085249,
      1767085282,
      1767085299,
      1767085337,
      1767085355,
      1767085373,
      1767085396,
      1767085423,
      1767085443
    ],
    "wof:geomhash": "92b803fa823f0285e56654c222cdb85a",
    "wof:id": 2014439447,
    "wof:repo": "sfomuseum-data-flights-2025-12"
  },
  "bbox": [
    -122.36431,
    37.63111,
    -122.11434,
    38.5188
  ],
  "geometry": {"coordinates":[[-122.36431,37.63111],[-122.36115,37.6335],[-122.33146,37.65222],[-122.3066,37.66698],[-122.27462,37.68606],[-122.23914,37.70518],[-122.21728,37.72248],[-122.20695,37.7687],[-122.20305,37.7914],[-122.19106,37.86387],[-122.18563,37.89567],[-122.17699,37.94858],[-122.16894,37.99954],[-122.16608,38.01724],[-122.1518,38.10371],[-122.14401,38.15006],[-122.13459,38.20889],[-122.12911,38.24154],[-122.1173,38.31191],[-122.11434,38.34665],[-122.11645,38.38337],[-122.11936,38.42761],[-122.12288,38.48015],[-122.12543,38.5188]],"type":"LineString"}
}
