{
  "id": 2014409341,
  "type": "Feature",
  "properties": {
    "geom:area": 0,
    "geom:bbox": "-122.364620,36.726430,-121.881590,37.613300",
    "geom:latitude": 37.216226818889915,
    "geom:longitude": -122.07172282799729,
    "src:alt_label": "swim-approach",
    "src:geom": "swim",
    "swim:elevations": [
      4843,
      4515,
      4285,
      3985,
      3839,
      3626,
      3274,
      3224,
      3081,
      2984,
      2682,
      2622,
      2438,
      2460,
      2445,
      2437,
      2414,
      2237,
      2063,
      1691,
      1430,
      1370,
      1169,
      984,
      912,
      852,
      839,
      792,
      668,
      599,
      397,
      278,
      212,
      116,
      412
    ],
    "swim:geom": "approach",
    "swim:timestamps": [
      1766855663,
      1766855699,
      1766855724,
      1766855757,
      1766855773,
      1766855799,
      1766855848,
      1766855861,
      1766855887,
      1766855917,
      1766855963,
      1766855971,
      1766856005,
      1766856051,
      1766856054,
      1766856060,
      1766856091,
      1766856114,
      1766856138,
      1766856177,
      1766856204,
      1766856220,
      1766856264,
      1766856289,
      1766856301,
      1766856328,
      1766856334,
      1766856367,
      1766856414,
      1766856432,
      1766856472,
      1766856501,
      1766856522,
      1766856546,
      1766856579
    ],
    "wof:geomhash": "fa1f17e6f7541001120265784ab6bf66",
    "wof:id": 2014409341,
    "wof:repo": "sfomuseum-data-flights-2025-12"
  },
  "bbox": [
    -122.36462,
    36.72643,
    -121.88159,
    37.6133
  ],
  "geometry": {"coordinates":[[-121.88159,36.72643],[-121.90382,36.77868],[-121.91412,36.81521],[-121.92777,36.86393],[-121.93403,36.88606],[-121.94464,36.92356],[-121.96828,36.99123],[-121.97484,37.00681],[-121.98872,37.03972],[-122.00137,37.07631],[-122.02321,37.13325],[-122.0271,37.14275],[-122.04369,37.18347],[-122.06492,37.23781],[-122.06624,37.24122],[-122.06885,37.24808],[-122.08231,37.28334],[-122.09277,37.31006],[-122.10294,37.33501],[-122.11813,37.37434],[-122.12732,37.40061],[-122.12765,37.41643],[-122.12974,37.4575],[-122.13948,37.47889],[-122.14753,37.48879],[-122.16616,37.5087],[-122.17035,37.51291],[-122.1933,37.5362],[-122.23174,37.5582],[-122.24805,37.56513],[-122.28441,37.58007],[-122.30721,37.58982],[-122.32212,37.59626],[-122.33922,37.60361],[-122.36462,37.6133]],"type":"LineString"}
}
