{
  "id": 2014418361,
  "type": "Feature",
  "properties": {
    "geom:area": 0,
    "geom:bbox": "-122.984810,37.545970,-122.125080,38.467960",
    "geom:latitude": 37.90114896240085,
    "geom:longitude": -122.54174754298477,
    "src:alt_label": "swim-approach",
    "src:geom": "swim",
    "swim:elevations": [
      7192,
      7170,
      6930,
      6752,
      6435,
      6306,
      5928,
      5569,
      5477,
      5344,
      5123,
      4820,
      4586,
      4498,
      3904,
      3697,
      3585,
      3510,
      3443,
      3353,
      3353,
      3285,
      3203,
      2953,
      2896,
      2747,
      2611,
      2259,
      2060,
      1864,
      1553,
      1209,
      1066,
      974,
      848,
      755,
      461,
      370,
      303,
      253,
      111,
      59
    ],
    "swim:geom": "approach",
    "swim:timestamps": [
      1766911017,
      1766911020,
      1766911046,
      1766911066,
      1766911103,
      1766911117,
      1766911149,
      1766911186,
      1766911204,
      1766911223,
      1766911249,
      1766911281,
      1766911308,
      1766911321,
      1766911375,
      1766911400,
      1766911414,
      1766911429,
      1766911451,
      1766911497,
      1766911522,
      1766911538,
      1766911554,
      1766911586,
      1766911593,
      1766911614,
      1766911629,
      1766911666,
      1766911691,
      1766911717,
      1766911750,
      1766911796,
      1766911826,
      1766911843,
      1766911869,
      1766911893,
      1766911945,
      1766911964,
      1766911985,
      1766911997,
      1766912030,
      1766912048
    ],
    "wof:geomhash": "71ae9b1aeea8a40caec82a3e1a7dbb35",
    "wof:id": 2014418361,
    "wof:repo": "sfomuseum-data-flights-2025-12"
  },
  "bbox": [
    -122.98481,
    37.54597,
    -122.12508,
    38.46796
  ],
  "geometry": {"coordinates":[[-122.98481,38.46796],[-122.98032,38.46293],[-122.94134,38.41953],[-122.91165,38.38636],[-122.85948,38.32806],[-122.83976,38.30598],[-122.7965,38.25411],[-122.76973,38.18391],[-122.75825,38.15071],[-122.74633,38.11611],[-122.73047,38.06946],[-122.71104,38.01218],[-122.69561,37.9666],[-122.68834,37.94487],[-122.63587,37.86501],[-122.60188,37.83308],[-122.58392,37.81623],[-122.56371,37.79699],[-122.53597,37.77066],[-122.46783,37.73573],[-122.43205,37.72279],[-122.41006,37.71474],[-122.38845,37.7068],[-122.34538,37.69102],[-122.3373,37.68811],[-122.31038,37.67889],[-122.29111,37.67224],[-122.2424,37.65532],[-122.21132,37.64488],[-122.17879,37.634],[-122.13997,37.61552],[-122.12508,37.57024],[-122.14759,37.54597],[-122.16778,37.54743],[-122.19277,37.56067],[-122.21744,37.56898],[-122.26971,37.58568],[-122.28658,37.59068],[-122.30335,37.59551],[-122.31309,37.59837],[-122.33851,37.60608],[-122.35145,37.61107]],"type":"LineString"}
}
