{
  "id": 2014409909,
  "type": "Feature",
  "properties": {
    "geom:area": 0,
    "geom:bbox": "-122.349110,37.422430,-121.257380,37.610190",
    "geom:latitude": 37.52196473564103,
    "geom:longitude": -121.81043825538745,
    "src:alt_label": "swim-approach",
    "src:geom": "swim",
    "swim:elevations": [
      4506,
      4211,
      4160,
      3778,
      3667,
      3505,
      3361,
      3192,
      3150,
      2931,
      2755,
      2548,
      2419,
      2134,
      2134,
      2134,
      2134,
      2092,
      1978,
      1843,
      1705,
      1603,
      1424,
      1333,
      1204,
      893,
      867,
      621,
      464,
      398,
      212,
      205,
      57
    ],
    "swim:geom": "approach",
    "swim:timestamps": [
      1766826883,
      1766826925,
      1766826933,
      1766826988,
      1766827008,
      1766827036,
      1766827074,
      1766827101,
      1766827107,
      1766827137,
      1766827167,
      1766827195,
      1766827213,
      1766827258,
      1766827282,
      1766827314,
      1766827346,
      1766827372,
      1766827401,
      1766827431,
      1766827460,
      1766827487,
      1766827527,
      1766827540,
      1766827560,
      1766827616,
      1766827626,
      1766827675,
      1766827707,
      1766827724,
      1766827767,
      1766827771,
      1766827804
    ],
    "wof:geomhash": "059e57a19d098abc022733b0958dd3e3",
    "wof:id": 2014409909,
    "wof:repo": "sfomuseum-data-flights-2025-12"
  },
  "bbox": [
    -122.34911,
    37.42243,
    -121.25738,
    37.61019
  ],
  "geometry": {"coordinates":[[-121.25738,37.5936],[-121.34,37.58377],[-121.35406,37.58229],[-121.45599,37.57031],[-121.48994,37.56623],[-121.53592,37.56088],[-121.59291,37.55464],[-121.63106,37.5488],[-121.63865,37.54536],[-121.67252,37.52239],[-121.70585,37.50074],[-121.73698,37.48131],[-121.75599,37.4681],[-121.79916,37.43315],[-121.83065,37.4279],[-121.87226,37.42243],[-121.91415,37.42603],[-121.94432,37.4391],[-121.9779,37.4532],[-122.01131,37.46737],[-122.04269,37.4808],[-122.07168,37.49318],[-122.11226,37.51038],[-122.12538,37.51593],[-122.14416,37.52389],[-122.19572,37.54579],[-122.20393,37.54921],[-122.24764,37.56745],[-122.27393,37.57864],[-122.28691,37.58397],[-122.32019,37.59797],[-122.32292,37.59909],[-122.34911,37.61019]],"type":"LineString"}
}
