{
  "id": 2014447337,
  "type": "Feature",
  "properties": {
    "geom:area": 0,
    "geom:bbox": "-122.462230,36.720750,-121.296860,37.695530",
    "geom:latitude": 37.20028192064535,
    "geom:longitude": -121.9802899050587,
    "src:alt_label": "swim-takeoff",
    "src:geom": "swim",
    "swim:elevations": [
      152,
      299,
      814,
      1049,
      1440,
      1768,
      2360,
      2822,
      3355,
      3597,
      3878,
      4366,
      4688,
      4887,
      5302,
      5827,
      6241,
      6591,
      6912,
      7048,
      7423,
      7636,
      7896,
      8026,
      8361,
      8465,
      8833,
      8839,
      8839,
      8839,
      9281,
      9407
    ],
    "swim:geom": "takeoff",
    "swim:timestamps": [
      1767170307,
      1767170317,
      1767170358,
      1767170375,
      1767170426,
      1767170447,
      1767170478,
      1767170504,
      1767170545,
      1767170576,
      1767170604,
      1767170635,
      1767170654,
      1767170670,
      1767170707,
      1767170754,
      1767170784,
      1767170811,
      1767170841,
      1767170855,
      1767170897,
      1767170928,
      1767170967,
      1767170989,
      1767171029,
      1767171037,
      1767171075,
      1767171109,
      1767171141,
      1767171151,
      1767171208,
      1767171223
    ],
    "wof:geomhash": "1111b416952d45d6dbe203ae01d2858f",
    "wof:id": 2014447337,
    "wof:repo": "sfomuseum-data-flights-2025-12"
  },
  "bbox": [
    -122.46223,
    36.72075,
    -121.29686,
    37.69553
  ],
  "geometry": {"coordinates":[[-122.36781,37.63081],[-122.36415,37.63739],[-122.3624,37.66904],[-122.36184,37.68321],[-122.41506,37.69553],[-122.42865,37.67257],[-122.43324,37.63536],[-122.44212,37.60394],[-122.45688,37.55191],[-122.46223,37.50686],[-122.4368,37.46793],[-122.38795,37.43503],[-122.35811,37.41504],[-122.33267,37.39874],[-122.27088,37.35834],[-122.18762,37.30467],[-122.13527,37.27114],[-122.08688,37.23976],[-122.03296,37.20469],[-122.00638,37.18741],[-121.92876,37.13676],[-121.87112,37.09902],[-121.79668,37.05016],[-121.75234,37.02101],[-121.67261,36.9697],[-121.65687,36.95868],[-121.58094,36.90862],[-121.5144,36.86543],[-121.45276,36.8244],[-121.43333,36.81196],[-121.32645,36.74038],[-121.29686,36.72075]],"type":"LineString"}
}
