{
  "id": 2014418465,
  "type": "Feature",
  "properties": {
    "geom:area": 0,
    "geom:bbox": "-123.023930,37.415610,-122.130220,38.429090",
    "geom:latitude": 37.831634603816404,
    "geom:longitude": -122.52702666703459,
    "src:alt_label": "swim-approach",
    "src:geom": "swim",
    "swim:elevations": [
      7292,
      6978,
      6814,
      6341,
      6077,
      5775,
      5692,
      5330,
      4948,
      4862,
      4666,
      4467,
      4248,
      3961,
      3726,
      3473,
      3380,
      3353,
      3353,
      3353,
      3311,
      3181,
      2999,
      2880,
      2635,
      2559,
      2193,
      2152,
      1800,
      1782,
      1579,
      1403,
      1113,
      1029,
      925,
      607,
      487,
      362,
      192,
      104,
      44
    ],
    "swim:geom": "approach",
    "swim:timestamps": [
      1766919177,
      1766919199,
      1766919213,
      1766919263,
      1766919290,
      1766919324,
      1766919333,
      1766919382,
      1766919415,
      1766919421,
      1766919448,
      1766919470,
      1766919498,
      1766919524,
      1766919547,
      1766919584,
      1766919619,
      1766919655,
      1766919687,
      1766919700,
      1766919740,
      1766919758,
      1766919788,
      1766919810,
      1766919855,
      1766919871,
      1766919924,
      1766919933,
      1766919987,
      1766919994,
      1766920027,
      1766920078,
      1766920133,
      1766920154,
      1766920173,
      1766920220,
      1766920246,
      1766920276,
      1766920316,
      1766920337,
      1766920350
    ],
    "wof:geomhash": "f175aff4f4390a5f479f37a47a37de06",
    "wof:id": 2014418465,
    "wof:repo": "sfomuseum-data-flights-2025-12"
  },
  "bbox": [
    -123.02393,
    37.41561,
    -122.13022,
    38.42909
  ],
  "geometry": {"coordinates":[[-123.02393,38.42909],[-122.98491,38.39812],[-122.96159,38.37966],[-122.87315,38.30942],[-122.82433,38.27027],[-122.77216,38.21707],[-122.76273,38.20036],[-122.73332,38.10555],[-122.71439,38.0421],[-122.71118,38.03114],[-122.69726,37.98312],[-122.6858,37.94312],[-122.66589,37.89829],[-122.63239,37.8609],[-122.60038,37.83093],[-122.55248,37.78553],[-122.50954,37.74478],[-122.46946,37.70693],[-122.43678,37.67642],[-122.4237,37.66422],[-122.38368,37.62664],[-122.36583,37.60932],[-122.34388,37.57677],[-122.33018,37.5532],[-122.30143,37.50363],[-122.29158,37.48659],[-122.25165,37.43586],[-122.24125,37.43227],[-122.16942,37.41561],[-122.16016,37.41604],[-122.13022,37.4371],[-122.13195,37.48274],[-122.17119,37.51906],[-122.18529,37.53249],[-122.19856,37.54349],[-122.24244,37.56297],[-122.26622,37.57301],[-122.29151,37.5836],[-122.3247,37.59758],[-122.34163,37.60471],[-122.35256,37.60923]],"type":"LineString"}
}
