{
  "id": 2014417875,
  "type": "Feature",
  "properties": {
    "geom:area": 0,
    "geom:bbox": "-122.499420,36.739800,-121.889900,37.612150",
    "geom:latitude": 37.23372182769558,
    "geom:longitude": -122.21658903116669,
    "src:alt_label": "swim-approach",
    "src:geom": "swim",
    "swim:elevations": [
      5818,
      5777,
      5439,
      5006,
      4639,
      4263,
      4189,
      4115,
      4052,
      3873,
      3749,
      3567,
      3544,
      3301,
      3182,
      3078,
      2982,
      2900,
      2870,
      2590,
      2505,
      2408,
      2357,
      2192,
      2134,
      1853,
      1829,
      1829,
      1829,
      1829,
      1829,
      1829,
      1829,
      1811,
      1715,
      1504,
      1457,
      1377,
      1281,
      1138,
      975,
      822,
      700,
      521,
      421,
      336,
      216,
      42
    ],
    "swim:geom": "approach",
    "swim:timestamps": [
      1766956615,
      1766956639,
      1766956672,
      1766956709,
      1766956737,
      1766956766,
      1766956775,
      1766956793,
      1766956820,
      1766956848,
      1766956864,
      1766956888,
      1766956891,
      1766956925,
      1766956943,
      1766956958,
      1766956976,
      1766957004,
      1766957011,
      1766957064,
      1766957099,
      1766957127,
      1766957136,
      1766957175,
      1766957190,
      1766957241,
      1766957265,
      1766957288,
      1766957324,
      1766957346,
      1766957368,
      1766957373,
      1766957418,
      1766957455,
      1766957472,
      1766957500,
      1766957516,
      1766957543,
      1766957567,
      1766957591,
      1766957628,
      1766957655,
      1766957687,
      1766957723,
      1766957746,
      1766957765,
      1766957792,
      1766957838
    ],
    "wof:geomhash": "0021e7d273f6c5d88b67180e0a785568",
    "wof:id": 2014417875,
    "wof:repo": "sfomuseum-data-flights-2025-12"
  },
  "bbox": [
    -122.49942,
    36.7398,
    -121.8899,
    37.61215
  ],
  "geometry": {"coordinates":[[-121.8899,36.7398],[-121.9034,36.77458],[-121.91693,36.82261],[-121.93244,36.87847],[-121.94421,36.92139],[-121.95947,36.966],[-121.96923,36.9781],[-121.99546,36.99695],[-122.03479,37.02238],[-122.07404,37.04744],[-122.09584,37.06138],[-122.12842,37.08246],[-122.1325,37.08511],[-122.17773,37.11431],[-122.20202,37.13018],[-122.2216,37.14313],[-122.24496,37.15852],[-122.27952,37.18129],[-122.28872,37.18729],[-122.35008,37.22854],[-122.38877,37.25429],[-122.41969,37.27451],[-122.42923,37.28073],[-122.46902,37.30841],[-122.4772,37.32233],[-122.49942,37.37095],[-122.49382,37.39326],[-122.46963,37.40259],[-122.42294,37.39666],[-122.39522,37.39397],[-122.3661,37.3912],[-122.35966,37.39059],[-122.30109,37.38689],[-122.25909,37.40116],[-122.23904,37.4084],[-122.20774,37.42041],[-122.19492,37.4314],[-122.18834,37.45548],[-122.18431,37.47544],[-122.18407,37.49558],[-122.19715,37.52392],[-122.20635,37.54396],[-122.23209,37.5611],[-122.26425,37.57445],[-122.28202,37.58196],[-122.2974,37.58839],[-122.31819,37.59713],[-122.35383,37.61215]],"type":"LineString"}
}
