{
  "id": 2014432093,
  "type": "Feature",
  "properties": {
    "geom:area": 0,
    "geom:bbox": "-122.344190,37.491440,-121.263040,37.608000",
    "geom:latitude": 37.54510754431719,
    "geom:longitude": -121.80810205641309,
    "src:alt_label": "swim-approach",
    "src:geom": "swim",
    "swim:elevations": [
      4445,
      4168,
      4043,
      3703,
      3395,
      3333,
      3193,
      3016,
      2954,
      2743,
      2580,
      2512,
      2288,
      2075,
      1829,
      1830,
      1800,
      1597,
      1378,
      1202,
      1038,
      760,
      737,
      520,
      364,
      242,
      189,
      91
    ],
    "swim:geom": "approach",
    "swim:timestamps": [
      1767132507,
      1767132538,
      1767132553,
      1767132593,
      1767132628,
      1767132634,
      1767132660,
      1767132704,
      1767132727,
      1767132763,
      1767132804,
      1767132823,
      1767132858,
      1767132892,
      1767132928,
      1767132934,
      1767132978,
      1767133015,
      1767133046,
      1767133073,
      1767133099,
      1767133138,
      1767133141,
      1767133192,
      1767133227,
      1767133257,
      1767133273,
      1767133296
    ],
    "wof:geomhash": "396b27194a055258de66b2a99ccf2e32",
    "wof:id": 2014432093,
    "wof:repo": "sfomuseum-data-flights-2025-12"
  },
  "bbox": [
    -122.34419,
    37.49144,
    -121.26304,
    37.608
  ],
  "geometry": {"coordinates":[[-121.26304,37.59248],[-121.32426,37.58522],[-121.35301,37.58205],[-121.4278,37.57348],[-121.49433,37.56575],[-121.50542,37.56447],[-121.55163,37.55907],[-121.62725,37.54954],[-121.66384,37.54095],[-121.72184,37.52717],[-121.78284,37.51268],[-121.80911,37.50642],[-121.85736,37.49482],[-121.90353,37.49144],[-121.9525,37.49267],[-121.9606,37.49285],[-122.01861,37.50449],[-122.06326,37.51896],[-122.10028,37.53065],[-122.13095,37.54065],[-122.15875,37.54981],[-122.20026,37.56314],[-122.20344,37.56416],[-122.25555,37.58109],[-122.28628,37.59005],[-122.31166,37.5977],[-122.32504,37.60191],[-122.34419,37.608]],"type":"LineString"}
}
