{
  "id": 2014425643,
  "type": "Feature",
  "properties": {
    "geom:area": 0,
    "geom:bbox": "-122.359470,37.503990,-121.260010,37.614520",
    "geom:latitude": 37.54982213568548,
    "geom:longitude": -121.81377662763171,
    "src:alt_label": "swim-approach",
    "src:geom": "swim",
    "swim:elevations": [
      4717,
      4490,
      4119,
      3815,
      3501,
      3341,
      3134,
      2853,
      2796,
      2490,
      2221,
      2026,
      1869,
      1829,
      1721,
      1560,
      1495,
      1322,
      1076,
      977,
      914,
      705,
      638,
      488,
      306,
      186,
      126,
      0
    ],
    "swim:geom": "approach",
    "swim:timestamps": [
      1767006100,
      1767006125,
      1767006167,
      1767006202,
      1767006237,
      1767006259,
      1767006288,
      1767006327,
      1767006332,
      1767006380,
      1767006417,
      1767006440,
      1767006459,
      1767006483,
      1767006528,
      1767006550,
      1767006564,
      1767006588,
      1767006622,
      1767006636,
      1767006676,
      1767006718,
      1767006732,
      1767006760,
      1767006796,
      1767006827,
      1767006846,
      1767006874
    ],
    "wof:geomhash": "28f6eed3d9f939498fbe501a35956af1",
    "wof:id": 2014425643,
    "wof:repo": "sfomuseum-data-flights-2025-12"
  },
  "bbox": [
    -122.35947,
    37.50399,
    -121.26001,
    37.61452
  ],
  "geometry": {"coordinates":[[-121.26001,37.59308],[-121.31319,37.58611],[-121.40672,37.57592],[-121.48074,37.56774],[-121.55158,37.55928],[-121.59152,37.55448],[-121.6428,37.54639],[-121.70864,37.53049],[-121.71732,37.52851],[-121.79242,37.51058],[-121.84849,37.50399],[-121.88266,37.50776],[-121.91015,37.51039],[-121.94548,37.51334],[-122.01028,37.51923],[-122.03865,37.52172],[-122.05657,37.52333],[-122.0841,37.52644],[-122.11987,37.53746],[-122.13417,37.54214],[-122.1757,37.55554],[-122.22035,37.57006],[-122.23523,37.57483],[-122.26468,37.58439],[-122.2991,37.59421],[-122.32352,37.60152],[-122.33893,37.60632],[-122.35947,37.61452]],"type":"LineString"}
}
