{
  "id": 2014417117,
  "type": "Feature",
  "properties": {
    "geom:area": 0,
    "geom:bbox": "-122.360940,37.491520,-121.301850,37.614940",
    "geom:latitude": 37.54468168296224,
    "geom:longitude": -121.83613915491593,
    "src:alt_label": "swim-approach",
    "src:geom": "swim",
    "swim:elevations": [
      4131,
      4094,
      3704,
      3359,
      3263,
      3200,
      3137,
      2997,
      2685,
      2482,
      2434,
      2317,
      2130,
      2024,
      1859,
      1826,
      1514,
      1249,
      1101,
      983,
      827,
      697,
      571,
      357,
      221,
      77,
      0
    ],
    "swim:geom": "approach",
    "swim:timestamps": [
      1766968828,
      1766968831,
      1766968879,
      1766968918,
      1766968933,
      1766968948,
      1766968960,
      1766968999,
      1766969023,
      1766969047,
      1766969080,
      1766969113,
      1766969145,
      1766969172,
      1766969207,
      1766969228,
      1766969255,
      1766969286,
      1766969316,
      1766969342,
      1766969386,
      1766969410,
      1766969434,
      1766969476,
      1766969509,
      1766969549,
      1766969567
    ],
    "wof:geomhash": "6128dc94910362ccd9bc36fa499479eb",
    "wof:id": 2014417117,
    "wof:repo": "sfomuseum-data-flights-2025-12"
  },
  "bbox": [
    -122.36094,
    37.49152,
    -121.30185,
    37.61494
  ],
  "geometry": {"coordinates":[[-121.30185,37.58753],[-121.30816,37.58679],[-121.40824,37.5757],[-121.48849,37.56664],[-121.51853,37.56322],[-121.54802,37.55982],[-121.57085,37.55712],[-121.64118,37.5471],[-121.68249,37.53714],[-121.7234,37.52707],[-121.77466,37.5148],[-121.82552,37.50271],[-121.87409,37.49152],[-121.91601,37.49221],[-121.96964,37.49344],[-121.99836,37.49799],[-122.03492,37.5101],[-122.07818,37.52405],[-122.11681,37.53655],[-122.14764,37.54652],[-122.19777,37.56282],[-122.2234,37.571],[-122.24885,37.57923],[-122.28843,37.59107],[-122.31575,37.59919],[-122.34703,37.60925],[-122.36094,37.61494]],"type":"LineString"}
}
