{
  "id": 2014422229,
  "type": "Feature",
  "properties": {
    "geom:area": 0,
    "geom:bbox": "-122.386620,37.629330,-121.254730,38.097860",
    "geom:latitude": 37.96643764406181,
    "geom:longitude": -121.93956868464853,
    "src:alt_label": "swim-takeoff",
    "src:geom": "swim",
    "swim:elevations": [
      122,
      250,
      991,
      1180,
      1248,
      1648,
      2153,
      2458,
      2894,
      3165,
      3324,
      3819,
      4252,
      4472,
      4691,
      5194,
      5456,
      5659,
      6160,
      6382,
      6614,
      6794,
      7132,
      7361,
      7584,
      7620,
      7620,
      7620,
      7620,
      7620
    ],
    "swim:geom": "takeoff",
    "swim:timestamps": [
      1766959377,
      1766959387,
      1766959438,
      1766959468,
      1766959477,
      1766959527,
      1766959555,
      1766959579,
      1766959608,
      1766959629,
      1766959651,
      1766959702,
      1766959735,
      1766959755,
      1766959774,
      1766959817,
      1766959853,
      1766959868,
      1766959916,
      1766959943,
      1766959967,
      1766959986,
      1766960025,
      1766960053,
      1766960083,
      1766960112,
      1766960145,
      1766960181,
      1766960196,
      1766960238
    ],
    "wof:geomhash": "d99e9d56f9f71e69701288b806cb0490",
    "wof:id": 2014422229,
    "wof:repo": "sfomuseum-data-flights-2025-12"
  },
  "bbox": [
    -122.38662,
    37.62933,
    -121.25473,
    38.09786
  ],
  "geometry": {"coordinates":[[-122.36589,37.62933],[-122.36154,37.63618],[-122.33079,37.66198],[-122.31327,37.68249],[-122.31151,37.69097],[-122.33543,37.74548],[-122.35289,37.77705],[-122.36743,37.806],[-122.38339,37.8409],[-122.38662,37.86882],[-122.38521,37.89898],[-122.32995,37.95192],[-122.27007,37.96374],[-122.23397,37.97078],[-122.19814,37.97699],[-122.11736,37.98748],[-122.0473,37.99669],[-122.01804,38.00054],[-121.92349,38.01295],[-121.86946,38.01994],[-121.8209,38.02629],[-121.78313,38.03113],[-121.70379,38.0413],[-121.64559,38.04872],[-121.58346,38.0567],[-121.52312,38.06438],[-121.45298,38.07322],[-121.37659,38.08282],[-121.3448,38.08676],[-121.25473,38.09786]],"type":"LineString"}
}
