{
  "id": 2014430887,
  "type": "Feature",
  "properties": {
    "geom:area": 0,
    "geom:bbox": "-122.515600,36.741690,-121.588730,37.686180",
    "geom:latitude": 37.23300703191961,
    "geom:longitude": -122.14167274568759,
    "src:alt_label": "swim-takeoff",
    "src:geom": "swim",
    "swim:elevations": [
      213,
      691,
      1011,
      1198,
      1303,
      1738,
      2265,
      2754,
      2910,
      3398,
      3531,
      3804,
      4336,
      4554,
      5083,
      5271,
      5702,
      5810,
      6149,
      6530,
      6806,
      6912,
      7021,
      7269,
      7451,
      7780,
      7955,
      7990,
      8230,
      8325,
      8388,
      8644
    ],
    "swim:geom": "takeoff",
    "swim:timestamps": [
      1767032965,
      1767032993,
      1767033024,
      1767033055,
      1767033075,
      1767033109,
      1767033139,
      1767033177,
      1767033187,
      1767033231,
      1767033249,
      1767033275,
      1767033322,
      1767033340,
      1767033387,
      1767033405,
      1767033448,
      1767033457,
      1767033487,
      1767033527,
      1767033560,
      1767033575,
      1767033590,
      1767033628,
      1767033647,
      1767033689,
      1767033713,
      1767033722,
      1767033753,
      1767033771,
      1767033781,
      1767033819
    ],
    "wof:geomhash": "8346fa07ea04be1b684851cceb8d5e39",
    "wof:id": 2014430887,
    "wof:repo": "sfomuseum-data-flights-2025-12"
  },
  "bbox": [
    -122.5156,
    36.74169,
    -121.58873,
    37.68618
  ],
  "geometry": {"coordinates":[[-122.36883,37.62967],[-122.36449,37.64874],[-122.36282,37.66867],[-122.38135,37.68618],[-122.40613,37.6837],[-122.45379,37.67156],[-122.49722,37.65676],[-122.5156,37.61193],[-122.51482,37.59766],[-122.51004,37.53478],[-122.50741,37.50697],[-122.48333,37.47106],[-122.41389,37.4154],[-122.38707,37.39358],[-122.31538,37.33467],[-122.28719,37.31155],[-122.21882,37.25704],[-122.20383,37.2449],[-122.15624,37.20568],[-122.09282,37.15386],[-122.03737,37.10887],[-122.01257,37.08834],[-121.98747,37.06762],[-121.92394,37.01573],[-121.89101,36.98864],[-121.81939,36.93048],[-121.77751,36.89604],[-121.76161,36.88323],[-121.70593,36.83783],[-121.67415,36.81255],[-121.65624,36.79779],[-121.58873,36.74169]],"type":"LineString"}
}
