{
  "id": 2014418373,
  "type": "Feature",
  "properties": {
    "geom:area": 0,
    "geom:bbox": "-123.491380,36.965610,-122.173000,37.612230",
    "geom:latitude": 37.27887326751028,
    "geom:longitude": -122.74770311758421,
    "src:alt_label": "swim-approach",
    "src:geom": "swim",
    "swim:elevations": [
      6289,
      6128,
      5948,
      5852,
      5814,
      5572,
      5513,
      5409,
      5362,
      4906,
      4605,
      4186,
      3785,
      3470,
      3196,
      3048,
      3048,
      3048,
      3048,
      3048,
      2824,
      2575,
      2492,
      2438,
      2344,
      2094,
      1856,
      1829,
      1829,
      1829,
      1829,
      1668,
      1524,
      1355,
      1295,
      1096,
      944,
      765,
      611,
      565,
      305,
      192,
      143,
      86,
      3
    ],
    "swim:geom": "approach",
    "swim:timestamps": [
      1766962377,
      1766962408,
      1766962438,
      1766962465,
      1766962473,
      1766962522,
      1766962534,
      1766962555,
      1766962568,
      1766962604,
      1766962628,
      1766962670,
      1766962706,
      1766962736,
      1766962760,
      1766962789,
      1766962825,
      1766962852,
      1766962869,
      1766962878,
      1766962914,
      1766962945,
      1766962954,
      1766963004,
      1766963022,
      1766963061,
      1766963093,
      1766963126,
      1766963132,
      1766963156,
      1766963162,
      1766963211,
      1766963237,
      1766963273,
      1766963286,
      1766963333,
      1766963362,
      1766963382,
      1766963417,
      1766963446,
      1766963480,
      1766963513,
      1766963528,
      1766963537,
      1766963555
    ],
    "wof:geomhash": "caf1eff573b32346df0821ca8375914d",
    "wof:id": 2014418373,
    "wof:repo": "sfomuseum-data-flights-2025-12"
  },
  "bbox": [
    -123.49138,
    36.96561,
    -122.173,
    37.61223
  ],
  "geometry": {"coordinates":[[-123.49138,36.96561],[-123.44004,36.98887],[-123.39097,37.01181],[-123.34884,37.03206],[-123.33619,37.03801],[-123.25925,37.07388],[-123.2404,37.08267],[-123.20688,37.09839],[-123.18673,37.10783],[-123.12997,37.13414],[-123.09239,37.15186],[-123.0277,37.18163],[-122.97325,37.20674],[-122.92834,37.22754],[-122.8922,37.24428],[-122.84696,37.26112],[-122.79376,37.27374],[-122.75669,37.28249],[-122.7341,37.28791],[-122.72179,37.29079],[-122.6712,37.30251],[-122.62611,37.31301],[-122.61306,37.31607],[-122.53886,37.33327],[-122.51236,37.33922],[-122.45611,37.35248],[-122.40987,37.36297],[-122.362,37.37399],[-122.35327,37.37604],[-122.31743,37.38423],[-122.30835,37.38629],[-122.24345,37.41361],[-122.21387,37.43163],[-122.17899,37.45552],[-122.173,37.46689],[-122.18203,37.50738],[-122.20424,37.52631],[-122.21972,37.53847],[-122.24556,37.55915],[-122.2686,37.57273],[-122.29757,37.5857],[-122.32482,37.59723],[-122.33706,37.60269],[-122.34465,37.60596],[-122.35954,37.61223]],"type":"LineString"}
}
