{
  "id": 2014435101,
  "type": "Feature",
  "properties": {
    "geom:area": 0,
    "geom:bbox": "-122.758440,37.419320,-122.150720,38.379280",
    "geom:latitude": 37.801453040516485,
    "geom:longitude": -122.48180443696819,
    "src:alt_label": "swim-approach",
    "src:geom": "swim",
    "swim:elevations": [
      7620,
      7407,
      7088,
      6775,
      6271,
      6086,
      5579,
      5389,
      5259,
      5126,
      4919,
      4411,
      4269,
      3949,
      3616,
      3458,
      3351,
      3353,
      3353,
      3353,
      3353,
      3353,
      3353,
      3048,
      3000,
      2698,
      2437,
      2031,
      1799,
      1322,
      1216,
      1200,
      1030,
      886,
      786,
      548,
      430,
      327,
      257,
      111,
      53
    ],
    "swim:geom": "approach",
    "swim:timestamps": [
      1767091969,
      1767091990,
      1767092019,
      1767092047,
      1767092091,
      1767092108,
      1767092157,
      1767092185,
      1767092198,
      1767092210,
      1767092229,
      1767092278,
      1767092294,
      1767092327,
      1767092366,
      1767092386,
      1767092425,
      1767092449,
      1767092471,
      1767092502,
      1767092529,
      1767092574,
      1767092598,
      1767092634,
      1767092640,
      1767092692,
      1767092723,
      1767092758,
      1767092780,
      1767092830,
      1767092856,
      1767092889,
      1767092924,
      1767092956,
      1767092973,
      1767093024,
      1767093055,
      1767093082,
      1767093097,
      1767093134,
      1767093153
    ],
    "wof:geomhash": "e921c6ff8380e893f571963cb71d24fc",
    "wof:id": 2014435101,
    "wof:repo": "sfomuseum-data-flights-2025-12"
  },
  "bbox": [
    -122.75844,
    37.41932,
    -122.15072,
    38.37928
  ],
  "geometry": {"coordinates":[[-122.60933,38.37928],[-122.64114,38.34778],[-122.68256,38.30732],[-122.7239,38.26713],[-122.75844,38.19865],[-122.7513,38.16985],[-122.72846,38.08944],[-122.71551,38.04537],[-122.70959,38.02507],[-122.704,38.00574],[-122.6959,37.97772],[-122.67046,37.9024],[-122.65386,37.88133],[-122.61392,37.84345],[-122.56734,37.7994],[-122.54429,37.77782],[-122.50113,37.73699],[-122.47615,37.7135],[-122.45391,37.6926],[-122.4217,37.66228],[-122.3934,37.63557],[-122.35538,37.5952],[-122.34295,37.57199],[-122.32464,37.53642],[-122.32077,37.53012],[-122.2914,37.48208],[-122.27498,37.45493],[-122.24699,37.42852],[-122.21997,37.41932],[-122.16408,37.43457],[-122.15072,37.46022],[-122.15152,37.4903],[-122.17326,37.51739],[-122.19205,37.54076],[-122.20763,37.5485],[-122.25308,37.56739],[-122.27795,37.57774],[-122.30042,37.58728],[-122.31202,37.59214],[-122.34168,37.60461],[-122.3578,37.61147]],"type":"LineString"}
}
