{
  "id": 2014413599,
  "type": "Feature",
  "properties": {
    "geom:area": 0,
    "geom:bbox": "-122.465920,36.721070,-121.297130,37.707020",
    "geom:latitude": 37.208262491823554,
    "geom:longitude": -121.98800905393783,
    "src:alt_label": "swim-takeoff",
    "src:geom": "swim",
    "swim:elevations": [
      213,
      614,
      793,
      1037,
      1150,
      1270,
      1417,
      1613,
      2322,
      2538,
      2814,
      3055,
      3291,
      3482,
      3757,
      3929,
      4162,
      4484,
      4514,
      4792,
      5339,
      5423,
      5762,
      6009,
      6219,
      6368,
      6554,
      6690,
      6938,
      7072,
      7204,
      7267
    ],
    "swim:geom": "takeoff",
    "swim:timestamps": [
      1766832832,
      1766832866,
      1766832884,
      1766832914,
      1766832936,
      1766832958,
      1766832977,
      1766832997,
      1766833044,
      1766833068,
      1766833095,
      1766833112,
      1766833144,
      1766833188,
      1766833225,
      1766833250,
      1766833280,
      1766833316,
      1766833321,
      1766833352,
      1766833420,
      1766833441,
      1766833485,
      1766833521,
      1766833554,
      1766833575,
      1766833609,
      1766833633,
      1766833672,
      1766833698,
      1766833729,
      1766833741
    ],
    "wof:geomhash": "958ccb75af2ca7180722ad049f4da4c9",
    "wof:id": 2014413599,
    "wof:repo": "sfomuseum-data-flights-2025-12"
  },
  "bbox": [
    -122.46592,
    36.72107,
    -121.29713,
    37.70702
  ],
  "geometry": {"coordinates":[[-122.36694,37.63211],[-122.36301,37.65757],[-122.36294,37.67218],[-122.36731,37.69536],[-122.38867,37.70702],[-122.41758,37.7044],[-122.43839,37.68842],[-122.44333,37.66401],[-122.44188,37.60292],[-122.45014,37.57282],[-122.46251,37.53453],[-122.46592,37.5107],[-122.44231,37.46916],[-122.3739,37.42497],[-122.31001,37.3842],[-122.26555,37.35559],[-122.21252,37.32138],[-122.14524,37.27762],[-122.13683,37.27214],[-122.07701,37.23328],[-121.9474,37.14889],[-121.90668,37.12233],[-121.82119,37.06644],[-121.75021,37.01997],[-121.68236,36.97552],[-121.64073,36.94809],[-121.57084,36.902],[-121.52293,36.8705],[-121.44116,36.81641],[-121.38685,36.78051],[-121.3226,36.73792],[-121.29713,36.72107]],"type":"LineString"}
}
