{
  "id": 2014443713,
  "type": "Feature",
  "properties": {
    "geom:area": 0,
    "geom:bbox": "-123.489860,36.976400,-122.190790,37.386670",
    "geom:latitude": 37.23288397287235,
    "geom:longitude": -122.85745859693043,
    "src:alt_label": "swim-approach",
    "src:geom": "swim",
    "swim:elevations": [
      5426,
      5156,
      4968,
      4771,
      4702,
      4317,
      4170,
      3909,
      3851,
      3704,
      3516,
      3465,
      3249,
      3124,
      3048,
      2976,
      2896,
      2655,
      2588,
      2439,
      2438,
      2438,
      2438,
      2438,
      2438,
      2438,
      2173,
      2005,
      1722,
      1588
    ],
    "swim:geom": "approach",
    "swim:timestamps": [
      1767191515,
      1767191548,
      1767191578,
      1767191602,
      1767191613,
      1767191665,
      1767191683,
      1767191721,
      1767191730,
      1767191751,
      1767191781,
      1767191794,
      1767191832,
      1767191854,
      1767191903,
      1767191937,
      1767191953,
      1767191994,
      1767192007,
      1767192051,
      1767192072,
      1767192111,
      1767192129,
      1767192168,
      1767192206,
      1767192216,
      1767192267,
      1767192287,
      1767192327,
      1767192351
    ],
    "wof:geomhash": "07cf23a60809c439ef338fe582ecb606",
    "wof:id": 2014443713,
    "wof:repo": "sfomuseum-data-flights-2025-12"
  },
  "bbox": [
    -123.48986,
    36.9764,
    -122.19079,
    37.38667
  ],
  "geometry": {"coordinates":[[-123.48986,36.9764],[-123.43306,37.01084],[-123.37936,37.04383],[-123.3382,37.06903],[-123.32019,37.08],[-123.2351,37.13205],[-123.20628,37.14958],[-123.14587,37.18521],[-123.13029,37.19204],[-123.09156,37.20415],[-123.03717,37.21715],[-123.01563,37.2221],[-122.95125,37.23683],[-122.91443,37.24542],[-122.83457,37.26411],[-122.77912,37.27726],[-122.75314,37.28336],[-122.68881,37.29843],[-122.66982,37.30289],[-122.60617,37.31762],[-122.57583,37.32449],[-122.52052,37.33733],[-122.49436,37.34342],[-122.43866,37.35196],[-122.38645,37.34797],[-122.37377,37.34713],[-122.30422,37.34635],[-122.27721,37.35568],[-122.22301,37.37518],[-122.19079,37.38667]],"type":"LineString"}
}
