{
  "id": 2014426931,
  "type": "Feature",
  "properties": {
    "geom:area": 0,
    "geom:bbox": "-122.481370,37.346510,-122.132600,37.612650",
    "geom:latitude": 37.46128836925956,
    "geom:longitude": -122.26958667639522,
    "src:alt_label": "swim-approach",
    "src:geom": "swim",
    "swim:elevations": [
      2436,
      2446,
      2455,
      2450,
      2460,
      2437,
      2234,
      2191,
      1778,
      1519,
      1309,
      1218,
      1217,
      1177,
      957,
      826,
      654,
      438,
      368,
      320,
      212,
      51,
      0
    ],
    "swim:geom": "approach",
    "swim:timestamps": [
      1766995219,
      1766995257,
      1766995263,
      1766995285,
      1766995318,
      1766995339,
      1766995378,
      1766995381,
      1766995411,
      1766995433,
      1766995453,
      1766995491,
      1766995511,
      1766995532,
      1766995579,
      1766995599,
      1766995631,
      1766995663,
      1766995678,
      1766995702,
      1766995727,
      1766995766,
      1766995775
    ],
    "wof:geomhash": "1c20e52a279bad45308366acf1732ea5",
    "wof:id": 2014426931,
    "wof:repo": "sfomuseum-data-flights-2025-12"
  },
  "bbox": [
    -122.48137,
    37.34651,
    -122.1326,
    37.61265
  ],
  "geometry": {"coordinates":[[-122.48137,37.34651],[-122.42509,37.3595],[-122.41594,37.36157],[-122.38175,37.36953],[-122.33284,37.38066],[-122.30151,37.38788],[-122.2476,37.4002],[-122.24348,37.40114],[-122.20195,37.41071],[-122.17212,37.41901],[-122.15326,37.43694],[-122.13447,37.47727],[-122.1326,37.49662],[-122.14512,37.51312],[-122.18625,37.53942],[-122.20687,37.54776],[-122.23874,37.56134],[-122.26946,37.57427],[-122.28317,37.57978],[-122.30248,37.58824],[-122.32272,37.59677],[-122.35309,37.60947],[-122.36009,37.61265]],"type":"LineString"}
}
