{
  "id": 2014420209,
  "type": "Feature",
  "properties": {
    "geom:area": 0,
    "geom:bbox": "-122.444950,36.754660,-121.288580,37.710740",
    "geom:latitude": 37.25315236209355,
    "geom:longitude": -121.92680283897347,
    "src:alt_label": "swim-takeoff",
    "src:geom": "swim",
    "swim:elevations": [
      213,
      479,
      728,
      1174,
      1599,
      1927,
      2319,
      2398,
      2824,
      3198,
      3401,
      3634,
      4253,
      4346,
      4797,
      4983,
      5349,
      5411,
      5716,
      5904,
      6365,
      6488,
      6885,
      6920,
      7010,
      7010,
      7010,
      7010,
      7010,
      7010
    ],
    "swim:geom": "takeoff",
    "swim:timestamps": [
      1766918237,
      1766918261,
      1766918291,
      1766918338,
      1766918367,
      1766918395,
      1766918427,
      1766918432,
      1766918461,
      1766918497,
      1766918533,
      1766918554,
      1766918608,
      1766918617,
      1766918667,
      1766918686,
      1766918719,
      1766918735,
      1766918772,
      1766918793,
      1766918848,
      1766918862,
      1766918908,
      1766918912,
      1766918963,
      1766918987,
      1766919008,
      1766919033,
      1766919087,
      1766919110
    ],
    "wof:geomhash": "49ec47beb1b94d08ad4c7c87eaeda834",
    "wof:id": 2014420209,
    "wof:repo": "sfomuseum-data-flights-2025-12"
  },
  "bbox": [
    -122.44495,
    36.75466,
    -121.28858,
    37.71074
  ],
  "geometry": {"coordinates":[[-122.36661,37.63231],[-122.36416,37.65138],[-122.36203,37.67629],[-122.39596,37.71074],[-122.43385,37.69638],[-122.44495,37.66154],[-122.42466,37.62234],[-122.41826,37.618],[-122.38192,37.59173],[-122.33546,37.5569],[-122.28483,37.51815],[-122.25315,37.49396],[-122.17094,37.43097],[-122.15788,37.42111],[-122.07626,37.35974],[-122.04601,37.33637],[-121.98971,37.29328],[-121.9627,37.2728],[-121.90005,37.2253],[-121.86336,37.19744],[-121.76646,37.12348],[-121.74206,37.10474],[-121.66052,37.04202],[-121.6533,37.03646],[-121.55961,36.96425],[-121.51629,36.93084],[-121.47651,36.90024],[-121.43049,36.86459],[-121.33117,36.78781],[-121.28858,36.75466]],"type":"LineString"}
}
