{
  "id": 2014421987,
  "type": "Feature",
  "properties": {
    "geom:area": 0,
    "geom:bbox": "-122.440370,36.791530,-121.515160,37.706250",
    "geom:latitude": 37.2515605037322,
    "geom:longitude": -122.06559503586483,
    "src:alt_label": "swim-takeoff",
    "src:geom": "swim",
    "swim:elevations": [
      243,
      328,
      1097,
      1284,
      1436,
      1794,
      2230,
      2738,
      3044,
      3236,
      3597,
      3948,
      4255,
      4836,
      5220,
      5293,
      5722,
      5952,
      6385,
      6598,
      6812,
      7302,
      7585,
      7666,
      8228,
      8230,
      8230,
      8230
    ],
    "swim:geom": "takeoff",
    "swim:timestamps": [
      1766919295,
      1766919302,
      1766919356,
      1766919382,
      1766919394,
      1766919421,
      1766919448,
      1766919475,
      1766919498,
      1766919510,
      1766919547,
      1766919584,
      1766919607,
      1766919655,
      1766919684,
      1766919691,
      1766919740,
      1766919758,
      1766919795,
      1766919821,
      1766919843,
      1766919896,
      1766919924,
      1766919933,
      1766919987,
      1766920017,
      1766920027,
      1766920054
    ],
    "wof:geomhash": "a702316340c0c7865173b478c20380d5",
    "wof:id": 2014421987,
    "wof:repo": "sfomuseum-data-flights-2025-12"
  },
  "bbox": [
    -122.44037,
    36.79153,
    -121.51516,
    37.70625
  ],
  "geometry": {"coordinates":[[-122.3655,37.63497],[-122.36404,37.63979],[-122.36217,37.68013],[-122.37436,37.70118],[-122.38943,37.70625],[-122.42618,37.6944],[-122.44037,37.66161],[-122.43759,37.62436],[-122.43485,37.59399],[-122.43312,37.57593],[-122.42742,37.51944],[-122.38911,37.46875],[-122.35078,37.44085],[-122.27184,37.38031],[-122.22204,37.34226],[-122.20982,37.33298],[-122.12318,37.26631],[-122.09041,37.24084],[-122.02458,37.18967],[-121.97467,37.15086],[-121.93267,37.11814],[-121.83146,37.03896],[-121.77415,36.9942],[-121.75795,36.98157],[-121.6493,36.89678],[-121.59016,36.85088],[-121.56919,36.83331],[-121.51516,36.79153]],"type":"LineString"}
}
