{
  "id": 2014438965,
  "type": "Feature",
  "properties": {
    "geom:area": 0,
    "geom:bbox": "-122.466890,37.219940,-121.262210,37.716750",
    "geom:latitude": 37.41688934772742,
    "geom:longitude": -121.98699432869438,
    "src:alt_label": "swim-takeoff",
    "src:geom": "swim",
    "swim:elevations": [
      313,
      563,
      770,
      1199,
      1370,
      2034,
      2342,
      2573,
      3361,
      3463,
      3961,
      4304,
      4542,
      4931,
      5364,
      5794,
      6192,
      6512,
      6688,
      7207,
      7330,
      7756,
      7798,
      8212,
      8382,
      8616,
      8937,
      9112
    ],
    "swim:geom": "takeoff",
    "swim:timestamps": [
      1767111556,
      1767111593,
      1767111617,
      1767111649,
      1767111661,
      1767111712,
      1767111734,
      1767111751,
      1767111804,
      1767111813,
      1767111849,
      1767111888,
      1767111910,
      1767111941,
      1767111975,
      1767112013,
      1767112043,
      1767112073,
      1767112089,
      1767112137,
      1767112149,
      1767112197,
      1767112201,
      1767112253,
      1767112275,
      1767112303,
      1767112344,
      1767112366
    ],
    "wof:geomhash": "dc379439e3faf4d4b39db20c01c41897",
    "wof:id": 2014438965,
    "wof:repo": "sfomuseum-data-flights-2025-12"
  },
  "bbox": [
    -122.46689,
    37.21994,
    -121.26221,
    37.71675
  ],
  "geometry": {"coordinates":[[-122.36654,37.63617],[-122.36479,37.66572],[-122.3615,37.69015],[-122.38825,37.71569],[-122.40478,37.71675],[-122.44949,37.68037],[-122.45271,37.65386],[-122.45595,37.63209],[-122.46526,37.56248],[-122.46689,37.54952],[-122.45849,37.49873],[-122.39041,37.47018],[-122.34357,37.46025],[-122.27678,37.44556],[-122.20108,37.42885],[-122.11579,37.41032],[-122.04805,37.39561],[-121.97851,37.3803],[-121.94232,37.37228],[-121.82934,37.34742],[-121.79906,37.34071],[-121.68464,37.31524],[-121.6733,37.31266],[-121.5465,37.28436],[-121.49163,37.27201],[-121.42087,37.25581],[-121.3169,37.23278],[-121.26221,37.21994]],"type":"LineString"}
}
