{
  "id": 2014412197,
  "type": "Feature",
  "properties": {
    "geom:area": 0,
    "geom:bbox": "-122.365640,37.629140,-121.275690,37.960090",
    "geom:latitude": 37.835044883864235,
    "geom:longitude": -121.83551407174653,
    "src:alt_label": "swim-takeoff",
    "src:geom": "swim",
    "swim:elevations": [
      122,
      403,
      575,
      909,
      1044,
      1716,
      1967,
      2448,
      2698,
      3044,
      3470,
      3502,
      3742,
      3877,
      4305,
      4496,
      4864,
      5284,
      5434,
      5605,
      5934,
      6112,
      6530
    ],
    "swim:geom": "takeoff",
    "swim:timestamps": [
      1766823117,
      1766823135,
      1766823164,
      1766823202,
      1766823220,
      1766823264,
      1766823281,
      1766823315,
      1766823336,
      1766823360,
      1766823417,
      1766823427,
      1766823458,
      1766823472,
      1766823505,
      1766823520,
      1766823555,
      1766823595,
      1766823620,
      1766823636,
      1766823672,
      1766823693,
      1766823745
    ],
    "wof:geomhash": "a51140956bd7de0e80ad267b8adcb8b9",
    "wof:id": 2014412197,
    "wof:repo": "sfomuseum-data-flights-2025-12"
  },
  "bbox": [
    -122.36564,
    37.62914,
    -121.27569,
    37.96009
  ],
  "geometry": {"coordinates":[[-122.36564,37.62914],[-122.35409,37.64103],[-122.32778,37.65586],[-122.28521,37.67951],[-122.26316,37.69219],[-122.20622,37.72208],[-122.18289,37.73419],[-122.13724,37.7574],[-122.10858,37.77242],[-122.07589,37.78983],[-121.98783,37.82898],[-121.96917,37.83316],[-121.90579,37.84495],[-121.87744,37.84997],[-121.80701,37.86261],[-121.77549,37.86842],[-121.70153,37.88202],[-121.61436,37.89758],[-121.56024,37.90752],[-121.52387,37.91429],[-121.4445,37.92919],[-121.39763,37.9378],[-121.27569,37.96009]],"type":"LineString"}
}
