{
  "id": 2014443433,
  "type": "Feature",
  "properties": {
    "geom:area": 0,
    "geom:bbox": "-122.361540,36.723130,-121.879410,37.613640",
    "geom:latitude": 37.21995820159853,
    "geom:longitude": -122.0818170819387,
    "src:alt_label": "swim-approach",
    "src:geom": "swim",
    "swim:elevations": [
      5187,
      4959,
      4688,
      4427,
      4236,
      4060,
      3839,
      3689,
      3386,
      3078,
      2877,
      2704,
      2657,
      2345,
      2024,
      1828,
      1829,
      1829,
      1562,
      1282,
      1206,
      1055,
      940,
      856,
      807,
      571,
      470,
      373,
      234,
      124,
      52,
      164
    ],
    "swim:geom": "approach",
    "swim:timestamps": [
      1767186926,
      1767186950,
      1767186985,
      1767187017,
      1767187042,
      1767187066,
      1767187097,
      1767187115,
      1767187154,
      1767187194,
      1767187224,
      1767187255,
      1767187262,
      1767187307,
      1767187348,
      1767187377,
      1767187398,
      1767187412,
      1767187461,
      1767187499,
      1767187508,
      1767187529,
      1767187557,
      1767187583,
      1767187598,
      1767187641,
      1767187659,
      1767187680,
      1767187712,
      1767187737,
      1767187766,
      1767187770
    ],
    "wof:geomhash": "278d479c7435b02d46655b7a010ff090",
    "wof:id": 2014443433,
    "wof:repo": "sfomuseum-data-flights-2025-12"
  },
  "bbox": [
    -122.36154,
    36.72313,
    -121.87941,
    37.61364
  ],
  "geometry": {"coordinates":[[-121.87941,36.72313],[-121.89848,36.75936],[-121.91426,36.8137],[-121.92839,36.86458],[-121.93864,36.90124],[-121.94887,36.9381],[-121.96572,36.98465],[-121.97635,37.01189],[-121.99912,37.07037],[-122.02225,37.12878],[-122.03913,37.17245],[-122.05591,37.21525],[-122.05961,37.22455],[-122.09489,37.27576],[-122.13758,37.31072],[-122.16714,37.33457],[-122.18752,37.35362],[-122.19215,37.36952],[-122.16032,37.41688],[-122.14424,37.45709],[-122.1407,37.46691],[-122.14067,37.4905],[-122.16401,37.51754],[-122.18623,37.53862],[-122.20236,37.54615],[-122.24964,37.56598],[-122.26896,37.57416],[-122.28794,37.58219],[-122.31565,37.59376],[-122.33596,37.60227],[-122.35821,37.61178],[-122.36154,37.61364]],"type":"LineString"}
}
