{
  "id": 2014430599,
  "type": "Feature",
  "properties": {
    "geom:area": 0,
    "geom:bbox": "-122.365660,37.629960,-121.258100,38.417810",
    "geom:latitude": 38.0341764632221,
    "geom:longitude": -121.82109776879742,
    "src:alt_label": "swim-takeoff",
    "src:geom": "swim",
    "swim:elevations": [
      201,
      669,
      1051,
      1193,
      1294,
      1393,
      1733,
      2226,
      2648,
      2778,
      3052,
      3290,
      3427,
      3621,
      3702,
      4026,
      4187,
      4537,
      4765,
      4914,
      5309,
      5433,
      5525,
      5654,
      5952,
      6214,
      6377,
      6532,
      6706,
      6793
    ],
    "swim:geom": "takeoff",
    "swim:timestamps": [
      1767028307,
      1767028339,
      1767028377,
      1767028406,
      1767028425,
      1767028448,
      1767028480,
      1767028523,
      1767028551,
      1767028561,
      1767028584,
      1767028617,
      1767028641,
      1767028678,
      1767028698,
      1767028738,
      1767028756,
      1767028783,
      1767028810,
      1767028830,
      1767028875,
      1767028895,
      1767028916,
      1767028933,
      1767028963,
      1767028996,
      1767029019,
      1767029045,
      1767029079,
      1767029091
    ],
    "wof:geomhash": "35331c5cb10d92e66e9b80e4d61776cd",
    "wof:id": 2014430599,
    "wof:repo": "sfomuseum-data-flights-2025-12"
  },
  "bbox": [
    -122.36566,
    37.62996,
    -121.2581,
    38.41781
  ],
  "geometry": {"coordinates":[[-122.36566,37.62996],[-122.34301,37.6473],[-122.31422,37.66345],[-122.28909,37.6777],[-122.26995,37.68908],[-122.24432,37.70278],[-122.20468,37.72756],[-122.16529,37.77255],[-122.13875,37.80232],[-122.12999,37.81201],[-122.10769,37.8361],[-122.07497,37.87184],[-122.04477,37.89607],[-121.9913,37.93208],[-121.9588,37.95424],[-121.8924,37.9992],[-121.86216,38.01954],[-121.81608,38.05057],[-121.77046,38.0812],[-121.73564,38.10454],[-121.65673,38.15752],[-121.62177,38.18094],[-121.58316,38.20687],[-121.55241,38.22746],[-121.49722,38.26443],[-121.43776,38.30406],[-121.39607,38.3318],[-121.34668,38.36355],[-121.28118,38.40355],[-121.2581,38.41781]],"type":"LineString"}
}
