{
  "id": 2014435097,
  "type": "Feature",
  "properties": {
    "geom:area": 0,
    "geom:bbox": "-122.343060,36.743190,-121.892630,37.605270",
    "geom:latitude": 37.21318204762234,
    "geom:longitude": -122.0700124108558,
    "src:alt_label": "swim-approach",
    "src:geom": "swim",
    "swim:elevations": [
      4586,
      4400,
      4017,
      3940,
      3656,
      3433,
      3247,
      2783,
      2716,
      2486,
      2438,
      2438,
      2438,
      2237,
      2118,
      1853,
      1552,
      1396,
      1278,
      1056,
      803,
      660,
      565,
      418,
      301,
      150,
      98
    ],
    "swim:geom": "approach",
    "swim:timestamps": [
      1767113120,
      1767113140,
      1767113182,
      1767113193,
      1767113228,
      1767113272,
      1767113287,
      1767113336,
      1767113345,
      1767113375,
      1767113407,
      1767113457,
      1767113482,
      1767113516,
      1767113537,
      1767113567,
      1767113605,
      1767113627,
      1767113651,
      1767113690,
      1767113722,
      1767113745,
      1767113760,
      1767113785,
      1767113807,
      1767113842,
      1767113856
    ],
    "wof:geomhash": "3da41f2489de455f1ba40698b702159d",
    "wof:id": 2014435097,
    "wof:repo": "sfomuseum-data-flights-2025-12"
  },
  "bbox": [
    -122.34306,
    36.74319,
    -121.89263,
    37.60527
  ],
  "geometry": {"coordinates":[[-121.89263,36.74319],[-121.90432,36.77781],[-121.92389,36.84705],[-121.92858,36.86396],[-121.94433,36.91981],[-121.96658,36.98574],[-121.97458,37.00632],[-122.00098,37.07403],[-122.00547,37.08554],[-122.02133,37.12611],[-122.03841,37.16974],[-122.06387,37.23482],[-122.07707,37.2684],[-122.0942,37.31243],[-122.10442,37.33906],[-122.11936,37.3762],[-122.1363,37.42462],[-122.14573,37.45236],[-122.15915,37.48184],[-122.19191,37.52471],[-122.22092,37.55325],[-122.24978,37.56443],[-122.26599,37.57174],[-122.2902,37.58235],[-122.30776,37.59012],[-122.3329,37.60085],[-122.34306,37.60527]],"type":"LineString"}
}
