{
  "id": 2014417595,
  "type": "Feature",
  "properties": {
    "geom:area": 0,
    "geom:bbox": "-122.355750,36.742980,-121.891140,37.610640",
    "geom:latitude": 37.22063287077358,
    "geom:longitude": -122.07340738685757,
    "src:alt_label": "swim-approach",
    "src:geom": "swim",
    "swim:elevations": [
      5725,
      5426,
      5308,
      5010,
      4562,
      4407,
      4152,
      3985,
      3834,
      3723,
      3486,
      3180,
      3013,
      2712,
      2486,
      2438,
      2438,
      2438,
      2270,
      2211,
      1870,
      1527,
      1390,
      1079,
      1045,
      756,
      700,
      548,
      431,
      272,
      120,
      29
    ],
    "swim:geom": "approach",
    "swim:timestamps": [
      1766965526,
      1766965552,
      1766965571,
      1766965598,
      1766965643,
      1766965667,
      1766965701,
      1766965733,
      1766965763,
      1766965784,
      1766965817,
      1766965856,
      1766965874,
      1766965913,
      1766965942,
      1766965976,
      1766966003,
      1766966012,
      1766966060,
      1766966072,
      1766966120,
      1766966157,
      1766966174,
      1766966218,
      1766966222,
      1766966276,
      1766966286,
      1766966324,
      1766966351,
      1766966390,
      1766966426,
      1766966447
    ],
    "wof:geomhash": "0f18670613e5f9c4219adca79e958ef1",
    "wof:id": 2014417595,
    "wof:repo": "sfomuseum-data-flights-2025-12"
  },
  "bbox": [
    -122.35575,
    36.74298,
    -121.89114,
    37.61064
  ],
  "geometry": {"coordinates":[[-121.89114,36.74298],[-121.90403,36.77766],[-121.91121,36.80314],[-121.92155,36.84048],[-121.93969,36.90397],[-121.94941,36.93817],[-121.96564,36.98358],[-121.98154,37.02472],[-121.9953,37.05991],[-122.00455,37.08372],[-122.01849,37.11989],[-122.03514,37.16233],[-122.04286,37.18183],[-122.05926,37.22367],[-122.07159,37.25541],[-122.08571,37.29099],[-122.09705,37.31965],[-122.10081,37.3292],[-122.12008,37.3778],[-122.12396,37.38887],[-122.13815,37.43096],[-122.14905,37.46314],[-122.15408,37.47797],[-122.16708,37.51532],[-122.16821,37.51861],[-122.21114,37.54971],[-122.22069,37.55378],[-122.25562,37.56852],[-122.27863,37.57825],[-122.31006,37.59147],[-122.33895,37.60359],[-122.35575,37.61064]],"type":"LineString"}
}
