{
  "id": 2014447393,
  "type": "Feature",
  "properties": {
    "geom:area": 0,
    "geom:bbox": "-122.556790,36.745140,-122.362360,37.714460",
    "geom:latitude": 37.27029946695386,
    "geom:longitude": -122.47754703002887,
    "src:alt_label": "swim-takeoff",
    "src:geom": "swim",
    "swim:elevations": [
      245,
      405,
      970,
      1129,
      1224,
      1673,
      1845,
      1981,
      2713,
      3231,
      3444,
      4030,
      4183,
      4528,
      4636,
      5173,
      5468,
      5606,
      6179,
      6491,
      6851,
      7070,
      7191,
      7288,
      7439,
      7592,
      7619,
      7620,
      7620,
      7620
    ],
    "swim:geom": "takeoff",
    "swim:timestamps": [
      1767179518,
      1767179528,
      1767179576,
      1767179602,
      1767179616,
      1767179658,
      1767179666,
      1767179673,
      1767179714,
      1767179749,
      1767179787,
      1767179812,
      1767179820,
      1767179848,
      1767179858,
      1767179903,
      1767179932,
      1767179942,
      1767179992,
      1767180020,
      1767180056,
      1767180079,
      1767180091,
      1767180122,
      1767180177,
      1767180207,
      1767180211,
      1767180238,
      1767180266,
      1767180280
    ],
    "wof:geomhash": "3ec274a2ffd675e89fb604edd1896dff",
    "wof:id": 2014447393,
    "wof:repo": "sfomuseum-data-flights-2025-12"
  },
  "bbox": [
    -122.55679,
    36.74514,
    -122.36236,
    37.71446
  ],
  "geometry": {"coordinates":[[-122.36621,37.63383],[-122.36463,37.64145],[-122.36236,37.67936],[-122.37009,37.70345],[-122.38436,37.71446],[-122.44399,37.70879],[-122.45213,37.70033],[-122.45625,37.69259],[-122.46212,37.64389],[-122.46561,37.59997],[-122.46986,37.54659],[-122.473,37.5088],[-122.47396,37.49722],[-122.48081,37.45609],[-122.48358,37.44126],[-122.49656,37.37181],[-122.50501,37.32637],[-122.50796,37.31034],[-122.52298,37.22946],[-122.53134,37.18359],[-122.54224,37.12522],[-122.54936,37.08684],[-122.5532,37.06611],[-122.55679,37.01287],[-122.50242,36.92261],[-122.46517,36.87146],[-122.46037,36.86492],[-122.42554,36.81755],[-122.39061,36.76977],[-122.3726,36.74514]],"type":"LineString"}
}
