{
  "id": 2014445695,
  "type": "Feature",
  "properties": {
    "geom:area": 0,
    "geom:bbox": "-122.470290,37.208890,-121.249350,37.717210",
    "geom:latitude": 37.407952769230775,
    "geom:longitude": -121.98726871964837,
    "src:alt_label": "swim-takeoff",
    "src:geom": "swim",
    "swim:elevations": [
      244,
      525,
      689,
      1113,
      1341,
      2007,
      2193,
      2223,
      2607,
      2663,
      2745,
      2922,
      3408,
      3742,
      3842,
      4056,
      4327,
      4606,
      4924,
      5409,
      5588,
      5963,
      6120,
      6407,
      6753,
      7099,
      7222,
      7310,
      7466,
      7589,
      7628,
      7806,
      7881,
      8138,
      8335,
      8348
    ],
    "swim:geom": "takeoff",
    "swim:timestamps": [
      1767172348,
      1767172372,
      1767172400,
      1767172436,
      1767172455,
      1767172498,
      1767172515,
      1767172520,
      1767172553,
      1767172556,
      1767172561,
      1767172572,
      1767172607,
      1767172639,
      1767172654,
      1767172698,
      1767172727,
      1767172752,
      1767172778,
      1767172821,
      1767172847,
      1767172886,
      1767172902,
      1767172932,
      1767172962,
      1767173003,
      1767173033,
      1767173049,
      1767173075,
      1767173097,
      1767173106,
      1767173134,
      1767173142,
      1767173183,
      1767173218,
      1767173222
    ],
    "wof:geomhash": "248d4ad3a21bcf025b5681fdd60e05fe",
    "wof:id": 2014445695,
    "wof:repo": "sfomuseum-data-flights-2025-12"
  },
  "bbox": [
    -122.47029,
    37.20889,
    -121.24935,
    37.71721
  ],
  "geometry": {"coordinates":[[-122.36697,37.63347],[-122.36424,37.65288],[-122.36157,37.67846],[-122.38329,37.7116],[-122.40823,37.71721],[-122.45036,37.69119],[-122.45322,37.67386],[-122.45419,37.66776],[-122.45909,37.63017],[-122.45948,37.62665],[-122.45998,37.62194],[-122.46129,37.60893],[-122.46577,37.56695],[-122.47029,37.52673],[-122.46829,37.50669],[-122.419,37.46108],[-122.36186,37.44812],[-122.31159,37.43838],[-122.25859,37.42771],[-122.17004,37.40888],[-122.11535,37.39713],[-122.03207,37.37939],[-121.99808,37.3722],[-121.93128,37.35782],[-121.86621,37.34396],[-121.77624,37.32467],[-121.70767,37.3099],[-121.66959,37.30157],[-121.60888,37.2883],[-121.55616,37.27681],[-121.53466,37.27213],[-121.46739,37.2569],[-121.44701,37.25273],[-121.34519,37.2305],[-121.25696,37.21054],[-121.24935,37.20889]],"type":"LineString"}
}
