{
  "id": 2014421689,
  "type": "Feature",
  "properties": {
    "date:inception_lower": "2025-12-28",
    "date:inception_upper": "2025-12-28",
    "edtf:cessation": "",
    "edtf:inception": "2025-12-28",
    "flysfo:actual_timestamp": -1,
    "flysfo:airline": "SY",
    "flysfo:date": "2025-12-28",
    "flysfo:estimated_timestamp": 1766975040,
    "flysfo:event": "D",
    "flysfo:flight_number": "SY400",
    "flysfo:gate": "",
    "flysfo:journey": "SFO-MSP",
    "flysfo:scheduled_timestamp": 1766975040,
    "flysfo:timestamp": 1766975040,
    "geom:area": 0,
    "geom:bbox": "-122.370943,37.617990,-93.200317,44.883321",
    "geom:latitude": 41.2506555,
    "geom:longitude": -107.78563,
    "iata:airline": "SY",
    "icao:airline": "SCX",
    "lbl:latitude": 37.61799,
    "lbl:longitude": -122.370943,
    "sfomuseum:airline_id": 1159285227,
    "sfomuseum:arrival_id": 102531131,
    "sfomuseum:departure_id": 102527513,
    "sfomuseum:flight_id": "20251228-D-SCX-400",
    "sfomuseum:flight_number": [
      "SCX400",
      "SY400"
    ],
    "sfomuseum:placetype": "flight",
    "src:geom": "flysfo",
    "wof:belongsto": [],
    "wof:country": "US",
    "wof:created": 1767024926,
    "wof:geomhash": "bbdc3c5edf2b2678c807f6144214d82c",
    "wof:hierarchy": [
      {
        "custom_id": 2014421689,
        "flight_id": 2014421689
      }
    ],
    "wof:id": 2014421689,
    "wof:involves": [
      102531131,
      102527513,
      1159285227,
      -1
    ],
    "wof:lastmodified": 1767024926,
    "wof:name": "SY400 (SFO-MSP)",
    "wof:parent_id": -1,
    "wof:placetype": "custom",
    "wof:placetype_alt": [
      "flight"
    ],
    "wof:repo": "sfomuseum-data-flights-2025-12",
    "wof:superseded_by": [],
    "wof:supersedes": []
  },
  "bbox": [
    -122.370943,
    37.61799,
    -93.200317,
    44.883321
  ],
  "geometry": {"coordinates":[[-122.370943,37.61799],[-93.200317,44.883321]],"type":"MultiPoint"}
}
