{
  "id": 2014432105,
  "type": "Feature",
  "properties": {
    "geom:area": 0,
    "geom:bbox": "-122.358470,37.492070,-121.275250,37.614000",
    "geom:latitude": 37.54579687069501,
    "geom:longitude": -121.82168263778048,
    "src:alt_label": "swim-approach",
    "src:geom": "swim",
    "swim:elevations": [
      4685,
      4336,
      4092,
      3862,
      3615,
      3551,
      3270,
      2988,
      2700,
      2646,
      2413,
      2338,
      2221,
      1992,
      1886,
      1770,
      1608,
      1308,
      1289,
      996,
      917,
      802,
      671,
      516,
      300,
      153,
      58,
      0
    ],
    "swim:geom": "approach",
    "swim:timestamps": [
      1767089208,
      1767089248,
      1767089276,
      1767089308,
      1767089337,
      1767089347,
      1767089383,
      1767089418,
      1767089457,
      1767089465,
      1767089494,
      1767089505,
      1767089522,
      1767089570,
      1767089600,
      1767089622,
      1767089645,
      1767089697,
      1767089700,
      1767089757,
      1767089773,
      1767089798,
      1767089824,
      1767089854,
      1767089906,
      1767089938,
      1767089961,
      1767089971
    ],
    "wof:geomhash": "3652df38891ce5b8a8e5ce4e88539ec2",
    "wof:id": 2014432105,
    "wof:repo": "sfomuseum-data-flights-2025-12"
  },
  "bbox": [
    -122.35847,
    37.49207,
    -121.27525,
    37.614
  ],
  "geometry": {"coordinates":[[-121.27525,37.5911],[-121.35796,37.58183],[-121.41508,37.57541],[-121.47676,37.56807],[-121.53152,37.56183],[-121.55009,37.55966],[-121.61588,37.55188],[-121.67764,37.53822],[-121.74571,37.52219],[-121.75917,37.51897],[-121.8075,37.50701],[-121.8252,37.50262],[-121.85271,37.49599],[-121.92735,37.49207],[-121.97096,37.49336],[-122.00141,37.49907],[-122.03224,37.50932],[-122.09788,37.53035],[-122.1013,37.53143],[-122.16101,37.55058],[-122.1771,37.55592],[-122.20201,37.56392],[-122.22896,37.57259],[-122.25939,37.58259],[-122.30592,37.59608],[-122.33298,37.60417],[-122.35144,37.61109],[-122.35847,37.614]],"type":"LineString"}
}
