{
  "id": 2014422607,
  "type": "Feature",
  "properties": {
    "date:cessation_lower": "1970-01-01",
    "date:cessation_upper": "1970-01-01",
    "date:inception_lower": "2025-12-29",
    "date:inception_upper": "2025-12-29",
    "edtf:cessation": "1970-01-01T00:00:00Z",
    "edtf:inception": "2025-12-28T16:37:40-08:00",
    "flysfo:actual_timestamp": -1,
    "flysfo:airline": "UA",
    "flysfo:date": "2025-12-28",
    "flysfo:estimated_timestamp": 1766995440,
    "flysfo:event": "D",
    "flysfo:flight_number": "UA8198",
    "flysfo:gate": "",
    "flysfo:journey": "SFO-EWR",
    "flysfo:scheduled_timestamp": 1766988180,
    "flysfo:timestamp": 1766995440,
    "geom:area": 0,
    "geom:bbox": "-122.370943,37.617990,-74.177526,40.691243",
    "geom:latitude": 39.1546165,
    "geom:longitude": -98.2742345,
    "iata:airline": "UA",
    "icao:aircraft": "B752",
    "icao:airline": "UAL",
    "lbl:latitude": 37.61799,
    "lbl:longitude": -122.370943,
    "sfomuseum:aircraft_id": 1159289939,
    "sfomuseum:airline_id": 1159285413,
    "sfomuseum:arrival_id": 102530049,
    "sfomuseum:departure_id": 102527513,
    "sfomuseum:flight_id": "20251228-D-UAL-8198",
    "sfomuseum:flight_number": [
      "UAL8198",
      "UA8198"
    ],
    "sfomuseum:placetype": "flight",
    "src:geom": "flysfo",
    "src:geom_alt": [
      "swim-takeoff"
    ],
    "swim:tail_number": "N67134",
    "wof:belongsto": [],
    "wof:country": "US",
    "wof:created": 1767025029,
    "wof:geomhash": "5f8ba203e186fe379420b736bcf5de4f",
    "wof:hierarchy": [
      {
        "custom_id": 2014422607,
        "flight_id": 2014422607
      }
    ],
    "wof:id": 2014422607,
    "wof:involves": [
      1159289939,
      102530049,
      102527513,
      1159285413
    ],
    "wof:lastmodified": 1767025110,
    "wof:name": "UA8198 (SFO-EWR)",
    "wof:parent_id": -1,
    "wof:placetype": "custom",
    "wof:placetype_alt": [
      "flight"
    ],
    "wof:repo": "sfomuseum-data-flights-2025-12",
    "wof:superseded_by": [],
    "wof:supersedes": []
  },
  "bbox": [
    -122.370943,
    37.61799,
    -74.177526,
    40.691243
  ],
  "geometry": {"coordinates":[[-122.370943,37.61799],[-74.177526,40.691243]],"type":"MultiPoint"}
}
