{
  "id": 2014447333,
  "type": "Feature",
  "properties": {
    "geom:area": 0,
    "geom:bbox": "-122.429120,36.719330,-121.305360,37.693270",
    "geom:latitude": 37.206170644082654,
    "geom:longitude": -121.9501516703858,
    "src:alt_label": "swim-takeoff",
    "src:geom": "swim",
    "swim:elevations": [
      183,
      670,
      837,
      1009,
      1149,
      1240,
      1535,
      2208,
      2450,
      3082,
      3265,
      3434,
      3594,
      3805,
      4370,
      4390,
      4767,
      4854,
      5188,
      5446,
      5644,
      5867,
      6071,
      6253,
      6380,
      6551,
      6703,
      6963,
      7106,
      7151,
      7397,
      7467,
      7690,
      7912,
      8311,
      8477
    ],
    "swim:geom": "takeoff",
    "swim:timestamps": [
      1767172668,
      1767172703,
      1767172727,
      1767172752,
      1767172789,
      1767172812,
      1767172845,
      1767172886,
      1767172902,
      1767172945,
      1767172965,
      1767172998,
      1767173029,
      1767173049,
      1767173097,
      1767173100,
      1767173134,
      1767173142,
      1767173177,
      1767173209,
      1767173234,
      1767173261,
      1767173285,
      1767173315,
      1767173333,
      1767173354,
      1767173381,
      1767173426,
      1767173453,
      1767173465,
      1767173505,
      1767173520,
      1767173546,
      1767173561,
      1767173597,
      1767173618
    ],
    "wof:geomhash": "5d4a14f0b50e20cc9e1312a7228c5045",
    "wof:id": 2014447333,
    "wof:repo": "sfomuseum-data-flights-2025-12"
  },
  "bbox": [
    -122.42912,
    36.71933,
    -121.30536,
    37.69327
  ],
  "geometry": {"coordinates":[[-122.36844,37.62981],[-122.36352,37.65395],[-122.36188,37.67211],[-122.36767,37.69114],[-122.40874,37.69327],[-122.42729,37.67443],[-122.42912,37.63614],[-122.4256,37.58481],[-122.42294,37.56557],[-122.38239,37.52379],[-122.35965,37.50534],[-122.31831,37.47196],[-122.27566,37.43739],[-122.24651,37.41371],[-122.17707,37.35717],[-122.17259,37.35357],[-122.12271,37.31285],[-122.11048,37.30289],[-122.05907,37.26089],[-122.00937,37.2202],[-121.97275,37.19012],[-121.92979,37.15488],[-121.89295,37.12458],[-121.84588,37.08581],[-121.81709,37.06205],[-121.78151,37.03586],[-121.73113,37.0079],[-121.6428,36.96037],[-121.58936,36.93181],[-121.56547,36.919],[-121.49492,36.86874],[-121.46871,36.8482],[-121.42391,36.81317],[-121.39835,36.79316],[-121.33907,36.74583],[-121.30536,36.71933]],"type":"LineString"}
}
