{
  "id": 2014443691,
  "type": "Feature",
  "properties": {
    "geom:area": 0,
    "geom:bbox": "-122.362640,37.492560,-121.246370,37.613030",
    "geom:latitude": 37.54357685913884,
    "geom:longitude": -121.81117701658543,
    "src:alt_label": "swim-approach",
    "src:geom": "swim",
    "swim:elevations": [
      4668,
      4515,
      4115,
      3906,
      3497,
      3379,
      3114,
      3031,
      2781,
      2651,
      2531,
      2456,
      2374,
      2068,
      1897,
      1829,
      1610,
      1383,
      1308,
      1225,
      976,
      794,
      666,
      465,
      277,
      211,
      60,
      93
    ],
    "swim:geom": "approach",
    "swim:timestamps": [
      1767214165,
      1767214182,
      1767214222,
      1767214243,
      1767214285,
      1767214297,
      1767214342,
      1767214372,
      1767214399,
      1767214417,
      1767214434,
      1767214458,
      1767214471,
      1767214521,
      1767214552,
      1767214584,
      1767214614,
      1767214647,
      1767214665,
      1767214683,
      1767214722,
      1767214755,
      1767214779,
      1767214817,
      1767214853,
      1767214871,
      1767214906,
      1767214922
    ],
    "wof:geomhash": "eccbded1a604f7df29e2dafadb431f0f",
    "wof:id": 2014443691,
    "wof:repo": "sfomuseum-data-flights-2025-12"
  },
  "bbox": [
    -122.36264,
    37.49256,
    -121.24637,
    37.61303
  ],
  "geometry": {"coordinates":[[-121.24637,37.59506],[-121.28186,37.59031],[-121.36498,37.58103],[-121.40845,37.57609],[-121.49512,37.56614],[-121.51973,37.56324],[-121.60851,37.55281],[-121.66082,37.54198],[-121.70502,37.53171],[-121.73471,37.52472],[-121.76218,37.51812],[-121.79939,37.50913],[-121.81856,37.50449],[-121.8953,37.49256],[-121.94244,37.49631],[-121.98986,37.50034],[-122.02915,37.50338],[-122.07286,37.50683],[-122.09536,37.50868],[-122.11878,37.51186],[-122.16627,37.53074],[-122.20499,37.5473],[-122.23179,37.55848],[-122.27184,37.57526],[-122.30496,37.58928],[-122.31985,37.59557],[-122.3495,37.60792],[-122.36264,37.61303]],"type":"LineString"}
}
