{
  "id": 2014438975,
  "type": "Feature",
  "properties": {
    "geom:area": 0,
    "geom:bbox": "-122.498330,37.405740,-122.365110,37.717970",
    "geom:latitude": 37.59972932313945,
    "geom:longitude": -122.44586375594255,
    "src:alt_label": "swim-takeoff",
    "src:geom": "swim",
    "swim:elevations": [
      337,
      440,
      894,
      1155,
      1574,
      1913,
      2242,
      2823,
      2866,
      3262,
      3509,
      4102,
      4280
    ],
    "swim:geom": "takeoff",
    "swim:timestamps": [
      1767105348,
      1767105362,
      1767105411,
      1767105440,
      1767105474,
      1767105498,
      1767105524,
      1767105569,
      1767105572,
      1767105614,
      1767105649,
      1767105684,
      1767105695
    ],
    "wof:geomhash": "2221b0603d5776a2148fa132936fa5d2",
    "wof:id": 2014438975,
    "wof:repo": "sfomuseum-data-flights-2025-12"
  },
  "bbox": [
    -122.49833,
    37.40574,
    -122.36511,
    37.71797
  ],
  "geometry": {"coordinates":[[-122.36572,37.63972],[-122.36511,37.65124],[-122.36604,37.69816],[-122.39658,37.71797],[-122.4435,37.70404],[-122.45308,37.67773],[-122.45827,37.64673],[-122.46763,37.59081],[-122.46829,37.58694],[-122.47767,37.53041],[-122.4867,37.47568],[-122.49562,37.42235],[-122.49833,37.40574]],"type":"LineString"}
}
