{
  "id": 2014434043,
  "type": "Feature",
  "properties": {
    "geom:area": 0,
    "geom:bbox": "-122.363260,37.492180,-121.302340,37.615210",
    "geom:latitude": 37.54488276526038,
    "geom:longitude": -121.83746191780611,
    "src:alt_label": "swim-approach",
    "src:geom": "swim",
    "swim:elevations": [
      4488,
      4460,
      3998,
      3638,
      3394,
      3331,
      3108,
      2876,
      2630,
      2531,
      2449,
      2179,
      1979,
      1899,
      1771,
      1605,
      1382,
      1191,
      880,
      735,
      618,
      578,
      549,
      454,
      243,
      212,
      51,
      0
    ],
    "swim:geom": "approach",
    "swim:timestamps": [
      1767137038,
      1767137041,
      1767137089,
      1767137126,
      1767137152,
      1767137161,
      1767137212,
      1767137245,
      1767137278,
      1767137307,
      1767137324,
      1767137363,
      1767137396,
      1767137408,
      1767137453,
      1767137476,
      1767137504,
      1767137525,
      1767137574,
      1767137603,
      1767137627,
      1767137633,
      1767137651,
      1767137687,
      1767137728,
      1767137739,
      1767137786,
      1767137801
    ],
    "wof:geomhash": "003179126daa3c29fcc242e3d15b6c4d",
    "wof:id": 2014434043,
    "wof:repo": "sfomuseum-data-flights-2025-12"
  },
  "bbox": [
    -122.36326,
    37.49218,
    -121.30234,
    37.61521
  ],
  "geometry": {"coordinates":[[-121.30234,37.58762],[-121.30848,37.5869],[-121.40364,37.57641],[-121.47646,37.56806],[-121.52543,37.56228],[-121.54277,37.56022],[-121.63549,37.54829],[-121.68862,37.5355],[-121.7413,37.52286],[-121.78511,37.51236],[-121.80961,37.50652],[-121.86475,37.4933],[-121.91243,37.49218],[-121.92959,37.49242],[-121.99201,37.49587],[-122.0213,37.50587],[-122.05757,37.51732],[-122.08638,37.52674],[-122.1481,37.54673],[-122.1824,37.55788],[-122.20882,37.56643],[-122.21529,37.5685],[-122.23403,37.57443],[-122.27122,37.58628],[-122.30797,37.59686],[-122.31643,37.59934],[-122.3517,37.61125],[-122.36326,37.61521]],"type":"LineString"}
}
