{
  "id": 2014442233,
  "type": "Feature",
  "properties": {
    "geom:area": 0,
    "geom:bbox": "-122.761640,37.382090,-122.094750,38.503420",
    "geom:latitude": 37.7956329034946,
    "geom:longitude": -122.46377357883553,
    "src:alt_label": "swim-approach",
    "src:geom": "swim",
    "swim:elevations": [
      7674,
      7428,
      7126,
      7030,
      6624,
      6283,
      6015,
      5764,
      5583,
      5497,
      5059,
      4912,
      4663,
      4517,
      4249,
      3884,
      3740,
      3659,
      3404,
      3353,
      3353,
      3353,
      3353,
      3353,
      3312,
      3045,
      2889,
      2757,
      2499,
      2383,
      2127,
      1978,
      1872,
      1689,
      1543,
      1524,
      1524,
      1524,
      1400,
      1345,
      1103,
      890,
      729,
      694,
      434,
      249,
      163,
      88,
      226
    ],
    "swim:geom": "approach",
    "swim:timestamps": [
      1767207868,
      1767207895,
      1767207926,
      1767207938,
      1767207982,
      1767208018,
      1767208048,
      1767208075,
      1767208102,
      1767208115,
      1767208164,
      1767208182,
      1767208216,
      1767208237,
      1767208273,
      1767208312,
      1767208339,
      1767208351,
      1767208385,
      1767208431,
      1767208437,
      1767208466,
      1767208481,
      1767208528,
      1767208547,
      1767208584,
      1767208605,
      1767208627,
      1767208672,
      1767208698,
      1767208738,
      1767208768,
      1767208786,
      1767208822,
      1767208852,
      1767208869,
      1767208908,
      1767208939,
      1767208975,
      1767208983,
      1767209034,
      1767209065,
      1767209094,
      1767209100,
      1767209146,
      1767209189,
      1767209212,
      1767209230,
      1767209251
    ],
    "wof:geomhash": "a37bf17c3ec7c7ae8810b2731b8664f8",
    "wof:id": 2014442233,
    "wof:repo": "sfomuseum-data-flights-2025-12"
  },
  "bbox": [
    -122.76164,
    37.38209,
    -122.09475,
    38.50342
  ],
  "geometry": {"coordinates":[[-122.67061,38.50342],[-122.6867,38.45759],[-122.70508,38.40486],[-122.71205,38.38459],[-122.73746,38.31131],[-122.75812,38.25172],[-122.76164,38.20133],[-122.74771,38.15776],[-122.73484,38.11287],[-122.72905,38.09253],[-122.70659,38.01447],[-122.69842,37.98634],[-122.68345,37.93466],[-122.67302,37.90294],[-122.62954,37.85915],[-122.58219,37.81394],[-122.55215,37.7853],[-122.53976,37.77346],[-122.50654,37.74218],[-122.46518,37.70317],[-122.45988,37.69821],[-122.43387,37.67375],[-122.42048,37.66112],[-122.3792,37.62223],[-122.36287,37.60628],[-122.34188,37.56958],[-122.33129,37.54887],[-122.31934,37.52799],[-122.29347,37.48537],[-122.29223,37.46078],[-122.29829,37.42218],[-122.26906,37.40509],[-122.24715,37.39981],[-122.20299,37.38965],[-122.1661,37.38209],[-122.14355,37.38565],[-122.09884,37.40828],[-122.09475,37.44373],[-122.1014,37.48546],[-122.10423,37.49447],[-122.15754,37.52917],[-122.19436,37.54506],[-122.22642,37.55859],[-122.23289,37.56133],[-122.28028,37.58125],[-122.31574,37.59613],[-122.33286,37.60334],[-122.34585,37.60878],[-122.36067,37.61527]],"type":"LineString"}
}
