{
  "id": 2014411019,
  "type": "Feature",
  "properties": {
    "geom:area": 0,
    "geom:bbox": "-122.560850,36.721810,-122.257630,37.727630",
    "geom:latitude": 37.26394620238932,
    "geom:longitude": -122.48234965283669,
    "src:alt_label": "swim-takeoff",
    "src:geom": "swim",
    "swim:elevations": [
      305,
      366,
      748,
      926,
      1090,
      1549,
      2247,
      2549,
      2665,
      3099,
      3279,
      3717,
      4084,
      4498,
      5006,
      5438,
      5547,
      5992,
      6037,
      6379,
      6789,
      6970,
      7285,
      7357,
      7599,
      7833,
      8098
    ],
    "swim:geom": "takeoff",
    "swim:timestamps": [
      1766838658,
      1766838662,
      1766838718,
      1766838738,
      1766838752,
      1766838784,
      1766838837,
      1766838866,
      1766838877,
      1766838911,
      1766838941,
      1766838984,
      1766839017,
      1766839052,
      1766839100,
      1766839138,
      1766839156,
      1766839197,
      1766839201,
      1766839233,
      1766839279,
      1766839301,
      1766839341,
      1766839350,
      1766839381,
      1766839410,
      1766839442
    ],
    "wof:geomhash": "896efba0080c4be0ec3ba12be0791db1",
    "wof:id": 2014411019,
    "wof:repo": "sfomuseum-data-flights-2025-12"
  },
  "bbox": [
    -122.56085,
    36.72181,
    -122.25763,
    37.72763
  ],
  "geometry": {"coordinates":[[-122.36383,37.63875],[-122.36328,37.64194],[-122.37002,37.69359],[-122.39283,37.70646],[-122.41272,37.71267],[-122.45957,37.72763],[-122.52742,37.70348],[-122.53349,37.66425],[-122.53412,37.64899],[-122.5368,37.60069],[-122.53876,37.55702],[-122.54185,37.48695],[-122.54438,37.43254],[-122.54709,37.37381],[-122.55104,37.29096],[-122.5542,37.22189],[-122.5557,37.18923],[-122.55914,37.11326],[-122.55953,37.10582],[-122.56085,37.04588],[-122.5095,36.97143],[-122.47577,36.93894],[-122.41569,36.87922],[-122.40075,36.86421],[-122.35288,36.81645],[-122.30799,36.77167],[-122.25763,36.72181]],"type":"LineString"}
}
