{
  "id": 2014430937,
  "type": "Feature",
  "properties": {
    "geom:area": 0,
    "geom:bbox": "-122.522850,37.627080,-121.254500,37.965170",
    "geom:latitude": 37.83247329029106,
    "geom:longitude": -121.96229493998935,
    "src:alt_label": "swim-takeoff",
    "src:geom": "swim",
    "swim:elevations": [
      122,
      371,
      818,
      1037,
      1322,
      1682,
      1974,
      2675,
      3150,
      3324,
      3584,
      3924,
      4466,
      4883,
      4987,
      5160,
      5392,
      5777,
      5937,
      6291,
      6531,
      6827,
      7062,
      7393,
      7606,
      7798,
      8015,
      8409,
      8586
    ],
    "swim:geom": "takeoff",
    "swim:timestamps": [
      1767003017,
      1767003037,
      1767003076,
      1767003096,
      1767003135,
      1767003166,
      1767003183,
      1767003227,
      1767003263,
      1767003291,
      1767003315,
      1767003339,
      1767003380,
      1767003412,
      1767003423,
      1767003438,
      1767003459,
      1767003507,
      1767003524,
      1767003562,
      1767003588,
      1767003620,
      1767003648,
      1767003684,
      1767003705,
      1767003726,
      1767003754,
      1767003808,
      1767003837
    ],
    "wof:geomhash": "4ddb48341e3d62a4aecd20d606eb041e",
    "wof:id": 2014430937,
    "wof:repo": "sfomuseum-data-flights-2025-12"
  },
  "bbox": [
    -122.52285,
    37.62708,
    -121.2545,
    37.96517
  ],
  "geometry": {"coordinates":[[-122.39467,37.62708],[-122.41427,37.6354],[-122.45343,37.65239],[-122.47406,37.6616],[-122.51688,37.68683],[-122.52285,37.72625],[-122.50905,37.74385],[-122.44244,37.75696],[-122.38705,37.76819],[-122.33973,37.77724],[-122.29594,37.78512],[-122.25243,37.79266],[-122.1772,37.80595],[-122.11683,37.81663],[-122.09778,37.82004],[-122.06968,37.82502],[-122.02887,37.83222],[-121.93576,37.84854],[-121.90351,37.85413],[-121.82764,37.86742],[-121.7747,37.87665],[-121.7097,37.8879],[-121.65213,37.89784],[-121.57712,37.91075],[-121.53272,37.91831],[-121.48788,37.92595],[-121.43098,37.93586],[-121.31685,37.95475],[-121.2545,37.96517]],"type":"LineString"}
}
