{
  "id": 2014429163,
  "type": "Feature",
  "properties": {
    "geom:area": 0,
    "geom:bbox": "-122.550670,36.736370,-121.522760,37.667240",
    "geom:latitude": 37.227811395371056,
    "geom:longitude": -122.10412735055105,
    "src:alt_label": "swim-takeoff",
    "src:geom": "swim",
    "swim:elevations": [
      122,
      753,
      951,
      1139,
      1394,
      2113,
      2617,
      2765,
      3433,
      3556,
      4158,
      4679,
      4958,
      5170,
      5572,
      6107,
      6360,
      6802,
      6944,
      7421,
      7598,
      7868,
      7969,
      8228,
      8431,
      9053,
      9144,
      9312,
      9395
    ],
    "swim:geom": "takeoff",
    "swim:timestamps": [
      1767012852,
      1767012898,
      1767012914,
      1767012932,
      1767012962,
      1767013017,
      1767013047,
      1767013056,
      1767013100,
      1767013116,
      1767013160,
      1767013198,
      1767013219,
      1767013234,
      1767013271,
      1767013317,
      1767013340,
      1767013378,
      1767013390,
      1767013437,
      1767013455,
      1767013488,
      1767013503,
      1767013534,
      1767013563,
      1767013648,
      1767013659,
      1767013695,
      1767013713
    ],
    "wof:geomhash": "022aa3493aee51579de38b7551a788d8",
    "wof:id": 2014429163,
    "wof:repo": "sfomuseum-data-flights-2025-12"
  },
  "bbox": [
    -122.55067,
    36.73637,
    -121.52276,
    37.66724
  ],
  "geometry": {"coordinates":[[-122.38414,37.62244],[-122.42367,37.63931],[-122.43824,37.64588],[-122.4548,37.6535],[-122.48697,37.66724],[-122.55067,37.63653],[-122.53915,37.5993],[-122.53195,37.5896],[-122.49498,37.53675],[-122.48551,37.51567],[-122.43548,37.4606],[-122.38012,37.41969],[-122.34811,37.39629],[-122.32549,37.37977],[-122.26775,37.33741],[-122.1944,37.28336],[-122.15668,37.25545],[-122.09609,37.20665],[-122.07734,37.19134],[-121.99991,37.12823],[-121.97112,37.10462],[-121.9171,37.06005],[-121.89166,37.03929],[-121.83798,36.99563],[-121.78768,36.95515],[-121.63875,36.83336],[-121.62,36.81819],[-121.554,36.76333],[-121.52276,36.73637]],"type":"LineString"}
}
