{
  "id": 2014413251,
  "type": "Feature",
  "properties": {
    "geom:area": 0,
    "geom:bbox": "-122.435160,37.170560,-121.274820,37.713460",
    "geom:latitude": 37.37311368629136,
    "geom:longitude": -121.969753899302,
    "src:alt_label": "swim-takeoff",
    "src:geom": "swim",
    "swim:elevations": [
      514,
      898,
      1473,
      2352,
      2671,
      3093,
      3338,
      3415,
      3526,
      3909,
      4254,
      4705,
      5012,
      5378,
      5433,
      5831,
      6038,
      6309,
      6696,
      7067,
      7256,
      7458,
      7785,
      8073,
      8235
    ],
    "swim:geom": "takeoff",
    "swim:timestamps": [
      1766851638,
      1766851671,
      1766851708,
      1766851795,
      1766851818,
      1766851849,
      1766851887,
      1766851905,
      1766851926,
      1766851969,
      1766851998,
      1766852034,
      1766852059,
      1766852090,
      1766852101,
      1766852146,
      1766852167,
      1766852196,
      1766852237,
      1766852276,
      1766852298,
      1766852318,
      1766852357,
      1766852392,
      1766852409
    ],
    "wof:geomhash": "ed6fecbf96ac45ed30dd7bdd5da617cf",
    "wof:id": 2014413251,
    "wof:repo": "sfomuseum-data-flights-2025-12"
  },
  "bbox": [
    -122.43516,
    37.17056,
    -121.27482,
    37.71346
  ],
  "geometry": {"coordinates":[[-122.36388,37.6595],[-122.36404,37.69134],[-122.39724,37.71346],[-122.43516,37.62798],[-122.43163,37.59703],[-122.42738,37.55462],[-122.42138,37.49745],[-122.41088,37.4696],[-122.37879,37.44757],[-122.28837,37.43213],[-122.22478,37.42008],[-122.14637,37.40274],[-122.09584,37.38427],[-122.02903,37.35906],[-122.00603,37.35044],[-121.90939,37.31429],[-121.8622,37.29676],[-121.79576,37.2721],[-121.70019,37.24989],[-121.60309,37.23209],[-121.55017,37.22232],[-121.49987,37.21289],[-121.4034,37.19488],[-121.31731,37.17869],[-121.27482,37.17056]],"type":"LineString"}
}
