{
  "id": 2014442167,
  "type": "Feature",
  "properties": {
    "date:cessation_lower": "2025-12-31",
    "date:cessation_upper": "2025-12-31",
    "date:inception_lower": "1970-01-01",
    "date:inception_upper": "1970-01-01",
    "edtf:cessation": "2025-12-31T08:54:31-08:00",
    "edtf:inception": "1970-01-01T00:00:00Z",
    "flysfo:actual_timestamp": -1,
    "flysfo:airline": "DL",
    "flysfo:base_airline": "",
    "flysfo:base_flight_number": "8971",
    "flysfo:date": "2025-12-31",
    "flysfo:estimated_timestamp": 1767229080,
    "flysfo:event": "A",
    "flysfo:flight_number": "DL2867",
    "flysfo:gate": "C3",
    "flysfo:journey": "ATL-SFO",
    "flysfo:scheduled_timestamp": 1767206520,
    "flysfo:timestamp": 1767229080,
    "geom:area": 0,
    "geom:bbox": "-122.370943,33.636518,-84.430686,37.617990",
    "geom:latitude": 35.627254,
    "geom:longitude": -103.4008145,
    "iata:airline": "DL",
    "iata:base_airline": "",
    "icao:aircraft": "B752",
    "icao:airline": "DAL",
    "icao:base_airline": "LAN",
    "lbl:latitude": 37.615398,
    "lbl:longitude": -122.383426,
    "sfomuseum:aircraft_id": 1159289939,
    "sfomuseum:airline_id": 1159284261,
    "sfomuseum:arrival_id": 102527513,
    "sfomuseum:base_flight_id": "20251231-A-LAN-8971",
    "sfomuseum:departure_id": 102526927,
    "sfomuseum:flight_id": "20251231-A-DAL-2867",
    "sfomuseum:flight_number": [
      "DAL2867",
      "DL2867"
    ],
    "sfomuseum:placetype": "flight",
    "src:geom": "flysfo",
    "src:geom_alt": [
      "swim-approach"
    ],
    "swim:tail_number": "N6715C",
    "wof:belongsto": [
      1947304067,
      102527513,
      1947304663,
      102191575,
      85633793,
      102087579,
      85922583,
      554784711,
      85688637,
      1947304671,
      1947304591,
      102085387
    ],
    "wof:country": "US",
    "wof:created": 1767283529,
    "wof:geomhash": "ae92617dd2aca2afdb0c9096232ff0bb",
    "wof:hierarchy": [
      {
        "building_id": 1947304067,
        "campus_id": 102527513,
        "concourse_id": 1947304663,
        "continent_id": 102191575,
        "country_id": 85633793,
        "county_id": 102087579,
        "custom_id": 2014442167,
        "flight_id": 2014442167,
        "locality_id": 85922583,
        "postalcode_id": 554784711,
        "region_id": 85688637,
        "venue_id": 1947304671,
        "wing_id": 1947304591
      },
      {
        "building_id": 1947304067,
        "campus_id": 102527513,
        "concourse_id": 1947304663,
        "continent_id": 102191575,
        "country_id": 85633793,
        "county_id": 102085387,
        "custom_id": 2014442167,
        "flight_id": 2014442167,
        "region_id": 85688637,
        "venue_id": 1947304671,
        "wing_id": 1947304591
      }
    ],
    "wof:id": 2014442167,
    "wof:involves": [
      1947304671,
      1159285641,
      1159289939,
      102527513,
      102526927,
      1159284261
    ],
    "wof:lastmodified": 1767284243,
    "wof:name": "DL2867 (ATL-SFO)",
    "wof:parent_id": 1947304671,
    "wof:placetype": "custom",
    "wof:placetype_alt": [
      "flight"
    ],
    "wof:repo": "sfomuseum-data-flights-2025-12",
    "wof:superseded_by": [],
    "wof:supersedes": []
  },
  "bbox": [
    -122.370943,
    33.636518,
    -84.430686,
    37.61799
  ],
  "geometry": {"coordinates":[[-84.430686,33.636518],[-122.370943,37.61799]],"type":"MultiPoint"}
}
