{
  "id": 2014447965,
  "type": "Feature",
  "properties": {
    "geom:area": 0,
    "geom:bbox": "-122.527580,37.627890,-121.917170,38.515320",
    "geom:latitude": 38.057316027645776,
    "geom:longitude": -122.27542414234895,
    "src:alt_label": "swim-takeoff",
    "src:geom": "swim",
    "swim:elevations": [
      183,
      754,
      1015,
      1285,
      1414,
      1756,
      2195,
      2585,
      3219,
      3414,
      3606,
      3850,
      4112,
      4589,
      4954,
      5084,
      5420,
      5870,
      6151,
      6296,
      6514,
      6631,
      6957
    ],
    "swim:geom": "takeoff",
    "swim:timestamps": [
      1767190536,
      1767190587,
      1767190610,
      1767190647,
      1767190665,
      1767190693,
      1767190722,
      1767190750,
      1767190797,
      1767190827,
      1767190857,
      1767190884,
      1767190906,
      1767190947,
      1767190976,
      1767190987,
      1767191016,
      1767191062,
      1767191097,
      1767191121,
      1767191146,
      1767191162,
      1767191202
    ],
    "wof:geomhash": "9d63acaf2d0ab6ebddbb1697bf2e8486",
    "wof:id": 2014447965,
    "wof:repo": "sfomuseum-data-flights-2025-12"
  },
  "bbox": [
    -122.52758,
    37.62789,
    -121.91717,
    38.51532
  ],
  "geometry": {"coordinates":[[-122.397,37.62789],[-122.44771,37.64988],[-122.4729,37.66087],[-122.51598,37.68169],[-122.52685,37.70268],[-122.52758,37.74113],[-122.52575,37.7816],[-122.4992,37.81376],[-122.42998,37.8468],[-122.40172,37.88672],[-122.37293,37.93295],[-122.34489,37.97698],[-122.32166,38.01305],[-122.27692,38.08233],[-122.24383,38.13373],[-122.2322,38.15165],[-122.19961,38.20217],[-122.1405,38.28038],[-122.08706,38.33654],[-122.0494,38.37635],[-122.00927,38.41898],[-121.98395,38.44571],[-121.91717,38.51532]],"type":"LineString"}
}
