{
  "id": 2014436643,
  "type": "Feature",
  "properties": {
    "date:inception_lower": "2025-12-30",
    "date:inception_upper": "2025-12-30",
    "edtf:cessation": "",
    "edtf:inception": "2025-12-30",
    "flysfo:actual_timestamp": -1,
    "flysfo:airline": "AC",
    "flysfo:base_airline": "",
    "flysfo:base_flight_number": "5296",
    "flysfo:date": "2025-12-30",
    "flysfo:estimated_timestamp": 1767106320,
    "flysfo:event": "D",
    "flysfo:flight_number": "AC5296",
    "flysfo:gate": "G4",
    "flysfo:journey": "SFO-PHX",
    "flysfo:scheduled_timestamp": 1767106800,
    "flysfo:timestamp": 1767106800,
    "geom:area": 0,
    "geom:bbox": "-122.370943,33.432684,-112.017392,37.617990",
    "geom:latitude": 35.525337,
    "geom:longitude": -117.19416749999999,
    "iata:airline": "AC",
    "iata:base_airline": "",
    "icao:airline": "ACA",
    "icao:base_airline": "ACA",
    "lbl:latitude": 37.61776,
    "lbl:longitude": -122.3918,
    "sfomuseum:airline_id": 1159283597,
    "sfomuseum:arrival_id": 102526751,
    "sfomuseum:base_flight_id": "20251230-D-ACA-5296",
    "sfomuseum:departure_id": 102527513,
    "sfomuseum:flight_id": "20251230-D-ACA-5296",
    "sfomuseum:flight_number": [
      "ACA5296",
      "AC5296"
    ],
    "sfomuseum:placetype": "flight",
    "src:geom": "flysfo",
    "wof:belongsto": [
      1947304067,
      102527513,
      1947304129,
      102191575,
      85633793,
      102087579,
      85922583,
      554784711,
      85688637,
      1947304137,
      1947304069,
      102085387
    ],
    "wof:country": "US",
    "wof:created": 1767197461,
    "wof:geomhash": "2a19f056fd5d16c52f22f1bf5dc85c9c",
    "wof:hierarchy": [
      {
        "building_id": 1947304067,
        "campus_id": 102527513,
        "concourse_id": 1947304129,
        "continent_id": 102191575,
        "country_id": 85633793,
        "county_id": 102087579,
        "custom_id": 2014436643,
        "flight_id": 2014436643,
        "locality_id": 85922583,
        "postalcode_id": 554784711,
        "region_id": 85688637,
        "venue_id": 1947304137,
        "wing_id": 1947304069
      },
      {
        "building_id": 1947304067,
        "campus_id": 102527513,
        "concourse_id": 1947304129,
        "continent_id": 102191575,
        "country_id": 85633793,
        "county_id": 102085387,
        "custom_id": 2014436643,
        "flight_id": 2014436643,
        "region_id": 85688637,
        "venue_id": 1947304137,
        "wing_id": 1947304069
      }
    ],
    "wof:id": 2014436643,
    "wof:involves": [
      102526751,
      102527513,
      1159283597,
      1947304137,
      1159283597
    ],
    "wof:lastmodified": 1767197461,
    "wof:name": "AC5296 (SFO-PHX)",
    "wof:parent_id": 1947304137,
    "wof:placetype": "custom",
    "wof:placetype_alt": [
      "flight"
    ],
    "wof:repo": "sfomuseum-data-flights-2025-12",
    "wof:superseded_by": [],
    "wof:supersedes": []
  },
  "bbox": [
    -122.370943,
    33.432684,
    -112.017392,
    37.61799
  ],
  "geometry": {"coordinates":[[-122.370943,37.61799],[-112.017392,33.432684]],"type":"MultiPoint"}
}
