{
  "id": 2014439435,
  "type": "Feature",
  "properties": {
    "geom:area": 0,
    "geom:bbox": "-122.365890,37.629390,-121.246140,38.120010",
    "geom:latitude": 37.88482243143375,
    "geom:longitude": -121.81118977182872,
    "src:alt_label": "swim-takeoff",
    "src:geom": "swim",
    "swim:elevations": [
      183,
      530,
      867,
      1190,
      1389,
      1753,
      2378,
      2648,
      3247,
      3383,
      3636,
      3767,
      4240,
      4716,
      5029,
      5172,
      5498,
      5822,
      6109,
      6336,
      6727,
      6999,
      7027
    ],
    "swim:geom": "takeoff",
    "swim:timestamps": [
      1767131120,
      1767131143,
      1767131173,
      1767131216,
      1767131234,
      1767131266,
      1767131308,
      1767131325,
      1767131367,
      1767131393,
      1767131422,
      1767131434,
      1767131477,
      1767131513,
      1767131540,
      1767131555,
      1767131597,
      1767131632,
      1767131663,
      1767131685,
      1767131723,
      1767131756,
      1767131760
    ],
    "wof:geomhash": "e1c98b6c34088ba11af3dd1d41f71745",
    "wof:id": 2014439435,
    "wof:repo": "sfomuseum-data-flights-2025-12"
  },
  "bbox": [
    -122.36589,
    37.62939,
    -121.24614,
    38.12001
  ],
  "geometry": {"coordinates":[[-122.36589,37.62939],[-122.35169,37.64125],[-122.32939,37.65312],[-122.29438,37.67555],[-122.27501,37.68669],[-122.23546,37.70692],[-122.17558,37.73375],[-122.14982,37.74441],[-122.08575,37.77169],[-122.04068,37.79043],[-121.98736,37.81329],[-121.96293,37.82388],[-121.87798,37.85961],[-121.8028,37.89094],[-121.74654,37.91418],[-121.71461,37.92782],[-121.62249,37.96571],[-121.54239,37.99837],[-121.47247,38.0271],[-121.42041,38.04843],[-121.3329,38.08448],[-121.25529,38.11627],[-121.24614,38.12001]],"type":"LineString"}
}
