{
  "id": 2014418387,
  "type": "Feature",
  "properties": {
    "geom:area": 0,
    "geom:bbox": "-122.361490,36.742620,-121.892750,37.612690",
    "geom:latitude": 37.22114920239775,
    "geom:longitude": -122.0751907568879,
    "src:alt_label": "swim-approach",
    "src:geom": "swim",
    "swim:elevations": [
      4862,
      4676,
      4445,
      4105,
      3484,
      3262,
      3116,
      3109,
      2929,
      2522,
      2447,
      2438,
      2438,
      2192,
      2001,
      1863,
      1692,
      1524,
      1512,
      1170,
      1071,
      842,
      789,
      556,
      383,
      303,
      168,
      93,
      0
    ],
    "swim:geom": "approach",
    "swim:timestamps": [
      1766937597,
      1766937618,
      1766937640,
      1766937675,
      1766937738,
      1766937777,
      1766937803,
      1766937810,
      1766937848,
      1766937914,
      1766937934,
      1766937973,
      1766937998,
      1766938047,
      1766938078,
      1766938098,
      1766938127,
      1766938154,
      1766938176,
      1766938219,
      1766938234,
      1766938276,
      1766938293,
      1766938336,
      1766938377,
      1766938395,
      1766938437,
      1766938455,
      1766938477
    ],
    "wof:geomhash": "1f3d0e2c061b9feff6f6477ab4b7b1b4",
    "wof:id": 2014418387,
    "wof:repo": "sfomuseum-data-flights-2025-12"
  },
  "bbox": [
    -122.36149,
    36.74262,
    -121.89275,
    37.61269
  ],
  "geometry": {"coordinates":[[-121.89275,36.74262],[-121.90279,36.77332],[-121.91183,36.80522],[-121.92627,36.85596],[-121.95138,36.94596],[-121.97102,36.99787],[-121.98292,37.02833],[-121.98623,37.03673],[-122.00412,37.08255],[-122.03435,37.16001],[-122.04404,37.18456],[-122.06235,37.23148],[-122.07304,37.25892],[-122.09508,37.31485],[-122.1082,37.34807],[-122.11701,37.37035],[-122.12768,37.40099],[-122.13701,37.42813],[-122.14442,37.44952],[-122.16546,37.491],[-122.17508,37.50453],[-122.19991,37.53981],[-122.21377,37.55027],[-122.25613,37.56849],[-122.29063,37.58309],[-122.30365,37.58849],[-122.33275,37.60106],[-122.34586,37.60654],[-122.36149,37.61269]],"type":"LineString"}
}
