{
  "id": 2014413677,
  "type": "Feature",
  "properties": {
    "geom:area": 0,
    "geom:bbox": "-122.464820,36.729120,-121.315110,37.702760",
    "geom:latitude": 37.20711647851037,
    "geom:longitude": -121.99122098637037,
    "src:alt_label": "swim-takeoff",
    "src:geom": "swim",
    "swim:elevations": [
      336,
      704,
      835,
      1095,
      1524,
      1839,
      2394,
      2859,
      3191,
      3439,
      3610,
      3976,
      4468,
      4539,
      4698,
      5237,
      5320,
      5612,
      5964,
      6357,
      6546,
      6817,
      6943,
      7211,
      7546,
      7860,
      8207,
      8224,
      8209,
      8230,
      8230,
      8230
    ],
    "swim:geom": "takeoff",
    "swim:timestamps": [
      1766879903,
      1766879932,
      1766879942,
      1766879978,
      1766880028,
      1766880052,
      1766880088,
      1766880115,
      1766880136,
      1766880171,
      1766880201,
      1766880228,
      1766880267,
      1766880273,
      1766880288,
      1766880327,
      1766880335,
      1766880375,
      1766880408,
      1766880440,
      1766880464,
      1766880497,
      1766880515,
      1766880550,
      1766880585,
      1766880616,
      1766880652,
      1766880688,
      1766880694,
      1766880745,
      1766880760,
      1766880787
    ],
    "wof:geomhash": "5da074bdd3819b754e72b8f9a47327fd",
    "wof:id": 2014413677,
    "wof:repo": "sfomuseum-data-flights-2025-12"
  },
  "bbox": [
    -122.46482,
    36.72912,
    -121.31511,
    37.70276
  ],
  "geometry": {"coordinates":[[-122.36721,37.63431],[-122.36512,37.6538],[-122.36435,37.6605],[-122.36256,37.68532],[-122.41115,37.70276],[-122.43241,37.68014],[-122.4385,37.63293],[-122.44569,37.59623],[-122.45293,37.56782],[-122.46482,37.51683],[-122.44276,37.47055],[-122.39557,37.43899],[-122.32712,37.39498],[-122.31636,37.38808],[-122.28937,37.37042],[-122.21786,37.32379],[-122.20331,37.31432],[-122.1291,37.26611],[-122.06622,37.22498],[-122.00528,37.18516],[-121.95908,37.15501],[-121.89459,37.11269],[-121.85905,37.08934],[-121.78921,37.04335],[-121.71894,36.99698],[-121.65748,36.95654],[-121.58789,36.91091],[-121.51714,36.86408],[-121.50504,36.85603],[-121.40074,36.78637],[-121.37014,36.76607],[-121.31511,36.72912]],"type":"LineString"}
}
