{
  "id": 2014414665,
  "type": "Feature",
  "properties": {
    "geom:area": 0,
    "geom:bbox": "-122.356640,37.491670,-121.244240,37.613370",
    "geom:latitude": 37.54687114357582,
    "geom:longitude": -121.80534891424371,
    "src:alt_label": "swim-approach",
    "src:geom": "swim",
    "swim:elevations": [
      4828,
      4724,
      4219,
      4023,
      3800,
      3438,
      3228,
      3001,
      2884,
      2685,
      2440,
      2271,
      2134,
      2022,
      1909,
      1790,
      1650,
      1391,
      1317,
      1046,
      1037,
      927,
      753,
      699,
      517,
      370,
      338,
      189,
      0
    ],
    "swim:geom": "approach",
    "swim:timestamps": [
      1766963997,
      1766964006,
      1766964055,
      1766964076,
      1766964101,
      1766964143,
      1766964170,
      1766964201,
      1766964222,
      1766964247,
      1766964281,
      1766964304,
      1766964331,
      1766964355,
      1766964379,
      1766964409,
      1766964433,
      1766964478,
      1766964493,
      1766964538,
      1766964541,
      1766964559,
      1766964596,
      1766964611,
      1766964653,
      1766964686,
      1766964695,
      1766964728,
      1766964770
    ],
    "wof:geomhash": "526978febdc09bc9286466c8e6a46b1f",
    "wof:id": 2014414665,
    "wof:repo": "sfomuseum-data-flights-2025-12"
  },
  "bbox": [
    -122.35664,
    37.49167,
    -121.24424,
    37.61337
  ],
  "geometry": {"coordinates":[[-121.24424,37.59526],[-121.26614,37.59228],[-121.38183,37.57872],[-121.42815,37.57354],[-121.48126,37.56753],[-121.56616,37.5577],[-121.61635,37.55192],[-121.67047,37.53998],[-121.70595,37.53155],[-121.7476,37.52167],[-121.80391,37.50806],[-121.8405,37.499],[-121.88334,37.49167],[-121.92,37.49228],[-121.95429,37.49304],[-121.99466,37.49694],[-122.02527,37.50659],[-122.08019,37.52445],[-122.09771,37.53019],[-122.14904,37.54679],[-122.15244,37.54794],[-122.17225,37.55445],[-122.20984,37.5664],[-122.22307,37.57086],[-122.26051,37.5824],[-122.2883,37.59076],[-122.29622,37.59304],[-122.32379,37.60144],[-122.35664,37.61337]],"type":"LineString"}
}
