{
  "id": 2014436161,
  "type": "Feature",
  "properties": {
    "geom:area": 0,
    "geom:bbox": "-122.384960,37.639240,-121.246900,37.986060",
    "geom:latitude": 37.922053398093,
    "geom:longitude": -121.93086062633387,
    "src:alt_label": "swim-takeoff",
    "src:geom": "swim",
    "swim:elevations": [
      239,
      429,
      634,
      837,
      1476,
      1539,
      1895,
      2261,
      2418,
      2885,
      3156,
      3334,
      3600,
      3882,
      3995,
      4176,
      4383,
      4752,
      5133,
      5326,
      5418,
      5515,
      5794,
      5842,
      6031,
      6194,
      6452,
      6689,
      6870,
      7046
    ],
    "swim:geom": "takeoff",
    "swim:timestamps": [
      1767135260,
      1767135272,
      1767135308,
      1767135338,
      1767135385,
      1767135391,
      1767135421,
      1767135446,
      1767135458,
      1767135495,
      1767135522,
      1767135556,
      1767135596,
      1767135621,
      1767135632,
      1767135648,
      1767135668,
      1767135708,
      1767135748,
      1767135770,
      1767135784,
      1767135798,
      1767135831,
      1767135837,
      1767135858,
      1767135882,
      1767135913,
      1767135950,
      1767135981,
      1767136017
    ],
    "wof:geomhash": "9e85f0d733ae6abaec1fe2d8bc2146c2",
    "wof:id": 2014436161,
    "wof:repo": "sfomuseum-data-flights-2025-12"
  },
  "bbox": [
    -122.38496,
    37.63924,
    -121.2469,
    37.98606
  ],
  "geometry": {"coordinates":[[-122.35959,37.63924],[-122.35221,37.64684],[-122.32417,37.67004],[-122.31334,37.70244],[-122.34248,37.75749],[-122.34652,37.76488],[-122.36477,37.80109],[-122.3808,37.83428],[-122.38496,37.85034],[-122.38287,37.9015],[-122.3562,37.93281],[-122.2966,37.94525],[-122.21686,37.94807],[-122.16522,37.9502],[-122.14114,37.9512],[-122.1068,37.95263],[-122.06295,37.95449],[-121.97541,37.95822],[-121.88636,37.96185],[-121.83704,37.96383],[-121.80567,37.96506],[-121.77194,37.96643],[-121.69629,37.96948],[-121.68224,37.97],[-121.63295,37.97186],[-121.57622,37.97405],[-121.50289,37.97688],[-121.41176,37.98017],[-121.33749,37.98286],[-121.2469,37.98606]],"type":"LineString"}
}
