{
  "id": 2014409093,
  "type": "Feature",
  "properties": {
    "geom:area": 0,
    "geom:bbox": "-122.360640,37.492030,-121.276070,37.616610",
    "geom:latitude": 37.54591517365248,
    "geom:longitude": -121.82357830409893,
    "src:alt_label": "swim-approach",
    "src:geom": "swim",
    "swim:elevations": [
      4600,
      4424,
      4150,
      3918,
      3450,
      3233,
      3226,
      3142,
      3058,
      2818,
      2564,
      2492,
      2222,
      2038,
      1955,
      1842,
      1590,
      1572,
      1264,
      1125,
      916,
      755,
      578,
      492,
      347,
      209,
      65,
      60,
      0
    ],
    "swim:geom": "approach",
    "swim:timestamps": [
      1766880115,
      1766880133,
      1766880162,
      1766880189,
      1766880234,
      1766880263,
      1766880270,
      1766880298,
      1766880317,
      1766880350,
      1766880387,
      1766880405,
      1766880443,
      1766880476,
      1766880494,
      1766880526,
      1766880567,
      1766880570,
      1766880627,
      1766880649,
      1766880688,
      1766880715,
      1766880748,
      1766880766,
      1766880805,
      1766880837,
      1766880868,
      1766880871,
      1766880888
    ],
    "wof:geomhash": "e75e54743f9891b1c32d647f6b66ae04",
    "wof:id": 2014409093,
    "wof:repo": "sfomuseum-data-flights-2025-12"
  },
  "bbox": [
    -122.36064,
    37.49203,
    -121.27607,
    37.61661
  ],
  "geometry": {"coordinates":[[-121.27607,37.591],[-121.31278,37.58669],[-121.37043,37.58032],[-121.42397,37.57437],[-121.51267,37.56394],[-121.56628,37.55757],[-121.58035,37.55597],[-121.62889,37.54969],[-121.6603,37.54226],[-121.71511,37.52937],[-121.77392,37.51513],[-121.80196,37.50835],[-121.86022,37.49456],[-121.91106,37.49203],[-121.93793,37.4926],[-121.983,37.4944],[-122.03434,37.50976],[-122.03802,37.51094],[-122.10711,37.53352],[-122.13321,37.54175],[-122.17913,37.55636],[-122.20929,37.5664],[-122.24314,37.57741],[-122.26012,37.58275],[-122.29425,37.59277],[-122.32143,37.60079],[-122.3467,37.6091],[-122.34903,37.61009],[-122.36064,37.61661]],"type":"LineString"}
}
