{
  "id": 2014407713,
  "type": "Feature",
  "properties": {
    "date:cessation_lower": "2025-12-27",
    "date:cessation_upper": "2025-12-27",
    "date:inception_lower": "1970-01-01",
    "date:inception_upper": "1970-01-01",
    "edtf:cessation": "2025-12-27T06:22:33-08:00",
    "edtf:inception": "1970-01-01T00:00:00Z",
    "flysfo:actual_timestamp": -1,
    "flysfo:airline": "CI",
    "flysfo:date": "2025-12-27",
    "flysfo:estimated_timestamp": 1766874120,
    "flysfo:event": "A",
    "flysfo:flight_number": "CI5176",
    "flysfo:gate": "",
    "flysfo:journey": "TPE-SFO",
    "flysfo:scheduled_timestamp": 1766870880,
    "flysfo:timestamp": 1766874120,
    "geom:area": 0,
    "geom:bbox": "-122.370943,25.078566,121.233152,37.617990",
    "geom:latitude": 31.348278,
    "geom:longitude": -0.5688954999999964,
    "iata:airline": "CI",
    "icao:aircraft": "B77L",
    "icao:airline": "CAL",
    "lbl:latitude": 37.61799,
    "lbl:longitude": -122.370943,
    "sfomuseum:aircraft_id": 1159289989,
    "sfomuseum:airline_id": 1159284153,
    "sfomuseum:arrival_id": 102527513,
    "sfomuseum:departure_id": 102551487,
    "sfomuseum:flight_id": "20251227-A-CAL-5176",
    "sfomuseum:flight_number": [
      "CAL5176",
      "CI5176"
    ],
    "sfomuseum:placetype": "flight",
    "src:geom": "flysfo",
    "src:geom_alt": [
      "swim-approach"
    ],
    "swim:tail_number": "B18781",
    "wof:belongsto": [],
    "wof:country": "US",
    "wof:created": 1766937891,
    "wof:geomhash": "07bfd75b358269393c92373b424876ce",
    "wof:hierarchy": [
      {
        "custom_id": 2014407713,
        "flight_id": 2014407713
      }
    ],
    "wof:id": 2014407713,
    "wof:involves": [
      1159289989,
      102527513,
      102551487,
      1159284153
    ],
    "wof:lastmodified": 1766938685,
    "wof:name": "CI5176 (TPE-SFO)",
    "wof:parent_id": -1,
    "wof:placetype": "custom",
    "wof:placetype_alt": [
      "flight"
    ],
    "wof:repo": "sfomuseum-data-flights-2025-12",
    "wof:superseded_by": [],
    "wof:supersedes": []
  },
  "bbox": [
    -122.370943,
    25.078566,
    121.233152,
    37.61799
  ],
  "geometry": {"coordinates":[[121.233152,25.078566],[-122.370943,37.61799]],"type":"MultiPoint"}
}
