{
  "id": 2014407713,
  "type": "Feature",
  "properties": {
    "geom:area": 0,
    "geom:bbox": "-123.126610,37.537290,-122.087830,38.511030",
    "geom:latitude": 37.919042072450836,
    "geom:longitude": -122.57195584054512,
    "src:alt_label": "swim-approach",
    "src:geom": "swim",
    "swim:elevations": [
      7559,
      7154,
      6736,
      6619,
      6402,
      6132,
      5843,
      5544,
      5183,
      5088,
      4835,
      4658,
      4421,
      4151,
      3892,
      3489,
      3410,
      3351,
      3353,
      3353,
      3092,
      3041,
      2747,
      2556,
      2165,
      1795,
      1714,
      1516,
      1327,
      1095,
      978,
      822,
      675,
      455,
      428,
      257,
      126,
      53
    ],
    "swim:geom": "approach",
    "swim:timestamps": [
      1766844196,
      1766844242,
      1766844297,
      1766844310,
      1766844337,
      1766844369,
      1766844404,
      1766844434,
      1766844478,
      1766844490,
      1766844520,
      1766844546,
      1766844576,
      1766844607,
      1766844630,
      1766844677,
      1766844714,
      1766844744,
      1766844775,
      1766844784,
      1766844835,
      1766844847,
      1766844893,
      1766844919,
      1766844966,
      1766845010,
      1766845021,
      1766845050,
      1766845082,
      1766845118,
      1766845147,
      1766845183,
      1766845211,
      1766845256,
      1766845265,
      1766845305,
      1766845335,
      1766845353
    ],
    "wof:geomhash": "fc3b651970dc20f1c00b0500fb28232d",
    "wof:id": 2014407713,
    "wof:repo": "sfomuseum-data-flights-2025-12"
  },
  "bbox": [
    -123.12661,
    37.53729,
    -122.08783,
    38.51103
  ],
  "geometry": {"coordinates":[[-123.12661,38.51103],[-123.04826,38.44868],[-122.95581,38.37503],[-122.93416,38.35774],[-122.88898,38.32165],[-122.83858,38.27909],[-122.7992,38.22348],[-122.77834,38.17182],[-122.74992,38.09718],[-122.74192,38.07636],[-122.72221,38.02567],[-122.70536,37.98204],[-122.68634,37.93334],[-122.65803,37.88651],[-122.62759,37.85628],[-122.56481,37.7971],[-122.51993,37.75485],[-122.48405,37.72292],[-122.43991,37.70317],[-122.42787,37.69819],[-122.35938,37.66954],[-122.34431,37.66384],[-122.28116,37.64303],[-122.24528,37.63153],[-122.18128,37.61101],[-122.12304,37.59316],[-122.11045,37.58934],[-122.08783,37.56824],[-122.10355,37.54369],[-122.14303,37.53729],[-122.17498,37.538],[-122.21052,37.55208],[-122.23778,37.56337],[-122.27715,37.5799],[-122.28328,37.58247],[-122.31424,37.59547],[-122.33784,37.60545],[-122.35153,37.61115]],"type":"LineString"}
}
