{
  "id": 2014412541,
  "type": "Feature",
  "properties": {
    "date:inception_lower": "2025-12-27",
    "date:inception_upper": "2025-12-27",
    "edtf:cessation": "",
    "edtf:inception": "2025-12-27",
    "flysfo:actual_timestamp": -1,
    "flysfo:airline": "G3",
    "flysfo:base_airline": "",
    "flysfo:base_flight_number": "5005",
    "flysfo:date": "2025-12-27",
    "flysfo:estimated_timestamp": -1,
    "flysfo:event": "D",
    "flysfo:flight_number": "G36439",
    "flysfo:gate": "",
    "flysfo:journey": "SFO-JFK",
    "flysfo:scheduled_timestamp": 1766854140,
    "flysfo:timestamp": 1766854140,
    "geom:area": 0,
    "geom:bbox": "-122.370943,37.617990,-73.787845,40.643286",
    "geom:latitude": 39.130638000000005,
    "geom:longitude": -98.07939400000001,
    "iata:airline": "G3",
    "iata:base_airline": "",
    "icao:airline": "GLO",
    "icao:base_airline": "RAM",
    "lbl:latitude": 37.61799,
    "lbl:longitude": -122.370943,
    "sfomuseum:airline_id": 1779770725,
    "sfomuseum:arrival_id": 102534365,
    "sfomuseum:base_flight_id": "20251227-D-RAM-5005",
    "sfomuseum:departure_id": 102527513,
    "sfomuseum:flight_id": "20251227-D-GLO-6439",
    "sfomuseum:flight_number": [
      "GLO6439",
      "G36439"
    ],
    "sfomuseum:placetype": "flight",
    "src:geom": "flysfo",
    "wof:belongsto": [],
    "wof:country": "US",
    "wof:created": 1766938432,
    "wof:geomhash": "1348792a172720778d3219cc18ccd8ee",
    "wof:hierarchy": [
      {
        "custom_id": 2014412541,
        "flight_id": 2014412541
      }
    ],
    "wof:id": 2014412541,
    "wof:involves": [
      102534365,
      102527513,
      1779770725,
      -1,
      1159285081
    ],
    "wof:lastmodified": 1766938432,
    "wof:name": "G36439 (SFO-JFK)",
    "wof:parent_id": -1,
    "wof:placetype": "custom",
    "wof:placetype_alt": [
      "flight"
    ],
    "wof:repo": "sfomuseum-data-flights-2025-12",
    "wof:superseded_by": [],
    "wof:supersedes": []
  },
  "bbox": [
    -122.370943,
    37.61799,
    -73.787845,
    40.643286
  ],
  "geometry": {"coordinates":[[-122.370943,37.61799],[-73.787845,40.643286]],"type":"MultiPoint"}
}
