{
  "id": 2014435185,
  "type": "Feature",
  "properties": {
    "geom:area": 0,
    "geom:bbox": "-122.757430,37.468270,-122.157030,38.396170",
    "geom:latitude": 37.83351700779108,
    "geom:longitude": -122.4970731590744,
    "src:alt_label": "swim-approach",
    "src:geom": "swim",
    "swim:elevations": [
      7529,
      7202,
      6739,
      6595,
      6268,
      6108,
      5762,
      5424,
      5160,
      4799,
      4629,
      4391,
      3946,
      3620,
      3461,
      3356,
      3335,
      3357,
      3353,
      3320,
      3246,
      3091,
      2901,
      2201,
      2017,
      1797,
      1632,
      1327,
      1198,
      1090,
      916,
      770,
      603,
      438,
      334,
      209,
      109,
      41
    ],
    "swim:geom": "approach",
    "swim:timestamps": [
      1767102607,
      1767102639,
      1767102686,
      1767102702,
      1767102739,
      1767102754,
      1767102791,
      1767102827,
      1767102852,
      1767102890,
      1767102907,
      1767102932,
      1767102979,
      1767103017,
      1767103035,
      1767103078,
      1767103101,
      1767103110,
      1767103143,
      1767103197,
      1767103212,
      1767103237,
      1767103260,
      1767103314,
      1767103330,
      1767103378,
      1767103398,
      1767103435,
      1767103455,
      1767103470,
      1767103502,
      1767103548,
      1767103580,
      1767103610,
      1767103633,
      1767103671,
      1767103694,
      1767103719
    ],
    "wof:geomhash": "56b00599d4af7c88c355f9d4bd6d9650",
    "wof:id": 2014435185,
    "wof:repo": "sfomuseum-data-flights-2025-12"
  },
  "bbox": [
    -122.75743,
    37.46827,
    -122.15703,
    38.39617
  ],
  "geometry": {"coordinates":[[-122.59125,38.39617],[-122.63806,38.3508],[-122.70491,38.28567],[-122.72689,38.26433],[-122.75743,38.20871],[-122.75547,38.18349],[-122.73904,38.12422],[-122.72157,38.06686],[-122.70991,38.02808],[-122.69233,37.96702],[-122.68464,37.93979],[-122.66988,37.90256],[-122.61429,37.84363],[-122.56771,37.80007],[-122.54631,37.77998],[-122.49867,37.73486],[-122.47454,37.71196],[-122.46569,37.70362],[-122.43434,37.6742],[-122.38458,37.62757],[-122.37094,37.61466],[-122.35485,37.59032],[-122.34384,37.56801],[-122.30232,37.52257],[-122.28898,37.51169],[-122.24637,37.48041],[-122.22869,37.46827],[-122.1843,37.47009],[-122.16494,37.48505],[-122.15703,37.50052],[-122.16376,37.53233],[-122.21369,37.55072],[-122.2477,37.56522],[-122.27742,37.57774],[-122.29754,37.58611],[-122.32552,37.59796],[-122.34207,37.60481],[-122.35997,37.61244]],"type":"LineString"}
}
