{
  "id": 2014426365,
  "type": "Feature",
  "properties": {
    "geom:area": 0,
    "geom:bbox": "-122.357390,37.491870,-121.248530,37.613600",
    "geom:latitude": 37.54680318226806,
    "geom:longitude": -121.80786365889979,
    "src:alt_label": "swim-approach",
    "src:geom": "swim",
    "swim:elevations": [
      4509,
      4138,
      4063,
      3723,
      3472,
      3138,
      3077,
      3039,
      2771,
      2495,
      2407,
      2195,
      2034,
      1894,
      1791,
      1650,
      1451,
      1258,
      1076,
      960,
      865,
      620,
      520,
      383,
      298,
      69,
      0
    ],
    "swim:geom": "approach",
    "swim:timestamps": [
      1767010133,
      1767010168,
      1767010175,
      1767010212,
      1767010239,
      1767010279,
      1767010304,
      1767010336,
      1767010366,
      1767010404,
      1767010432,
      1767010463,
      1767010496,
      1767010523,
      1767010551,
      1767010577,
      1767010607,
      1767010640,
      1767010675,
      1767010695,
      1767010713,
      1767010759,
      1767010779,
      1767010809,
      1767010830,
      1767010881,
      1767010895
    ],
    "wof:geomhash": "e528c1c78ed86cc7d87315cab4058f23",
    "wof:id": 2014426365,
    "wof:repo": "sfomuseum-data-flights-2025-12"
  },
  "bbox": [
    -122.35739,
    37.49187,
    -121.24853,
    37.6136
  ],
  "geometry": {"coordinates":[[-121.24853,37.59477],[-121.32619,37.58553],[-121.34015,37.58402],[-121.41948,37.57505],[-121.47652,37.56823],[-121.55702,37.55876],[-121.60664,37.55283],[-121.66255,37.5415],[-121.7108,37.53033],[-121.77285,37.51535],[-121.81554,37.50532],[-121.86271,37.49388],[-121.91202,37.49187],[-121.95238,37.49292],[-121.99117,37.49608],[-122.02433,37.50665],[-122.06247,37.51887],[-122.10236,37.53167],[-122.14326,37.54515],[-122.16765,37.55295],[-122.1887,37.55971],[-122.23911,37.57601],[-122.25872,37.58239],[-122.28493,37.58989],[-122.30282,37.59525],[-122.34593,37.60883],[-122.35739,37.6136]],"type":"LineString"}
}
