{
  "id": 2014406147,
  "type": "Feature",
  "properties": {
    "geom:area": 0,
    "geom:bbox": "-122.351340,37.491580,-121.275590,37.611170",
    "geom:latitude": 37.54526239496198,
    "geom:longitude": -121.81813651271622,
    "src:alt_label": "swim-approach",
    "src:geom": "swim",
    "swim:elevations": [
      4545,
      4206,
      4076,
      3814,
      3541,
      3490,
      3340,
      3227,
      3038,
      2975,
      2438,
      2301,
      2127,
      1933,
      1829,
      1829,
      1643,
      1317,
      1242,
      995,
      763,
      595,
      548,
      516,
      375,
      245,
      188,
      58
    ],
    "swim:geom": "approach",
    "swim:timestamps": [
      1766873270,
      1766873306,
      1766873324,
      1766873357,
      1766873396,
      1766873411,
      1766873450,
      1766873482,
      1766873514,
      1766873520,
      1766873577,
      1766873600,
      1766873637,
      1766873663,
      1766873696,
      1766873716,
      1766873740,
      1766873777,
      1766873792,
      1766873832,
      1766873871,
      1766873907,
      1766873925,
      1766873957,
      1766873992,
      1766874025,
      1766874040,
      1766874075
    ],
    "wof:geomhash": "af3db43c59698c6ac78226c608d18f4c",
    "wof:id": 2014406147,
    "wof:repo": "sfomuseum-data-flights-2025-12"
  },
  "bbox": [
    -122.35134,
    37.49158,
    -121.27559,
    37.61117
  ],
  "geometry": {"coordinates":[[-121.27559,37.5912],[-121.3469,37.58311],[-121.38201,37.57915],[-121.44545,37.57184],[-121.52048,37.56309],[-121.5476,37.55991],[-121.61423,37.55206],[-121.66311,37.54161],[-121.71088,37.53032],[-121.71927,37.52828],[-121.79704,37.50973],[-121.82792,37.50227],[-121.87796,37.49158],[-121.91455,37.49189],[-121.95831,37.49315],[-121.98474,37.49473],[-122.01397,37.50318],[-122.06056,37.51838],[-122.07855,37.52411],[-122.12658,37.53974],[-122.16955,37.55358],[-122.2068,37.56571],[-122.22508,37.57164],[-122.25484,37.58111],[-122.28527,37.59011],[-122.3123,37.59817],[-122.32444,37.60175],[-122.35134,37.61117]],"type":"LineString"}
}
