{
  "id": 2014429225,
  "type": "Feature",
  "properties": {
    "geom:area": 0,
    "geom:bbox": "-122.527240,37.625250,-121.274850,38.400110",
    "geom:latitude": 38.03560003836581,
    "geom:longitude": -121.98958631781933,
    "src:alt_label": "swim-takeoff",
    "src:geom": "swim",
    "swim:elevations": [
      274,
      501,
      1125,
      1267,
      1671,
      1968,
      2189,
      2872,
      3072,
      3460,
      3544,
      3591,
      4294,
      4538,
      4825,
      5356,
      5724,
      5963,
      6150,
      6505,
      6630,
      6849,
      7135,
      7309,
      7385,
      7647,
      7888,
      7989,
      8238,
      8369,
      8534,
      8572
    ],
    "swim:geom": "takeoff",
    "swim:timestamps": [
      1767015378,
      1767015394,
      1767015446,
      1767015464,
      1767015506,
      1767015535,
      1767015551,
      1767015591,
      1767015628,
      1767015680,
      1767015687,
      1767015692,
      1767015748,
      1767015771,
      1767015795,
      1767015848,
      1767015896,
      1767015922,
      1767015942,
      1767015977,
      1767015991,
      1767016017,
      1767016048,
      1767016077,
      1767016091,
      1767016127,
      1767016166,
      1767016181,
      1767016228,
      1767016253,
      1767016284,
      1767016293
    ],
    "wof:geomhash": "0fceb8a77e222082f26af64f65d465a1",
    "wof:id": 2014429225,
    "wof:repo": "sfomuseum-data-flights-2025-12"
  },
  "bbox": [
    -122.52724,
    37.62525,
    -121.27485,
    38.40011
  ],
  "geometry": {"coordinates":[[-122.39086,37.62525],[-122.40446,37.63117],[-122.44982,37.6505],[-122.46711,37.65773],[-122.51404,37.67997],[-122.52664,37.71402],[-122.52724,37.73487],[-122.52643,37.78609],[-122.48908,37.81979],[-122.40833,37.8509],[-122.39635,37.85653],[-122.38833,37.86045],[-122.29563,37.90512],[-122.25704,37.9238],[-122.21575,37.94344],[-122.12369,37.98779],[-122.03765,38.03063],[-121.98914,38.05434],[-121.95298,38.07173],[-121.88723,38.10443],[-121.86134,38.1175],[-121.81361,38.1409],[-121.75431,38.16945],[-121.70103,38.19463],[-121.67423,38.20738],[-121.60345,38.24194],[-121.52805,38.27845],[-121.49854,38.29274],[-121.40546,38.33685],[-121.35535,38.361],[-121.29368,38.39128],[-121.27485,38.40011]],"type":"LineString"}
}
