{
  "id": 2014407455,
  "type": "Feature",
  "properties": {
    "geom:area": 0,
    "geom:bbox": "-122.811580,37.415740,-122.119800,38.509190",
    "geom:latitude": 37.8226239689684,
    "geom:longitude": -122.49497952557543,
    "src:alt_label": "swim-approach",
    "src:geom": "swim",
    "swim:elevations": [
      6380,
      6306,
      5829,
      5790,
      5791,
      5791,
      5696,
      5631,
      5523,
      5183,
      4888,
      4721,
      4572,
      4392,
      3945,
      3806,
      3628,
      3573,
      3430,
      3413,
      3353,
      3353,
      3353,
      3209,
      3030,
      2762,
      2671,
      2400,
      2193,
      2004,
      1882,
      1551,
      1371,
      1219,
      1167,
      1066,
      945,
      883,
      697,
      602,
      429,
      283,
      161,
      119,
      444
    ],
    "swim:geom": "approach",
    "swim:timestamps": [
      1766825638,
      1766825645,
      1766825693,
      1766825706,
      1766825756,
      1766825764,
      1766825816,
      1766825828,
      1766825850,
      1766825895,
      1766825926,
      1766825942,
      1766825959,
      1766825977,
      1766826027,
      1766826051,
      1766826085,
      1766826104,
      1766826137,
      1766826142,
      1766826175,
      1766826190,
      1766826238,
      1766826265,
      1766826290,
      1766826326,
      1766826343,
      1766826386,
      1766826416,
      1766826445,
      1766826460,
      1766826504,
      1766826532,
      1766826563,
      1766826587,
      1766826614,
      1766826653,
      1766826678,
      1766826711,
      1766826733,
      1766826775,
      1766826805,
      1766826835,
      1766826846,
      1766826883
    ],
    "wof:geomhash": "c5495e48adb826729cf8db0374edce67",
    "wof:id": 2014407455,
    "wof:repo": "sfomuseum-data-flights-2025-12"
  },
  "bbox": [
    -122.81158,
    37.41574,
    -122.1198,
    38.50919
  ],
  "geometry": {"coordinates":[[-122.81158,38.50919],[-122.80941,38.49518],[-122.79562,38.40609],[-122.7919,38.38234],[-122.77759,38.29002],[-122.77533,38.27542],[-122.75482,38.18087],[-122.74861,38.15951],[-122.73696,38.11952],[-122.71447,38.0417],[-122.69891,37.98821],[-122.69121,37.96161],[-122.68264,37.93199],[-122.67013,37.90301],[-122.60701,37.83677],[-122.57642,37.80774],[-122.5346,37.76847],[-122.51372,37.74873],[-122.47892,37.71603],[-122.47412,37.71156],[-122.44117,37.68053],[-122.42731,37.6675],[-122.38007,37.62315],[-122.35662,37.59693],[-122.34224,37.56846],[-122.32015,37.5294],[-122.30911,37.51146],[-122.28288,37.46808],[-122.25951,37.44161],[-122.22323,37.42808],[-122.20535,37.42175],[-122.14977,37.41574],[-122.13043,37.4393],[-122.1198,37.46862],[-122.12257,37.49154],[-122.14136,37.51247],[-122.17447,37.53666],[-122.19814,37.54657],[-122.22961,37.55992],[-122.24894,37.56802],[-122.28199,37.58192],[-122.30547,37.59177],[-122.32844,37.60143],[-122.33698,37.60501],[-122.36804,37.61869]],"type":"LineString"}
}
