{
  "id": 2014444021,
  "type": "Feature",
  "properties": {
    "geom:area": 0,
    "geom:bbox": "-123.469150,37.262500,-122.111210,37.614220",
    "geom:latitude": 37.38823122136102,
    "geom:longitude": -122.67575329189154,
    "src:alt_label": "swim-approach",
    "src:geom": "swim",
    "swim:elevations": [
      5652,
      5339,
      5282,
      5005,
      4704,
      4403,
      4342,
      3792,
      3493,
      3374,
      3152,
      3107,
      3048,
      3048,
      3048,
      3048,
      3048,
      2958,
      2840,
      2740,
      2743,
      2743,
      2743,
      2743,
      2740,
      2494,
      2376,
      2125,
      2071,
      1952,
      1827,
      1829,
      1829,
      1829,
      1648,
      1550,
      1355,
      1216,
      1133,
      976,
      775,
      484,
      408,
      298,
      124,
      42,
      250
    ],
    "swim:geom": "approach",
    "swim:timestamps": [
      1767169798,
      1767169828,
      1767169833,
      1767169858,
      1767169884,
      1767169917,
      1767169923,
      1767169976,
      1767170006,
      1767170017,
      1767170068,
      1767170078,
      1767170107,
      1767170142,
      1767170163,
      1767170211,
      1767170223,
      1767170240,
      1767170261,
      1767170288,
      1767170314,
      1767170363,
      1767170396,
      1767170426,
      1767170440,
      1767170482,
      1767170501,
      1767170545,
      1767170557,
      1767170585,
      1767170616,
      1767170626,
      1767170664,
      1767170676,
      1767170722,
      1767170738,
      1767170787,
      1767170818,
      1767170841,
      1767170876,
      1767170901,
      1767170938,
      1767170953,
      1767170970,
      1767171006,
      1767171022,
      1767171034
    ],
    "wof:geomhash": "190f11829323d735874b8b05d1424375",
    "wof:id": 2014444021,
    "wof:repo": "sfomuseum-data-flights-2025-12"
  },
  "bbox": [
    -123.46915,
    37.2625,
    -122.11121,
    37.61422
  ],
  "geometry": {"coordinates":[[-123.46915,37.44631],[-123.40356,37.4261],[-123.39379,37.42309],[-123.34052,37.4066],[-123.28643,37.38981],[-123.21926,37.36901],[-123.20725,37.36527],[-123.10305,37.33279],[-123.04748,37.3154],[-123.02502,37.30838],[-122.93299,37.27964],[-122.91645,37.27442],[-122.86761,37.2625],[-122.80488,37.2712],[-122.77068,37.27905],[-122.70215,37.29547],[-122.68598,37.29924],[-122.66246,37.3047],[-122.63443,37.31113],[-122.59855,37.31939],[-122.56493,37.32726],[-122.52086,37.36948],[-122.49462,37.40313],[-122.45592,37.41322],[-122.43695,37.41371],[-122.37979,37.41445],[-122.35526,37.41157],[-122.30127,37.39587],[-122.28758,37.39164],[-122.25426,37.38059],[-122.21656,37.37643],[-122.20388,37.37794],[-122.1573,37.384],[-122.14221,37.38599],[-122.11121,37.42256],[-122.11735,37.43989],[-122.13977,37.49072],[-122.16215,37.52113],[-122.1819,37.53844],[-122.22086,37.55597],[-122.24647,37.56693],[-122.28362,37.58261],[-122.29712,37.58824],[-122.3108,37.594],[-122.3395,37.60609],[-122.35268,37.61165],[-122.3612,37.61422]],"type":"LineString"}
}
