{
  "id": 2014442197,
  "type": "Feature",
  "properties": {
    "geom:area": 0,
    "geom:bbox": "-122.904340,37.471040,-122.185570,38.475530",
    "geom:latitude": 37.86564723083519,
    "geom:longitude": -122.54490356626415,
    "src:alt_label": "swim-approach",
    "src:geom": "swim",
    "swim:elevations": [
      7383,
      7128,
      6788,
      6547,
      6400,
      6127,
      5842,
      5622,
      5442,
      5177,
      4927,
      4788,
      4525,
      4297,
      4206,
      4146,
      4096,
      4009,
      3862,
      3655,
      3446,
      3353,
      3353,
      3353,
      3150,
      3020,
      2827,
      2397,
      1964,
      1804,
      1580,
      1258,
      1220,
      1219,
      1083,
      945,
      882,
      654,
      484,
      401,
      218,
      76,
      39
    ],
    "swim:geom": "approach",
    "swim:timestamps": [
      1767184101,
      1767184129,
      1767184165,
      1767184193,
      1767184211,
      1767184240,
      1767184286,
      1767184312,
      1767184335,
      1767184372,
      1767184402,
      1767184419,
      1767184449,
      1767184477,
      1767184506,
      1767184543,
      1767184574,
      1767184596,
      1767184617,
      1767184642,
      1767184667,
      1767184706,
      1767184727,
      1767184752,
      1767184793,
      1767184806,
      1767184833,
      1767184870,
      1767184901,
      1767184938,
      1767184967,
      1767185006,
      1767185028,
      1767185065,
      1767185090,
      1767185120,
      1767185142,
      1767185184,
      1767185217,
      1767185232,
      1767185271,
      1767185305,
      1767185315
    ],
    "wof:geomhash": "e7bb9eb401dd9f2453211293878219a5",
    "wof:id": 2014442197,
    "wof:repo": "sfomuseum-data-flights-2025-12"
  },
  "bbox": [
    -122.90434,
    37.47104,
    -122.18557,
    38.47553
  ],
  "geometry": {"coordinates":[[-122.90434,38.47553],[-122.88023,38.43176],[-122.8497,38.37581],[-122.8267,38.3333],[-122.81246,38.30743],[-122.78877,38.26417],[-122.75781,38.19207],[-122.74599,38.1524],[-122.73549,38.11616],[-122.72002,38.06188],[-122.70707,38.01672],[-122.69936,37.99043],[-122.68657,37.94594],[-122.67268,37.90573],[-122.64355,37.87198],[-122.605,37.83497],[-122.57622,37.80804],[-122.55631,37.78944],[-122.53942,37.77355],[-122.51833,37.75355],[-122.49802,37.73405],[-122.46625,37.70428],[-122.44878,37.68794],[-122.42804,37.66833],[-122.395,37.63728],[-122.38404,37.6271],[-122.36374,37.60651],[-122.3479,37.57434],[-122.33251,37.54754],[-122.31292,37.51628],[-122.29759,37.49287],[-122.25682,37.47786],[-122.23312,37.47104],[-122.19559,37.4775],[-122.18641,37.49931],[-122.18557,37.52675],[-122.20207,37.54403],[-122.24082,37.56409],[-122.27102,37.57725],[-122.28466,37.58298],[-122.31986,37.59785],[-122.34619,37.60891],[-122.35382,37.61215]],"type":"LineString"}
}
