{
  "id": 2014424453,
  "type": "Feature",
  "properties": {
    "geom:area": 0,
    "geom:bbox": "-122.359540,37.492440,-121.270080,37.614580",
    "geom:latitude": 37.54595445623588,
    "geom:longitude": -121.8197093154789,
    "src:alt_label": "swim-approach",
    "src:geom": "swim",
    "swim:elevations": [
      4301,
      4035,
      3578,
      3381,
      3137,
      3044,
      2965,
      2871,
      2833,
      2553,
      2498,
      2289,
      2264,
      2007,
      1864,
      1798,
      1471,
      1289,
      1139,
      967,
      826,
      738,
      485,
      343,
      248,
      100,
      0
    ],
    "swim:geom": "approach",
    "swim:timestamps": [
      1767050480,
      1767050504,
      1767050547,
      1767050577,
      1767050606,
      1767050636,
      1767050668,
      1767050696,
      1767050702,
      1767050753,
      1767050763,
      1767050798,
      1767050802,
      1767050846,
      1767050876,
      1767050888,
      1767050939,
      1767050967,
      1767050993,
      1767051027,
      1767051046,
      1767051062,
      1767051111,
      1767051145,
      1767051166,
      1767051204,
      1767051222
    ],
    "wof:geomhash": "93bd2cbdcce2d376c2bdcaaa2319432b",
    "wof:id": 2014424453,
    "wof:repo": "sfomuseum-data-flights-2025-12"
  },
  "bbox": [
    -122.35954,
    37.49244,
    -121.27008,
    37.61458
  ],
  "geometry": {"coordinates":[[-121.27008,37.59186],[-121.32508,37.58548],[-121.42224,37.57432],[-121.48954,37.56658],[-121.55133,37.55949],[-121.60986,37.55264],[-121.66493,37.5411],[-121.70977,37.53039],[-121.71915,37.52811],[-121.79705,37.50958],[-121.81172,37.50606],[-121.86434,37.49354],[-121.86967,37.49275],[-121.93471,37.49244],[-121.9775,37.49384],[-121.99393,37.49674],[-122.05836,37.51743],[-122.09431,37.52919],[-122.12858,37.5403],[-122.16943,37.55359],[-122.19234,37.56095],[-122.21194,37.5672],[-122.26254,37.58359],[-122.29435,37.59257],[-122.3124,37.59807],[-122.34498,37.60845],[-122.35954,37.61458]],"type":"LineString"}
}
