{
  "id": 2014423763,
  "type": "Feature",
  "properties": {
    "geom:area": 0,
    "geom:bbox": "-122.354950,36.746700,-121.892950,37.610300",
    "geom:latitude": 37.220271583168774,
    "geom:longitude": -122.0738451121347,
    "src:alt_label": "swim-approach",
    "src:geom": "swim",
    "swim:elevations": [
      5374,
      5006,
      4823,
      4464,
      4334,
      3998,
      3738,
      3462,
      3160,
      3063,
      2912,
      2809,
      2457,
      2141,
      1985,
      1946,
      1832,
      1630,
      1359,
      1050,
      921,
      737,
      613,
      487,
      404,
      290,
      212,
      35
    ],
    "swim:geom": "approach",
    "swim:timestamps": [
      1767002007,
      1767002036,
      1767002054,
      1767002092,
      1767002108,
      1767002144,
      1767002170,
      1767002200,
      1767002241,
      1767002277,
      1767002300,
      1767002319,
      1767002359,
      1767002398,
      1767002427,
      1767002439,
      1767002460,
      1767002490,
      1767002527,
      1767002578,
      1767002601,
      1767002636,
      1767002666,
      1767002693,
      1767002710,
      1767002743,
      1767002764,
      1767002806
    ],
    "wof:geomhash": "56e1006cec8b881d229904c9ad3e82df",
    "wof:id": 2014423763,
    "wof:repo": "sfomuseum-data-flights-2025-12"
  },
  "bbox": [
    -122.35495,
    36.7467,
    -121.89295,
    37.6103
  ],
  "geometry": {"coordinates":[[-121.89295,36.7467],[-121.90864,36.79301],[-121.91663,36.82195],[-121.93356,36.88278],[-121.94045,36.90743],[-121.95765,36.96347],[-121.97303,37.00283],[-121.99098,37.04882],[-122.01405,37.10819],[-122.03326,37.15711],[-122.04507,37.18723],[-122.05407,37.21013],[-122.07199,37.25693],[-122.09141,37.30533],[-122.1048,37.33942],[-122.1102,37.35315],[-122.11938,37.37612],[-122.13061,37.40806],[-122.14394,37.4474],[-122.16408,37.49696],[-122.17592,37.51623],[-122.20342,37.53938],[-122.23143,37.55445],[-122.25753,37.56702],[-122.27279,37.57448],[-122.30262,37.58742],[-122.32005,37.59517],[-122.35495,37.6103]],"type":"LineString"}
}
