{
  "id": 2014418931,
  "type": "Feature",
  "properties": {
    "geom:area": 0,
    "geom:bbox": "-122.357240,37.640520,-121.262750,37.962540",
    "geom:latitude": 37.839162812601124,
    "geom:longitude": -121.8229676288962,
    "src:alt_label": "swim-takeoff",
    "src:geom": "swim",
    "swim:elevations": [
      301,
      510,
      688,
      957,
      1220,
      1597,
      1628,
      2314,
      2841,
      3134,
      3323,
      3555,
      3750,
      4242,
      4447,
      4917,
      5095,
      5653,
      6226,
      6499,
      6743,
      6946,
      7221,
      7297
    ],
    "swim:geom": "takeoff",
    "swim:timestamps": [
      1766909753,
      1766909779,
      1766909804,
      1766909825,
      1766909846,
      1766909877,
      1766909880,
      1766909929,
      1766909968,
      1766909991,
      1766910025,
      1766910053,
      1766910070,
      1766910110,
      1766910127,
      1766910167,
      1766910181,
      1766910224,
      1766910265,
      1766910294,
      1766910319,
      1766910349,
      1766910383,
      1766910390
    ],
    "wof:geomhash": "d2601391f5c2a19ca952a4df3c00944d",
    "wof:id": 2014418931,
    "wof:repo": "sfomuseum-data-flights-2025-12"
  },
  "bbox": [
    -122.35724,
    37.64052,
    -121.26275,
    37.96254
  ],
  "geometry": {"coordinates":[[-122.35724,37.64052],[-122.33421,37.65338],[-122.30816,37.66727],[-122.28464,37.68025],[-122.26152,37.69339],[-122.22336,37.71326],[-122.21956,37.71523],[-122.15615,37.7478],[-122.10485,37.77439],[-122.07508,37.7898],[-122.02558,37.81528],[-121.97705,37.83115],[-121.94313,37.8374],[-121.8652,37.85215],[-121.83002,37.85874],[-121.74759,37.87399],[-121.71747,37.87952],[-121.62453,37.89643],[-121.53966,37.91207],[-121.47757,37.92357],[-121.4234,37.93343],[-121.35677,37.94551],[-121.27826,37.95977],[-121.26275,37.96254]],"type":"LineString"}
}
