{
  "id": 2014409123,
  "type": "Feature",
  "properties": {
    "geom:area": 0,
    "geom:bbox": "-122.339730,37.491750,-121.249420,37.606150",
    "geom:latitude": 37.54173193369752,
    "geom:longitude": -121.80126380541964,
    "src:alt_label": "swim-approach",
    "src:geom": "swim",
    "swim:elevations": [
      4662,
      4508,
      4127,
      3938,
      3571,
      3247,
      3174,
      3125,
      2860,
      2604,
      2503,
      2282,
      2223,
      2085,
      1889,
      1681,
      1373,
      1216,
      1220,
      1187,
      886,
      804,
      706,
      647,
      494,
      335,
      272,
      122
    ],
    "swim:geom": "approach",
    "swim:timestamps": [
      1766843185,
      1766843202,
      1766843241,
      1766843262,
      1766843299,
      1766843335,
      1766843356,
      1766843370,
      1766843413,
      1766843449,
      1766843474,
      1766843517,
      1766843526,
      1766843550,
      1766843589,
      1766843617,
      1766843664,
      1766843697,
      1766843702,
      1766843737,
      1766843786,
      1766843800,
      1766843816,
      1766843829,
      1766843865,
      1766843901,
      1766843913,
      1766843953
    ],
    "wof:geomhash": "7a05dce27ae9e9f15031b4c9a91ff0a2",
    "wof:id": 2014409123,
    "wof:repo": "sfomuseum-data-flights-2025-12"
  },
  "bbox": [
    -122.33973,
    37.49175,
    -121.24942,
    37.60615
  ],
  "geometry": {"coordinates":[[-121.24942,37.59457],[-121.28433,37.58991],[-121.36144,37.58148],[-121.40374,37.57678],[-121.47643,37.56828],[-121.54518,37.56012],[-121.58414,37.55551],[-121.60936,37.5525],[-121.68077,37.53741],[-121.73957,37.52337],[-121.7782,37.51416],[-121.84226,37.49873],[-121.8554,37.49557],[-121.89075,37.49175],[-121.94695,37.49499],[-121.98567,37.4972],[-122.05242,37.50097],[-122.09805,37.50505],[-122.10477,37.50711],[-122.14432,37.5241],[-122.19892,37.54699],[-122.2128,37.55284],[-122.22819,37.5593],[-122.24013,37.56432],[-122.27033,37.57707],[-122.29987,37.58947],[-122.30903,37.59328],[-122.33973,37.60615]],"type":"LineString"}
}
