{
  "id": 2014426509,
  "type": "Feature",
  "properties": {
    "geom:area": 0,
    "geom:bbox": "-122.362560,37.458990,-122.172550,37.613130",
    "geom:latitude": 37.52829224738156,
    "geom:longitude": -122.25348376093683,
    "src:alt_label": "swim-approach",
    "src:geom": "swim",
    "swim:elevations": [
      2559,
      2361,
      2175,
      2029,
      1844,
      1755,
      1586,
      1092,
      955,
      910,
      697,
      490,
      262,
      124,
      0
    ],
    "swim:geom": "approach",
    "swim:timestamps": [
      1767023663,
      1767023695,
      1767023721,
      1767023742,
      1767023764,
      1767023776,
      1767023796,
      1767023874,
      1767023896,
      1767023933,
      1767023956,
      1767023983,
      1767024028,
      1767024057,
      1767024088
    ],
    "wof:geomhash": "e05fd39c1eb6b86d50e8716888c938e5",
    "wof:id": 2014426509,
    "wof:repo": "sfomuseum-data-flights-2025-12"
  },
  "bbox": [
    -122.36256,
    37.45899,
    -122.17255,
    37.61313
  ],
  "geometry": {"coordinates":[[-122.32659,37.53955],[-122.30731,37.50804],[-122.28358,37.48825],[-122.25772,37.47967],[-122.23087,37.47051],[-122.21581,37.46538],[-122.18983,37.45899],[-122.17255,37.51613],[-122.18902,37.53346],[-122.22166,37.5536],[-122.24475,37.56389],[-122.27254,37.57576],[-122.31413,37.59299],[-122.33763,37.6029],[-122.36256,37.61313]],"type":"LineString"}
}
