{
  "id": 2014414175,
  "type": "Feature",
  "properties": {
    "geom:area": 0,
    "geom:bbox": "-123.498170,37.029470,-122.399630,37.670260",
    "geom:latitude": 37.37837137695318,
    "geom:longitude": -122.95468672246727,
    "src:alt_label": "swim-takeoff",
    "src:geom": "swim",
    "swim:elevations": [
      246,
      608,
      885,
      960,
      1060,
      1328,
      1705,
      2011,
      2458,
      2811,
      2999,
      3257,
      3392,
      3489,
      3706,
      3923,
      4256,
      4502,
      4890,
      5050,
      5441,
      5532,
      5753,
      5974,
      6126
    ],
    "swim:geom": "takeoff",
    "swim:timestamps": [
      1766883800,
      1766883830,
      1766883867,
      1766883887,
      1766883902,
      1766883944,
      1766883980,
      1766884004,
      1766884046,
      1766884073,
      1766884091,
      1766884133,
      1766884164,
      1766884188,
      1766884218,
      1766884239,
      1766884278,
      1766884305,
      1766884344,
      1766884362,
      1766884408,
      1766884435,
      1766884465,
      1766884497,
      1766884516
    ],
    "wof:geomhash": "0a0c275a93baffd0d686b366e53161ba",
    "wof:id": 2014414175,
    "wof:repo": "sfomuseum-data-flights-2025-12"
  },
  "bbox": [
    -123.49817,
    37.02947,
    -122.39963,
    37.67026
  ],
  "geometry": {"coordinates":[[-122.39963,37.62895],[-122.42726,37.64099],[-122.46177,37.65624],[-122.48299,37.66596],[-122.50122,37.67026],[-122.55353,37.64566],[-122.59646,37.61566],[-122.62683,37.59588],[-122.68064,37.56124],[-122.71616,37.53869],[-122.7392,37.52357],[-122.79646,37.4865],[-122.84424,37.45568],[-122.88304,37.43062],[-122.93439,37.39735],[-122.97118,37.37348],[-123.04084,37.32825],[-123.09059,37.29591],[-123.16321,37.24862],[-123.19708,37.22654],[-123.28534,37.16884],[-123.33792,37.13438],[-123.39555,37.09657],[-123.46047,37.054],[-123.49817,37.02947]],"type":"LineString"}
}
