{
  "id": 2014446701,
  "type": "Feature",
  "properties": {
    "geom:area": 0,
    "geom:bbox": "-122.385210,37.634210,-121.470350,38.493260",
    "geom:latitude": 38.110527035269925,
    "geom:longitude": -122.03046503296105,
    "src:alt_label": "swim-takeoff",
    "src:geom": "swim",
    "swim:elevations": [
      324,
      551,
      570,
      793,
      1028,
      1475,
      2035,
      2232,
      2853,
      2994,
      3240,
      3450,
      3632,
      4009,
      4261,
      4417,
      4790,
      5100,
      5215,
      5621,
      5643,
      5993,
      6215,
      6359,
      6577,
      6901,
      6972
    ],
    "swim:geom": "takeoff",
    "swim:timestamps": [
      1767218453,
      1767218485,
      1767218491,
      1767218532,
      1767218564,
      1767218601,
      1767218634,
      1767218655,
      1767218697,
      1767218715,
      1767218754,
      1767218789,
      1767218812,
      1767218847,
      1767218871,
      1767218886,
      1767218925,
      1767218961,
      1767218973,
      1767219027,
      1767219030,
      1767219080,
      1767219116,
      1767219143,
      1767219167,
      1767219203,
      1767219212
    ],
    "wof:geomhash": "f7b1dd1c33c8574766458cf6ce59907e",
    "wof:id": 2014446701,
    "wof:repo": "sfomuseum-data-flights-2025-12"
  },
  "bbox": [
    -122.38521,
    37.63421,
    -121.47035,
    38.49326
  ],
  "geometry": {"coordinates":[[-122.36337,37.63421],[-122.34344,37.65152],[-122.33895,37.65511],[-122.31,37.68697],[-122.32367,37.72545],[-122.35031,37.77073],[-122.37155,37.81286],[-122.38438,37.83989],[-122.38521,37.89811],[-122.38341,37.92349],[-122.34141,37.96791],[-122.2854,38.00077],[-122.2449,38.02534],[-122.18362,38.06285],[-122.14082,38.08893],[-122.11386,38.10535],[-122.04268,38.14857],[-121.97668,38.18855],[-121.95385,38.20229],[-121.84924,38.26543],[-121.84337,38.26898],[-121.74287,38.32935],[-121.66961,38.37309],[-121.61346,38.4068],[-121.56323,38.4369],[-121.48881,38.48189],[-121.47035,38.49326]],"type":"LineString"}
}
