{
  "id": 2014413619,
  "type": "Feature",
  "properties": {
    "geom:area": 0,
    "geom:bbox": "-122.365810,37.629470,-121.262120,37.972230",
    "geom:latitude": 37.85707229837311,
    "geom:longitude": -121.83349787802078,
    "src:alt_label": "swim-takeoff",
    "src:geom": "swim",
    "swim:elevations": [
      152,
      530,
      948,
      1111,
      1249,
      1687,
      1821,
      2649,
      2723,
      3421,
      3789,
      4037,
      4456,
      4550,
      4773,
      4803,
      5325,
      5433,
      5948,
      5975,
      6307,
      6484,
      6886,
      7069
    ],
    "swim:geom": "takeoff",
    "swim:timestamps": [
      1766836366,
      1766836397,
      1766836438,
      1766836468,
      1766836484,
      1766836521,
      1766836533,
      1766836587,
      1766836591,
      1766836644,
      1766836673,
      1766836696,
      1766836735,
      1766836758,
      1766836798,
      1766836802,
      1766836855,
      1766836866,
      1766836918,
      1766836922,
      1766836962,
      1766836982,
      1766837035,
      1766837060
    ],
    "wof:geomhash": "52810044d308abc968667b4eaa684c88",
    "wof:id": 2014413619,
    "wof:repo": "sfomuseum-data-flights-2025-12"
  },
  "bbox": [
    -122.36581,
    37.62947,
    -121.26212,
    37.97223
  ],
  "geometry": {"coordinates":[[-122.36581,37.62947],[-122.3434,37.64709],[-122.30889,37.66632],[-122.28048,37.68319],[-122.26301,37.69291],[-122.21566,37.71693],[-122.20002,37.72496],[-122.12807,37.76221],[-122.12221,37.76526],[-122.05842,37.80762],[-122.02557,37.83275],[-121.99807,37.85337],[-121.94582,37.88523],[-121.90528,37.89325],[-121.82582,37.90329],[-121.81638,37.9044],[-121.70557,37.918],[-121.68185,37.92089],[-121.57346,37.93435],[-121.56569,37.93532],[-121.47879,37.94594],[-121.43567,37.95125],[-121.31789,37.96545],[-121.26212,37.97223]],"type":"LineString"}
}
