{
  "id": 2014426617,
  "type": "Feature",
  "properties": {
    "geom:area": 0,
    "geom:bbox": "-122.363440,37.492030,-121.295960,37.613900",
    "geom:latitude": 37.541393645971944,
    "geom:longitude": -121.83626716644105,
    "src:alt_label": "swim-approach",
    "src:geom": "swim",
    "swim:elevations": [
      4237,
      3961,
      3877,
      3504,
      3313,
      3062,
      2939,
      2742,
      2612,
      2460,
      2369,
      2101,
      1949,
      1822,
      1646,
      1485,
      1219,
      1219,
      878,
      578,
      363,
      127,
      119,
      195
    ],
    "swim:geom": "approach",
    "swim:timestamps": [
      1767053664,
      1767053694,
      1767053706,
      1767053746,
      1767053767,
      1767053818,
      1767053839,
      1767053866,
      1767053884,
      1767053918,
      1767053948,
      1767053993,
      1767054023,
      1767054053,
      1767054081,
      1767054105,
      1767054147,
      1767054175,
      1767054253,
      1767054310,
      1767054357,
      1767054417,
      1767054420,
      1767054451
    ],
    "wof:geomhash": "39437811c2aebf4379ce35ffdb0c6aa8",
    "wof:id": 2014426617,
    "wof:repo": "sfomuseum-data-flights-2025-12"
  },
  "bbox": [
    -122.36344,
    37.49203,
    -121.29596,
    37.6139
  ],
  "geometry": {"coordinates":[[-121.29596,37.5886],[-121.35925,37.58171],[-121.38423,37.57892],[-121.46636,37.56919],[-121.50974,37.56426],[-121.60896,37.55267],[-121.64584,37.54571],[-121.692,37.53477],[-121.7224,37.52746],[-121.77699,37.51446],[-121.82092,37.50386],[-121.88287,37.49203],[-121.92377,37.49475],[-121.96311,37.49789],[-121.99848,37.50082],[-122.02787,37.50326],[-122.07994,37.50746],[-122.11227,37.51052],[-122.18944,37.54069],[-122.24613,37.56475],[-122.28736,37.58187],[-122.33547,37.6023],[-122.33787,37.60333],[-122.36344,37.6139]],"type":"LineString"}
}
