{
  "id": 2014410407,
  "type": "Feature",
  "properties": {
    "geom:area": 0,
    "geom:bbox": "-122.366920,37.627560,-121.242300,37.966280",
    "geom:latitude": 37.838732533166684,
    "geom:longitude": -121.82000856700148,
    "src:alt_label": "swim-takeoff",
    "src:geom": "swim",
    "swim:elevations": [
      152,
      274,
      581,
      699,
      1023,
      1143,
      1318,
      1603,
      1843,
      2384,
      2754,
      3068,
      3200,
      3359,
      3445,
      3520,
      3716,
      4083,
      4318,
      4352,
      4740,
      5096,
      5285,
      5403,
      5454,
      5509
    ],
    "swim:geom": "takeoff",
    "swim:timestamps": [
      1766839768,
      1766839775,
      1766839814,
      1766839848,
      1766839881,
      1766839892,
      1766839909,
      1766839939,
      1766839960,
      1766840003,
      1766840035,
      1766840065,
      1766840089,
      1766840120,
      1766840139,
      1766840161,
      1766840202,
      1766840245,
      1766840277,
      1766840281,
      1766840329,
      1766840366,
      1766840396,
      1766840404,
      1766840426,
      1766840432
    ],
    "wof:geomhash": "a7c27f2509b5b8b284a877568a3c55e1",
    "wof:id": 2014410407,
    "wof:repo": "sfomuseum-data-flights-2025-12"
  },
  "bbox": [
    -122.36692,
    37.62756,
    -121.2423,
    37.96628
  ],
  "geometry": {"coordinates":[[-122.36692,37.62756],[-122.36383,37.63217],[-122.33421,37.65156],[-122.3022,37.66998],[-122.26669,37.69045],[-122.25434,37.69709],[-122.23447,37.70742],[-122.19648,37.72683],[-122.16877,37.74081],[-122.11114,37.77099],[-122.06904,37.79293],[-122.02897,37.81374],[-121.99337,37.82815],[-121.93775,37.83869],[-121.90234,37.84533],[-121.85892,37.85343],[-121.77225,37.86958],[-121.67631,37.8873],[-121.60349,37.90072],[-121.59434,37.90241],[-121.4837,37.92261],[-121.39736,37.93832],[-121.3278,37.95098],[-121.30844,37.9544],[-121.25672,37.96372],[-121.2423,37.96628]],"type":"LineString"}
}
