{
  "id": 2014445029,
  "type": "Feature",
  "properties": {
    "geom:area": 0,
    "geom:bbox": "-122.555430,36.730510,-122.203830,37.746580",
    "geom:latitude": 37.28047925404547,
    "geom:longitude": -122.45913891107116,
    "src:alt_label": "swim-takeoff",
    "src:geom": "swim",
    "swim:elevations": [
      152,
      468,
      790,
      1037,
      1433,
      2122,
      2330,
      2789,
      3124,
      3503,
      3989,
      4195,
      4603,
      4740,
      4939,
      5326,
      5560,
      6037,
      6123,
      6245,
      6365,
      6727,
      6928,
      7160,
      7283,
      7499,
      7673,
      7772,
      8101,
      8264,
      8353
    ],
    "swim:geom": "takeoff",
    "swim:timestamps": [
      1767183668,
      1767183697,
      1767183736,
      1767183762,
      1767183790,
      1767183835,
      1767183850,
      1767183880,
      1767183905,
      1767183951,
      1767183988,
      1767184006,
      1767184045,
      1767184059,
      1767184080,
      1767184120,
      1767184144,
      1767184193,
      1767184205,
      1767184222,
      1767184236,
      1767184286,
      1767184312,
      1767184348,
      1767184366,
      1767184397,
      1767184427,
      1767184440,
      1767184498,
      1767184524,
      1767184538
    ],
    "wof:geomhash": "7ef3b9b7f9f27b4eca584c1d4b80e281",
    "wof:id": 2014445029,
    "wof:repo": "sfomuseum-data-flights-2025-12"
  },
  "bbox": [
    -122.55543,
    36.73051,
    -122.20383,
    37.74658
  ],
  "geometry": {"coordinates":[[-122.36567,37.63358],[-122.36069,37.65798],[-122.36891,37.69814],[-122.39863,37.7219],[-122.43475,37.74658],[-122.5035,37.73909],[-122.51754,37.7242],[-122.52437,37.68863],[-122.52629,37.65911],[-122.52944,37.59679],[-122.53261,37.54389],[-122.53419,37.51792],[-122.53766,37.46059],[-122.53896,37.43935],[-122.54073,37.40608],[-122.54428,37.34287],[-122.54661,37.30466],[-122.55139,37.22472],[-122.55247,37.20602],[-122.55413,37.17845],[-122.55543,37.15594],[-122.53469,37.0763],[-122.5017,37.04239],[-122.45492,36.99344],[-122.43157,36.96909],[-122.39115,36.92699],[-122.3517,36.88576],[-122.33449,36.86744],[-122.25785,36.78721],[-122.22309,36.75074],[-122.20383,36.73051]],"type":"LineString"}
}
