{
  "id": 2014409465,
  "type": "Feature",
  "properties": {
    "geom:area": 0,
    "geom:bbox": "-122.360090,36.720410,-121.877450,37.612630",
    "geom:latitude": 37.20825888650541,
    "geom:longitude": -122.06991650247784,
    "src:alt_label": "swim-approach",
    "src:geom": "swim",
    "swim:elevations": [
      6087,
      5914,
      5471,
      5427,
      5156,
      4925,
      4564,
      4393,
      4047,
      3628,
      3395,
      3288,
      3137,
      3105,
      2976,
      2662,
      2551,
      2466,
      2413,
      2115,
      2026,
      1853,
      1829,
      1775,
      1499,
      1302,
      1059,
      938,
      736,
      609,
      456,
      303,
      241,
      75,
      0
    ],
    "swim:geom": "approach",
    "swim:timestamps": [
      1766870726,
      1766870741,
      1766870781,
      1766870793,
      1766870834,
      1766870850,
      1766870877,
      1766870889,
      1766870917,
      1766870965,
      1766870996,
      1766871009,
      1766871056,
      1766871065,
      1766871101,
      1766871146,
      1766871164,
      1766871178,
      1766871189,
      1766871228,
      1766871240,
      1766871264,
      1766871285,
      1766871303,
      1766871348,
      1766871383,
      1766871417,
      1766871438,
      1766871473,
      1766871498,
      1766871536,
      1766871566,
      1766871578,
      1766871618,
      1766871636
    ],
    "wof:geomhash": "2794f71427564133f6d28b0f478a847c",
    "wof:id": 2014409465,
    "wof:repo": "sfomuseum-data-flights-2025-12"
  },
  "bbox": [
    -122.36009,
    36.72041,
    -121.87745,
    37.61263
  ],
  "geometry": {"coordinates":[[-121.87745,36.72041],[-121.88998,36.74022],[-121.90908,36.79512],[-121.91394,36.81222],[-121.92907,36.8665],[-121.93461,36.88638],[-121.94425,36.92011],[-121.9483,36.93484],[-121.95956,36.96849],[-121.98189,37.02531],[-121.99571,37.06131],[-122.00153,37.07634],[-122.02332,37.13179],[-122.02741,37.14242],[-122.04361,37.18386],[-122.06408,37.23597],[-122.07229,37.25677],[-122.07815,37.27197],[-122.08323,37.28476],[-122.10094,37.32981],[-122.10628,37.3435],[-122.11696,37.37011],[-122.1249,37.39245],[-122.13108,37.41065],[-122.14585,37.4532],[-122.16095,37.48503],[-122.18203,37.5148],[-122.19469,37.53253],[-122.22188,37.55389],[-122.2453,37.56417],[-122.27964,37.57867],[-122.30422,37.58909],[-122.31382,37.59311],[-122.34606,37.60659],[-122.36009,37.61263]],"type":"LineString"}
}
