{
  "id": 2014435331,
  "type": "Feature",
  "properties": {
    "geom:area": 0,
    "geom:bbox": "-122.194760,37.491530,-121.247230,37.594660",
    "geom:latitude": 37.539650869916436,
    "geom:longitude": -121.72437017070587,
    "src:alt_label": "swim-approach",
    "src:geom": "swim",
    "swim:elevations": [
      4669,
      4405,
      4278,
      4104,
      3947,
      3609,
      3472,
      3245,
      3052,
      2828,
      2691,
      2454,
      2227,
      2071,
      2011,
      1900,
      1829,
      1672,
      1630,
      1301,
      1143,
      932,
      821
    ],
    "swim:geom": "approach",
    "swim:timestamps": [
      1767105050,
      1767105078,
      1767105095,
      1767105123,
      1767105150,
      1767105203,
      1767105219,
      1767105240,
      1767105277,
      1767105311,
      1767105335,
      1767105374,
      1767105414,
      1767105447,
      1767105457,
      1767105491,
      1767105524,
      1767105566,
      1767105572,
      1767105618,
      1767105639,
      1767105684,
      1767105702
    ],
    "wof:geomhash": "c4810ad98145c0a5d660af19a71b9081",
    "wof:id": 2014435331,
    "wof:repo": "sfomuseum-data-flights-2025-12"
  },
  "bbox": [
    -122.19476,
    37.49153,
    -121.24723,
    37.59466
  ],
  "geometry": {"coordinates":[[-121.24723,37.59466],[-121.30612,37.58731],[-121.33951,37.58377],[-121.39285,37.578],[-121.44082,37.57251],[-121.53002,37.56186],[-121.55574,37.55887],[-121.59024,37.55479],[-121.64837,37.54482],[-121.70094,37.53239],[-121.73738,37.52372],[-121.7953,37.51018],[-121.85289,37.49618],[-121.89984,37.49153],[-121.91419,37.49207],[-121.96054,37.493],[-122.00277,37.49936],[-122.04948,37.51463],[-122.05611,37.51684],[-122.10742,37.53341],[-122.13026,37.54084],[-122.17617,37.55558],[-122.19476,37.5616]],"type":"LineString"}
}
