{
  "id": 2014414647,
  "type": "Feature",
  "properties": {
    "geom:area": 0,
    "geom:bbox": "-122.357550,37.491410,-121.256640,37.613770",
    "geom:latitude": 37.546463661229964,
    "geom:longitude": -121.81204403276263,
    "src:alt_label": "swim-approach",
    "src:geom": "swim",
    "swim:elevations": [
      4661,
      4374,
      4089,
      3909,
      3775,
      3637,
      3534,
      3287,
      3048,
      2769,
      2727,
      2528,
      2366,
      2102,
      2050,
      1980,
      1888,
      1740,
      1498,
      1365,
      1223,
      976,
      894,
      800,
      562,
      424,
      340,
      187,
      95,
      0
    ],
    "swim:geom": "approach",
    "swim:timestamps": [
      1766962764,
      1766962792,
      1766962825,
      1766962849,
      1766962866,
      1766962884,
      1766962899,
      1766962938,
      1766962968,
      1766963007,
      1766963013,
      1766963045,
      1766963070,
      1766963126,
      1766963135,
      1766963153,
      1766963169,
      1766963198,
      1766963237,
      1766963264,
      1766963289,
      1766963338,
      1766963357,
      1766963375,
      1766963422,
      1766963453,
      1766963471,
      1766963510,
      1766963525,
      1766963546
    ],
    "wof:geomhash": "1431150e9480b5cd9383a3f28ba02af1",
    "wof:id": 2014414647,
    "wof:repo": "sfomuseum-data-flights-2025-12"
  },
  "bbox": [
    -122.35755,
    37.49141,
    -121.25664,
    37.61377
  ],
  "geometry": {"coordinates":[[-121.25664,37.59294],[-121.3184,37.58539],[-121.38926,37.57822],[-121.4384,37.57284],[-121.47114,37.56908],[-121.50549,37.56504],[-121.53335,37.56173],[-121.60262,37.5533],[-121.65346,37.54379],[-121.719,37.52837],[-121.7286,37.52602],[-121.77871,37.51399],[-121.81697,37.50484],[-121.89875,37.49141],[-121.91202,37.4918],[-121.93819,37.49239],[-121.96168,37.49293],[-122.00315,37.49924],[-122.05238,37.51543],[-122.08308,37.52561],[-122.11004,37.5342],[-122.1629,37.55133],[-122.18317,37.5579],[-122.2024,37.56404],[-122.24993,37.57951],[-122.27812,37.58788],[-122.29395,37.59243],[-122.32719,37.60231],[-122.34008,37.60659],[-122.35755,37.61377]],"type":"LineString"}
}
