{
  "id": 2014439287,
  "type": "Feature",
  "properties": {
    "date:inception_lower": "2025-12-30",
    "date:inception_upper": "2025-12-30",
    "edtf:cessation": "",
    "edtf:inception": "2025-12-30",
    "flysfo:actual_timestamp": -1,
    "flysfo:airline": "UA",
    "flysfo:base_airline": "",
    "flysfo:base_flight_number": "4053",
    "flysfo:date": "2025-12-30",
    "flysfo:estimated_timestamp": 1767154140,
    "flysfo:event": "D",
    "flysfo:flight_number": "UA1552",
    "flysfo:gate": "F17",
    "flysfo:journey": "SFO-RNO",
    "flysfo:scheduled_timestamp": 1767151200,
    "flysfo:timestamp": 1767154140,
    "geom:area": 0,
    "geom:bbox": "-122.370943,37.617990,-119.772167,39.505219",
    "geom:latitude": 38.5616045,
    "geom:longitude": -121.07155499999999,
    "iata:airline": "UA",
    "iata:base_airline": "",
    "icao:airline": "UAL",
    "icao:base_airline": "ACA",
    "lbl:latitude": 37.620791,
    "lbl:longitude": -122.390014,
    "sfomuseum:airline_id": 1159285413,
    "sfomuseum:arrival_id": 102525535,
    "sfomuseum:base_flight_id": "20251230-D-ACA-4053",
    "sfomuseum:departure_id": 102527513,
    "sfomuseum:flight_id": "20251230-D-UAL-1552",
    "sfomuseum:flight_number": [
      "UAL1552",
      "UA1552"
    ],
    "sfomuseum:placetype": "flight",
    "src:geom": "flysfo",
    "wof:belongsto": [
      1947304067,
      102527513,
      1947304451,
      102191575,
      85633793,
      102087579,
      85922583,
      554784711,
      85688637,
      1947304473,
      1947304447,
      102085387
    ],
    "wof:country": "US",
    "wof:created": 1767197758,
    "wof:geomhash": "414447526a1ddeb77713c60c4ab5a7e4",
    "wof:hierarchy": [
      {
        "building_id": 1947304067,
        "campus_id": 102527513,
        "concourse_id": 1947304451,
        "continent_id": 102191575,
        "country_id": 85633793,
        "county_id": 102087579,
        "custom_id": 2014439287,
        "flight_id": 2014439287,
        "locality_id": 85922583,
        "postalcode_id": 554784711,
        "region_id": 85688637,
        "venue_id": 1947304473,
        "wing_id": 1947304447
      },
      {
        "building_id": 1947304067,
        "campus_id": 102527513,
        "concourse_id": 1947304451,
        "continent_id": 102191575,
        "country_id": 85633793,
        "county_id": 102085387,
        "custom_id": 2014439287,
        "flight_id": 2014439287,
        "region_id": 85688637,
        "venue_id": 1947304473,
        "wing_id": 1947304447
      }
    ],
    "wof:id": 2014439287,
    "wof:involves": [
      102525535,
      102527513,
      1159285413,
      1947304473,
      1159283597
    ],
    "wof:lastmodified": 1767197758,
    "wof:name": "UA1552 (SFO-RNO)",
    "wof:parent_id": 1947304473,
    "wof:placetype": "custom",
    "wof:placetype_alt": [
      "flight"
    ],
    "wof:repo": "sfomuseum-data-flights-2025-12",
    "wof:superseded_by": [],
    "wof:supersedes": []
  },
  "bbox": [
    -122.370943,
    37.61799,
    -119.772167,
    39.505219
  ],
  "geometry": {"coordinates":[[-122.370943,37.61799],[-119.772167,39.505219]],"type":"MultiPoint"}
}
