{
  "id": 2014447517,
  "type": "Feature",
  "properties": {
    "geom:area": 0,
    "geom:bbox": "-122.533310,36.736030,-122.144880,37.714160",
    "geom:latitude": 37.24346050368239,
    "geom:longitude": -122.41056605919266,
    "src:alt_label": "swim-takeoff",
    "src:geom": "swim",
    "swim:elevations": [
      183,
      565,
      806,
      1065,
      1188,
      1740,
      2378,
      2606,
      3237,
      3553,
      3585,
      3978,
      4505,
      4580,
      5190,
      5321,
      5790,
      6131,
      6348,
      6498,
      6810,
      6909,
      7273,
      7481,
      7799,
      7925,
      8121,
      8437
    ],
    "swim:geom": "takeoff",
    "swim:timestamps": [
      1767188533,
      1767188564,
      1767188590,
      1767188618,
      1767188643,
      1767188690,
      1767188722,
      1767188735,
      1767188776,
      1767188814,
      1767188821,
      1767188853,
      1767188903,
      1767188911,
      1767188959,
      1767188970,
      1767189015,
      1767189049,
      1767189070,
      1767189084,
      1767189114,
      1767189126,
      1767189169,
      1767189196,
      1767189238,
      1767189247,
      1767189277,
      1767189321
    ],
    "wof:geomhash": "623ba4f14277694681ca260b89032662",
    "wof:id": 2014447517,
    "wof:repo": "sfomuseum-data-flights-2025-12"
  },
  "bbox": [
    -122.53331,
    36.73603,
    -122.14488,
    37.71416
  ],
  "geometry": {"coordinates":[[-122.36758,37.63172],[-122.36293,37.65469],[-122.36293,37.67599],[-122.37107,37.70137],[-122.40256,37.71416],[-122.45651,37.6816],[-122.46243,37.64343],[-122.46459,37.62753],[-122.47271,37.57873],[-122.48078,37.52746],[-122.48232,37.51774],[-122.49018,37.46983],[-122.50311,37.39159],[-122.50509,37.37842],[-122.51756,37.29853],[-122.52079,37.28025],[-122.53331,37.20275],[-122.51524,37.14597],[-122.48702,37.11544],[-122.46861,37.09526],[-122.42884,37.05141],[-122.41338,37.03434],[-122.35475,36.96955],[-122.31805,36.92912],[-122.26023,36.86465],[-122.24832,36.85151],[-122.20588,36.80425],[-122.14488,36.73603]],"type":"LineString"}
}
