{
  "id": 2014417581,
  "type": "Feature",
  "properties": {
    "geom:area": 0,
    "geom:bbox": "-122.361470,37.492060,-121.253060,37.615730",
    "geom:latitude": 37.54684938255531,
    "geom:longitude": -121.81235280912989,
    "src:alt_label": "swim-approach",
    "src:geom": "swim",
    "swim:elevations": [
      4453,
      4154,
      3862,
      3572,
      3446,
      3179,
      3100,
      3006,
      2717,
      2500,
      2358,
      2270,
      2141,
      2030,
      1963,
      1841,
      1637,
      1387,
      1248,
      1149,
      875,
      751,
      575,
      423,
      424,
      213,
      88,
      75,
      169
    ],
    "swim:geom": "approach",
    "swim:timestamps": [
      1766947823,
      1766947854,
      1766947885,
      1766947917,
      1766947933,
      1766947962,
      1766947990,
      1766948024,
      1766948060,
      1766948097,
      1766948123,
      1766948140,
      1766948158,
      1766948182,
      1766948201,
      1766948228,
      1766948266,
      1766948306,
      1766948330,
      1766948346,
      1766948395,
      1766948421,
      1766948456,
      1766948488,
      1766948491,
      1766948537,
      1766948564,
      1766948582,
      1766948585
    ],
    "wof:geomhash": "de9c52ee9f2f90b26937fdd262a3c362",
    "wof:id": 2014417581,
    "wof:repo": "sfomuseum-data-flights-2025-12"
  },
  "bbox": [
    -122.36147,
    37.49206,
    -121.25306,
    37.61573
  ],
  "geometry": {"coordinates":[[-121.25306,37.59406],[-121.32098,37.58584],[-121.38795,37.57846],[-121.45514,37.57072],[-121.48591,37.5671],[-121.54529,37.56011],[-121.60006,37.55365],[-121.65911,37.54257],[-121.71892,37.52842],[-121.77852,37.51409],[-121.82007,37.50403],[-121.84538,37.49805],[-121.87285,37.49258],[-121.91083,37.49206],[-121.93891,37.49268],[-121.97731,37.49395],[-122.02703,37.50729],[-122.07835,37.52412],[-122.10907,37.53393],[-122.12999,37.54097],[-122.18617,37.55856],[-122.21379,37.5682],[-122.24847,37.5792],[-122.27878,37.58818],[-122.28148,37.58887],[-122.32147,37.60027],[-122.34425,37.60805],[-122.35905,37.61431],[-122.36147,37.61573]],"type":"LineString"}
}
