{
  "id": 2014410435,
  "type": "Feature",
  "properties": {
    "geom:area": 0,
    "geom:bbox": "-122.362860,37.627670,-121.242340,37.941460",
    "geom:latitude": 37.75273159724483,
    "geom:longitude": -121.79822802207462,
    "src:alt_label": "swim-takeoff",
    "src:geom": "swim",
    "swim:elevations": [
      305,
      619,
      754,
      905,
      1266,
      1658,
      1731,
      2147,
      2638,
      2856,
      3312,
      3420,
      3754,
      3938,
      4040,
      4384,
      4482,
      4666,
      4871,
      5046,
      5403,
      5466,
      5936,
      5994
    ],
    "swim:geom": "takeoff",
    "swim:timestamps": [
      1766905497,
      1766905524,
      1766905553,
      1766905587,
      1766905617,
      1766905648,
      1766905654,
      1766905691,
      1766905737,
      1766905754,
      1766905797,
      1766905813,
      1766905856,
      1766905880,
      1766905895,
      1766905944,
      1766905967,
      1766905997,
      1766906025,
      1766906046,
      1766906091,
      1766906113,
      1766906158,
      1766906163
    ],
    "wof:geomhash": "4bd517a45cf89a9d01f4667679b247d4",
    "wof:id": 2014410435,
    "wof:repo": "sfomuseum-data-flights-2025-12"
  },
  "bbox": [
    -122.36286,
    37.62767,
    -121.24234,
    37.94146
  ],
  "geometry": {"coordinates":[[-122.36286,37.63297],[-122.33999,37.64348],[-122.30895,37.64428],[-122.26471,37.63903],[-122.22059,37.63359],[-122.17411,37.62864],[-122.16503,37.62767],[-122.109,37.62902],[-122.0434,37.6521],[-122.0179,37.66194],[-121.95402,37.68469],[-121.92899,37.6939],[-121.85979,37.7191],[-121.81867,37.73394],[-121.79222,37.74354],[-121.70276,37.77595],[-121.65858,37.79203],[-121.59784,37.81395],[-121.53874,37.8352],[-121.4952,37.85086],[-121.39736,37.886],[-121.35097,37.90272],[-121.2521,37.938],[-121.24234,37.94146]],"type":"LineString"}
}
