{
  "id": 2014430289,
  "type": "Feature",
  "properties": {
    "geom:area": 0,
    "geom:bbox": "-122.584360,36.738540,-121.311460,37.718820",
    "geom:latitude": 37.26679720950357,
    "geom:longitude": -122.00694729600745,
    "src:alt_label": "swim-takeoff",
    "src:geom": "swim",
    "swim:elevations": [
      183,
      757,
      890,
      1315,
      1468,
      1830,
      2280,
      2546,
      3106,
      3587,
      3899,
      4031,
      4461,
      4561,
      5222,
      5739,
      6102,
      6440,
      6698,
      7007,
      7218,
      7627,
      8274,
      8398,
      8819,
      8915,
      9108,
      9243,
      9709,
      9924,
      10322,
      10443,
      10574,
      10931,
      11248,
      11444,
      11539,
      11677,
      11738,
      122,
      310,
      561,
      789,
      1432,
      1505,
      2242,
      3067,
      3248,
      3470,
      3708,
      4447,
      4689,
      4966,
      5416,
      6046,
      6310,
      6657,
      6947,
      7201,
      7464,
      7843,
      8015,
      8249,
      8562,
      8986,
      9283,
      9399
    ],
    "swim:geom": "takeoff",
    "swim:timestamps": [
      1766997515,
      1766997560,
      1766997572,
      1766997603,
      1766997617,
      1766997656,
      1766997688,
      1766997699,
      1766997742,
      1766997770,
      1766997788,
      1766997797,
      1766997829,
      1766997847,
      1766997885,
      1766997923,
      1766997946,
      1766997968,
      1766997986,
      1766998008,
      1766998023,
      1766998054,
      1766998108,
      1766998121,
      1766998160,
      1766998169,
      1766998189,
      1766998205,
      1766998248,
      1766998268,
      1766998306,
      1766998321,
      1766998337,
      1766998376,
      1766998408,
      1766998428,
      1766998450,
      1766998478,
      1766998504,
      1767078718,
      1767078739,
      1767078770,
      1767078791,
      1767078833,
      1767078840,
      1767078890,
      1767078928,
      1767078946,
      1767078985,
      1767079002,
      1767079048,
      1767079061,
      1767079073,
      1767079092,
      1767079138,
      1767079160,
      1767079187,
      1767079211,
      1767079238,
      1767079267,
      1767079303,
      1767079316,
      1767079337,
      1767079367,
      1767079408,
      1767079438,
      1767079453
    ],
    "wof:geomhash": "d154667412b2e9603afbe17fc27aa3ac",
    "wof:id": 2014430289,
    "wof:repo": "sfomuseum-data-flights-2025-12"
  },
  "bbox": [
    -122.58436,
    36.73854,
    -121.31146,
    37.71882
  ],
  "geometry": {"coordinates":[[-122.36836,37.63019],[-122.36301,37.66416],[-122.36198,37.67429],[-122.37532,37.70145],[-122.39185,37.70667],[-122.44264,37.71882],[-122.48371,37.70422],[-122.49875,37.69625],[-122.55685,37.66483],[-122.58436,37.63294],[-122.58337,37.60791],[-122.57723,37.5964],[-122.53676,37.56608],[-122.50973,37.54821],[-122.44947,37.50762],[-122.3872,37.46644],[-122.34842,37.44081],[-122.31149,37.41634],[-122.28039,37.39551],[-122.24246,37.37006],[-122.21439,37.35131],[-122.15887,37.31411],[-122.06022,37.24761],[-122.03642,37.23162],[-121.96373,37.18247],[-121.94811,37.17199],[-121.90846,37.14549],[-121.87904,37.12585],[-121.79527,37.06878],[-121.75656,37.04261],[-121.68496,36.99473],[-121.65684,36.97548],[-121.62686,36.95447],[-121.55242,36.90445],[-121.49167,36.86328],[-121.4555,36.83737],[-121.41347,36.80917],[-121.36262,36.77418],[-121.31146,36.73854],[-122.37064,37.62664],[-122.36483,37.64063],[-122.36328,37.66607],[-122.3622,37.68688],[-122.39819,37.71618],[-122.40754,37.71664],[-122.45112,37.67272],[-122.45785,37.62563],[-122.46048,37.60176],[-122.44439,37.54452],[-122.41871,37.527],[-122.3394,37.47995],[-122.31822,37.4657],[-122.29868,37.45205],[-122.26927,37.43117],[-122.19857,37.38075],[-122.16537,37.35724],[-122.12104,37.32589],[-122.08178,37.29849],[-122.03637,37.26658],[-121.98536,37.23073],[-121.92207,37.18566],[-121.89826,37.16881],[-121.8596,37.1418],[-121.80385,37.10282],[-121.72916,37.04933],[-121.67316,37.0095],[-121.64531,36.98997]],"type":"LineString"}
}
