{
  "id": 2014411697,
  "type": "Feature",
  "properties": {
    "geom:area": 0,
    "geom:bbox": "-122.366610,37.294560,-121.244440,37.655030",
    "geom:latitude": 37.46475371083306,
    "geom:longitude": -121.81603406773499,
    "src:alt_label": "swim-takeoff",
    "src:geom": "swim",
    "swim:elevations": [
      213,
      442,
      636,
      937,
      1344,
      1614,
      1958,
      2532,
      2981,
      3257,
      3605,
      3821,
      4254,
      4784,
      5190,
      5546,
      5684,
      6316,
      6644,
      6995,
      7221,
      7554,
      7720
    ],
    "swim:geom": "takeoff",
    "swim:timestamps": [
      1766884408,
      1766884432,
      1766884462,
      1766884487,
      1766884520,
      1766884539,
      1766884566,
      1766884606,
      1766884636,
      1766884666,
      1766884706,
      1766884724,
      1766884757,
      1766884796,
      1766884823,
      1766884856,
      1766884868,
      1766884916,
      1766884945,
      1766884978,
      1766885003,
      1766885036,
      1766885051
    ],
    "wof:geomhash": "f9d5352fb1a5f1681767295a6358f521",
    "wof:id": 2014411697,
    "wof:repo": "sfomuseum-data-flights-2025-12"
  },
  "bbox": [
    -122.36661,
    37.29456,
    -121.24444,
    37.65503
  ],
  "geometry": {"coordinates":[[-122.36661,37.63186],[-122.34838,37.64114],[-122.31963,37.6519],[-122.28798,37.65503],[-122.24606,37.6385],[-122.22599,37.62213],[-122.19698,37.5977],[-122.1491,37.55879],[-122.10824,37.53519],[-122.05794,37.52281],[-121.98473,37.50171],[-121.94978,37.49197],[-121.88434,37.47378],[-121.80464,37.45188],[-121.74845,37.4362],[-121.67911,37.41675],[-121.65346,37.40965],[-121.55004,37.3807],[-121.48649,37.3628],[-121.41142,37.34172],[-121.35536,37.32595],[-121.27926,37.30441],[-121.24444,37.29456]],"type":"LineString"}
}
