{
  "id": 2014443643,
  "type": "Feature",
  "properties": {
    "geom:area": 0,
    "geom:bbox": "-122.357580,36.725200,-121.902170,37.611350",
    "geom:latitude": 37.09577415323151,
    "geom:longitude": -122.14143522517143,
    "src:alt_label": "swim-approach",
    "src:geom": "swim",
    "swim:elevations": [
      5446,
      5106,
      4956,
      4678,
      4588,
      4453,
      4343,
      4268,
      4267,
      4267,
      4267,
      4267,
      4267,
      4168,
      4140,
      3974,
      3143,
      3048,
      3048,
      3048,
      3048,
      3048,
      3048,
      3048,
      3048,
      3048,
      3048,
      2825,
      2713,
      2619,
      2591,
      2343,
      2209,
      1940,
      1773,
      1754,
      1593,
      1479,
      1275,
      1239,
      1163,
      1108,
      1003,
      848,
      640,
      436,
      376,
      288,
      161,
      70,
      49
    ],
    "swim:geom": "approach",
    "swim:timestamps": [
      1767179754,
      1767179784,
      1767179795,
      1767179835,
      1767179848,
      1767179868,
      1767179903,
      1767179932,
      1767179960,
      1767179998,
      1767180010,
      1767180037,
      1767180073,
      1767180118,
      1767180122,
      1767180157,
      1767180298,
      1767180323,
      1767180357,
      1767180372,
      1767180410,
      1767180437,
      1767180468,
      1767180497,
      1767180531,
      1767180549,
      1767180587,
      1767180629,
      1767180646,
      1767180684,
      1767180690,
      1767180738,
      1767180766,
      1767180807,
      1767180836,
      1767180842,
      1767180875,
      1767180907,
      1767180958,
      1767180962,
      1767180982,
      1767180999,
      1767181033,
      1767181062,
      1767181100,
      1767181134,
      1767181147,
      1767181168,
      1767181197,
      1767181219,
      1767181230
    ],
    "wof:geomhash": "a60f1038cccbe9af10b03f6525dfa0cb",
    "wof:id": 2014443643,
    "wof:repo": "sfomuseum-data-flights-2025-12"
  },
  "bbox": [
    -122.35758,
    36.7252,
    -121.90217,
    37.61135
  ],
  "geometry": {"coordinates":[[-121.90217,36.7706],[-121.91457,36.81462],[-121.91936,36.83176],[-121.93725,36.89532],[-121.94307,36.91606],[-121.9516,36.94636],[-121.99249,36.98649],[-122.04032,36.98433],[-122.07079,36.95992],[-122.0715,36.91569],[-122.06799,36.90274],[-122.05903,36.87075],[-122.04659,36.82981],[-122.0313,36.7775],[-122.02999,36.77285],[-122.00629,36.73682],[-122.10591,36.7252],[-122.10989,36.75963],[-122.12693,36.80537],[-122.1347,36.8261],[-122.15408,36.87699],[-122.16813,36.91362],[-122.18487,36.95524],[-122.20056,36.99401],[-122.21928,37.04017],[-122.22862,37.06353],[-122.24891,37.11479],[-122.27087,37.17025],[-122.28027,37.19409],[-122.29908,37.24209],[-122.30197,37.24941],[-122.31429,37.30712],[-122.30603,37.33948],[-122.26128,37.36388],[-122.23075,37.38322],[-122.22468,37.38771],[-122.1923,37.41216],[-122.16197,37.43524],[-122.1252,37.47245],[-122.12409,37.47615],[-122.12807,37.49443],[-122.1408,37.50827],[-122.16874,37.53227],[-122.19981,37.54501],[-122.24088,37.56227],[-122.27595,37.57689],[-122.28824,37.5822],[-122.30633,37.58972],[-122.33006,37.59978],[-122.34867,37.60762],[-122.35758,37.61135]],"type":"LineString"}
}
