{
  "id": 2014413563,
  "type": "Feature",
  "properties": {
    "geom:area": 0,
    "geom:bbox": "-122.367690,37.626500,-121.245020,37.965730",
    "geom:latitude": 37.83807907037204,
    "geom:longitude": -121.82196394602724,
    "src:alt_label": "swim-takeoff",
    "src:geom": "swim",
    "swim:elevations": [
      152,
      371,
      887,
      1143,
      1314,
      1328,
      1868,
      2298,
      2508,
      3067,
      3154,
      3329,
      3538,
      3643,
      3974,
      4280,
      4400,
      4583,
      5067,
      5228,
      5377,
      5624,
      5844
    ],
    "swim:geom": "takeoff",
    "swim:timestamps": [
      1766854706,
      1766854722,
      1766854759,
      1766854795,
      1766854827,
      1766854830,
      1766854881,
      1766854916,
      1766854932,
      1766854974,
      1766854986,
      1766855023,
      1766855061,
      1766855080,
      1766855123,
      1766855158,
      1766855173,
      1766855192,
      1766855245,
      1766855264,
      1766855286,
      1766855328,
      1766855362
    ],
    "wof:geomhash": "22c58bfd0ab12c83702baf3f217d4bfd",
    "wof:id": 2014413563,
    "wof:repo": "sfomuseum-data-flights-2025-12"
  },
  "bbox": [
    -122.36769,
    37.6265,
    -121.24502,
    37.96573
  ],
  "geometry": {"coordinates":[[-122.36769,37.6265],[-122.35916,37.63662],[-122.33113,37.65351],[-122.30278,37.66951],[-122.27197,37.6872],[-122.26879,37.68903],[-122.2066,37.72141],[-122.16189,37.74485],[-122.14059,37.75598],[-122.0841,37.78515],[-122.06784,37.7936],[-122.01315,37.82173],[-121.94029,37.83798],[-121.90067,37.84553],[-121.80679,37.86303],[-121.72947,37.87737],[-121.69472,37.88377],[-121.65064,37.89192],[-121.52654,37.9147],[-121.48266,37.92268],[-121.43147,37.93195],[-121.32837,37.95066],[-121.24502,37.96573]],"type":"LineString"}
}
