{
  "id": 2014409499,
  "type": "Feature",
  "properties": {
    "geom:area": 0,
    "geom:bbox": "-123.476850,37.259730,-122.124930,37.613150",
    "geom:latitude": 37.35686958606085,
    "geom:longitude": -122.69375610745715,
    "src:alt_label": "swim-approach",
    "src:geom": "swim",
    "swim:elevations": [
      5125,
      4912,
      4454,
      4144,
      3845,
      3618,
      3427,
      3234,
      3141,
      3079,
      3048,
      3048,
      3048,
      3048,
      3017,
      2818,
      2666,
      2517,
      2466,
      2438,
      2438,
      2437,
      2438,
      2438,
      2438,
      2383,
      2136,
      1917,
      1573,
      1546,
      1149,
      1057,
      902,
      643,
      549,
      497,
      486,
      331,
      305,
      122,
      24
    ],
    "swim:geom": "approach",
    "swim:timestamps": [
      1766901623,
      1766901643,
      1766901688,
      1766901718,
      1766901748,
      1766901773,
      1766901791,
      1766901815,
      1766901864,
      1766901896,
      1766901920,
      1766901944,
      1766901977,
      1766901992,
      1766902028,
      1766902052,
      1766902078,
      1766902103,
      1766902112,
      1766902166,
      1766902181,
      1766902218,
      1766902245,
      1766902285,
      1766902294,
      1766902333,
      1766902372,
      1766902398,
      1766902437,
      1766902441,
      1766902495,
      1766902509,
      1766902541,
      1766902588,
      1766902613,
      1766902647,
      1766902652,
      1766902686,
      1766902695,
      1766902735,
      1766902759
    ],
    "wof:geomhash": "1815da36e13b77cb90c9d219994c77d3",
    "wof:id": 2014409499,
    "wof:repo": "sfomuseum-data-flights-2025-12"
  },
  "bbox": [
    -123.47685,
    37.25973,
    -122.12493,
    37.61315
  ],
  "geometry": {"coordinates":[[-123.47685,37.30475],[-123.42859,37.30114],[-123.32319,37.29338],[-123.25582,37.28821],[-123.18933,37.28319],[-123.13494,37.27903],[-123.09593,37.27601],[-123.04486,37.27195],[-122.94742,37.26427],[-122.88982,37.25973],[-122.85004,37.26131],[-122.81378,37.2692],[-122.76464,37.28067],[-122.74216,37.28603],[-122.68773,37.2988],[-122.65193,37.3071],[-122.61259,37.31619],[-122.57512,37.32482],[-122.56158,37.32789],[-122.48158,37.34644],[-122.45926,37.35164],[-122.40427,37.36436],[-122.36376,37.3736],[-122.30377,37.38727],[-122.29032,37.39034],[-122.2337,37.40324],[-122.18122,37.41543],[-122.15006,37.42331],[-122.12653,37.45154],[-122.12493,37.45474],[-122.14996,37.49409],[-122.16007,37.50381],[-122.18257,37.52503],[-122.21642,37.55402],[-122.23909,37.56373],[-122.26883,37.57639],[-122.27237,37.5779],[-122.29948,37.58931],[-122.30656,37.59225],[-122.33791,37.60547],[-122.35634,37.61315]],"type":"LineString"}
}
