{
  "id": 2014426561,
  "type": "Feature",
  "properties": {
    "geom:area": 0,
    "geom:bbox": "-122.971490,37.415800,-122.130240,38.515990",
    "geom:latitude": 37.84959488002279,
    "geom:longitude": -122.52961988892594,
    "src:alt_label": "swim-approach",
    "src:geom": "swim",
    "swim:elevations": [
      7333,
      7315,
      7315,
      7083,
      6961,
      6610,
      6466,
      6445,
      6215,
      6026,
      5869,
      5475,
      5167,
      4945,
      4726,
      4556,
      4253,
      4057,
      3846,
      3742,
      3716,
      3477,
      3406,
      3361,
      3353,
      3353,
      3353,
      3144,
      2898,
      2765,
      2678,
      2334,
      2191,
      1979,
      1593,
      1416,
      1323,
      1239,
      1219,
      1219,
      1099,
      971,
      884,
      852,
      824,
      793,
      684,
      638,
      471,
      367,
      270,
      182,
      113,
      277
    ],
    "swim:geom": "approach",
    "swim:timestamps": [
      1767036775,
      1767036799,
      1767036816,
      1767036868,
      1767036881,
      1767036915,
      1767036927,
      1767036931,
      1767036955,
      1767036975,
      1767036990,
      1767037031,
      1767037071,
      1767037094,
      1767037115,
      1767037133,
      1767037166,
      1767037186,
      1767037220,
      1767037256,
      1767037262,
      1767037286,
      1767037295,
      1767037302,
      1767037321,
      1767037378,
      1767037387,
      1767037434,
      1767037466,
      1767037490,
      1767037506,
      1767037556,
      1767037572,
      1767037596,
      1767037637,
      1767037662,
      1767037674,
      1767037690,
      1767037738,
      1767037762,
      1767037793,
      1767037821,
      1767037846,
      1767037858,
      1767037875,
      1767037899,
      1767037941,
      1767037953,
      1767037989,
      1767038015,
      1767038040,
      1767038059,
      1767038075,
      1767038103
    ],
    "wof:geomhash": "6db101c5aa6f94ec64d5967def553936",
    "wof:id": 2014426561,
    "wof:repo": "sfomuseum-data-flights-2025-12"
  },
  "bbox": [
    -122.97149,
    37.4158,
    -122.13024,
    38.51599
  ],
  "geometry": {"coordinates":[[-122.97149,38.51599],[-122.94449,38.47696],[-122.92517,38.44964],[-122.86716,38.3666],[-122.85296,38.34634],[-122.81531,38.2928],[-122.80241,38.27443],[-122.79889,38.26942],[-122.77436,38.23108],[-122.76021,38.19824],[-122.75239,38.1724],[-122.732,38.10327],[-122.71317,38.03762],[-122.70222,37.99914],[-122.69216,37.96383],[-122.68369,37.93435],[-122.65813,37.8859],[-122.63318,37.86179],[-122.59193,37.82284],[-122.55333,37.78637],[-122.54723,37.78061],[-122.52359,37.75857],[-122.51481,37.75033],[-122.50874,37.74463],[-122.49113,37.72762],[-122.44093,37.68062],[-122.43305,37.67314],[-122.39258,37.63486],[-122.36434,37.60719],[-122.34711,37.58283],[-122.3391,37.56619],[-122.31123,37.51574],[-122.30185,37.50001],[-122.28774,37.47649],[-122.25629,37.43984],[-122.22617,37.42869],[-122.21051,37.42265],[-122.19181,37.4158],[-122.1408,37.42948],[-122.13024,37.44722],[-122.13901,37.47047],[-122.15326,37.4906],[-122.1655,37.50684],[-122.17139,37.51419],[-122.17981,37.52445],[-122.19196,37.53893],[-122.22608,37.55598],[-122.23685,37.56069],[-122.26859,37.57401],[-122.28995,37.58296],[-122.31046,37.59163],[-122.32606,37.59814],[-122.33954,37.6038],[-122.36278,37.61351]],"type":"LineString"}
}
