{
  "id": 2014430689,
  "type": "Feature",
  "properties": {
    "geom:area": 0,
    "geom:bbox": "-122.533290,37.627000,-122.115390,38.517530",
    "geom:latitude": 38.02995969532822,
    "geom:longitude": -122.31576327223203,
    "src:alt_label": "swim-takeoff",
    "src:geom": "swim",
    "swim:elevations": [
      183,
      715,
      889,
      989,
      1157,
      1451,
      1674,
      2219,
      2699,
      3117,
      3173,
      3296,
      3514,
      4044,
      4266,
      4675,
      4920,
      5386,
      5527,
      5763,
      5791,
      5791,
      6076,
      6210
    ],
    "swim:geom": "takeoff",
    "swim:timestamps": [
      1767016122,
      1767016166,
      1767016186,
      1767016211,
      1767016253,
      1767016284,
      1767016299,
      1767016339,
      1767016371,
      1767016405,
      1767016419,
      1767016465,
      1767016485,
      1767016524,
      1767016541,
      1767016576,
      1767016599,
      1767016649,
      1767016673,
      1767016701,
      1767016733,
      1767016762,
      1767016797,
      1767016811
    ],
    "wof:geomhash": "e9d557a5d66e8164ed28a3cf9b2e140c",
    "wof:id": 2014430689,
    "wof:repo": "sfomuseum-data-flights-2025-12"
  },
  "bbox": [
    -122.53329,
    37.627,
    -122.11539,
    38.51753
  ],
  "geometry": {"coordinates":[[-122.39467,37.627],[-122.43713,37.64492],[-122.45706,37.65379],[-122.48522,37.66596],[-122.53107,37.69879],[-122.53329,37.73734],[-122.53012,37.75545],[-122.51397,37.80506],[-122.47136,37.82685],[-122.42631,37.84927],[-122.41427,37.8652],[-122.37513,37.92936],[-122.35691,37.95851],[-122.31847,38.01939],[-122.30118,38.04584],[-122.26499,38.10037],[-122.2419,38.13631],[-122.18963,38.21742],[-122.16329,38.25806],[-122.13236,38.30626],[-122.11539,38.36537],[-122.11826,38.42329],[-122.12326,38.49071],[-122.12531,38.51753]],"type":"LineString"}
}
