{
  "id": 2014442193,
  "type": "Feature",
  "properties": {
    "geom:area": 0,
    "geom:bbox": "-122.753720,37.323750,-122.149960,38.361000",
    "geom:latitude": 37.73498787877976,
    "geom:longitude": -122.44861874245528,
    "src:alt_label": "swim-approach",
    "src:geom": "swim",
    "swim:elevations": [
      7559,
      7403,
      7235,
      7003,
      6541,
      6182,
      5853,
      5679,
      5311,
      4797,
      4536,
      4332,
      4244,
      4050,
      3918,
      3793,
      3396,
      3354,
      3353,
      3353,
      3353,
      3353,
      3346,
      3226,
      3054,
      2785,
      2740,
      2743,
      2743,
      2711,
      2662,
      2438,
      2408,
      2230,
      2133,
      2134,
      2102,
      2035,
      1861,
      1555,
      1362,
      1309,
      1218,
      1022,
      943,
      915,
      884,
      767,
      641,
      388,
      335,
      128,
      81
    ],
    "swim:geom": "approach",
    "swim:timestamps": [
      1767216504,
      1767216521,
      1767216545,
      1767216575,
      1767216625,
      1767216655,
      1767216682,
      1767216697,
      1767216730,
      1767216775,
      1767216799,
      1767216817,
      1767216826,
      1767216847,
      1767216859,
      1767216871,
      1767216924,
      1767216943,
      1767216981,
      1767217010,
      1767217029,
      1767217056,
      1767217077,
      1767217098,
      1767217119,
      1767217157,
      1767217172,
      1767217222,
      1767217243,
      1767217258,
      1767217273,
      1767217310,
      1767217343,
      1767217375,
      1767217399,
      1767217414,
      1767217445,
      1767217460,
      1767217481,
      1767217517,
      1767217556,
      1767217565,
      1767217598,
      1767217644,
      1767217656,
      1767217678,
      1767217696,
      1767217717,
      1767217741,
      1767217793,
      1767217802,
      1767217855,
      1767217867
    ],
    "wof:geomhash": "9e5d33a1438044263f28862759c57799",
    "wof:id": 2014442193,
    "wof:repo": "sfomuseum-data-flights-2025-12"
  },
  "bbox": [
    -122.75372,
    37.32375,
    -122.14996,
    38.361
  ],
  "geometry": {"coordinates":[[-122.62756,38.361],[-122.65196,38.3371],[-122.68671,38.30328],[-122.72927,38.26168],[-122.75372,38.17984],[-122.74024,38.12932],[-122.72696,38.08439],[-122.71951,38.05957],[-122.70377,38.00599],[-122.68312,37.93558],[-122.66757,37.8988],[-122.64839,37.87624],[-122.63724,37.86508],[-122.61125,37.84038],[-122.59646,37.82666],[-122.58164,37.81298],[-122.51715,37.75266],[-122.49668,37.73318],[-122.46052,37.69951],[-122.43678,37.67686],[-122.42031,37.66111],[-122.39755,37.6397],[-122.37949,37.62261],[-122.36277,37.60578],[-122.35381,37.58575],[-122.33438,37.55058],[-122.32607,37.53672],[-122.29711,37.49097],[-122.28504,37.47178],[-122.2819,37.45702],[-122.28676,37.44235],[-122.30025,37.40714],[-122.31152,37.37443],[-122.30408,37.34449],[-122.27605,37.33427],[-122.25704,37.32927],[-122.21775,37.32375],[-122.20001,37.33165],[-122.17869,37.34696],[-122.15525,37.38127],[-122.15262,37.42722],[-122.152,37.43758],[-122.15033,37.47309],[-122.14996,37.51934],[-122.15681,37.52855],[-122.1785,37.53798],[-122.19617,37.54553],[-122.21713,37.55479],[-122.24113,37.56471],[-122.29004,37.58536],[-122.29721,37.58835],[-122.33616,37.60467],[-122.34529,37.60851]],"type":"LineString"}
}
