{
  "id": 2014418909,
  "type": "Feature",
  "properties": {
    "geom:area": 0,
    "geom:bbox": "-122.546570,36.730380,-121.320200,37.667740",
    "geom:latitude": 37.20435858929782,
    "geom:longitude": -122.01889121259549,
    "src:alt_label": "swim-takeoff",
    "src:geom": "swim",
    "swim:elevations": [
      183,
      508,
      672,
      935,
      1139,
      1328,
      1436,
      1960,
      2045,
      2436,
      2792,
      3245,
      3379,
      3461,
      3883,
      4079,
      4246,
      4731,
      4970,
      5073,
      5323,
      5499,
      5793,
      6008,
      6190,
      6453,
      6639,
      6897,
      6988,
      7116,
      7381,
      7444
    ],
    "swim:geom": "takeoff",
    "swim:timestamps": [
      1766931943,
      1766931980,
      1766932011,
      1766932041,
      1766932063,
      1766932080,
      1766932089,
      1766932131,
      1766932140,
      1766932175,
      1766932203,
      1766932255,
      1766932279,
      1766932301,
      1766932347,
      1766932366,
      1766932384,
      1766932435,
      1766932463,
      1766932473,
      1766932505,
      1766932539,
      1766932575,
      1766932606,
      1766932629,
      1766932666,
      1766932696,
      1766932731,
      1766932749,
      1766932772,
      1766932827,
      1766932839
    ],
    "wof:geomhash": "b82f259f49d0ba6399c309aa7c35a1a1",
    "wof:id": 2014418909,
    "wof:repo": "sfomuseum-data-flights-2025-12"
  },
  "bbox": [
    -122.54657,
    36.73038,
    -121.3202,
    37.66774
  ],
  "geometry": {"coordinates":[[-122.39094,37.62525],[-122.42349,37.63959],[-122.45491,37.65348],[-122.49302,37.66774],[-122.52546,37.6629],[-122.54349,37.64552],[-122.54657,37.63455],[-122.5261,37.58262],[-122.51955,37.57096],[-122.49417,37.52661],[-122.47404,37.49037],[-122.41814,37.4319],[-122.3807,37.40844],[-122.34437,37.38558],[-122.26345,37.33445],[-122.23166,37.31428],[-122.19843,37.29322],[-122.10675,37.23512],[-122.05548,37.20257],[-122.03653,37.19055],[-121.97707,37.15267],[-121.91402,37.11254],[-121.84456,37.06811],[-121.78536,37.03027],[-121.74006,37.00121],[-121.6694,36.9559],[-121.60927,36.91728],[-121.5383,36.87147],[-121.50301,36.8487],[-121.45578,36.81822],[-121.34309,36.74526],[-121.3202,36.73038]],"type":"LineString"}
}
