{
  "id": 2014447341,
  "type": "Feature",
  "properties": {
    "geom:area": 0,
    "geom:bbox": "-122.467200,36.726960,-121.449520,37.695860",
    "geom:latitude": 37.205540819673146,
    "geom:longitude": -122.04708581465903,
    "src:alt_label": "swim-takeoff",
    "src:geom": "swim",
    "swim:elevations": [
      152,
      689,
      712,
      949,
      1034,
      1349,
      1508,
      1879,
      2643,
      2760,
      2977,
      3228,
      3331,
      3604,
      3951,
      4055,
      4400,
      4489,
      4796,
      4869,
      5274,
      5525,
      5847,
      6064,
      6118,
      6396,
      6580,
      6734,
      6764,
      7027,
      7202,
      7394,
      7539,
      7592
    ],
    "swim:geom": "takeoff",
    "swim:timestamps": [
      1767179018,
      1767179068,
      1767179072,
      1767179113,
      1767179149,
      1767179185,
      1767179197,
      1767179223,
      1767179275,
      1767179283,
      1767179300,
      1767179325,
      1767179348,
      1767179395,
      1767179428,
      1767179438,
      1767179474,
      1767179487,
      1767179518,
      1767179528,
      1767179576,
      1767179602,
      1767179635,
      1767179666,
      1767179673,
      1767179714,
      1767179745,
      1767179774,
      1767179790,
      1767179840,
      1767179871,
      1767179908,
      1767179938,
      1767179949
    ],
    "wof:geomhash": "93fdad25e4d5ec2fe369249aa6cbe0ed",
    "wof:id": 2014447341,
    "wof:repo": "sfomuseum-data-flights-2025-12"
  },
  "bbox": [
    -122.4672,
    36.72696,
    -121.44952,
    37.69586
  ],
  "geometry": {"coordinates":[[-122.36969,37.62817],[-122.36315,37.66457],[-122.36287,37.66732],[-122.37935,37.69586],[-122.4093,37.67737],[-122.419,37.6391],[-122.42387,37.62454],[-122.43501,37.59498],[-122.45811,37.53431],[-122.46155,37.52514],[-122.4672,37.50411],[-122.45526,37.47583],[-122.4281,37.45492],[-122.36159,37.40637],[-122.31297,37.37058],[-122.29806,37.35971],[-122.24394,37.31941],[-122.22534,37.30565],[-122.17612,37.26949],[-122.15955,37.25724],[-122.08399,37.20083],[-122.04062,37.16905],[-121.98727,37.12981],[-121.93642,37.09229],[-121.92482,37.08372],[-121.85764,37.03383],[-121.806,36.99523],[-121.7577,36.959],[-121.72996,36.93824],[-121.64225,36.87235],[-121.58809,36.83157],[-121.52214,36.78178],[-121.46883,36.74155],[-121.44952,36.72696]],"type":"LineString"}
}
