{
  "id": 2014408625,
  "type": "Feature",
  "properties": {
    "geom:area": 0,
    "geom:bbox": "-123.107310,37.351720,-122.106340,38.494330",
    "geom:latitude": 37.80530641953595,
    "geom:longitude": -122.53355353044206,
    "src:alt_label": "swim-approach",
    "src:geom": "swim",
    "swim:elevations": [
      7346,
      7071,
      6900,
      6633,
      6304,
      5939,
      5912,
      5676,
      5338,
      5055,
      4925,
      4729,
      4407,
      4303,
      4023,
      3924,
      3706,
      3419,
      3351,
      3353,
      3353,
      3345,
      3164,
      3139,
      2897,
      2776,
      2637,
      2529,
      2436,
      2388,
      2224,
      2155,
      2134,
      2134,
      2096,
      1789,
      1624,
      1489,
      1414,
      1248,
      1032,
      1029,
      946,
      787,
      664,
      537,
      395,
      302,
      85,
      0
    ],
    "swim:geom": "approach",
    "swim:timestamps": [
      1766830268,
      1766830306,
      1766830328,
      1766830362,
      1766830396,
      1766830437,
      1766830440,
      1766830470,
      1766830518,
      1766830556,
      1766830574,
      1766830600,
      1766830646,
      1766830660,
      1766830701,
      1766830716,
      1766830752,
      1766830795,
      1766830816,
      1766830854,
      1766830889,
      1766830916,
      1766830947,
      1766830956,
      1766830996,
      1766831018,
      1766831052,
      1766831088,
      1766831116,
      1766831132,
      1766831188,
      1766831204,
      1766831245,
      1766831268,
      1766831288,
      1766831336,
      1766831362,
      1766831391,
      1766831410,
      1766831444,
      1766831488,
      1766831492,
      1766831526,
      1766831571,
      1766831597,
      1766831620,
      1766831652,
      1766831672,
      1766831724,
      1766831744
    ],
    "wof:geomhash": "5276936595496b0a9186af26f58879a4",
    "wof:id": 2014408625,
    "wof:repo": "sfomuseum-data-flights-2025-12"
  },
  "bbox": [
    -123.10731,
    37.35172,
    -122.10634,
    38.49433
  ],
  "geometry": {"coordinates":[[-123.10731,38.49433],[-123.04336,38.44439],[-123.0064,38.41506],[-122.95606,38.36773],[-122.9198,38.31265],[-122.87875,38.24446],[-122.87578,38.23953],[-122.84705,38.19152],[-122.80166,38.1158],[-122.76618,38.05592],[-122.75002,38.02874],[-122.72604,37.98832],[-122.68536,37.92011],[-122.67006,37.89926],[-122.61998,37.84942],[-122.60179,37.83208],[-122.55853,37.79123],[-122.5081,37.74377],[-122.48388,37.72078],[-122.44598,37.68503],[-122.41321,37.65426],[-122.3871,37.62969],[-122.35881,37.59978],[-122.35265,37.59013],[-122.32559,37.54762],[-122.31006,37.52361],[-122.28773,37.48796],[-122.29881,37.44954],[-122.32473,37.42503],[-122.3395,37.41164],[-122.33436,37.35676],[-122.31431,37.35172],[-122.26459,37.36673],[-122.23781,37.37731],[-122.21349,37.38684],[-122.15688,37.40931],[-122.13038,37.42638],[-122.11488,37.4514],[-122.10634,37.46672],[-122.10959,37.49479],[-122.13846,37.52162],[-122.14235,37.52324],[-122.17468,37.53672],[-122.21694,37.55461],[-122.24069,37.56454],[-122.26144,37.57325],[-122.28847,37.58463],[-122.3037,37.59113],[-122.34453,37.60823],[-122.3606,37.61514]],"type":"LineString"}
}
