{
  "id": 2014412151,
  "type": "Feature",
  "properties": {
    "geom:area": 0,
    "geom:bbox": "-122.455700,36.727550,-121.398950,37.717320",
    "geom:latitude": 37.248530822914475,
    "geom:longitude": -121.98913327469813,
    "src:alt_label": "swim-takeoff",
    "src:geom": "swim",
    "swim:elevations": [
      213,
      398,
      879,
      1036,
      1523,
      2532,
      2904,
      3260,
      3292,
      3672,
      4033,
      4668,
      5063,
      5256,
      5527,
      6107,
      6450,
      6639,
      6936,
      7317,
      7524,
      7811,
      8125,
      8314,
      8626,
      8904,
      8993,
      9310
    ],
    "swim:geom": "takeoff",
    "swim:timestamps": [
      1766902852,
      1766902866,
      1766902915,
      1766902924,
      1766902954,
      1766903007,
      1766903028,
      1766903061,
      1766903070,
      1766903112,
      1766903136,
      1766903183,
      1766903213,
      1766903228,
      1766903259,
      1766903308,
      1766903338,
      1766903355,
      1766903387,
      1766903427,
      1766903451,
      1766903481,
      1766903516,
      1766903537,
      1766903575,
      1766903604,
      1766903613,
      1766903645
    ],
    "wof:geomhash": "b966f4db94a764e288d355ff9476a6e9",
    "wof:id": 2014412151,
    "wof:repo": "sfomuseum-data-flights-2025-12"
  },
  "bbox": [
    -122.4557,
    36.72755,
    -121.39895,
    37.71732
  ],
  "geometry": {"coordinates":[[-122.36678,37.63219],[-122.36393,37.64193],[-122.36204,37.68766],[-122.36564,37.69721],[-122.40022,37.71732],[-122.45458,37.674],[-122.4557,37.64556],[-122.42473,37.60716],[-122.41235,37.59744],[-122.35074,37.54613],[-122.31339,37.51418],[-122.24005,37.45203],[-122.191,37.41035],[-122.16603,37.38921],[-122.11266,37.3437],[-122.02786,37.27133],[-121.97437,37.2255],[-121.944,37.19943],[-121.88666,37.15008],[-121.81255,37.08637],[-121.7676,37.04758],[-121.7114,36.99865],[-121.64474,36.94064],[-121.60429,36.90635],[-121.53258,36.84403],[-121.47588,36.79451],[-121.45868,36.77948],[-121.39895,36.72755]],"type":"LineString"}
}
