{
  "id": 2014426291,
  "type": "Feature",
  "properties": {
    "geom:area": 0,
    "geom:bbox": "-122.363780,36.722820,-121.879270,37.614900",
    "geom:latitude": 37.22209002484935,
    "geom:longitude": -122.06985902831101,
    "src:alt_label": "swim-approach",
    "src:geom": "swim",
    "swim:elevations": [
      5591,
      5560,
      5433,
      5236,
      5075,
      4781,
      4396,
      4133,
      4017,
      3841,
      3682,
      3444,
      3232,
      3065,
      2970,
      2675,
      2607,
      2453,
      2228,
      1993,
      1842,
      1830,
      1556,
      1518,
      1401,
      1264,
      1160,
      1002,
      913,
      885,
      819,
      756,
      583,
      494,
      291,
      187,
      98,
      34,
      247
    ],
    "swim:geom": "approach",
    "swim:timestamps": [
      1767037286,
      1767037291,
      1767037306,
      1767037333,
      1767037350,
      1767037381,
      1767037429,
      1767037460,
      1767037474,
      1767037497,
      1767037515,
      1767037548,
      1767037585,
      1767037614,
      1767037628,
      1767037662,
      1767037674,
      1767037696,
      1767037731,
      1767037765,
      1767037790,
      1767037803,
      1767037843,
      1767037849,
      1767037878,
      1767037903,
      1767037935,
      1767037973,
      1767037996,
      1767038024,
      1767038040,
      1767038055,
      1767038086,
      1767038103,
      1767038158,
      1767038185,
      1767038209,
      1767038223,
      1767038237
    ],
    "wof:geomhash": "0f4749cf75da12e15fa3f4ab7f0724bc",
    "wof:id": 2014426291,
    "wof:repo": "sfomuseum-data-flights-2025-12"
  },
  "bbox": [
    -122.36378,
    36.72282,
    -121.87927,
    37.6149
  ],
  "geometry": {"coordinates":[[-121.87927,36.72282],[-121.88402,36.72944],[-121.89538,36.75047],[-121.90779,36.79069],[-121.91487,36.81555],[-121.9278,36.86156],[-121.94665,36.92938],[-121.96127,36.9732],[-121.96889,36.99285],[-121.98098,37.02394],[-121.99106,37.04968],[-122.00886,37.09495],[-122.02778,37.14314],[-122.04155,37.17841],[-122.04791,37.1946],[-122.06359,37.23498],[-122.06935,37.24958],[-122.0787,37.27292],[-122.09405,37.31171],[-122.10795,37.34736],[-122.11787,37.37274],[-122.12274,37.38583],[-122.11004,37.42512],[-122.10702,37.4301],[-122.09577,37.45539],[-122.10818,37.47393],[-122.12827,37.49366],[-122.15052,37.5152],[-122.1644,37.52772],[-122.1871,37.53951],[-122.20104,37.54522],[-122.2142,37.55062],[-122.24104,37.562],[-122.25686,37.5686],[-122.30241,37.58797],[-122.32384,37.59713],[-122.34352,37.60545],[-122.35458,37.61004],[-122.36378,37.6149]],"type":"LineString"}
}
