{
  "id": 2014414657,
  "type": "Feature",
  "properties": {
    "geom:area": 0,
    "geom:bbox": "-122.363410,37.491240,-121.259890,37.614390",
    "geom:latitude": 37.54662149956896,
    "geom:longitude": -121.81629508033603,
    "src:alt_label": "swim-approach",
    "src:geom": "swim",
    "swim:elevations": [
      4691,
      4404,
      4199,
      4085,
      3720,
      3388,
      3286,
      3166,
      2982,
      2963,
      2695,
      2376,
      2252,
      2161,
      2023,
      1918,
      1579,
      1463,
      1208,
      1032,
      866,
      749,
      732,
      548,
      544,
      445,
      274,
      142,
      101,
      0
    ],
    "swim:geom": "approach",
    "swim:timestamps": [
      1766946828,
      1766946861,
      1766946883,
      1766946903,
      1766946957,
      1766946987,
      1766947001,
      1766947017,
      1766947047,
      1766947050,
      1766947087,
      1766947136,
      1766947161,
      1766947182,
      1766947203,
      1766947234,
      1766947288,
      1766947301,
      1766947348,
      1766947376,
      1766947407,
      1766947437,
      1766947440,
      1766947473,
      1766947508,
      1766947540,
      1766947584,
      1766947619,
      1766947625,
      1766947656
    ],
    "wof:geomhash": "d73d281888643c62022539b307fc5c74",
    "wof:id": 2014414657,
    "wof:repo": "sfomuseum-data-flights-2025-12"
  },
  "bbox": [
    -122.36341,
    37.49124,
    -121.25989,
    37.61439
  ],
  "geometry": {"coordinates":[[-121.25989,37.59305],[-121.33124,37.58436],[-121.37893,37.57928],[-121.41979,37.57455],[-121.52281,37.56246],[-121.57659,37.5563],[-121.60099,37.55345],[-121.62908,37.54944],[-121.67935,37.53745],[-121.68413,37.53634],[-121.74197,37.5226],[-121.81632,37.50486],[-121.85314,37.49617],[-121.88236,37.49124],[-121.91109,37.49196],[-121.95206,37.49291],[-122.01604,37.50388],[-122.0306,37.50872],[-122.08637,37.52665],[-122.11665,37.53659],[-122.15038,37.54723],[-122.18036,37.55701],[-122.18331,37.55795],[-122.21695,37.56894],[-122.24803,37.57877],[-122.27326,37.58657],[-122.30695,37.59645],[-122.3344,37.60482],[-122.3399,37.60645],[-122.36341,37.61439]],"type":"LineString"}
}
