{
  "id": 2014424465,
  "type": "Feature",
  "properties": {
    "geom:area": 0,
    "geom:bbox": "-122.346570,36.719050,-121.876170,37.606810",
    "geom:latitude": 37.211691488815966,
    "geom:longitude": -122.0640045796247,
    "src:alt_label": "swim-approach",
    "src:geom": "swim",
    "swim:elevations": [
      5416,
      5369,
      4953,
      4795,
      4684,
      4382,
      4069,
      3671,
      3460,
      3136,
      3076,
      2980,
      2673,
      2602,
      2403,
      2333,
      2298,
      2184,
      2127,
      2108,
      1904,
      1687,
      1543,
      1297,
      1145,
      1111,
      927,
      803,
      518,
      406,
      274,
      157,
      84
    ],
    "swim:geom": "approach",
    "swim:timestamps": [
      1767048535,
      1767048540,
      1767048579,
      1767048594,
      1767048605,
      1767048637,
      1767048669,
      1767048711,
      1767048734,
      1767048773,
      1767048801,
      1767048819,
      1767048864,
      1767048875,
      1767048914,
      1767048923,
      1767048933,
      1767048961,
      1767048983,
      1767048987,
      1767049014,
      1767049041,
      1767049061,
      1767049095,
      1767049131,
      1767049140,
      1767049180,
      1767049200,
      1767049252,
      1767049276,
      1767049309,
      1767049338,
      1767049358
    ],
    "wof:geomhash": "d72e51660bf26df28e3a56a3e7464690",
    "wof:id": 2014424465,
    "wof:repo": "sfomuseum-data-flights-2025-12"
  },
  "bbox": [
    -122.34657,
    36.71905,
    -121.87617,
    37.60681
  ],
  "geometry": {"coordinates":[[-121.87617,36.71905],[-121.88082,36.72587],[-121.90708,36.78854],[-121.91394,36.81271],[-121.91892,36.83026],[-121.93348,36.88197],[-121.94796,36.9343],[-121.97179,37.00048],[-121.98556,37.03566],[-122.00871,37.0948],[-122.0243,37.13438],[-122.03373,37.15855],[-122.0569,37.21736],[-122.06269,37.23216],[-122.08166,37.28113],[-122.08593,37.29203],[-122.09045,37.30363],[-122.10361,37.3363],[-122.11272,37.35947],[-122.11431,37.3635],[-122.12282,37.3911],[-122.11429,37.41922],[-122.10662,37.43995],[-122.10881,37.47245],[-122.13494,37.50008],[-122.14176,37.50714],[-122.17728,37.53592],[-122.19986,37.54497],[-122.2558,37.56858],[-122.27874,37.57823],[-122.30666,37.58998],[-122.33015,37.5999],[-122.34657,37.60681]],"type":"LineString"}
}
