{
  "id": 2014412843,
  "type": "Feature",
  "properties": {
    "geom:area": 0,
    "geom:bbox": "-122.470940,37.239020,-121.244160,37.725540",
    "geom:latitude": 37.44368309900802,
    "geom:longitude": -121.97534217304933,
    "src:alt_label": "swim-takeoff",
    "src:geom": "swim",
    "swim:elevations": [
      364,
      480,
      760,
      1164,
      1457,
      1897,
      2043,
      2163,
      2584,
      3049,
      3141,
      3456,
      3477,
      3608,
      3806,
      3905,
      4350,
      4743,
      4856,
      5251,
      5471,
      5678,
      5963,
      6250,
      6433,
      6614,
      6664,
      7019,
      7177,
      7219,
      7439
    ],
    "swim:geom": "takeoff",
    "swim:timestamps": [
      1766881130,
      1766881140,
      1766881180,
      1766881227,
      1766881251,
      1766881285,
      1766881296,
      1766881305,
      1766881340,
      1766881376,
      1766881385,
      1766881436,
      1766881442,
      1766881467,
      1766881491,
      1766881503,
      1766881545,
      1766881587,
      1766881599,
      1766881641,
      1766881665,
      1766881702,
      1766881731,
      1766881764,
      1766881797,
      1766881827,
      1766881833,
      1766881887,
      1766881917,
      1766881923,
      1766881960
    ],
    "wof:geomhash": "2f5d1b889f319958f5790a70f00d4d18",
    "wof:id": 2014412843,
    "wof:repo": "sfomuseum-data-flights-2025-12"
  },
  "bbox": [
    -122.47094,
    37.23902,
    -121.24416,
    37.72554
  ],
  "geometry": {"coordinates":[[-122.35988,37.63911],[-122.35857,37.64643],[-122.35977,37.68162],[-122.39184,37.72426],[-122.42843,37.72554],[-122.46441,37.69527],[-122.46644,37.68096],[-122.46715,37.66902],[-122.46856,37.62056],[-122.47094,37.57104],[-122.47082,37.5586],[-122.40578,37.51332],[-122.39464,37.51082],[-122.34591,37.50048],[-122.29689,37.48982],[-122.27195,37.48423],[-122.18396,37.46348],[-122.09427,37.44229],[-122.06813,37.43616],[-121.97692,37.41468],[-121.92392,37.40224],[-121.84118,37.3828],[-121.77703,37.36758],[-121.70269,37.34976],[-121.62763,37.33185],[-121.55859,37.31523],[-121.54469,37.31188],[-121.41966,37.28164],[-121.3477,37.26422],[-121.33338,37.26072],[-121.24416,37.23902]],"type":"LineString"}
}
