{
  "id": 2014409333,
  "type": "Feature",
  "properties": {
    "geom:area": 0,
    "geom:bbox": "-122.355220,37.491590,-121.262640,37.612780",
    "geom:latitude": 37.542096845153154,
    "geom:longitude": -121.81592971677665,
    "src:alt_label": "swim-approach",
    "src:geom": "swim",
    "swim:elevations": [
      4764,
      4346,
      3968,
      3736,
      3391,
      3189,
      3086,
      2873,
      2711,
      2512,
      2373,
      2193,
      2136,
      2064,
      1880,
      1829,
      1605,
      1322,
      1225,
      1219,
      1215,
      1073,
      911,
      723,
      602,
      454,
      334,
      273,
      238,
      88,
      24
    ],
    "swim:geom": "approach",
    "swim:timestamps": [
      1766825587,
      1766825626,
      1766825662,
      1766825685,
      1766825719,
      1766825756,
      1766825785,
      1766825816,
      1766825838,
      1766825877,
      1766825903,
      1766825929,
      1766825942,
      1766825956,
      1766825987,
      1766826012,
      1766826044,
      1766826081,
      1766826094,
      1766826114,
      1766826142,
      1766826170,
      1766826200,
      1766826238,
      1766826259,
      1766826290,
      1766826320,
      1766826330,
      1766826343,
      1766826381,
      1766826396
    ],
    "wof:geomhash": "f1c59c9af75f8aedbbfab85e7f9d1c80",
    "wof:id": 2014409333,
    "wof:repo": "sfomuseum-data-flights-2025-12"
  },
  "bbox": [
    -122.35522,
    37.49159,
    -121.26264,
    37.61278
  ],
  "geometry": {"coordinates":[[-121.26264,37.59276],[-121.34217,37.58368],[-121.4164,37.57515],[-121.46176,37.56983],[-121.52754,37.56209],[-121.59727,37.55399],[-121.64821,37.54517],[-121.69816,37.53345],[-121.73311,37.52501],[-121.79164,37.51082],[-121.82865,37.50207],[-121.8653,37.49335],[-121.88333,37.49159],[-121.90363,37.49233],[-121.94529,37.49472],[-121.97778,37.4967],[-122.01796,37.49904],[-122.06519,37.5017],[-122.08115,37.50272],[-122.104,37.5069],[-122.13412,37.51957],[-122.16402,37.53236],[-122.19405,37.54495],[-122.22984,37.56003],[-122.24904,37.5681],[-122.27603,37.57937],[-122.29952,37.58929],[-122.30722,37.59257],[-122.31705,37.59672],[-122.34456,37.60827],[-122.35522,37.61278]],"type":"LineString"}
}
