{
  "id": 2014413805,
  "type": "Feature",
  "properties": {
    "geom:area": 0,
    "geom:bbox": "-122.385950,37.638220,-121.263100,37.991240",
    "geom:latitude": 37.93760635296633,
    "geom:longitude": -121.94200487165158,
    "src:alt_label": "swim-takeoff",
    "src:geom": "swim",
    "swim:elevations": [
      244,
      675,
      833,
      1285,
      1547,
      1719,
      2110,
      2461,
      2605,
      2925,
      3231,
      3370,
      3566,
      3713,
      3945,
      4315,
      4826,
      5181,
      5349,
      5472,
      5739,
      5962,
      6308,
      6465,
      6816,
      7059,
      7140,
      7506,
      7639
    ],
    "swim:geom": "takeoff",
    "swim:timestamps": [
      1766881858,
      1766881884,
      1766881893,
      1766881948,
      1766881972,
      1766881986,
      1766882014,
      1766882038,
      1766882047,
      1766882070,
      1766882098,
      1766882125,
      1766882156,
      1766882168,
      1766882198,
      1766882225,
      1766882273,
      1766882306,
      1766882318,
      1766882331,
      1766882366,
      1766882390,
      1766882425,
      1766882443,
      1766882486,
      1766882516,
      1766882528,
      1766882578,
      1766882595
    ],
    "wof:geomhash": "a86c98b179a4bc264eace4411dd69f42",
    "wof:id": 2014413805,
    "wof:repo": "sfomuseum-data-flights-2025-12"
  },
  "bbox": [
    -122.38595,
    37.63822,
    -121.2631,
    37.99124
  ],
  "geometry": {"coordinates":[[-122.36006,37.63822],[-122.34182,37.65411],[-122.33541,37.65913],[-122.31271,37.69971],[-122.32508,37.72467],[-122.33299,37.73933],[-122.34968,37.77026],[-122.36332,37.79809],[-122.36836,37.8086],[-122.3815,37.83551],[-122.38595,37.87157],[-122.38164,37.9104],[-122.34428,37.94848],[-122.32045,37.95572],[-122.25464,37.96721],[-122.19423,37.97855],[-122.08258,37.98911],[-122.00417,37.98914],[-121.97499,37.98924],[-121.94351,37.98934],[-121.85746,37.98978],[-121.79776,37.9901],[-121.70886,37.99051],[-121.66308,37.99069],[-121.55289,37.99096],[-121.47444,37.99109],[-121.4429,37.99119],[-121.31053,37.9912],[-121.2631,37.99124]],"type":"LineString"}
}
