{
  "id": 2014439421,
  "type": "Feature",
  "properties": {
    "geom:area": 0,
    "geom:bbox": "-122.356910,37.635640,-122.061480,38.507440",
    "geom:latitude": 38.04915700628668,
    "geom:longitude": -122.18846900681011,
    "src:alt_label": "swim-takeoff",
    "src:geom": "swim",
    "swim:elevations": [
      442,
      741,
      952,
      1090,
      1257,
      1693,
      2123,
      2459,
      2874,
      3472,
      3578,
      3750,
      3818,
      4178,
      4435,
      4673,
      5233,
      5505,
      5845,
      6049,
      6246,
      6407
    ],
    "swim:geom": "takeoff",
    "swim:timestamps": [
      1767092362,
      1767092396,
      1767092425,
      1767092457,
      1767092486,
      1767092517,
      1767092541,
      1767092565,
      1767092594,
      1767092634,
      1767092649,
      1767092680,
      1767092689,
      1767092723,
      1767092748,
      1767092773,
      1767092830,
      1767092871,
      1767092903,
      1767092924,
      1767092956,
      1767092973
    ],
    "wof:geomhash": "11edd05a6598025c83bb8c4d5a711e48",
    "wof:id": 2014439421,
    "wof:repo": "sfomuseum-data-flights-2025-12"
  },
  "bbox": [
    -122.35691,
    37.63564,
    -122.06148,
    38.50744
  ],
  "geometry": {"coordinates":[[-122.35691,37.63564],[-122.33442,37.64978],[-122.31316,37.66261],[-122.28467,37.67981],[-122.25341,37.69989],[-122.24585,37.73899],[-122.25574,37.76862],[-122.25421,37.80025],[-122.24489,37.83963],[-122.23057,37.89393],[-122.22444,37.91629],[-122.21159,37.96485],[-122.20765,37.97974],[-122.19247,38.03679],[-122.18051,38.08176],[-122.16832,38.12657],[-122.14054,38.23141],[-122.11944,38.30905],[-122.10211,38.37053],[-122.09037,38.41054],[-122.07197,38.47215],[-122.06148,38.50744]],"type":"LineString"}
}
