{
  "id": 2014425609,
  "type": "Feature",
  "properties": {
    "geom:area": 0,
    "geom:bbox": "-123.463970,37.231850,-122.106480,37.610810",
    "geom:latitude": 37.3686356062033,
    "geom:longitude": -122.67629086901874,
    "src:alt_label": "swim-approach",
    "src:geom": "swim",
    "swim:elevations": [
      5646,
      5265,
      4937,
      4794,
      4175,
      3943,
      3499,
      3288,
      3231,
      3135,
      3085,
      3056,
      3048,
      3048,
      2988,
      2884,
      2742,
      2560,
      2462,
      2438,
      2438,
      2438,
      2438,
      2438,
      2324,
      2065,
      1953,
      1808,
      1698,
      1480,
      1394,
      1250,
      1219,
      1178,
      1071,
      915,
      914,
      866,
      669,
      551,
      335,
      308,
      185,
      26
    ],
    "swim:geom": "approach",
    "swim:timestamps": [
      1767002839,
      1767002876,
      1767002899,
      1767002911,
      1767002964,
      1767002982,
      1767003019,
      1767003057,
      1767003082,
      1767003118,
      1767003144,
      1767003159,
      1767003195,
      1767003218,
      1767003244,
      1767003263,
      1767003287,
      1767003328,
      1767003353,
      1767003380,
      1767003412,
      1767003429,
      1767003474,
      1767003488,
      1767003513,
      1767003567,
      1767003588,
      1767003620,
      1767003644,
      1767003684,
      1767003705,
      1767003731,
      1767003768,
      1767003795,
      1767003822,
      1767003868,
      1767003882,
      1767003915,
      1767003953,
      1767003975,
      1767004016,
      1767004024,
      1767004053,
      1767004091
    ],
    "wof:geomhash": "28177fa6176682a112c73b547e2a1cfa",
    "wof:id": 2014425609,
    "wof:repo": "sfomuseum-data-flights-2025-12"
  },
  "bbox": [
    -123.46397,
    37.23185,
    -122.10648,
    37.61081
  ],
  "geometry": {"coordinates":[[-123.46397,37.44418],[-123.38374,37.41958],[-123.33554,37.40477],[-123.31121,37.39717],[-123.20397,37.36397],[-123.16645,37.35256],[-123.09324,37.33002],[-123.02293,37.30763],[-122.9823,37.2947],[-122.92964,37.27834],[-122.89265,37.2667],[-122.87052,37.26099],[-122.81886,37.26833],[-122.7874,37.27522],[-122.7528,37.27148],[-122.72823,37.26268],[-122.69714,37.25082],[-122.64455,37.23185],[-122.61055,37.2355],[-122.57792,37.24927],[-122.53774,37.26718],[-122.51727,37.27628],[-122.46242,37.30066],[-122.44478,37.30845],[-122.41369,37.322],[-122.34808,37.35054],[-122.32022,37.35872],[-122.27863,37.37006],[-122.24694,37.37881],[-122.19472,37.39445],[-122.16686,37.4028],[-122.13678,37.41838],[-122.11733,37.45237],[-122.10648,37.47486],[-122.11193,37.4972],[-122.14818,37.52336],[-122.16228,37.52925],[-122.19452,37.54279],[-122.23293,37.55897],[-122.25534,37.56839],[-122.29373,37.5845],[-122.30041,37.5874],[-122.32501,37.59768],[-122.35624,37.61081]],"type":"LineString"}
}
