{
  "id": 2014416401,
  "type": "Feature",
  "properties": {
    "geom:area": 0,
    "geom:bbox": "-122.346800,37.491820,-121.250740,37.609130",
    "geom:latitude": 37.54609643504759,
    "geom:longitude": -121.80336587841266,
    "src:alt_label": "swim-approach",
    "src:geom": "swim",
    "swim:elevations": [
      5098,
      4633,
      4287,
      4101,
      3777,
      3637,
      3427,
      3044,
      2939,
      2673,
      2410,
      2338,
      2132,
      2101,
      1855,
      1695,
      1496,
      1125,
      948,
      816,
      670,
      571,
      394,
      315,
      82
    ],
    "swim:geom": "approach",
    "swim:timestamps": [
      1766924312,
      1766924360,
      1766924397,
      1766924420,
      1766924456,
      1766924474,
      1766924498,
      1766924547,
      1766924562,
      1766924600,
      1766924637,
      1766924648,
      1766924692,
      1766924701,
      1766924743,
      1766924774,
      1766924803,
      1766924858,
      1766924885,
      1766924910,
      1766924961,
      1766924982,
      1766925018,
      1766925039,
      1766925101
    ],
    "wof:geomhash": "f28ada9159e658cca4cfe9f307316674",
    "wof:id": 2014416401,
    "wof:repo": "sfomuseum-data-flights-2025-12"
  },
  "bbox": [
    -122.3468,
    37.49182,
    -121.25074,
    37.60913
  ],
  "geometry": {"coordinates":[[-121.25074,37.59432],[-121.34816,37.58298],[-121.42142,37.57458],[-121.46475,37.56951],[-121.53065,37.5618],[-121.56203,37.55813],[-121.60346,37.55326],[-121.68315,37.53676],[-121.70707,37.53106],[-121.76372,37.51756],[-121.81747,37.50459],[-121.83336,37.5008],[-121.89711,37.49182],[-121.91019,37.49209],[-121.97253,37.4937],[-122.01153,37.50264],[-122.04699,37.51406],[-122.11274,37.53528],[-122.14533,37.54574],[-122.17323,37.55475],[-122.22597,37.57177],[-122.24691,37.57855],[-122.28067,37.58861],[-122.29867,37.59387],[-122.3468,37.60913]],"type":"LineString"}
}
