{
  "id": 2014435139,
  "type": "Feature",
  "properties": {
    "geom:area": 0,
    "geom:bbox": "-122.347300,37.491560,-121.302850,37.609470",
    "geom:latitude": 37.54383482988474,
    "geom:longitude": -121.82955925677393,
    "src:alt_label": "swim-approach",
    "src:geom": "swim",
    "swim:elevations": [
      4452,
      4375,
      4206,
      3940,
      3645,
      3504,
      3199,
      3075,
      3024,
      2905,
      2666,
      2529,
      2330,
      2260,
      2103,
      1908,
      1812,
      1536,
      1267,
      1144,
      955,
      790,
      654,
      617,
      549,
      441,
      394,
      272,
      145,
      90
    ],
    "swim:geom": "approach",
    "swim:timestamps": [
      1767136227,
      1767136233,
      1767136254,
      1767136283,
      1767136312,
      1767136327,
      1767136375,
      1767136406,
      1767136412,
      1767136429,
      1767136459,
      1767136489,
      1767136527,
      1767136541,
      1767136565,
      1767136617,
      1767136641,
      1767136673,
      1767136704,
      1767136722,
      1767136758,
      1767136789,
      1767136821,
      1767136831,
      1767136856,
      1767136882,
      1767136898,
      1767136943,
      1767136976,
      1767136988
    ],
    "wof:geomhash": "c2dec6ae8774cc83b16bfb3afe425aea",
    "wof:id": 2014435139,
    "wof:repo": "sfomuseum-data-flights-2025-12"
  },
  "bbox": [
    -122.3473,
    37.49156,
    -121.30285,
    37.60947
  ],
  "geometry": {"coordinates":[[-121.30285,37.58761],[-121.31518,37.58631],[-121.35639,37.58177],[-121.41327,37.57555],[-121.46902,37.56925],[-121.49749,37.56589],[-121.58673,37.55531],[-121.63923,37.54717],[-121.64895,37.54507],[-121.67717,37.53845],[-121.72439,37.52708],[-121.77231,37.51551],[-121.82757,37.50228],[-121.8491,37.49708],[-121.88345,37.49156],[-121.95602,37.49292],[-121.98878,37.49572],[-122.03166,37.5088],[-122.07275,37.52226],[-122.09594,37.52982],[-122.13992,37.54416],[-122.17566,37.55563],[-122.21007,37.56681],[-122.22001,37.57005],[-122.24324,37.57752],[-122.26472,37.58446],[-122.27699,37.58794],[-122.31206,37.59712],[-122.33801,37.60603],[-122.3473,37.60947]],"type":"LineString"}
}
