{
  "id": 2014413499,
  "type": "Feature",
  "properties": {
    "geom:area": 0,
    "geom:bbox": "-122.437120,36.719190,-121.299340,37.708440",
    "geom:latitude": 37.199206565349414,
    "geom:longitude": -121.97965112262028,
    "src:alt_label": "swim-takeoff",
    "src:geom": "swim",
    "swim:elevations": [
      152,
      432,
      759,
      1081,
      1189,
      1411,
      1849,
      2436,
      2620,
      3049,
      3058,
      3277,
      3915,
      4129,
      4268,
      4399,
      4749,
      4897,
      5053,
      5455,
      5698,
      6014,
      6112,
      6445,
      6622,
      6902,
      7188,
      7271,
      7483,
      7771,
      7887,
      8200
    ],
    "swim:geom": "takeoff",
    "swim:timestamps": [
      1766843336,
      1766843356,
      1766843382,
      1766843409,
      1766843433,
      1766843461,
      1766843499,
      1766843540,
      1766843550,
      1766843600,
      1766843617,
      1766843646,
      1766843694,
      1766843720,
      1766843748,
      1766843766,
      1766843804,
      1766843816,
      1766843829,
      1766843865,
      1766843901,
      1766843937,
      1766843946,
      1766843985,
      1766844006,
      1766844042,
      1766844084,
      1766844095,
      1766844126,
      1766844177,
      1766844190,
      1766844242
    ],
    "wof:geomhash": "fe4ee35fab75c665d9eee4c16660937e",
    "wof:id": 2014413499,
    "wof:repo": "sfomuseum-data-flights-2025-12"
  },
  "bbox": [
    -122.43712,
    36.71919,
    -121.29934,
    37.70844
  ],
  "geometry": {"coordinates":[[-122.36742,37.63119],[-122.3623,37.64557],[-122.36244,37.66508],[-122.3622,37.68521],[-122.37533,37.70333],[-122.41063,37.70844],[-122.43712,37.67082],[-122.4302,37.61651],[-122.42859,37.60294],[-122.42003,37.53372],[-122.4175,37.51014],[-122.41249,37.46376],[-122.36248,37.40419],[-122.32057,37.37877],[-122.27244,37.34805],[-122.24098,37.32776],[-122.17282,37.28391],[-122.14951,37.26897],[-122.12475,37.25317],[-122.05768,37.21041],[-121.98899,37.16645],[-121.92053,37.12257],[-121.90208,37.11075],[-121.82591,37.06163],[-121.78513,37.03519],[-121.71311,36.98862],[-121.62859,36.93388],[-121.6058,36.91904],[-121.54331,36.87852],[-121.43582,36.80885],[-121.40835,36.79124],[-121.29934,36.71919]],"type":"LineString"}
}
