{
  "id": 2014439457,
  "type": "Feature",
  "properties": {
    "geom:area": 0,
    "geom:bbox": "-122.485260,36.722690,-121.443630,37.682020",
    "geom:latitude": 37.19934751115992,
    "geom:longitude": -122.04694789456403,
    "src:alt_label": "swim-takeoff",
    "src:geom": "swim",
    "swim:elevations": [
      326,
      494,
      860,
      1066,
      1273,
      1499,
      1602,
      2318,
      2806,
      2967,
      3283,
      3540,
      3915,
      4859,
      5438,
      5886,
      6083,
      6354,
      6557,
      6807,
      6883,
      7145,
      7256,
      7445,
      7654,
      7865,
      8061,
      8200
    ],
    "swim:geom": "takeoff",
    "swim:timestamps": [
      1767140336,
      1767140350,
      1767140394,
      1767140424,
      1767140458,
      1767140485,
      1767140494,
      1767140542,
      1767140575,
      1767140590,
      1767140638,
      1767140659,
      1767140695,
      1767140788,
      1767140850,
      1767140905,
      1767140926,
      1767140968,
      1767140992,
      1767141028,
      1767141043,
      1767141089,
      1767141103,
      1767141130,
      1767141168,
      1767141193,
      1767141226,
      1767141253
    ],
    "wof:geomhash": "fb826ed52a89281a36ab56179b54460f",
    "wof:id": 2014439457,
    "wof:repo": "sfomuseum-data-flights-2025-12"
  },
  "bbox": [
    -122.48526,
    36.72269,
    -121.44363,
    37.68202
  ],
  "geometry": {"coordinates":[[-122.36473,37.637],[-122.36409,37.64734],[-122.38555,37.67638],[-122.41757,37.68202],[-122.44001,37.65428],[-122.45093,37.62539],[-122.4546,37.61491],[-122.47301,37.55871],[-122.48526,37.51988],[-122.48355,37.50147],[-122.42798,37.45422],[-122.39849,37.43386],[-122.34832,37.39671],[-122.21207,37.29573],[-122.11724,37.22537],[-122.03113,37.1616],[-121.99783,37.13683],[-121.93031,37.08668],[-121.89128,37.05766],[-121.8322,37.0136],[-121.80739,36.99491],[-121.72993,36.93695],[-121.70429,36.91779],[-121.65791,36.8831],[-121.59343,36.83433],[-121.54926,36.80227],[-121.4915,36.75865],[-121.44363,36.72269]],"type":"LineString"}
}
