{
  "id": 2014445677,
  "type": "Feature",
  "properties": {
    "geom:area": 0,
    "geom:bbox": "-122.454980,37.274050,-121.249220,37.718030",
    "geom:latitude": 37.46610278900409,
    "geom:longitude": -121.93400961499842,
    "src:alt_label": "swim-takeoff",
    "src:geom": "swim",
    "swim:elevations": [
      183,
      448,
      637,
      776,
      1410,
      1808,
      1994,
      2134,
      2591,
      2980,
      3323,
      3702,
      4153,
      4507,
      5029,
      5107,
      5517,
      5917,
      6263,
      6612,
      7025,
      7212,
      7542,
      7624,
      8008,
      8294,
      8583,
      8646,
      9064,
      9344
    ],
    "swim:geom": "takeoff",
    "swim:timestamps": [
      1767222374,
      1767222399,
      1767222430,
      1767222451,
      1767222502,
      1767222535,
      1767222551,
      1767222563,
      1767222595,
      1767222622,
      1767222658,
      1767222687,
      1767222717,
      1767222739,
      1767222774,
      1767222780,
      1767222810,
      1767222843,
      1767222873,
      1767222901,
      1767222936,
      1767222956,
      1767222988,
      1767222997,
      1767223036,
      1767223068,
      1767223102,
      1767223111,
      1767223161,
      1767223197
    ],
    "wof:geomhash": "7428747de23c4a0669aa720c9765b16f",
    "wof:id": 2014445677,
    "wof:repo": "sfomuseum-data-flights-2025-12"
  },
  "bbox": [
    -122.45498,
    37.27405,
    -121.24922,
    37.71803
  ],
  "geometry": {"coordinates":[[-122.36947,37.62869],[-122.36452,37.6468],[-122.36176,37.67422],[-122.36466,37.69714],[-122.42697,37.71803],[-122.45498,37.6921],[-122.45293,37.67494],[-122.44408,37.66302],[-122.40752,37.63688],[-122.37543,37.61487],[-122.32366,37.59045],[-122.27282,37.57745],[-122.2188,37.56278],[-122.17864,37.5518],[-122.11353,37.53337],[-122.10303,37.52881],[-122.05136,37.50506],[-121.99369,37.47824],[-121.94005,37.45269],[-121.88945,37.42884],[-121.82472,37.39883],[-121.78729,37.38168],[-121.72628,37.35406],[-121.70887,37.34618],[-121.62903,37.31654],[-121.55692,37.30758],[-121.47752,37.29928],[-121.45621,37.29705],[-121.33598,37.2838],[-121.24922,37.27405]],"type":"LineString"}
}
