{
  "id": 2014415925,
  "type": "Feature",
  "properties": {
    "geom:area": 0,
    "geom:bbox": "-122.360380,36.721800,-121.878560,37.612680",
    "geom:latitude": 37.212044359699355,
    "geom:longitude": -122.07047968101881,
    "src:alt_label": "swim-approach",
    "src:geom": "swim",
    "swim:elevations": [
      5687,
      5627,
      5256,
      4974,
      4769,
      4381,
      4212,
      3880,
      3543,
      3199,
      3103,
      2991,
      2931,
      2642,
      2531,
      2402,
      2028,
      1835,
      1777,
      1705,
      1675,
      1549,
      1373,
      1217,
      1188,
      1094,
      1055,
      653,
      531,
      379,
      229,
      1,
      0
    ],
    "swim:geom": "approach",
    "swim:timestamps": [
      1766954488,
      1766954496,
      1766954538,
      1766954565,
      1766954585,
      1766954622,
      1766954640,
      1766954673,
      1766954710,
      1766954751,
      1766954785,
      1766954818,
      1766954827,
      1766954873,
      1766954891,
      1766954919,
      1766954967,
      1766954995,
      1766955004,
      1766955022,
      1766955031,
      1766955074,
      1766955105,
      1766955145,
      1766955154,
      1766955176,
      1766955184,
      1766955237,
      1766955249,
      1766955275,
      1766955303,
      1766955357,
      1766955360
    ],
    "wof:geomhash": "da20a1789efb3c04d371dfeca7b86b28",
    "wof:id": 2014415925,
    "wof:repo": "sfomuseum-data-flights-2025-12"
  },
  "bbox": [
    -122.36038,
    36.7218,
    -121.87856,
    37.61268
  ],
  "geometry": {"coordinates":[[-121.87856,36.7218],[-121.88564,36.73261],[-121.90815,36.79205],[-121.91921,36.83032],[-121.92706,36.85858],[-121.94136,36.9116],[-121.94878,36.93729],[-121.9657,36.9846],[-121.98562,37.03537],[-122.00751,37.09158],[-122.02475,37.13579],[-122.04048,37.17567],[-122.04445,37.18573],[-122.06475,37.23752],[-122.07255,37.25761],[-122.08518,37.28985],[-122.10665,37.34399],[-122.11901,37.3756],[-122.12278,37.38582],[-122.12961,37.40604],[-122.13294,37.41586],[-122.1475,37.45918],[-122.1582,37.49094],[-122.17226,37.52805],[-122.17833,37.53463],[-122.20048,37.54451],[-122.20911,37.54811],[-122.25835,37.56823],[-122.26858,37.57347],[-122.29028,37.58326],[-122.31422,37.59302],[-122.35789,37.61161],[-122.36038,37.61268]],"type":"LineString"}
}
