{
  "id": 2014447379,
  "type": "Feature",
  "properties": {
    "geom:area": 0,
    "geom:bbox": "-122.558380,36.721750,-122.288800,37.716450",
    "geom:latitude": 37.241169935984196,
    "geom:longitude": -122.46744567732117,
    "src:alt_label": "swim-takeoff",
    "src:geom": "swim",
    "swim:elevations": [
      183,
      584,
      961,
      1215,
      1561,
      1988,
      2124,
      2436,
      2835,
      3201,
      3393,
      3741,
      4328,
      4696,
      4864,
      5345,
      5848,
      6083,
      6237,
      6557,
      6712,
      6893,
      7260,
      7439,
      7725,
      7937,
      8107,
      8354,
      8756,
      8844,
      9025
    ],
    "swim:geom": "takeoff",
    "swim:timestamps": [
      1767173745,
      1767173772,
      1767173805,
      1767173838,
      1767173874,
      1767173904,
      1767173913,
      1767173931,
      1767173954,
      1767173996,
      1767174023,
      1767174042,
      1767174077,
      1767174107,
      1767174122,
      1767174155,
      1767174201,
      1767174224,
      1767174236,
      1767174263,
      1767174273,
      1767174290,
      1767174324,
      1767174342,
      1767174375,
      1767174411,
      1767174437,
      1767174461,
      1767174505,
      1767174521,
      1767174563
    ],
    "wof:geomhash": "9004bea1b8be2f5e122fd5f91a954a12",
    "wof:id": 2014447379,
    "wof:repo": "sfomuseum-data-flights-2025-12"
  },
  "bbox": [
    -122.55838,
    36.72175,
    -122.2888,
    37.71645
  ],
  "geometry": {"coordinates":[[-122.36664,37.63303],[-122.36386,37.65369],[-122.36204,37.68056],[-122.3763,37.70825],[-122.42511,37.71645],[-122.45522,37.68997],[-122.45716,37.67899],[-122.45935,37.65682],[-122.4621,37.62857],[-122.46923,37.57565],[-122.4758,37.53727],[-122.4806,37.50856],[-122.48919,37.45771],[-122.49667,37.41248],[-122.50056,37.38938],[-122.50952,37.33881],[-122.52126,37.26617],[-122.52716,37.22928],[-122.53047,37.20935],[-122.53785,37.16523],[-122.5408,37.14821],[-122.54534,37.1209],[-122.55439,37.06449],[-122.55838,37.03503],[-122.54604,36.98209],[-122.5048,36.92935],[-122.46781,36.89494],[-122.43344,36.86189],[-122.3724,36.80292],[-122.34982,36.78097],[-122.2888,36.72175]],"type":"LineString"}
}
