{
  "id": 2014417869,
  "type": "Feature",
  "properties": {
    "geom:area": 0,
    "geom:bbox": "-122.470530,37.546500,-122.051140,37.719540",
    "geom:latitude": 37.617932803437604,
    "geom:longitude": -122.23095738790843,
    "src:alt_label": "swim-approach",
    "src:geom": "swim",
    "swim:elevations": [
      3414,
      3319,
      3214,
      2976,
      2884,
      2454,
      2125,
      1974,
      1830,
      1782,
      1618,
      1553,
      1524,
      1524,
      1524,
      1492,
      1193,
      1132,
      649,
      612,
      551,
      536,
      444,
      365,
      201,
      139,
      0
    ],
    "swim:geom": "approach",
    "swim:timestamps": [
      1766941151,
      1766941186,
      1766941208,
      1766941247,
      1766941263,
      1766941310,
      1766941346,
      1766941366,
      1766941400,
      1766941436,
      1766941461,
      1766941471,
      1766941486,
      1766941508,
      1766941539,
      1766941583,
      1766941618,
      1766941623,
      1766941674,
      1766941680,
      1766941708,
      1766941734,
      1766941751,
      1766941775,
      1766941821,
      1766941833,
      1766941874
    ],
    "wof:geomhash": "c95147c610641284074a624713ea56fb",
    "wof:id": 2014417869,
    "wof:repo": "sfomuseum-data-flights-2025-12"
  },
  "bbox": [
    -122.47053,
    37.5465,
    -122.05114,
    37.71954
  ],
  "geometry": {"coordinates":[[-122.47053,37.71954],[-122.42486,37.70285],[-122.39687,37.69272],[-122.35038,37.67583],[-122.33087,37.66891],[-122.2762,37.65032],[-122.23366,37.63806],[-122.20988,37.63369],[-122.16982,37.62608],[-122.12777,37.61812],[-122.09961,37.61272],[-122.08817,37.61045],[-122.07078,37.60683],[-122.05114,37.59314],[-122.05434,37.56152],[-122.099,37.5465],[-122.13553,37.55452],[-122.14112,37.55575],[-122.19568,37.56799],[-122.20204,37.56942],[-122.23182,37.57588],[-122.25501,37.58112],[-122.26951,37.58538],[-122.28798,37.59087],[-122.32152,37.60083],[-122.33022,37.60329],[-122.35811,37.61404]],"type":"LineString"}
}
