{
  "id": 2014434875,
  "type": "Feature",
  "properties": {
    "geom:area": 0,
    "geom:bbox": "-122.362200,36.762730,-121.899170,37.614750",
    "geom:latitude": 37.23479958844272,
    "geom:longitude": -122.07928167746616,
    "src:alt_label": "swim-approach",
    "src:geom": "swim",
    "swim:elevations": [
      5314,
      5063,
      4694,
      4525,
      3969,
      3850,
      3383,
      3098,
      3048,
      2976,
      2787,
      2532,
      2455,
      2240,
      2104,
      1861,
      1597,
      1524,
      1172,
      986,
      841,
      579,
      418,
      395,
      124,
      60,
      0
    ],
    "swim:geom": "approach",
    "swim:timestamps": [
      1767138086,
      1767138109,
      1767138140,
      1767138156,
      1767138204,
      1767138220,
      1767138265,
      1767138293,
      1767138302,
      1767138357,
      1767138380,
      1767138416,
      1767138441,
      1767138474,
      1767138493,
      1767138533,
      1767138566,
      1767138577,
      1767138623,
      1767138650,
      1767138670,
      1767138716,
      1767138746,
      1767138752,
      1767138808,
      1767138827,
      1767138842
    ],
    "wof:geomhash": "5b00ba311e17de1e8ff716021ff14dc2",
    "wof:id": 2014434875,
    "wof:repo": "sfomuseum-data-flights-2025-12"
  },
  "bbox": [
    -122.3622,
    36.76273,
    -121.89917,
    37.61475
  ],
  "geometry": {"coordinates":[[-121.89917,36.76273],[-121.91156,36.80408],[-121.9268,36.8577],[-121.93473,36.88597],[-121.95966,36.96921],[-121.96954,36.99505],[-121.99836,37.06811],[-122.01582,37.11223],[-122.02132,37.1265],[-122.05168,37.2047],[-122.0632,37.23396],[-122.08147,37.28002],[-122.09341,37.31041],[-122.10901,37.35003],[-122.1175,37.37155],[-122.13334,37.41743],[-122.14612,37.45457],[-122.15009,37.46631],[-122.1666,37.51639],[-122.18175,37.53994],[-122.2035,37.54884],[-122.25254,37.56952],[-122.28301,37.58242],[-122.28793,37.58443],[-122.33519,37.6043],[-122.34975,37.61041],[-122.3622,37.61475]],"type":"LineString"}
}
