{
  "id": 2014415215,
  "type": "Feature",
  "properties": {
    "geom:area": 0,
    "geom:bbox": "-122.359980,36.723120,-121.879360,37.612230",
    "geom:latitude": 37.21266668896047,
    "geom:longitude": -122.07037891297843,
    "src:alt_label": "swim-approach",
    "src:geom": "swim",
    "swim:elevations": [
      5722,
      5464,
      5222,
      5010,
      4709,
      4415,
      4257,
      3751,
      3663,
      3350,
      3131,
      3051,
      2759,
      2518,
      2347,
      2249,
      1947,
      1789,
      1732,
      1408,
      1351,
      990,
      922,
      896,
      723,
      674,
      563,
      336,
      293,
      117,
      0
    ],
    "swim:geom": "approach",
    "swim:timestamps": [
      1766915395,
      1766915422,
      1766915455,
      1766915476,
      1766915505,
      1766915534,
      1766915552,
      1766915603,
      1766915611,
      1766915643,
      1766915678,
      1766915713,
      1766915756,
      1766915787,
      1766915812,
      1766915824,
      1766915871,
      1766915905,
      1766915919,
      1766915964,
      1766915973,
      1766916027,
      1766916053,
      1766916078,
      1766916115,
      1766916123,
      1766916151,
      1766916206,
      1766916217,
      1766916264,
      1766916289
    ],
    "wof:geomhash": "c3b0182242257518313669c6dd04a9eb",
    "wof:id": 2014415215,
    "wof:repo": "sfomuseum-data-flights-2025-12"
  },
  "bbox": [
    -122.35998,
    36.72312,
    -121.87936,
    37.61223
  ],
  "geometry": {"coordinates":[[-121.87936,36.72312],[-121.89935,36.76153],[-121.91346,36.81112],[-121.9229,36.84339],[-121.93531,36.88646],[-121.94771,36.93026],[-121.95515,36.95585],[-121.98315,37.02869],[-121.9877,37.04053],[-122.00475,37.08448],[-122.0234,37.13243],[-122.04057,37.17623],[-122.05996,37.22599],[-122.07439,37.2621],[-122.08546,37.28993],[-122.09068,37.30356],[-122.1104,37.35337],[-122.1238,37.38879],[-122.12991,37.40108],[-122.13909,37.444],[-122.13857,37.45227],[-122.14942,37.5025],[-122.17052,37.51989],[-122.19156,37.53302],[-122.22154,37.55035],[-122.22832,37.55342],[-122.25208,37.56463],[-122.2948,37.58505],[-122.30384,37.58892],[-122.34063,37.6043],[-122.35998,37.61223]],"type":"LineString"}
}
