{
  "id": 2014443211,
  "type": "Feature",
  "properties": {
    "geom:area": 0,
    "geom:bbox": "-122.355270,36.718460,-121.875620,37.612720",
    "geom:latitude": 37.20961198297442,
    "geom:longitude": -122.06842556470892,
    "src:alt_label": "swim-approach",
    "src:geom": "swim",
    "swim:elevations": [
      5244,
      5111,
      4780,
      4420,
      4194,
      3986,
      3776,
      3672,
      3291,
      3189,
      2935,
      2804,
      2667,
      2609,
      2069,
      1855,
      1736,
      1559,
      1457,
      1372,
      1200,
      1019,
      799,
      637,
      483,
      365,
      302,
      141,
      33
    ],
    "swim:geom": "approach",
    "swim:timestamps": [
      1767212726,
      1767212739,
      1767212772,
      1767212814,
      1767212847,
      1767212878,
      1767212902,
      1767212914,
      1767212955,
      1767212970,
      1767213023,
      1767213056,
      1767213086,
      1767213092,
      1767213146,
      1767213176,
      1767213194,
      1767213224,
      1767213242,
      1767213254,
      1767213287,
      1767213314,
      1767213354,
      1767213384,
      1767213414,
      1767213434,
      1767213452,
      1767213488,
      1767213512
    ],
    "wof:geomhash": "f309fc565f5e55ce9f9017bb626a3916",
    "wof:id": 2014443211,
    "wof:repo": "sfomuseum-data-flights-2025-12"
  },
  "bbox": [
    -122.35527,
    36.71846,
    -121.87562,
    37.61272
  ],
  "geometry": {"coordinates":[[-121.87562,36.71846],[-121.88855,36.7391],[-121.90908,36.7962],[-121.9295,36.8679],[-121.9448,36.92298],[-121.96092,36.97182],[-121.97567,37.00981],[-121.98254,37.02738],[-122.00781,37.09223],[-122.01645,37.1144],[-122.04624,37.1906],[-122.06298,37.23321],[-122.07696,37.26866],[-122.07962,37.27545],[-122.10409,37.33796],[-122.11738,37.37221],[-122.12488,37.39286],[-122.13652,37.42702],[-122.14363,37.44743],[-122.14854,37.46117],[-122.16058,37.49857],[-122.17082,37.52847],[-122.20673,37.5564],[-122.24194,37.56415],[-122.27182,37.57755],[-122.29006,37.58541],[-122.30557,37.59188],[-122.33508,37.60426],[-122.35527,37.61272]],"type":"LineString"}
}
