{
  "id": 2014435117,
  "type": "Feature",
  "properties": {
    "geom:area": 0,
    "geom:bbox": "-122.362450,37.491260,-121.907590,37.615700",
    "geom:latitude": 37.54513719363459,
    "geom:longitude": -122.1367716943797,
    "src:alt_label": "swim-approach",
    "src:geom": "swim",
    "swim:elevations": [
      2054,
      1911,
      1305,
      1224,
      1210,
      920,
      718,
      645,
      607,
      182,
      93,
      345
    ],
    "swim:geom": "approach",
    "swim:timestamps": [
      1767110157,
      1767110190,
      1767110265,
      1767110280,
      1767110285,
      1767110323,
      1767110361,
      1767110390,
      1767110405,
      1767110508,
      1767110538,
      1767110561
    ],
    "wof:geomhash": "370ac85fddb1da1cddc97b9c27d6e34a",
    "wof:id": 2014435117,
    "wof:repo": "sfomuseum-data-flights-2025-12"
  },
  "bbox": [
    -122.36245,
    37.49126,
    -121.90759,
    37.6157
  ],
  "geometry": {"coordinates":[[-121.90759,37.49126],[-121.95814,37.49302],[-122.06923,37.52102],[-122.09127,37.52813],[-122.09784,37.53031],[-122.14868,37.54678],[-122.19661,37.56229],[-122.22661,37.57173],[-122.24082,37.57629],[-122.32469,37.60175],[-122.34702,37.60922],[-122.36245,37.6157]],"type":"LineString"}
}
