{
  "id": 2014441639,
  "type": "Feature",
  "properties": {
    "geom:area": 0,
    "geom:bbox": "-122.358940,37.492350,-121.254200,37.614270",
    "geom:latitude": 37.54289897625885,
    "geom:longitude": -121.81362891441884,
    "src:alt_label": "swim-approach",
    "src:geom": "swim",
    "swim:elevations": [
      4815,
      4503,
      3957,
      3630,
      3590,
      3201,
      3060,
      2784,
      2612,
      2534,
      2380,
      2306,
      2040,
      2003,
      1945,
      1759,
      1645,
      1524,
      1457,
      1299,
      1141,
      1018,
      742,
      596,
      552,
      412,
      271,
      100,
      0
    ],
    "swim:geom": "approach",
    "swim:timestamps": [
      1767249214,
      1767249243,
      1767249294,
      1767249327,
      1767249330,
      1767249384,
      1767249411,
      1767249446,
      1767249470,
      1767249494,
      1767249529,
      1767249543,
      1767249591,
      1767249600,
      1767249612,
      1767249651,
      1767249674,
      1767249702,
      1767249720,
      1767249753,
      1767249788,
      1767249818,
      1767249867,
      1767249897,
      1767249903,
      1767249936,
      1767249966,
      1767250011,
      1767250032
    ],
    "wof:geomhash": "4ca1f740ff50ec07af1e0bb669ab278c",
    "wof:id": 2014441639,
    "wof:repo": "sfomuseum-data-flights-2025-12"
  },
  "bbox": [
    -122.35894,
    37.49235,
    -121.2542,
    37.61427
  ],
  "geometry": {"coordinates":[[-121.2542,37.59395],[-121.31721,37.58614],[-121.4259,37.57417],[-121.49469,37.56615],[-121.50078,37.56543],[-121.60713,37.55304],[-121.65267,37.54403],[-121.70746,37.53093],[-121.74255,37.52272],[-121.77559,37.51475],[-121.81969,37.50424],[-121.83771,37.49987],[-121.90258,37.49235],[-121.91453,37.49302],[-121.9301,37.49375],[-121.97858,37.49672],[-122.00694,37.49847],[-122.04015,37.50033],[-122.06141,37.50137],[-122.10001,37.50572],[-122.13776,37.52118],[-122.16935,37.53453],[-122.22035,37.55607],[-122.25061,37.5688],[-122.25626,37.57115],[-122.28547,37.58343],[-122.30992,37.59372],[-122.34346,37.60782],[-122.35894,37.61427]],"type":"LineString"}
}
