{
  "id": 2014415931,
  "type": "Feature",
  "properties": {
    "geom:area": 0,
    "geom:bbox": "-123.144500,37.423240,-122.116170,38.443170",
    "geom:latitude": 37.853871164213345,
    "geom:longitude": -122.56437580733287,
    "src:alt_label": "swim-approach",
    "src:geom": "swim",
    "swim:elevations": [
      7559,
      7437,
      7074,
      6983,
      6527,
      6240,
      5940,
      5893,
      5649,
      5453,
      5381,
      5316,
      5146,
      4752,
      4697,
      4450,
      4132,
      3772,
      3463,
      3353,
      3353,
      3366,
      3353,
      3340,
      3324,
      3144,
      3115,
      2889,
      2631,
      2144,
      1998,
      1657,
      1320,
      1229,
      1150,
      1094,
      1001,
      847,
      655,
      572,
      516,
      262,
      226,
      113,
      56
    ],
    "swim:geom": "approach",
    "swim:timestamps": [
      1766911341,
      1766911356,
      1766911408,
      1766911417,
      1766911467,
      1766911497,
      1766911527,
      1766911532,
      1766911558,
      1766911580,
      1766911602,
      1766911609,
      1766911626,
      1766911673,
      1766911681,
      1766911717,
      1766911747,
      1766911779,
      1766911816,
      1766911855,
      1766911866,
      1766911906,
      1766911948,
      1766911978,
      1766911981,
      1766912006,
      1766912010,
      1766912043,
      1766912074,
      1766912125,
      1766912142,
      1766912177,
      1766912218,
      1766912237,
      1766912277,
      1766912295,
      1766912336,
      1766912367,
      1766912398,
      1766912414,
      1766912431,
      1766912482,
      1766912491,
      1766912521,
      1766912537
    ],
    "wof:geomhash": "5b97c7a64cd3026a6fb236f927e562a5",
    "wof:id": 2014415931,
    "wof:repo": "sfomuseum-data-flights-2025-12"
  },
  "bbox": [
    -123.1445,
    37.42324,
    -122.11617,
    38.44317
  ],
  "geometry": {"coordinates":[[-123.1445,38.44317],[-123.11664,38.42714],[-123.01562,38.36844],[-122.99892,38.35869],[-122.90142,38.3022],[-122.85563,38.25595],[-122.82777,38.20335],[-122.82328,38.19445],[-122.79877,38.14677],[-122.77931,38.10865],[-122.76033,38.07127],[-122.75364,38.05803],[-122.73961,38.03036],[-122.69938,37.9512],[-122.69256,37.93736],[-122.65673,37.88421],[-122.61583,37.84478],[-122.57262,37.80425],[-122.52343,37.75789],[-122.47469,37.71183],[-122.46129,37.69923],[-122.41842,37.65903],[-122.37618,37.61956],[-122.35161,37.58906],[-122.34974,37.58569],[-122.33671,37.55721],[-122.33451,37.55282],[-122.31254,37.51722],[-122.29311,37.48508],[-122.23728,37.45049],[-122.21619,37.44205],[-122.17475,37.42485],[-122.12599,37.42324],[-122.11617,37.43913],[-122.13559,37.47485],[-122.14653,37.49071],[-122.17136,37.52582],[-122.20126,37.54555],[-122.23426,37.5596],[-122.24968,37.56603],[-122.26519,37.57264],[-122.30883,37.59091],[-122.31588,37.59383],[-122.33891,37.60354],[-122.35141,37.60878]],"type":"LineString"}
}
