{
  "id": 2014426391,
  "type": "Feature",
  "properties": {
    "geom:area": 0,
    "geom:bbox": "-122.341830,37.491640,-121.287550,37.607150",
    "geom:latitude": 37.544100220853075,
    "geom:longitude": -121.81908456659284,
    "src:alt_label": "swim-approach",
    "src:geom": "swim",
    "swim:elevations": [
      4548,
      4382,
      4077,
      4000,
      3859,
      3621,
      3462,
      3155,
      3117,
      2924,
      2600,
      2422,
      2201,
      2041,
      1948,
      1827,
      1680,
      1543,
      1464,
      1330,
      1113,
      1004,
      942,
      707,
      544,
      454,
      268,
      122,
      88
    ],
    "swim:geom": "approach",
    "swim:timestamps": [
      1767043550,
      1767043569,
      1767043608,
      1767043618,
      1767043638,
      1767043671,
      1767043692,
      1767043738,
      1767043746,
      1767043785,
      1767043829,
      1767043857,
      1767043884,
      1767043917,
      1767043945,
      1767043978,
      1767044007,
      1767044036,
      1767044050,
      1767044080,
      1767044125,
      1767044149,
      1767044161,
      1767044211,
      1767044243,
      1767044262,
      1767044306,
      1767044337,
      1767044344
    ],
    "wof:geomhash": "63de53e97b9faa3ee35357488ad3e8fa",
    "wof:id": 2014426391,
    "wof:repo": "sfomuseum-data-flights-2025-12"
  },
  "bbox": [
    -122.34183,
    37.49164,
    -121.28755,
    37.60715
  ],
  "geometry": {"coordinates":[[-121.28755,37.58956],[-121.3241,37.58576],[-121.39813,37.5772],[-121.41785,37.57493],[-121.45378,37.57075],[-121.51519,37.56348],[-121.55322,37.55916],[-121.63418,37.5485],[-121.6491,37.54496],[-121.71072,37.53029],[-121.77754,37.51436],[-121.82027,37.50409],[-121.859,37.49469],[-121.90642,37.49164],[-121.94251,37.49266],[-121.98354,37.49468],[-122.01558,37.50353],[-122.04526,37.51322],[-122.05963,37.5179],[-122.08968,37.52761],[-122.13411,37.54208],[-122.15838,37.54996],[-122.17064,37.55384],[-122.22192,37.5706],[-122.25373,37.58063],[-122.27084,37.58585],[-122.30927,37.59735],[-122.33634,37.60541],[-122.34183,37.60715]],"type":"LineString"}
}
