{
  "id": 2014425247,
  "type": "Feature",
  "properties": {
    "geom:area": 0,
    "geom:bbox": "-122.357770,36.729230,-121.883920,37.611410",
    "geom:latitude": 37.21429487364513,
    "geom:longitude": -122.07112173239766,
    "src:alt_label": "swim-approach",
    "src:geom": "swim",
    "swim:elevations": [
      5256,
      4937,
      4613,
      4369,
      4092,
      3752,
      3442,
      3246,
      3104,
      2933,
      2680,
      2530,
      2438,
      2407,
      2046,
      1831,
      1746,
      1711,
      1434,
      1178,
      1029,
      790,
      693,
      529,
      404,
      296,
      221,
      93,
      50
    ],
    "swim:geom": "approach",
    "swim:timestamps": [
      1767055856,
      1767055886,
      1767055916,
      1767055942,
      1767055967,
      1767056003,
      1767056036,
      1767056054,
      1767056087,
      1767056120,
      1767056153,
      1767056174,
      1767056216,
      1767056225,
      1767056277,
      1767056307,
      1767056337,
      1767056346,
      1767056390,
      1767056421,
      1767056436,
      1767056479,
      1767056510,
      1767056543,
      1767056570,
      1767056605,
      1767056624,
      1767056663,
      1767056678
    ],
    "wof:geomhash": "dd682aa2ded57a616a7ce9a23aed9aaa",
    "wof:id": 2014425247,
    "wof:repo": "sfomuseum-data-flights-2025-12"
  },
  "bbox": [
    -122.35777,
    36.72923,
    -121.88392,
    37.61141
  ],
  "geometry": {"coordinates":[[-121.88392,36.72923],[-121.9044,36.77829],[-121.91828,36.82867],[-121.92987,36.87067],[-121.94134,36.91164],[-121.95945,36.96955],[-121.9797,37.02039],[-121.99053,37.04789],[-122.00933,37.09574],[-122.0266,37.14055],[-122.04362,37.18422],[-122.05432,37.21152],[-122.07525,37.26491],[-122.07961,37.27597],[-122.10438,37.33905],[-122.11847,37.3749],[-122.13107,37.40863],[-122.13427,37.41828],[-122.14886,37.46282],[-122.15909,37.49251],[-122.16419,37.50744],[-122.19253,37.54127],[-122.22406,37.55525],[-122.25605,37.56873],[-122.2799,37.57875],[-122.3057,37.58963],[-122.31905,37.59525],[-122.34718,37.60699],[-122.35777,37.61141]],"type":"LineString"}
}
