{
  "id": 2014407319,
  "type": "Feature",
  "properties": {
    "geom:area": 0,
    "geom:bbox": "-122.362360,36.754230,-121.896600,37.613310",
    "geom:latitude": 37.22477395848283,
    "geom:longitude": -122.09185133455783,
    "src:alt_label": "swim-approach",
    "src:geom": "swim",
    "swim:elevations": [
      5450,
      5307,
      4909,
      4641,
      4303,
      4214,
      3755,
      3476,
      3201,
      3160,
      3102,
      2945,
      2813,
      2590,
      2558,
      2437,
      2267,
      2220,
      2202,
      2096,
      1965,
      1796,
      1608,
      1526,
      1524,
      1468,
      1395,
      1309,
      1217,
      1066,
      958,
      769,
      572,
      326,
      289,
      138,
      517
    ],
    "swim:geom": "approach",
    "swim:timestamps": [
      1766862957,
      1766862980,
      1766863016,
      1766863042,
      1766863075,
      1766863084,
      1766863132,
      1766863161,
      1766863198,
      1766863210,
      1766863224,
      1766863242,
      1766863260,
      1766863310,
      1766863320,
      1766863367,
      1766863398,
      1766863407,
      1766863410,
      1766863433,
      1766863460,
      1766863496,
      1766863525,
      1766863553,
      1766863564,
      1766863588,
      1766863597,
      1766863612,
      1766863636,
      1766863673,
      1766863687,
      1766863710,
      1766863743,
      1766863796,
      1766863806,
      1766863844,
      1766863881
    ],
    "wof:geomhash": "f1fa72d0f37420ee68cabd0a0bbda490",
    "wof:id": 2014407319,
    "wof:repo": "sfomuseum-data-flights-2025-12"
  },
  "bbox": [
    -122.36236,
    36.75423,
    -121.8966,
    37.61331
  ],
  "geometry": {"coordinates":[[-121.8966,36.75423],[-121.90706,36.78784],[-121.92293,36.84322],[-121.93338,36.88163],[-121.94694,36.9304],[-121.95079,36.94403],[-121.97637,37.01158],[-121.99191,37.05165],[-122.01134,37.10151],[-122.0176,37.1175],[-122.02439,37.1348],[-122.03287,37.15698],[-122.04115,37.17831],[-122.06334,37.23432],[-122.06708,37.2435],[-122.11732,37.27132],[-122.15625,37.28303],[-122.16759,37.28659],[-122.17127,37.28784],[-122.19106,37.30502],[-122.18429,37.33143],[-122.17159,37.36499],[-122.1699,37.39392],[-122.16894,37.42104],[-122.1686,37.43258],[-122.16784,37.45547],[-122.16776,37.46427],[-122.17448,37.47833],[-122.18885,37.49853],[-122.20851,37.52575],[-122.21573,37.53547],[-122.22685,37.55124],[-122.25337,37.5677],[-122.2983,37.58646],[-122.30562,37.5896],[-122.33506,37.60194],[-122.36236,37.61331]],"type":"LineString"}
}
