{
  "id": 2014414171,
  "type": "Feature",
  "properties": {
    "geom:area": 0,
    "geom:bbox": "-122.526670,37.625750,-121.446990,38.507680",
    "geom:latitude": 38.05289124453767,
    "geom:longitude": -122.0482941232823,
    "src:alt_label": "swim-takeoff",
    "src:geom": "swim",
    "swim:elevations": [
      122,
      152,
      553,
      974,
      1314,
      1582,
      1903,
      2519,
      2673,
      3094,
      3228,
      3482,
      3718,
      3801,
      4419,
      4724,
      4870,
      5324,
      5438,
      5682,
      6027,
      6163,
      6420,
      6800,
      6941,
      7334,
      7460,
      7691,
      7956
    ],
    "swim:geom": "takeoff",
    "swim:timestamps": [
      1766841059,
      1766841061,
      1766841092,
      1766841145,
      1766841197,
      1766841222,
      1766841245,
      1766841295,
      1766841305,
      1766841352,
      1766841376,
      1766841405,
      1766841431,
      1766841452,
      1766841505,
      1766841535,
      1766841546,
      1766841589,
      1766841606,
      1766841632,
      1766841674,
      1766841690,
      1766841724,
      1766841769,
      1766841785,
      1766841834,
      1766841854,
      1766841889,
      1766841925
    ],
    "wof:geomhash": "2770f59623a4b05c752985bdd08a40e4",
    "wof:id": 2014414171,
    "wof:repo": "sfomuseum-data-flights-2025-12"
  },
  "bbox": [
    -122.52667,
    37.62575,
    -121.44699,
    38.50768
  ],
  "geometry": {"coordinates":[[-122.39169,37.62575],[-122.39358,37.6265],[-122.42286,37.63913],[-122.47488,37.66166],[-122.52467,37.69725],[-122.52638,37.72716],[-122.52667,37.75465],[-122.48714,37.8003],[-122.47185,37.80348],[-122.39519,37.81767],[-122.35341,37.82563],[-122.30371,37.84443],[-122.26669,37.87228],[-122.23687,37.89658],[-122.15703,37.96109],[-122.11014,37.9987],[-122.0937,38.01192],[-122.02657,38.06568],[-121.99976,38.08715],[-121.95758,38.12091],[-121.89058,38.17448],[-121.86321,38.19633],[-121.80732,38.24086],[-121.72999,38.30237],[-121.70388,38.32312],[-121.61829,38.39094],[-121.58343,38.4184],[-121.51964,38.46359],[-121.44699,38.50768]],"type":"LineString"}
}
