{
  "id": 2014414661,
  "type": "Feature",
  "properties": {
    "geom:area": 0,
    "geom:bbox": "-122.349310,37.492160,-121.277040,37.610130",
    "geom:latitude": 37.54517116882444,
    "geom:longitude": -121.81773730786257,
    "src:alt_label": "swim-approach",
    "src:geom": "swim",
    "swim:elevations": [
      4233,
      4033,
      3931,
      3826,
      3577,
      3426,
      3283,
      3058,
      2921,
      2723,
      2514,
      2367,
      2234,
      2024,
      1953,
      1792,
      1394,
      1319,
      1097,
      884,
      731,
      638,
      570,
      547,
      377,
      176,
      63
    ],
    "swim:geom": "approach",
    "swim:timestamps": [
      1766917227,
      1766917257,
      1766917287,
      1766917305,
      1766917334,
      1766917357,
      1766917381,
      1766917421,
      1766917447,
      1766917479,
      1766917517,
      1766917546,
      1766917566,
      1766917610,
      1766917624,
      1766917659,
      1766917707,
      1766917717,
      1766917748,
      1766917792,
      1766917826,
      1766917857,
      1766917886,
      1766917890,
      1766917932,
      1766917978,
      1766918007
    ],
    "wof:geomhash": "b02205190a58aee62b34aff055e6c75e",
    "wof:id": 2014414661,
    "wof:repo": "sfomuseum-data-flights-2025-12"
  },
  "bbox": [
    -122.34931,
    37.49216,
    -121.27704,
    37.61013
  ],
  "geometry": {"coordinates":[[-121.27704,37.59083],[-121.33673,37.584],[-121.39377,37.57762],[-121.42476,37.57405],[-121.4763,37.56815],[-121.51494,37.56368],[-121.5553,37.55906],[-121.62203,37.55078],[-121.66313,37.54165],[-121.71395,37.52952],[-121.77272,37.51532],[-121.81675,37.50489],[-121.84697,37.49764],[-121.91481,37.49216],[-121.93722,37.49264],[-121.98806,37.49566],[-122.05356,37.51608],[-122.06765,37.52061],[-122.1069,37.53328],[-122.15517,37.54897],[-122.19043,37.56033],[-122.221,37.57029],[-122.248,37.57896],[-122.25153,37.58008],[-122.28782,37.59086],[-122.32621,37.60217],[-122.34931,37.61013]],"type":"LineString"}
}
