{
  "id": 2014417909,
  "type": "Feature",
  "properties": {
    "date:cessation_lower": "2025-12-28",
    "date:cessation_upper": "2025-12-28",
    "date:inception_lower": "1970-01-01",
    "date:inception_upper": "1970-01-01",
    "edtf:cessation": "2025-12-28T03:44:39-08:00",
    "edtf:inception": "1970-01-01T00:00:00Z",
    "flysfo:actual_timestamp": -1,
    "flysfo:airline": "UA",
    "flysfo:base_airline": "",
    "flysfo:base_flight_number": "6182",
    "flysfo:date": "2025-12-28",
    "flysfo:estimated_timestamp": 1766951340,
    "flysfo:event": "A",
    "flysfo:flight_number": "UA1791",
    "flysfo:gate": "E8",
    "flysfo:journey": "LAX-SFO",
    "flysfo:scheduled_timestamp": 1766952000,
    "flysfo:timestamp": 1766952000,
    "geom:area": 0,
    "geom:bbox": "-122.370943,33.942593,-118.389510,37.617990",
    "geom:latitude": 35.780291500000004,
    "geom:longitude": -120.38022649999999,
    "iata:airline": "UA",
    "iata:base_airline": "",
    "icao:aircraft": "B738",
    "icao:airline": "UAL",
    "icao:base_airline": "UAE",
    "lbl:latitude": 37.619197,
    "lbl:longitude": -122.384496,
    "sfomuseum:aircraft_id": 1159289871,
    "sfomuseum:airline_id": 1159285413,
    "sfomuseum:arrival_id": 102527513,
    "sfomuseum:base_flight_id": "20251228-A-UAE-6182",
    "sfomuseum:departure_id": 102533795,
    "sfomuseum:flight_id": "20251228-A-UAL-1791",
    "sfomuseum:flight_number": [
      "UAL1791",
      "UA1791"
    ],
    "sfomuseum:placetype": "flight",
    "src:geom": "flysfo",
    "src:geom_alt": [
      "swim-approach"
    ],
    "swim:tail_number": "N77542",
    "wof:belongsto": [
      1947304067,
      102527513,
      1947304511,
      102191575,
      85633793,
      102087579,
      85922583,
      554784711,
      85688637,
      1947304515,
      1947304447,
      102085387
    ],
    "wof:country": "US",
    "wof:created": 1767024500,
    "wof:geomhash": "f16008bc2ad68c6d1bc593247c6c74a9",
    "wof:hierarchy": [
      {
        "building_id": 1947304067,
        "campus_id": 102527513,
        "concourse_id": 1947304511,
        "continent_id": 102191575,
        "country_id": 85633793,
        "county_id": 102087579,
        "custom_id": 2014417909,
        "flight_id": 2014417909,
        "locality_id": 85922583,
        "postalcode_id": 554784711,
        "region_id": 85688637,
        "venue_id": 1947304515,
        "wing_id": 1947304447
      },
      {
        "building_id": 1947304067,
        "campus_id": 102527513,
        "concourse_id": 1947304511,
        "continent_id": 102191575,
        "country_id": 85633793,
        "county_id": 102085387,
        "custom_id": 2014417909,
        "flight_id": 2014417909,
        "region_id": 85688637,
        "venue_id": 1947304515,
        "wing_id": 1947304447
      }
    ],
    "wof:id": 2014417909,
    "wof:involves": [
      1159285413,
      1947304515,
      1159284333,
      1159289871,
      102527513,
      102533795
    ],
    "wof:lastmodified": 1767025114,
    "wof:name": "UA1791 (LAX-SFO)",
    "wof:parent_id": 1947304515,
    "wof:placetype": "custom",
    "wof:placetype_alt": [
      "flight"
    ],
    "wof:repo": "sfomuseum-data-flights-2025-12",
    "wof:superseded_by": [],
    "wof:supersedes": []
  },
  "bbox": [
    -122.370943,
    33.942593,
    -118.38951,
    37.61799
  ],
  "geometry": {"coordinates":[[-118.38951,33.942593],[-122.370943,37.61799]],"type":"MultiPoint"}
}
