{
  "id": 2014417103,
  "type": "Feature",
  "properties": {
    "geom:area": 0,
    "geom:bbox": "-122.636870,37.427520,-122.038390,38.500580",
    "geom:latitude": 37.876353033912366,
    "geom:longitude": -122.34719262121928,
    "src:alt_label": "swim-approach",
    "src:geom": "swim",
    "swim:elevations": [
      8016,
      7594,
      7237,
      7138,
      6628,
      6348,
      6205,
      5866,
      5760,
      5439,
      5282,
      5126,
      4787,
      4371,
      4019,
      3784,
      3513,
      3446,
      3411,
      3354,
      3353,
      3353,
      3353,
      3353,
      3270,
      3176,
      2947,
      2650,
      2502,
      2224,
      2020,
      1704,
      1534,
      1332,
      1227,
      1222,
      1219,
      1061,
      757,
      623,
      578,
      363,
      273,
      137,
      133
    ],
    "swim:geom": "approach",
    "swim:timestamps": [
      1766968721,
      1766968762,
      1766968798,
      1766968807,
      1766968858,
      1766968886,
      1766968900,
      1766968936,
      1766968945,
      1766968978,
      1766968999,
      1766969011,
      1766969044,
      1766969086,
      1766969123,
      1766969148,
      1766969187,
      1766969203,
      1766969216,
      1766969240,
      1766969277,
      1766969295,
      1766969336,
      1766969348,
      1766969398,
      1766969416,
      1766969458,
      1766969486,
      1766969506,
      1766969546,
      1766969570,
      1766969594,
      1766969612,
      1766969636,
      1766969657,
      1766969682,
      1766969714,
      1766969749,
      1766969788,
      1766969811,
      1766969820,
      1766969864,
      1766969886,
      1766969920,
      1766969953
    ],
    "wof:geomhash": "45ca46c52f580a8a54d26b7b3c543909",
    "wof:id": 2014417103,
    "wof:repo": "sfomuseum-data-flights-2025-12"
  },
  "bbox": [
    -122.63687,
    37.42752,
    -122.03839,
    38.50058
  ],
  "geometry": {"coordinates":[[-122.03839,38.50058],[-122.11299,38.42983],[-122.17693,38.36963],[-122.19262,38.35477],[-122.2803,38.27232],[-122.32754,38.22779],[-122.35104,38.20545],[-122.40956,38.14995],[-122.424,38.13627],[-122.47648,38.08648],[-122.50962,38.05503],[-122.52858,38.03702],[-122.58046,37.98756],[-122.63687,37.92191],[-122.62845,37.85949],[-122.59751,37.82847],[-122.5504,37.78439],[-122.53299,37.76759],[-122.51888,37.75405],[-122.49347,37.72982],[-122.4539,37.69266],[-122.43457,37.67453],[-122.39162,37.63406],[-122.37883,37.622],[-122.33732,37.5652],[-122.32712,37.54436],[-122.30285,37.50008],[-122.28083,37.47563],[-122.25743,37.46538],[-122.2122,37.44763],[-122.18591,37.43712],[-122.15984,37.42752],[-122.13957,37.42822],[-122.12325,37.44452],[-122.119,37.46345],[-122.13474,37.48478],[-122.15875,37.50921],[-122.18481,37.53508],[-122.22239,37.55657],[-122.24615,37.56679],[-122.25465,37.57042],[-122.29164,37.58606],[-122.30968,37.59361],[-122.33532,37.60438],[-122.36061,37.61494]],"type":"LineString"}
}
