{
  "id": 2014408623,
  "type": "Feature",
  "properties": {
    "geom:area": 0,
    "geom:bbox": "-122.758590,37.447780,-122.148920,38.494090",
    "geom:latitude": 37.84248693378854,
    "geom:longitude": -122.50247648128428,
    "src:alt_label": "swim-approach",
    "src:geom": "swim",
    "swim:elevations": [
      7315,
      7286,
      6978,
      6865,
      6816,
      6434,
      6379,
      6044,
      5923,
      5657,
      5417,
      5324,
      4982,
      4791,
      4630,
      3982,
      3719,
      3396,
      3353,
      3353,
      3353,
      3353,
      3354,
      3052,
      2906,
      2579,
      2409,
      1933,
      1729,
      1397,
      1120,
      1014,
      785,
      763,
      603,
      476,
      401,
      268,
      196,
      81
    ],
    "swim:geom": "approach",
    "swim:timestamps": [
      1766840329,
      1766840354,
      1766840396,
      1766840404,
      1766840408,
      1766840456,
      1766840465,
      1766840512,
      1766840525,
      1766840563,
      1766840597,
      1766840611,
      1766840660,
      1766840684,
      1766840702,
      1766840757,
      1766840776,
      1766840811,
      1766840844,
      1766840862,
      1766840893,
      1766840934,
      1766840943,
      1766840978,
      1766841000,
      1766841042,
      1766841061,
      1766841114,
      1766841137,
      1766841186,
      1766841234,
      1766841245,
      1766841295,
      1766841301,
      1766841356,
      1766841381,
      1766841397,
      1766841433,
      1766841452,
      1766841481
    ],
    "wof:geomhash": "0981e0542d1e9c57fbb81df9e4724545",
    "wof:id": 2014408623,
    "wof:repo": "sfomuseum-data-flights-2025-12"
  },
  "bbox": [
    -122.75859,
    37.44778,
    -122.14892,
    38.49409
  ],
  "geometry": {"coordinates":[[-122.69194,38.49409],[-122.70496,38.44741],[-122.72578,38.37325],[-122.72977,38.35886],[-122.7314,38.35308],[-122.75439,38.27055],[-122.75859,38.25547],[-122.75393,38.17886],[-122.74781,38.1581],[-122.73022,38.09665],[-122.71448,38.04227],[-122.7082,38.02081],[-122.68542,37.94222],[-122.67343,37.90484],[-122.65506,37.88209],[-122.58571,37.81703],[-122.56317,37.79563],[-122.52153,37.75629],[-122.48384,37.72027],[-122.46514,37.70268],[-122.43215,37.67185],[-122.39197,37.6341],[-122.38395,37.62651],[-122.35335,37.593],[-122.33949,37.56725],[-122.31236,37.52096],[-122.29358,37.50415],[-122.23877,37.46043],[-122.2102,37.44828],[-122.14892,37.44778],[-122.15108,37.4926],[-122.15701,37.50302],[-122.19577,37.54191],[-122.20082,37.54591],[-122.25251,37.56949],[-122.27356,37.57838],[-122.28538,37.58339],[-122.31148,37.59434],[-122.32496,37.59999],[-122.3457,37.60874]],"type":"LineString"}
}
