{
  "id": 2014445689,
  "type": "Feature",
  "properties": {
    "geom:area": 0,
    "geom:bbox": "-122.361940,37.635340,-122.114180,38.513450",
    "geom:latitude": 38.018195121855406,
    "geom:longitude": -122.2140730111195,
    "src:alt_label": "swim-takeoff",
    "src:geom": "swim",
    "swim:elevations": [
      233,
      565,
      633,
      824,
      946,
      1208,
      1790,
      2005,
      2236,
      2885,
      3310,
      3527,
      3825,
      4351,
      4769,
      5088,
      5387,
      5797,
      6062,
      6256,
      6678,
      7203,
      7315,
      7315,
      323,
      440,
      568,
      684,
      908,
      1478,
      1984,
      2370
    ],
    "swim:geom": "takeoff",
    "swim:timestamps": [
      1767174197,
      1767174230,
      1767174242,
      1767174276,
      1767174290,
      1767174315,
      1767174357,
      1767174372,
      1767174390,
      1767174437,
      1767174474,
      1767174505,
      1767174526,
      1767174563,
      1767174594,
      1767174618,
      1767174641,
      1767174669,
      1767174686,
      1767174696,
      1767174725,
      1767174773,
      1767174806,
      1767174813,
      1767252258,
      1767252270,
      1767252291,
      1767252312,
      1767252330,
      1767252384,
      1767252417,
      1767252441
    ],
    "wof:geomhash": "f2da243aa3992a814f11aef7add9a340",
    "wof:id": 2014445689,
    "wof:repo": "sfomuseum-data-flights-2025-12"
  },
  "bbox": [
    -122.36194,
    37.63534,
    -122.11418,
    38.51345
  ],
  "geometry": {"coordinates":[[-122.36194,37.63534],[-122.33766,37.65002],[-122.32683,37.65574],[-122.29217,37.67585],[-122.27618,37.68518],[-122.24556,37.70307],[-122.21023,37.744],[-122.20772,37.76413],[-122.20303,37.78805],[-122.19234,37.85271],[-122.18425,37.90516],[-122.17572,37.95372],[-122.1697,37.99002],[-122.15943,38.05257],[-122.15034,38.10671],[-122.14349,38.14951],[-122.13633,38.19255],[-122.12793,38.24444],[-122.1226,38.27733],[-122.11957,38.29566],[-122.11418,38.34831],[-122.11998,38.43842],[-122.12414,38.5002],[-122.12509,38.51345],[-122.35652,37.63965],[-122.34703,37.64561],[-122.32821,37.65622],[-122.30586,37.66807],[-122.28433,37.68039],[-122.21785,37.722],[-122.20643,37.76672],[-122.20068,37.79997]],"type":"LineString"}
}
