{
  "id": 2014429451,
  "type": "Feature",
  "properties": {
    "date:inception_lower": "2025-12-29",
    "date:inception_upper": "2025-12-29",
    "edtf:cessation": "",
    "edtf:inception": "2025-12-29",
    "flysfo:actual_timestamp": -1,
    "flysfo:airline": "F9",
    "flysfo:date": "2025-12-29",
    "flysfo:estimated_timestamp": 1767053160,
    "flysfo:event": "D",
    "flysfo:flight_number": "F94156",
    "flysfo:gate": "",
    "flysfo:journey": "SFO-LAS",
    "flysfo:scheduled_timestamp": 1767053160,
    "flysfo:timestamp": 1767053160,
    "geom:area": 0,
    "geom:bbox": "-122.370943,36.081003,-115.156440,37.617990",
    "geom:latitude": 36.8494965,
    "geom:longitude": -118.7636915,
    "iata:airline": "F9",
    "icao:airline": "FFT",
    "lbl:latitude": 37.61799,
    "lbl:longitude": -122.370943,
    "sfomuseum:airline_id": 1159284401,
    "sfomuseum:arrival_id": 102527209,
    "sfomuseum:departure_id": 102527513,
    "sfomuseum:flight_id": "20251229-D-FFT-4156",
    "sfomuseum:flight_number": [
      "FFT4156",
      "F94156"
    ],
    "sfomuseum:placetype": "flight",
    "src:geom": "flysfo",
    "wof:belongsto": [],
    "wof:country": "US",
    "wof:created": 1767111239,
    "wof:geomhash": "ccf694144ef1f7a2823fe9bc7c6018ea",
    "wof:hierarchy": [
      {
        "custom_id": 2014429451,
        "flight_id": 2014429451
      }
    ],
    "wof:id": 2014429451,
    "wof:involves": [
      102527209,
      102527513,
      1159284401,
      -1
    ],
    "wof:lastmodified": 1767111239,
    "wof:name": "F94156 (SFO-LAS)",
    "wof:parent_id": -1,
    "wof:placetype": "custom",
    "wof:placetype_alt": [
      "flight"
    ],
    "wof:repo": "sfomuseum-data-flights-2025-12",
    "wof:superseded_by": [],
    "wof:supersedes": []
  },
  "bbox": [
    -122.370943,
    36.081003,
    -115.15644,
    37.61799
  ],
  "geometry": {"coordinates":[[-122.370943,37.61799],[-115.15644,36.081003]],"type":"MultiPoint"}
}
