{
  "id": 2014437461,
  "type": "Feature",
  "properties": {
    "geom:area": 0,
    "geom:bbox": "-122.365030,37.630580,-121.268760,38.078300",
    "geom:latitude": 37.87764660954015,
    "geom:longitude": -121.8262619690605,
    "src:alt_label": "swim-takeoff",
    "src:geom": "swim",
    "swim:elevations": [
      152,
      447,
      728,
      1055,
      1224,
      1751,
      2174,
      2611,
      2955,
      3134,
      3393,
      3523,
      3852,
      4064,
      4460,
      4743,
      5098,
      5159,
      5540,
      5800,
      5933,
      6286,
      6577,
      6806
    ],
    "swim:geom": "takeoff",
    "swim:timestamps": [
      1767130063,
      1767130083,
      1767130131,
      1767130168,
      1767130179,
      1767130214,
      1767130250,
      1767130284,
      1767130313,
      1767130328,
      1767130362,
      1767130374,
      1767130406,
      1767130426,
      1767130459,
      1767130491,
      1767130524,
      1767130533,
      1767130577,
      1767130609,
      1767130628,
      1767130669,
      1767130701,
      1767130728
    ],
    "wof:geomhash": "27bc401be641db930cdc013148191399",
    "wof:id": 2014437461,
    "wof:repo": "sfomuseum-data-flights-2025-12"
  },
  "bbox": [
    -122.36503,
    37.63058,
    -121.26876,
    38.0783
  ],
  "geometry": {"coordinates":[[-122.36503,37.63058],[-122.35303,37.64273],[-122.3089,37.66639],[-122.26501,37.69134],[-122.25099,37.69892],[-122.20656,37.72183],[-122.15664,37.74508],[-122.10722,37.76542],[-122.0632,37.78381],[-122.04019,37.79357],[-121.98528,37.81657],[-121.96475,37.82502],[-121.9088,37.84825],[-121.87262,37.86337],[-121.81204,37.8883],[-121.75421,37.91216],[-121.6911,37.93827],[-121.6739,37.94538],[-121.58857,37.98046],[-121.52613,38.00612],[-121.48768,38.02185],[-121.40143,38.05297],[-121.32991,38.06694],[-121.26876,38.0783]],"type":"LineString"}
}
