{
  "id": 2014437507,
  "type": "Feature",
  "properties": {
    "geom:area": 0,
    "geom:bbox": "-122.366920,37.627890,-122.133960,38.484540",
    "geom:latitude": 38.0225489925732,
    "geom:longitude": -122.18600808782962,
    "src:alt_label": "swim-takeoff",
    "src:geom": "swim",
    "swim:elevations": [
      91,
      302,
      632,
      894,
      1196,
      1277,
      1924,
      2235,
      2844,
      3175,
      3303,
      3656,
      4221,
      4307,
      4816,
      5054,
      5216,
      5601,
      5699,
      6059,
      6497,
      6797,
      6959
    ],
    "swim:geom": "takeoff",
    "swim:timestamps": [
      1767117177,
      1767117192,
      1767117236,
      1767117265,
      1767117296,
      1767117303,
      1767117345,
      1767117364,
      1767117407,
      1767117440,
      1767117457,
      1767117491,
      1767117537,
      1767117545,
      1767117581,
      1767117602,
      1767117620,
      1767117657,
      1767117666,
      1767117695,
      1767117735,
      1767117764,
      1767117780
    ],
    "wof:geomhash": "0f529888fb9b0227f91acbfd14e163e0",
    "wof:id": 2014437507,
    "wof:repo": "sfomuseum-data-flights-2025-12"
  },
  "bbox": [
    -122.36692,
    37.62789,
    -122.13396,
    38.48454
  ],
  "geometry": {"coordinates":[[-122.36692,37.62789],[-122.36002,37.63806],[-122.32174,37.65977],[-122.28897,37.67743],[-122.25173,37.69859],[-122.24239,37.7037],[-122.20795,37.74886],[-122.20363,37.7753],[-122.19566,37.83272],[-122.18821,37.87975],[-122.18364,37.90605],[-122.17481,37.95996],[-122.16195,38.03556],[-122.15999,38.04824],[-122.1505,38.11108],[-122.14512,38.14838],[-122.1403,38.18031],[-122.13882,38.24982],[-122.13895,38.26596],[-122.13912,38.32045],[-122.1365,38.39827],[-122.13475,38.45368],[-122.13396,38.48454]],"type":"LineString"}
}
