{
  "id": 2014417819,
  "type": "Feature",
  "properties": {
    "geom:area": 0,
    "geom:bbox": "-122.360570,37.177820,-122.041610,37.612540",
    "geom:latitude": 37.42997133464826,
    "geom:longitude": -122.16465522963325,
    "src:alt_label": "swim-approach",
    "src:geom": "swim",
    "swim:elevations": [
      2474,
      2438,
      2438,
      2438,
      2297,
      2144,
      1864,
      1573,
      1317,
      1174,
      1124,
      1006,
      880,
      777,
      575,
      334,
      182,
      114,
      0
    ],
    "swim:geom": "approach",
    "swim:timestamps": [
      1766938643,
      1766938676,
      1766938694,
      1766938726,
      1766938750,
      1766938773,
      1766938817,
      1766938854,
      1766938880,
      1766938915,
      1766938925,
      1766938959,
      1766939008,
      1766939022,
      1766939060,
      1766939121,
      1766939155,
      1766939170,
      1766939198
    ],
    "wof:geomhash": "6a0e2daa762a1409fe3f6bc69d3f15e5",
    "wof:id": 2014417819,
    "wof:repo": "sfomuseum-data-flights-2025-12"
  },
  "bbox": [
    -122.36057,
    37.17782,
    -122.04161,
    37.61254
  ],
  "geometry": {"coordinates":[[-122.04161,37.17782],[-122.05693,37.21667],[-122.06571,37.23924],[-122.07987,37.2752],[-122.09019,37.30141],[-122.09964,37.32526],[-122.11633,37.36767],[-122.12846,37.40225],[-122.13693,37.42677],[-122.14855,37.46066],[-122.15166,37.46987],[-122.16238,37.50142],[-122.19262,37.54141],[-122.20912,37.54874],[-122.24937,37.56595],[-122.30597,37.58945],[-122.33055,37.59997],[-122.34128,37.60462],[-122.36057,37.61254]],"type":"LineString"}
}
