{
  "id": 2014417505,
  "type": "Feature",
  "properties": {
    "geom:area": 0,
    "geom:bbox": "-122.763400,37.641330,-122.257740,38.464960",
    "geom:latitude": 37.982338493566715,
    "geom:longitude": -122.61193378954053,
    "src:alt_label": "swim-approach",
    "src:geom": "swim",
    "swim:elevations": [
      6962,
      6856,
      6522,
      6336,
      5961,
      5743,
      5669,
      5442,
      5301,
      5081,
      4652,
      4361,
      4191,
      3951,
      3538,
      3376,
      3353,
      3299,
      3022,
      2749,
      2621,
      2292
    ],
    "swim:geom": "approach",
    "swim:timestamps": [
      1766932255,
      1766932264,
      1766932301,
      1766932324,
      1766932366,
      1766932389,
      1766932411,
      1766932455,
      1766932478,
      1766932505,
      1766932553,
      1766932575,
      1766932590,
      1766932632,
      1766932662,
      1766932682,
      1766932719,
      1766932749,
      1766932785,
      1766932816,
      1766932831,
      1766932861
    ],
    "wof:geomhash": "971daa5195ab42c3ade1f8101604cbcf",
    "wof:id": 2014417505,
    "wof:repo": "sfomuseum-data-flights-2025-12"
  },
  "bbox": [
    -122.7634,
    37.64133,
    -122.25774,
    38.46496
  ],
  "geometry": {"coordinates":[[-122.70026,38.46496],[-122.70584,38.4449],[-122.72762,38.36678],[-122.74117,38.31831],[-122.7634,38.23389],[-122.75723,38.186],[-122.74304,38.14245],[-122.71943,38.05981],[-122.70734,38.01778],[-122.69354,37.96952],[-122.66341,37.88917],[-122.63087,37.85969],[-122.61113,37.84183],[-122.55767,37.7904],[-122.52441,37.75892],[-122.50101,37.73678],[-122.45187,37.70609],[-122.40964,37.69187],[-122.35874,37.6746],[-122.31682,37.66035],[-122.29789,37.65398],[-122.25774,37.64133]],"type":"LineString"}
}
