{
  "id": 2014436135,
  "type": "Feature",
  "properties": {
    "geom:area": 0,
    "geom:bbox": "-122.762860,37.444360,-122.141060,38.487600",
    "geom:latitude": 37.83598435629475,
    "geom:longitude": -122.49999158336344,
    "src:alt_label": "swim-approach",
    "src:geom": "swim",
    "swim:elevations": [
      8054,
      7927,
      7801,
      7471,
      7178,
      6759,
      6453,
      6077,
      5893,
      5632,
      5237,
      4889,
      4493,
      4101,
      3878,
      3697,
      3412,
      3349,
      3356,
      3357,
      3353,
      3353,
      3085,
      2983,
      2803,
      2541,
      2189,
      1996,
      1779,
      1611,
      1365,
      1208,
      947,
      938,
      811,
      667,
      517,
      211,
      131,
      43
    ],
    "swim:geom": "approach",
    "swim:timestamps": [
      1767094223,
      1767094246,
      1767094271,
      1767094315,
      1767094341,
      1767094377,
      1767094402,
      1767094434,
      1767094450,
      1767094475,
      1767094516,
      1767094546,
      1767094579,
      1767094617,
      1767094639,
      1767094655,
      1767094695,
      1767094735,
      1767094763,
      1767094786,
      1767094823,
      1767094837,
      1767094888,
      1767094902,
      1767094929,
      1767094962,
      1767094998,
      1767095019,
      1767095050,
      1767095073,
      1767095109,
      1767095131,
      1767095182,
      1767095206,
      1767095234,
      1767095262,
      1767095293,
      1767095361,
      1767095384,
      1767095409
    ],
    "wof:geomhash": "294f37bfee5595829c6d4f9448f19f08",
    "wof:id": 2014436135,
    "wof:repo": "sfomuseum-data-flights-2025-12"
  },
  "bbox": [
    -122.76286,
    37.44436,
    -122.14106,
    38.4876
  ],
  "geometry": {"coordinates":[[-122.69466,38.4876],[-122.7063,38.44614],[-122.7182,38.40244],[-122.7395,38.32544],[-122.75199,38.28109],[-122.76286,38.22144],[-122.75367,38.17822],[-122.7387,38.12574],[-122.73127,38.09987],[-122.72,38.06025],[-122.70064,37.99418],[-122.68675,37.9467],[-122.6669,37.89682],[-122.6207,37.85003],[-122.59354,37.82414],[-122.57372,37.80533],[-122.52549,37.75998],[-122.48266,37.7196],[-122.45527,37.69397],[-122.43448,37.67444],[-122.401,37.64284],[-122.38877,37.63133],[-122.35001,37.58734],[-122.34298,37.57299],[-122.33098,37.54637],[-122.31492,37.51531],[-122.29534,37.48282],[-122.27203,37.47019],[-122.23512,37.45837],[-122.20629,37.44989],[-122.16293,37.44436],[-122.14106,37.46037],[-122.15973,37.51057],[-122.17688,37.53009],[-122.20193,37.54624],[-122.23046,37.55793],[-122.2624,37.57135],[-122.31909,37.59527],[-122.33565,37.60216],[-122.35364,37.60973]],"type":"LineString"}
}
