{
  "id": 2014413657,
  "type": "Feature",
  "properties": {
    "geom:area": 0,
    "geom:bbox": "-122.509290,36.736200,-121.360880,37.678000",
    "geom:latitude": 37.180267257442516,
    "geom:longitude": -122.04239305738658,
    "src:alt_label": "swim-takeoff",
    "src:geom": "swim",
    "swim:elevations": [
      309,
      435,
      967,
      1094,
      1251,
      1324,
      1914,
      2560,
      2901,
      3105,
      3507,
      3815,
      4115,
      4181,
      4880,
      5072,
      5475,
      5612,
      5841,
      5960,
      6480,
      6846,
      7062,
      7153,
      7408,
      7683,
      7882,
      8233,
      8673,
      8771,
      8839,
      8839
    ],
    "swim:geom": "takeoff",
    "swim:timestamps": [
      1766860886,
      1766860896,
      1766860943,
      1766860968,
      1766861007,
      1766861020,
      1766861057,
      1766861093,
      1766861121,
      1766861136,
      1766861175,
      1766861216,
      1766861246,
      1766861252,
      1766861306,
      1766861321,
      1766861358,
      1766861387,
      1766861418,
      1766861431,
      1766861476,
      1766861518,
      1766861546,
      1766861560,
      1766861594,
      1766861628,
      1766861649,
      1766861676,
      1766861728,
      1766861740,
      1766861777,
      1766861798
    ],
    "wof:geomhash": "eb15d7e12141467d1ddf51c0ab5bacd6",
    "wof:id": 2014413657,
    "wof:repo": "sfomuseum-data-flights-2025-12"
  },
  "bbox": [
    -122.50929,
    36.7362,
    -121.36088,
    37.678
  ],
  "geometry": {"coordinates":[[-122.36385,37.63842],[-122.36241,37.64537],[-122.36845,37.67641],[-122.39183,37.678],[-122.42265,37.64669],[-122.43377,37.633],[-122.46703,37.59304],[-122.49178,37.55],[-122.50338,37.51353],[-122.50929,37.49329],[-122.49648,37.43926],[-122.46024,37.38059],[-122.41222,37.34723],[-122.40132,37.34186],[-122.30276,37.29182],[-122.27673,37.27621],[-122.21107,37.23707],[-122.15858,37.20689],[-122.09942,37.17131],[-122.07442,37.1566],[-121.98755,37.10652],[-121.90603,37.0592],[-121.85364,37.02851],[-121.82418,37.01122],[-121.7571,36.97171],[-121.6891,36.93181],[-121.64736,36.90724],[-121.59449,36.87564],[-121.49434,36.81586],[-121.47186,36.80248],[-121.40126,36.76055],[-121.36088,36.7362]],"type":"LineString"}
}
