{
  "id": 2014435403,
  "type": "Feature",
  "properties": {
    "geom:area": 0,
    "geom:bbox": "-122.756300,37.415510,-122.140170,38.497860",
    "geom:latitude": 37.856704289344414,
    "geom:longitude": -122.48370359843025,
    "src:alt_label": "swim-approach",
    "src:geom": "swim",
    "swim:elevations": [
      8522,
      8303,
      7942,
      7370,
      7127,
      6908,
      6443,
      6174,
      6079,
      5697,
      5515,
      5320,
      4898,
      4720,
      4317,
      4225,
      3832,
      3682,
      3409,
      3389,
      3353,
      3353,
      3353,
      3353,
      3326,
      3198,
      3027,
      2739,
      2626,
      2223,
      2100,
      1876,
      1692,
      1432,
      1264,
      1174,
      1070,
      972,
      892,
      615,
      574,
      361,
      209,
      180,
      181
    ],
    "swim:geom": "approach",
    "swim:timestamps": [
      1767114914,
      1767114933,
      1767114965,
      1767115016,
      1767115038,
      1767115059,
      1767115105,
      1767115130,
      1767115140,
      1767115176,
      1767115194,
      1767115219,
      1767115254,
      1767115272,
      1767115316,
      1767115326,
      1767115370,
      1767115386,
      1767115435,
      1767115440,
      1767115486,
      1767115525,
      1767115537,
      1767115577,
      1767115606,
      1767115627,
      1767115660,
      1767115701,
      1767115719,
      1767115768,
      1767115789,
      1767115824,
      1767115850,
      1767115886,
      1767115916,
      1767115941,
      1767115968,
      1767115991,
      1767116013,
      1767116066,
      1767116075,
      1767116123,
      1767116156,
      1767116165,
      1767116214
    ],
    "wof:geomhash": "6df477b56df7c66b6e5310affe5b8ce5",
    "wof:id": 2014435403,
    "wof:repo": "sfomuseum-data-flights-2025-12"
  },
  "bbox": [
    -122.7563,
    37.41551,
    -122.14017,
    38.49786
  ],
  "geometry": {"coordinates":[[-122.48679,38.49786],[-122.51594,38.47],[-122.56332,38.4242],[-122.63921,38.34965],[-122.67121,38.31842],[-122.69994,38.29042],[-122.7563,38.22475],[-122.75518,38.18304],[-122.75039,38.16678],[-122.7338,38.10819],[-122.72556,38.07969],[-122.71388,38.03999],[-122.69802,37.98539],[-122.69043,37.95892],[-122.66433,37.89338],[-122.65378,37.88132],[-122.6,37.83029],[-122.58098,37.81235],[-122.5247,37.75942],[-122.51915,37.75415],[-122.47222,37.70981],[-122.43788,37.67758],[-122.42754,37.66778],[-122.39343,37.63572],[-122.36828,37.61181],[-122.35345,37.59235],[-122.33746,37.5593],[-122.3153,37.52151],[-122.30533,37.50503],[-122.27779,37.46003],[-122.26537,37.44092],[-122.22608,37.42464],[-122.19627,37.41551],[-122.15337,37.41958],[-122.14017,37.44885],[-122.14536,37.47585],[-122.16568,37.49935],[-122.18176,37.51741],[-122.1969,37.53401],[-122.24221,37.5628],[-122.25041,37.56645],[-122.29303,37.58425],[-122.31909,37.59522],[-122.32684,37.59843],[-122.36764,37.61478]],"type":"LineString"}
}
