{
  "id": 2014430537,
  "type": "Feature",
  "properties": {
    "geom:area": 0,
    "geom:bbox": "-122.468820,36.738260,-121.323930,37.717430",
    "geom:latitude": 37.226626998940034,
    "geom:longitude": -122.01046564935262,
    "src:alt_label": "swim-takeoff",
    "src:geom": "swim",
    "swim:elevations": [
      122,
      337,
      866,
      1095,
      1232,
      1518,
      1755,
      2087,
      2437,
      2674,
      3090,
      3124,
      3373,
      3591,
      3725,
      3893,
      4367,
      4467,
      4667,
      4964,
      5145,
      5314,
      5575,
      5813,
      6125,
      6175,
      6554,
      6750,
      6948,
      7010,
      7010,
      7010,
      7153,
      7331,
      7560
    ],
    "swim:geom": "takeoff",
    "swim:timestamps": [
      1766998618,
      1766998630,
      1766998673,
      1766998708,
      1766998735,
      1766998763,
      1766998787,
      1766998814,
      1766998843,
      1766998862,
      1766998893,
      1766998896,
      1766998937,
      1766998972,
      1766999000,
      1766999018,
      1766999060,
      1766999070,
      1766999095,
      1766999123,
      1766999141,
      1766999164,
      1766999211,
      1766999239,
      1766999273,
      1766999280,
      1766999332,
      1766999361,
      1766999397,
      1766999421,
      1766999448,
      1766999476,
      1766999503,
      1766999527,
      1766999559
    ],
    "wof:geomhash": "9b38d86ac331d85d711a7e7e7d8e2484",
    "wof:id": 2014430537,
    "wof:repo": "sfomuseum-data-flights-2025-12"
  },
  "bbox": [
    -122.46882,
    36.73826,
    -121.32393,
    37.71743
  ],
  "geometry": {"coordinates":[[-122.36775,37.63114],[-122.3637,37.63997],[-122.36216,37.6716],[-122.36809,37.70076],[-122.39588,37.71743],[-122.43379,37.71433],[-122.4564,37.69309],[-122.46094,37.66006],[-122.46342,37.62137],[-122.46503,37.59746],[-122.46838,37.55434],[-122.46882,37.55023],[-122.46355,37.49052],[-122.41574,37.4518],[-122.36996,37.42326],[-122.33886,37.40311],[-122.26641,37.3554],[-122.24855,37.34431],[-122.20452,37.31639],[-122.15494,37.28377],[-122.12195,37.26232],[-122.08047,37.23501],[-121.99275,37.17891],[-121.94191,37.14566],[-121.87791,37.10291],[-121.86541,37.09467],[-121.7672,37.03108],[-121.71052,36.99359],[-121.64076,36.94791],[-121.59338,36.91704],[-121.53973,36.88172],[-121.48489,36.84513],[-121.4335,36.81117],[-121.38622,36.77971],[-121.32393,36.73826]],"type":"LineString"}
}
