{
  "id": 2014429845,
  "type": "Feature",
  "properties": {
    "geom:area": 0,
    "geom:bbox": "-122.526050,37.624440,-121.295200,37.969890",
    "geom:latitude": 37.863068525237644,
    "geom:longitude": -122.00867457614274,
    "src:alt_label": "swim-takeoff",
    "src:geom": "swim",
    "swim:elevations": [
      122,
      532,
      896,
      987,
      1097,
      1786,
      1972,
      2606,
      3203,
      3248,
      3508,
      3565,
      4013,
      4163,
      4598,
      4837,
      5068,
      5265,
      5476,
      5517,
      5811,
      6129,
      6342,
      6416,
      6738,
      6826
    ],
    "swim:geom": "takeoff",
    "swim:timestamps": [
      1767015585,
      1767015621,
      1767015680,
      1767015687,
      1767015696,
      1767015744,
      1767015757,
      1767015805,
      1767015862,
      1767015870,
      1767015926,
      1767015942,
      1767015984,
      1767016003,
      1767016048,
      1767016077,
      1767016104,
      1767016127,
      1767016166,
      1767016171,
      1767016211,
      1767016253,
      1767016284,
      1767016293,
      1767016346,
      1767016359
    ],
    "wof:geomhash": "33538bc08ccb519c821e3a31e2da408a",
    "wof:id": 2014429845,
    "wof:repo": "sfomuseum-data-flights-2025-12"
  },
  "bbox": [
    -122.52605,
    37.62444,
    -121.2952,
    37.96989
  ],
  "geometry": {"coordinates":[[-122.38819,37.62444],[-122.42188,37.63878],[-122.48957,37.66857],[-122.4996,37.67291],[-122.51141,37.67944],[-122.52589,37.73781],[-122.52605,37.75335],[-122.5076,37.81089],[-122.42151,37.83928],[-122.40784,37.84116],[-122.3017,37.85374],[-122.26981,37.85761],[-122.17969,37.86836],[-122.13765,37.87326],[-122.03748,37.88495],[-121.97394,37.89227],[-121.91003,37.89975],[-121.85706,37.90584],[-121.76494,37.91654],[-121.75294,37.91795],[-121.65735,37.92905],[-121.5548,37.94075],[-121.47896,37.94922],[-121.45665,37.95177],[-121.32863,37.96617],[-121.2952,37.96989]],"type":"LineString"}
}
