{
  "id": 2014447853,
  "type": "Feature",
  "properties": {
    "geom:area": 0,
    "geom:bbox": "-122.448110,37.237600,-121.254650,37.715250",
    "geom:latitude": 37.43435745509972,
    "geom:longitude": -121.9491092711601,
    "src:alt_label": "swim-takeoff",
    "src:geom": "swim",
    "swim:elevations": [
      270,
      784,
      1075,
      1233,
      1347,
      1546,
      1713,
      2519,
      2668,
      3336,
      3543,
      3914,
      4221,
      4540,
      4886,
      5175,
      5614,
      5780,
      6155,
      6460,
      6801,
      7091,
      7119,
      7438,
      7677,
      7804,
      8036,
      8324,
      8481
    ],
    "swim:geom": "takeoff",
    "swim:timestamps": [
      1767179740,
      1767179784,
      1767179812,
      1767179835,
      1767179848,
      1767179871,
      1767179885,
      1767179935,
      1767179946,
      1767179992,
      1767180010,
      1767180056,
      1767180079,
      1767180106,
      1767180136,
      1767180160,
      1767180199,
      1767180215,
      1767180255,
      1767180286,
      1767180323,
      1767180357,
      1767180361,
      1767180410,
      1767180448,
      1767180468,
      1767180500,
      1767180538,
      1767180561
    ],
    "wof:geomhash": "91e81d627ca005481218beae1fb45ad7",
    "wof:id": 2014447853,
    "wof:repo": "sfomuseum-data-flights-2025-12"
  },
  "bbox": [
    -122.44811,
    37.2376,
    -121.25465,
    37.71525
  ],
  "geometry": {"coordinates":[[-122.36531,37.63632],[-122.36298,37.67063],[-122.36769,37.69519],[-122.38743,37.71206],[-122.40495,37.71525],[-122.43305,37.70575],[-122.44321,37.69266],[-122.44811,37.63593],[-122.44154,37.6246],[-122.40021,37.57897],[-122.38338,37.56124],[-122.33358,37.50947],[-122.29915,37.48746],[-122.24862,37.47307],[-122.18837,37.4588],[-122.14076,37.4477],[-122.06138,37.42928],[-122.02939,37.42186],[-121.94637,37.40245],[-121.88015,37.38697],[-121.80285,37.36866],[-121.7294,37.35136],[-121.72069,37.34928],[-121.61239,37.32365],[-121.52316,37.30249],[-121.47724,37.2915],[-121.40089,37.27331],[-121.30959,37.25115],[-121.25465,37.2376]],"type":"LineString"}
}
