{
  "id": 2014447601,
  "type": "Feature",
  "properties": {
    "geom:area": 0,
    "geom:bbox": "-122.440510,37.205160,-121.262370,37.711570",
    "geom:latitude": 37.398396931432245,
    "geom:longitude": -121.97854504689657,
    "src:alt_label": "swim-takeoff",
    "src:geom": "swim",
    "swim:elevations": [
      213,
      662,
      1099,
      1117,
      1244,
      1298,
      1824,
      2561,
      2756,
      3381,
      3543,
      3799,
      3998,
      4733,
      5075,
      5274,
      5456,
      5670,
      5909,
      6268,
      6586,
      6772,
      6829,
      7082,
      7102,
      7370,
      7512,
      7703,
      7785,
      8009
    ],
    "swim:geom": "takeoff",
    "swim:timestamps": [
      1767171125,
      1767171159,
      1767171208,
      1767171212,
      1767171231,
      1767171241,
      1767171283,
      1767171327,
      1767171338,
      1767171383,
      1767171418,
      1767171439,
      1767171454,
      1767171508,
      1767171535,
      1767171555,
      1767171597,
      1767171627,
      1767171651,
      1767171681,
      1767171718,
      1767171745,
      1767171754,
      1767171790,
      1767171794,
      1767171835,
      1767171854,
      1767171890,
      1767171908,
      1767171950
    ],
    "wof:geomhash": "077839196bef507fca4f67acebe85907",
    "wof:id": 2014447601,
    "wof:repo": "sfomuseum-data-flights-2025-12"
  },
  "bbox": [
    -122.44051,
    37.20516,
    -121.26237,
    37.71157
  ],
  "geometry": {"coordinates":[[-122.36703,37.63217],[-122.36325,37.65763],[-122.36692,37.69731],[-122.37043,37.70116],[-122.39055,37.71089],[-122.40532,37.71157],[-122.44051,37.67506],[-122.43568,37.62201],[-122.43478,37.60938],[-122.43066,37.55221],[-122.42736,37.50199],[-122.42111,37.46995],[-122.40375,37.45146],[-122.30049,37.42603],[-122.24673,37.41445],[-122.20534,37.40547],[-122.11461,37.38623],[-122.04772,37.37236],[-121.99257,37.36092],[-121.92207,37.34627],[-121.83657,37.32826],[-121.77236,37.31471],[-121.75082,37.31021],[-121.66369,37.29181],[-121.65452,37.28987],[-121.55296,37.26833],[-121.50618,37.25831],[-121.41685,37.23902],[-121.37037,37.229],[-121.26237,37.20516]],"type":"LineString"}
}
