{
  "id": 2014433759,
  "type": "Feature",
  "properties": {
    "geom:area": 0,
    "geom:bbox": "-122.849440,37.567870,-122.110340,38.504020",
    "geom:latitude": 37.89365903633494,
    "geom:longitude": -122.52219026103117,
    "src:alt_label": "swim-approach",
    "src:geom": "swim",
    "swim:elevations": [
      7420,
      7110,
      7009,
      6763,
      6576,
      6271,
      6031,
      5788,
      5594,
      5535,
      5495,
      5314,
      5076,
      4905,
      4740,
      4327,
      4098,
      3850,
      3830,
      3770,
      3626,
      3356,
      3235,
      3101,
      2742,
      2717,
      2551,
      2309,
      2090,
      1861,
      1830,
      1823,
      1697,
      1525,
      1434,
      1325,
      1153,
      966,
      833,
      700,
      609,
      588,
      370,
      219,
      119,
      60
    ],
    "swim:geom": "approach",
    "swim:timestamps": [
      1767085306,
      1767085340,
      1767085352,
      1767085378,
      1767085399,
      1767085434,
      1767085462,
      1767085492,
      1767085517,
      1767085525,
      1767085530,
      1767085556,
      1767085581,
      1767085601,
      1767085622,
      1767085676,
      1767085705,
      1767085738,
      1767085741,
      1767085750,
      1767085773,
      1767085817,
      1767085858,
      1767085877,
      1767085916,
      1767085922,
      1767085946,
      1767085970,
      1767085997,
      1767086035,
      1767086051,
      1767086072,
      1767086095,
      1767086128,
      1767086153,
      1767086177,
      1767086210,
      1767086241,
      1767086266,
      1767086292,
      1767086307,
      1767086313,
      1767086358,
      1767086397,
      1767086425,
      1767086440
    ],
    "wof:geomhash": "f182cb69f7ce3c87b693a53acc1debba",
    "wof:id": 2014433759,
    "wof:repo": "sfomuseum-data-flights-2025-12"
  },
  "bbox": [
    -122.84944,
    37.56787,
    -122.11034,
    38.50402
  ],
  "geometry": {"coordinates":[[-122.84944,38.50402],[-122.83172,38.4437],[-122.82536,38.42213],[-122.81132,38.37419],[-122.80038,38.33702],[-122.78268,38.27663],[-122.76842,38.2275],[-122.75397,38.17785],[-122.74235,38.13783],[-122.73837,38.1243],[-122.73609,38.11652],[-122.72376,38.07398],[-122.71189,38.03311],[-122.70278,38.00168],[-122.69278,37.96699],[-122.65915,37.8871],[-122.62252,37.85127],[-122.58266,37.81382],[-122.57909,37.81048],[-122.5685,37.80049],[-122.54267,37.77614],[-122.49464,37.73075],[-122.44836,37.70436],[-122.42612,37.69668],[-122.37933,37.68109],[-122.37219,37.67883],[-122.34534,37.67055],[-122.31905,37.66242],[-122.29067,37.6539],[-122.24876,37.64309],[-122.23188,37.63867],[-122.20927,37.63267],[-122.18486,37.62619],[-122.14927,37.6171],[-122.12614,37.60575],[-122.11034,37.58974],[-122.13252,37.57186],[-122.16606,37.56787],[-122.19285,37.57008],[-122.22274,37.57515],[-122.23947,37.57819],[-122.24605,37.57934],[-122.28828,37.59089],[-122.31817,37.59975],[-122.33913,37.60597],[-122.3497,37.6102]],"type":"LineString"}
}
