{
  "id": 2014426493,
  "type": "Feature",
  "properties": {
    "geom:area": 0,
    "geom:bbox": "-122.358470,37.436780,-121.259560,37.693680",
    "geom:latitude": 37.5641938335148,
    "geom:longitude": -121.83092428280146,
    "src:alt_label": "swim-approach",
    "src:geom": "swim",
    "swim:elevations": [
      4471,
      4214,
      4123,
      3970,
      3602,
      3492,
      3352,
      3353,
      3353,
      3353,
      3353,
      3353,
      3353,
      3353,
      3353,
      3353,
      3353,
      3272,
      3046,
      3048,
      3048,
      2949,
      2775,
      2743,
      2743,
      2594,
      2284,
      2129,
      2134,
      2134,
      2134,
      2084,
      1856,
      1764,
      1576,
      1353,
      1289,
      1185,
      1025,
      915,
      724,
      610,
      546,
      399,
      382,
      210,
      69,
      8
    ],
    "swim:geom": "approach",
    "swim:timestamps": [
      1767037818,
      1767037846,
      1767037853,
      1767037872,
      1767037918,
      1767037938,
      1767037976,
      1767037983,
      1767038036,
      1767038055,
      1767038072,
      1767038103,
      1767038158,
      1767038180,
      1767038209,
      1767038229,
      1767038243,
      1767038267,
      1767038301,
      1767038324,
      1767038355,
      1767038375,
      1767038400,
      1767038427,
      1767038442,
      1767038464,
      1767038510,
      1767038536,
      1767038572,
      1767038603,
      1767038627,
      1767038642,
      1767038681,
      1767038703,
      1767038738,
      1767038783,
      1767038792,
      1767038813,
      1767038846,
      1767038866,
      1767038906,
      1767038929,
      1767038944,
      1767038978,
      1767038983,
      1767039019,
      1767039055,
      1767039066
    ],
    "wof:geomhash": "c52afac58d196becf9e2be6c8fea4f06",
    "wof:id": 2014426493,
    "wof:repo": "sfomuseum-data-flights-2025-12"
  },
  "bbox": [
    -122.35847,
    37.43678,
    -121.25956,
    37.69368
  ],
  "geometry": {"coordinates":[[-121.25956,37.59316],[-121.31815,37.58633],[-121.33375,37.58474],[-121.37251,37.58043],[-121.46841,37.56904],[-121.50802,37.56379],[-121.58076,37.55529],[-121.59353,37.55396],[-121.67731,37.53797],[-121.70565,37.5363],[-121.72888,37.54592],[-121.7595,37.57518],[-121.81243,37.6278],[-121.83296,37.64826],[-121.86144,37.67677],[-121.88527,37.69154],[-121.90596,37.69368],[-121.93712,37.68094],[-121.95427,37.64547],[-121.94962,37.61987],[-121.91494,37.60143],[-121.89112,37.59267],[-121.85967,37.58094],[-121.82687,37.56885],[-121.80955,37.56099],[-121.79643,37.54007],[-121.81812,37.49229],[-121.8314,37.46666],[-121.85983,37.43678],[-121.89848,37.4409],[-121.92392,37.45652],[-121.94047,37.46631],[-121.98193,37.49131],[-122.00759,37.50093],[-122.04674,37.51355],[-122.0946,37.52929],[-122.10387,37.53225],[-122.1252,37.53918],[-122.15852,37.55009],[-122.17964,37.55684],[-122.21894,37.56944],[-122.23962,37.57637],[-122.25291,37.58063],[-122.28337,37.58945],[-122.28754,37.59069],[-122.31869,37.59987],[-122.34937,37.61033],[-122.35847,37.61395]],"type":"LineString"}
}
