{
  "id": 2014430615,
  "type": "Feature",
  "properties": {
    "geom:area": 0,
    "geom:bbox": "-122.433770,37.204170,-121.279980,37.693620",
    "geom:latitude": 37.39023356550056,
    "geom:longitude": -121.97907763213287,
    "src:alt_label": "swim-takeoff",
    "src:geom": "swim",
    "swim:elevations": [
      213,
      563,
      926,
      1132,
      1698,
      1970,
      2760,
      2953,
      3273,
      3641,
      4278,
      4448,
      4818,
      5121,
      5634,
      5694,
      6265,
      6528,
      6687,
      6834,
      7057,
      7344,
      7614,
      7829,
      8072,
      8547,
      8859,
      9130,
      9385,
      9391
    ],
    "swim:geom": "takeoff",
    "swim:timestamps": [
      1767052672,
      1767052694,
      1767052723,
      1767052747,
      1767052795,
      1767052813,
      1767052858,
      1767052873,
      1767052897,
      1767052927,
      1767052977,
      1767053003,
      1767053026,
      1767053044,
      1767053092,
      1767053101,
      1767053158,
      1767053181,
      1767053197,
      1767053212,
      1767053233,
      1767053262,
      1767053295,
      1767053319,
      1767053351,
      1767053392,
      1767053423,
      1767053454,
      1767053488,
      1767053492
    ],
    "wof:geomhash": "d96af2f93b7bccb22faa47f1d27cc957",
    "wof:id": 2014430615,
    "wof:repo": "sfomuseum-data-flights-2025-12"
  },
  "bbox": [
    -122.43377,
    37.20417,
    -121.27998,
    37.69362
  ],
  "geometry": {"coordinates":[[-122.36586,37.63417],[-122.36311,37.65166],[-122.36322,37.67372],[-122.36612,37.69322],[-122.42229,37.69362],[-122.43377,37.67472],[-122.42856,37.61868],[-122.42657,37.59935],[-122.42341,37.56704],[-122.41931,37.52421],[-122.40061,37.44979],[-122.36086,37.42632],[-122.31501,37.41828],[-122.27975,37.41166],[-122.18498,37.39194],[-122.16668,37.38822],[-122.04623,37.36389],[-121.99511,37.35337],[-121.96005,37.34619],[-121.92672,37.33937],[-121.87939,37.32962],[-121.81506,37.31622],[-121.73947,37.30044],[-121.68372,37.2888],[-121.60622,37.27279],[-121.51014,37.25271],[-121.43958,37.23789],[-121.3692,37.22305],[-121.28934,37.20619],[-121.27998,37.20417]],"type":"LineString"}
}
