{
  "id": 2014447863,
  "type": "Feature",
  "properties": {
    "geom:area": 0,
    "geom:bbox": "-122.434970,36.720220,-121.401370,37.694050",
    "geom:latitude": 37.2222180337693,
    "geom:longitude": -121.98314786780804,
    "src:alt_label": "swim-takeoff",
    "src:geom": "swim",
    "swim:elevations": [
      213,
      624,
      1213,
      1677,
      2235,
      3051,
      3376,
      3766,
      4561,
      4877,
      5049,
      5592,
      6112,
      6845,
      7227,
      7583,
      7824,
      8380,
      8651,
      9015,
      9441,
      9750,
      9952,
      10040,
      10375,
      10607,
      10668,
      10668,
      10668,
      10668,
      10668
    ],
    "swim:geom": "takeoff",
    "swim:timestamps": [
      1767248709,
      1767248742,
      1767248783,
      1767248818,
      1767248843,
      1767248876,
      1767248897,
      1767248927,
      1767248963,
      1767248994,
      1767249006,
      1767249039,
      1767249072,
      1767249118,
      1767249146,
      1767249170,
      1767249187,
      1767249237,
      1767249265,
      1767249294,
      1767249324,
      1767249354,
      1767249381,
      1767249393,
      1767249446,
      1767249476,
      1767249506,
      1767249532,
      1767249552,
      1767249576,
      1767249603
    ],
    "wof:geomhash": "aa1ba924d03f2457c8d5ca2f6e4aa9d9",
    "wof:id": 2014447863,
    "wof:repo": "sfomuseum-data-flights-2025-12"
  },
  "bbox": [
    -122.43497,
    36.72022,
    -121.40137,
    37.69405
  ],
  "geometry": {"coordinates":[[-122.36669,37.63192],[-122.36258,37.65716],[-122.36824,37.69405],[-122.41019,37.69174],[-122.42037,37.66492],[-122.42735,37.62779],[-122.43497,37.604],[-122.41915,37.56801],[-122.37295,37.53327],[-122.33463,37.50067],[-122.31863,37.48709],[-122.27278,37.44886],[-122.22629,37.4105],[-122.15913,37.35521],[-122.11844,37.32157],[-122.08303,37.29229],[-122.05728,37.27105],[-121.98169,37.20865],[-121.93981,37.17327],[-121.89331,37.13448],[-121.84662,37.0958],[-121.80106,37.05755],[-121.75947,37.02266],[-121.74076,37.00686],[-121.65575,36.93558],[-121.60668,36.89462],[-121.55758,36.85315],[-121.51616,36.81812],[-121.48363,36.79045],[-121.44467,36.75746],[-121.40137,36.72022]],"type":"LineString"}
}
