{
  "id": 2014447099,
  "type": "Feature",
  "properties": {
    "geom:area": 0,
    "geom:bbox": "-122.366440,37.628670,-121.243800,38.256430",
    "geom:latitude": 37.971986382023964,
    "geom:longitude": -121.82126737702218,
    "src:alt_label": "swim-takeoff",
    "src:geom": "swim",
    "swim:elevations": [
      183,
      488,
      588,
      1088,
      1468,
      1811,
      2345,
      2762,
      3086,
      3349,
      3474,
      3891,
      4182,
      4577,
      4715,
      5329,
      5619,
      6079,
      6251,
      6645,
      6988,
      7265,
      7486,
      7584,
      7924,
      8085
    ],
    "swim:geom": "takeoff",
    "swim:timestamps": [
      1767185052,
      1767185086,
      1767185101,
      1767185145,
      1767185172,
      1767185205,
      1767185244,
      1767185274,
      1767185298,
      1767185322,
      1767185341,
      1767185373,
      1767185394,
      1767185423,
      1767185434,
      1767185478,
      1767185503,
      1767185548,
      1767185566,
      1767185604,
      1767185635,
      1767185666,
      1767185694,
      1767185709,
      1767185750,
      1767185775
    ],
    "wof:geomhash": "81f67b8229990da4aa2a6d67edeefdef",
    "wof:id": 2014447099,
    "wof:repo": "sfomuseum-data-flights-2025-12"
  },
  "bbox": [
    -122.36644,
    37.62867,
    -121.2438,
    38.25643
  ],
  "geometry": {"coordinates":[[-122.36644,37.62867],[-122.34334,37.64604],[-122.32977,37.65365],[-122.28412,37.68085],[-122.2535,37.69792],[-122.21279,37.72013],[-122.16584,37.75571],[-122.12908,37.78396],[-122.09902,37.80663],[-122.06823,37.82952],[-122.04236,37.84887],[-121.99669,37.88339],[-121.9658,37.90687],[-121.92432,37.93793],[-121.90763,37.95051],[-121.84032,38.0009],[-121.80091,38.02709],[-121.71717,38.0635],[-121.6821,38.07788],[-121.60542,38.10928],[-121.54207,38.13517],[-121.4786,38.16104],[-121.41993,38.18498],[-121.3892,38.19748],[-121.29766,38.23459],[-121.2438,38.25643]],"type":"LineString"}
}
