{
  "id": 2014439389,
  "type": "Feature",
  "properties": {
    "geom:area": 0,
    "geom:bbox": "-122.452050,36.724470,-121.256060,37.711880",
    "geom:latitude": 37.23971746250223,
    "geom:longitude": -121.9231469022809,
    "src:alt_label": "swim-takeoff",
    "src:geom": "swim",
    "swim:elevations": [
      183,
      363,
      825,
      1036,
      1045,
      1167,
      1479,
      1877,
      2290,
      2404,
      2951,
      3262,
      3577,
      3758,
      3994,
      4286,
      4639,
      4858,
      5063,
      5376,
      5494,
      5729,
      5937,
      6061,
      6435,
      6588,
      6618,
      6705,
      6763,
      6854,
      6967,
      7408,
      7577,
      7744,
      7898,
      8003,
      8171,
      8161
    ],
    "swim:geom": "takeoff",
    "swim:timestamps": [
      1767084263,
      1767084277,
      1767084324,
      1767084348,
      1767084362,
      1767084385,
      1767084414,
      1767084447,
      1767084478,
      1767084484,
      1767084520,
      1767084547,
      1767084598,
      1767084620,
      1767084646,
      1767084671,
      1767084708,
      1767084731,
      1767084752,
      1767084784,
      1767084806,
      1767084838,
      1767084866,
      1767084878,
      1767084923,
      1767084945,
      1767084948,
      1767084966,
      1767084975,
      1767085004,
      1767085021,
      1767085077,
      1767085105,
      1767085135,
      1767085162,
      1767085187,
      1767085223,
      1767085234
    ],
    "wof:geomhash": "55f64c6f242e5d6cb5313c0bdfc08d98",
    "wof:id": 2014439389,
    "wof:repo": "sfomuseum-data-flights-2025-12"
  },
  "bbox": [
    -122.45205,
    36.72447,
    -121.25606,
    37.71188
  ],
  "geometry": {"coordinates":[[-122.36669,37.63225],[-122.36238,37.64314],[-122.36179,37.6844],[-122.3743,37.70415],[-122.38946,37.71188],[-122.42138,37.71062],[-122.44669,37.68243],[-122.45205,37.64074],[-122.42964,37.6058],[-122.42236,37.60087],[-122.38186,37.571],[-122.35024,37.54755],[-122.28504,37.49817],[-122.25444,37.47574],[-122.21733,37.44848],[-122.18094,37.42185],[-122.12587,37.38119],[-122.09192,37.35588],[-122.05996,37.33231],[-122.01132,37.29588],[-121.97779,37.2706],[-121.92856,37.23377],[-121.88388,37.20029],[-121.86472,37.18588],[-121.79287,37.13177],[-121.75741,37.10497],[-121.75254,37.10129],[-121.72304,37.07909],[-121.70807,37.06783],[-121.65879,37.03072],[-121.6295,37.00859],[-121.5321,36.93489],[-121.48471,36.89871],[-121.43191,36.8589],[-121.38396,36.82229],[-121.34107,36.78957],[-121.277,36.74062],[-121.25606,36.72447]],"type":"LineString"}
}
