{
  "id": 2014424917,
  "type": "Feature",
  "properties": {
    "geom:area": 0,
    "geom:bbox": "-123.330930,37.260390,-122.166210,37.611340",
    "geom:latitude": 37.3595534005634,
    "geom:longitude": -122.64635009739925,
    "src:alt_label": "swim-approach",
    "src:geom": "swim",
    "swim:elevations": [
      4909,
      4427,
      4240,
      3980,
      3745,
      3661,
      3183,
      3094,
      2984,
      2965,
      2896,
      2678,
      2599,
      2503,
      2412,
      2342,
      2237,
      2132,
      2037,
      1916,
      1852,
      1770,
      1736,
      1536,
      1271,
      1186,
      949,
      877,
      803,
      734,
      672,
      607,
      403,
      303,
      184,
      143,
      0
    ],
    "swim:geom": "approach",
    "swim:timestamps": [
      1767023641,
      1767023698,
      1767023721,
      1767023753,
      1767023783,
      1767023796,
      1767023859,
      1767023880,
      1767023933,
      1767023951,
      1767023972,
      1767024028,
      1767024056,
      1767024088,
      1767024114,
      1767024132,
      1767024155,
      1767024184,
      1767024216,
      1767024260,
      1767024286,
      1767024324,
      1767024341,
      1767024370,
      1767024400,
      1767024423,
      1767024478,
      1767024486,
      1767024502,
      1767024527,
      1767024559,
      1767024571,
      1767024622,
      1767024648,
      1767024683,
      1767024695,
      1767024725
    ],
    "wof:geomhash": "515b1ca0747679ef0595344128bbd59e",
    "wof:id": 2014424917,
    "wof:repo": "sfomuseum-data-flights-2025-12"
  },
  "bbox": [
    -123.33093,
    37.26039,
    -122.16621,
    37.61134
  ],
  "geometry": {"coordinates":[[-123.33093,37.29304],[-123.2227,37.28506],[-123.17942,37.28181],[-123.12083,37.27744],[-123.06674,37.27338],[-123.04363,37.27164],[-122.93361,37.26303],[-122.89785,37.26039],[-122.81417,37.26932],[-122.78592,37.27599],[-122.75386,37.28332],[-122.66797,37.30322],[-122.62513,37.31321],[-122.57633,37.32461],[-122.53642,37.33385],[-122.50922,37.34011],[-122.47254,37.34859],[-122.42886,37.35868],[-122.38244,37.36934],[-122.32129,37.38337],[-122.28642,37.39129],[-122.23934,37.40208],[-122.22113,37.40998],[-122.19407,37.42572],[-122.173,37.44865],[-122.16621,37.4694],[-122.17414,37.51438],[-122.17676,37.52065],[-122.18295,37.53224],[-122.20385,37.54646],[-122.23181,37.55847],[-122.24232,37.56293],[-122.28263,37.57989],[-122.30145,37.58776],[-122.3265,37.59831],[-122.33564,37.60221],[-122.35767,37.61134]],"type":"LineString"}
}
