{
  "id": 2014414109,
  "type": "Feature",
  "properties": {
    "geom:area": 0,
    "geom:bbox": "-122.469610,37.197300,-121.279510,37.718150",
    "geom:latitude": 37.3955562309861,
    "geom:longitude": -122.0061036915656,
    "src:alt_label": "swim-takeoff",
    "src:geom": "swim",
    "swim:elevations": [
      183,
      732,
      1189,
      1311,
      1526,
      2177,
      2892,
      2923,
      3335,
      3514,
      4163,
      4478,
      5075,
      5391,
      5574,
      5989,
      6624,
      6780,
      7554,
      7618,
      7620,
      7620,
      7620,
      7620,
      7620,
      7620,
      7620,
      7620,
      7620,
      7620
    ],
    "swim:geom": "takeoff",
    "swim:timestamps": [
      1766854683,
      1766854722,
      1766854766,
      1766854784,
      1766854804,
      1766854844,
      1766854888,
      1766854891,
      1766854943,
      1766854957,
      1766855003,
      1766855020,
      1766855061,
      1766855088,
      1766855109,
      1766855142,
      1766855184,
      1766855192,
      1766855240,
      1766855254,
      1766855282,
      1766855328,
      1766855344,
      1766855397,
      1766855429,
      1766855440,
      1766855488,
      1766855500,
      1766855539,
      1766855556
    ],
    "wof:geomhash": "345db9fb1689fbdf6680ca55a76e00d3",
    "wof:id": 2014414109,
    "wof:repo": "sfomuseum-data-flights-2025-12"
  },
  "bbox": [
    -122.46961,
    37.1973,
    -121.27951,
    37.71815
  ],
  "geometry": {"coordinates":[[-122.36878,37.62986],[-122.36356,37.65827],[-122.36321,37.69151],[-122.37372,37.70701],[-122.39832,37.71815],[-122.45188,37.69563],[-122.46061,37.63727],[-122.46075,37.63303],[-122.46695,37.55583],[-122.46961,37.53228],[-122.43047,37.46371],[-122.39996,37.44697],[-122.32445,37.41062],[-122.26759,37.39777],[-122.22237,37.38869],[-122.15015,37.3743],[-122.05813,37.35581],[-122.04043,37.35225],[-121.93909,37.33192],[-121.91144,37.32649],[-121.85362,37.31489],[-121.75612,37.29513],[-121.72298,37.28832],[-121.61383,37.26597],[-121.54709,37.25239],[-121.52252,37.2474],[-121.42213,37.22683],[-121.3981,37.22184],[-121.31551,37.20474],[-121.27951,37.1973]],"type":"LineString"}
}
