{
  "id": 2014439339,
  "type": "Feature",
  "properties": {
    "geom:area": 0,
    "geom:bbox": "-122.361580,37.635860,-121.253390,38.121480",
    "geom:latitude": 37.89377035596305,
    "geom:longitude": -121.81454978265114,
    "src:alt_label": "swim-takeoff",
    "src:geom": "swim",
    "swim:elevations": [
      235,
      637,
      912,
      1007,
      1167,
      1515,
      2162,
      2380,
      2776,
      3270,
      3460,
      3480,
      3705,
      4085,
      4244,
      4499,
      4615,
      5085,
      5238,
      5420,
      5505,
      5764,
      5854,
      6144
    ],
    "swim:geom": "takeoff",
    "swim:timestamps": [
      1767094007,
      1767094042,
      1767094075,
      1767094096,
      1767094132,
      1767094155,
      1767094198,
      1767094217,
      1767094246,
      1767094282,
      1767094318,
      1767094321,
      1767094362,
      1767094402,
      1767094424,
      1767094459,
      1767094471,
      1767094516,
      1767094533,
      1767094554,
      1767094575,
      1767094611,
      1767094626,
      1767094676
    ],
    "wof:geomhash": "e5a126186f3bd797a9890af9945b1a56",
    "wof:id": 2014439339,
    "wof:repo": "sfomuseum-data-flights-2025-12"
  },
  "bbox": [
    -122.36158,
    37.63586,
    -121.25339,
    38.12148
  ],
  "geometry": {"coordinates":[[-122.36158,37.63586],[-122.33391,37.65342],[-122.30284,37.67086],[-122.28197,37.68271],[-122.23744,37.70683],[-122.20577,37.72313],[-122.14719,37.75188],[-122.12101,37.7655],[-122.08115,37.78739],[-122.03115,37.81317],[-121.97628,37.83793],[-121.97125,37.83982],[-121.89855,37.86808],[-121.8237,37.89785],[-121.78298,37.91402],[-121.71145,37.94222],[-121.68791,37.95159],[-121.59477,37.98827],[-121.5595,38.0021],[-121.51555,38.01932],[-121.4717,38.0365],[-121.39555,38.06626],[-121.36429,38.07842],[-121.25339,38.12148]],"type":"LineString"}
}
