{
  "id": 2014442427,
  "type": "Feature",
  "properties": {
    "geom:area": 0,
    "geom:bbox": "-122.358750,37.491850,-121.284990,37.614170",
    "geom:latitude": 37.54137812929625,
    "geom:longitude": -121.82869894034765,
    "src:alt_label": "swim-approach",
    "src:geom": "swim",
    "swim:elevations": [
      4543,
      4270,
      4199,
      3829,
      3436,
      3282,
      3169,
      2984,
      2723,
      2584,
      2463,
      2313,
      2138,
      1953,
      1828,
      1744,
      1514,
      1307,
      1098,
      1031,
      669,
      546,
      549,
      478,
      384,
      235,
      108,
      0
    ],
    "swim:geom": "approach",
    "swim:timestamps": [
      1767227997,
      1767228027,
      1767228036,
      1767228076,
      1767228118,
      1767228148,
      1767228176,
      1767228203,
      1767228236,
      1767228263,
      1767228297,
      1767228318,
      1767228348,
      1767228378,
      1767228408,
      1767228420,
      1767228458,
      1767228491,
      1767228529,
      1767228541,
      1767228597,
      1767228624,
      1767228649,
      1767228675,
      1767228695,
      1767228734,
      1767228770,
      1767228788
    ],
    "wof:geomhash": "cb6f3058a255899df240c096b4759148",
    "wof:id": 2014442427,
    "wof:repo": "sfomuseum-data-flights-2025-12"
  },
  "bbox": [
    -122.35875,
    37.49185,
    -121.28499,
    37.61417
  ],
  "geometry": {"coordinates":[[-121.28499,37.58977],[-121.345,37.58279],[-121.36289,37.58087],[-121.43929,37.5724],[-121.51905,37.56333],[-121.57368,37.55678],[-121.62168,37.55112],[-121.66335,37.54152],[-121.71332,37.52939],[-121.75358,37.51987],[-121.80148,37.50849],[-121.83084,37.50137],[-121.87225,37.49185],[-121.91546,37.49229],[-121.95821,37.49542],[-121.97593,37.49668],[-122.02864,37.4999],[-122.07155,37.50218],[-122.12037,37.51398],[-122.1344,37.51985],[-122.19911,37.54701],[-122.22788,37.55918],[-122.25162,37.56917],[-122.27459,37.57883],[-122.2906,37.5856],[-122.31888,37.59749],[-122.34506,37.60844],[-122.35875,37.61417]],"type":"LineString"}
}
