{
  "id": 2014426925,
  "type": "Feature",
  "properties": {
    "geom:area": 0,
    "geom:bbox": "-122.364320,36.733820,-121.886100,37.615280",
    "geom:latitude": 37.21771923493613,
    "geom:longitude": -122.07423519609297,
    "src:alt_label": "swim-approach",
    "src:geom": "swim",
    "swim:elevations": [
      5443,
      5457,
      5015,
      4694,
      4557,
      4335,
      3953,
      3887,
      3466,
      3198,
      3111,
      3092,
      2963,
      2809,
      2580,
      2493,
      2199,
      2151,
      2068,
      1827,
      1741,
      1557,
      1373,
      1142,
      1025,
      939,
      828,
      639,
      490,
      446,
      331,
      144,
      343
    ],
    "swim:geom": "approach",
    "swim:timestamps": [
      1766997895,
      1766997905,
      1766997943,
      1766997974,
      1766997986,
      1766998008,
      1766998045,
      1766998057,
      1766998097,
      1766998129,
      1766998157,
      1766998169,
      1766998195,
      1766998217,
      1766998256,
      1766998268,
      1766998315,
      1766998321,
      1766998334,
      1766998372,
      1766998394,
      1766998436,
      1766998465,
      1766998498,
      1766998516,
      1766998532,
      1766998548,
      1766998582,
      1766998614,
      1766998626,
      1766998650,
      1766998695,
      1766998726
    ],
    "wof:geomhash": "96e1c63871f21857447981aaf3860edc",
    "wof:id": 2014426925,
    "wof:repo": "sfomuseum-data-flights-2025-12"
  },
  "bbox": [
    -122.36432,
    36.73382,
    -121.8861,
    37.61528
  ],
  "geometry": {"coordinates":[[-121.8861,36.73382],[-121.89365,36.74817],[-121.91314,36.80916],[-121.92658,36.85751],[-121.93171,36.87641],[-121.94118,36.91038],[-121.95973,36.96888],[-121.96685,36.98718],[-121.98994,37.04625],[-122.0089,37.09514],[-122.02423,37.13416],[-122.03021,37.14936],[-122.04367,37.18396],[-122.05398,37.21007],[-122.07184,37.25552],[-122.07723,37.2693],[-122.09675,37.31883],[-122.09916,37.32515],[-122.10414,37.33825],[-122.1198,37.37801],[-122.12801,37.40129],[-122.14294,37.4457],[-122.15624,37.47668],[-122.17707,37.50727],[-122.18716,37.52196],[-122.19674,37.53559],[-122.20793,37.54717],[-122.2414,37.56223],[-122.27001,37.57456],[-122.28034,37.57898],[-122.30073,37.58746],[-122.33831,37.60335],[-122.36432,37.61528]],"type":"LineString"}
}
