{
  "id": 2014430569,
  "type": "Feature",
  "properties": {
    "geom:area": 0,
    "geom:bbox": "-122.383960,37.625830,-121.292440,38.027810",
    "geom:latitude": 37.92519884749643,
    "geom:longitude": -121.9581578474742,
    "src:alt_label": "swim-takeoff",
    "src:geom": "swim",
    "swim:elevations": [
      152,
      464,
      904,
      1169,
      1322,
      1434,
      1552,
      1716,
      2108,
      2237,
      2695,
      3085,
      3345,
      3682,
      3898,
      4207,
      4620,
      4833,
      5384,
      5674,
      5800,
      6275,
      6496,
      6714,
      6777,
      7019,
      7126,
      7207,
      7323,
      7442,
      7600,
      7743,
      7772
    ],
    "swim:geom": "takeoff",
    "swim:timestamps": [
      1767077752,
      1767077776,
      1767077809,
      1767077837,
      1767077857,
      1767077875,
      1767077898,
      1767077913,
      1767077938,
      1767077950,
      1767077990,
      1767078020,
      1767078044,
      1767078074,
      1767078095,
      1767078131,
      1767078168,
      1767078186,
      1767078232,
      1767078265,
      1767078277,
      1767078327,
      1767078357,
      1767078383,
      1767078393,
      1767078427,
      1767078442,
      1767078460,
      1767078481,
      1767078497,
      1767078514,
      1767078537,
      1767078544
    ],
    "wof:geomhash": "24ba05043e2c230514e1e475d6afb504",
    "wof:id": 2014430569,
    "wof:repo": "sfomuseum-data-flights-2025-12"
  },
  "bbox": [
    -122.38396,
    37.62583,
    -121.29244,
    38.02781
  ],
  "geometry": {"coordinates":[[-122.36808,37.62583],[-122.35381,37.63997],[-122.33297,37.65867],[-122.31478,37.67497],[-122.30895,37.69087],[-122.31511,37.70774],[-122.32832,37.73177],[-122.33823,37.74886],[-122.35325,37.778],[-122.35953,37.79101],[-122.38261,37.84197],[-122.38396,37.88384],[-122.37721,37.91729],[-122.33967,37.94685],[-122.3018,37.95272],[-122.23163,37.95463],[-122.1546,37.95622],[-122.11844,37.95722],[-122.02453,37.96141],[-121.95677,37.96416],[-121.93191,37.96529],[-121.82679,37.96967],[-121.75879,37.97067],[-121.6976,37.97294],[-121.6752,37.97419],[-121.59217,37.98439],[-121.55519,37.99002],[-121.50944,37.9971],[-121.45591,38.00562],[-121.41453,38.01204],[-121.37071,38.01783],[-121.31096,38.02515],[-121.29244,38.02781]],"type":"LineString"}
}
