{
  "id": 2014443667,
  "type": "Feature",
  "properties": {
    "geom:area": 0,
    "geom:bbox": "-122.358520,37.493880,-121.265080,37.619880",
    "geom:latitude": 37.55760681120837,
    "geom:longitude": -121.81801287421467,
    "src:alt_label": "swim-approach",
    "src:geom": "swim",
    "swim:elevations": [
      4624,
      4318,
      4055,
      3879,
      3715,
      3256,
      3140,
      3047,
      3048,
      3022,
      2867,
      2787,
      2615,
      2565,
      2437,
      2395,
      2324,
      2144,
      2069,
      1791,
      1663,
      1431,
      1173,
      1137,
      830,
      648,
      495,
      330,
      252,
      92,
      0
    ],
    "swim:geom": "approach",
    "swim:timestamps": [
      1767208795,
      1767208828,
      1767208856,
      1767208875,
      1767208893,
      1767208945,
      1767208969,
      1767208999,
      1767209034,
      1767209065,
      1767209097,
      1767209115,
      1767209156,
      1767209168,
      1767209212,
      1767209248,
      1767209263,
      1767209297,
      1767209318,
      1767209366,
      1767209392,
      1767209425,
      1767209458,
      1767209461,
      1767209509,
      1767209539,
      1767209566,
      1767209602,
      1767209619,
      1767209660,
      1767209684
    ],
    "wof:geomhash": "33d3be972d93be095bf6bba2962e3566",
    "wof:id": 2014443667,
    "wof:repo": "sfomuseum-data-flights-2025-12"
  },
  "bbox": [
    -122.35852,
    37.49388,
    -121.26508,
    37.61988
  ],
  "geometry": {"coordinates":[[-121.26508,37.59254],[-121.33189,37.58461],[-121.38898,37.57833],[-121.42553,37.57421],[-121.46065,37.57011],[-121.5588,37.55858],[-121.59928,37.55386],[-121.64464,37.55368],[-121.68721,37.57629],[-121.7251,37.59812],[-121.76385,37.61831],[-121.78857,37.61988],[-121.81653,37.58673],[-121.81221,37.57443],[-121.82944,37.53265],[-121.87646,37.52323],[-121.89725,37.52186],[-121.94224,37.51288],[-121.96764,37.5053],[-122.02851,37.49388],[-122.0631,37.497],[-122.10591,37.50755],[-122.14742,37.52515],[-122.15123,37.52678],[-122.20843,37.55098],[-122.24063,37.5645],[-122.26852,37.57623],[-122.30084,37.5899],[-122.31358,37.59521],[-122.34271,37.60747],[-122.35852,37.61406]],"type":"LineString"}
}
