{
  "id": 2014408689,
  "type": "Feature",
  "properties": {
    "geom:area": 0,
    "geom:bbox": "-122.346080,37.490710,-121.317510,37.608800",
    "geom:latitude": 37.54266152326918,
    "geom:longitude": -121.83613488881139,
    "src:alt_label": "swim-approach",
    "src:geom": "swim",
    "swim:elevations": [
      4238,
      4021,
      3691,
      3666,
      3409,
      3207,
      3166,
      3055,
      2737,
      2619,
      2436,
      2260,
      2124,
      1910,
      1856,
      1844,
      1819,
      1754,
      1393,
      1247,
      953,
      943,
      760,
      698,
      484,
      366,
      219,
      113,
      82
    ],
    "swim:geom": "approach",
    "swim:timestamps": [
      1766835475,
      1766835497,
      1766835534,
      1766835537,
      1766835565,
      1766835592,
      1766835601,
      1766835632,
      1766835680,
      1766835697,
      1766835733,
      1766835774,
      1766835800,
      1766835835,
      1766835847,
      1766835858,
      1766835892,
      1766835900,
      1766835948,
      1766835968,
      1766836015,
      1766836023,
      1766836074,
      1766836088,
      1766836132,
      1766836160,
      1766836197,
      1766836224,
      1766836233
    ],
    "wof:geomhash": "3ed5c46e141955c5d64ad6fce2fdf72a",
    "wof:id": 2014408689,
    "wof:repo": "sfomuseum-data-flights-2025-12"
  },
  "bbox": [
    -122.34608,
    37.49071,
    -121.31751,
    37.6088
  ],
  "geometry": {"coordinates":[[-121.31751,37.5852],[-121.36125,37.58047],[-121.43379,37.57246],[-121.44006,37.57176],[-121.49377,37.56562],[-121.54723,37.55925],[-121.56222,37.55745],[-121.61824,37.55066],[-121.69819,37.53234],[-121.72551,37.52602],[-121.77997,37.51324],[-121.84001,37.49878],[-121.8777,37.49071],[-121.92629,37.49168],[-121.9438,37.49236],[-121.95985,37.49291],[-122.00547,37.49988],[-122.01556,37.50318],[-122.07441,37.52269],[-122.09737,37.53024],[-122.15215,37.54762],[-122.16043,37.55032],[-122.21163,37.56718],[-122.22426,37.57128],[-122.26654,37.5847],[-122.2899,37.59149],[-122.31879,37.60003],[-122.33972,37.6064],[-122.34608,37.6088]],"type":"LineString"}
}
