{
  "id": 2014429153,
  "type": "Feature",
  "properties": {
    "geom:area": 0,
    "geom:bbox": "-122.386530,37.630250,-121.431730,38.516970",
    "geom:latitude": 38.12204656313552,
    "geom:longitude": -122.01259383573414,
    "src:alt_label": "swim-takeoff",
    "src:geom": "swim",
    "swim:elevations": [
      183,
      305,
      742,
      1087,
      1256,
      1911,
      2339,
      2463,
      2829,
      3333,
      3500,
      3697,
      4050,
      4428,
      4695,
      5081,
      5436,
      5651,
      5917,
      6143,
      6276,
      6807,
      6922,
      7280,
      7477,
      7703,
      7927,
      7944
    ],
    "swim:geom": "takeoff",
    "swim:timestamps": [
      1767055464,
      1767055473,
      1767055523,
      1767055556,
      1767055567,
      1767055611,
      1767055647,
      1767055659,
      1767055686,
      1767055737,
      1767055764,
      1767055792,
      1767055823,
      1767055853,
      1767055877,
      1767055910,
      1767055942,
      1767055976,
      1767056006,
      1767056030,
      1767056042,
      1767056093,
      1767056108,
      1767056156,
      1767056180,
      1767056213,
      1767056246,
      1767056252
    ],
    "wof:geomhash": "d0a0719fca4675e6190594ed83be272d",
    "wof:id": 2014429153,
    "wof:repo": "sfomuseum-data-flights-2025-12"
  },
  "bbox": [
    -122.38653,
    37.63025,
    -121.43173,
    38.51697
  ],
  "geometry": {"coordinates":[[-122.36517,37.63025],[-122.36067,37.63686],[-122.32178,37.66937],[-122.31317,37.70386],[-122.31936,37.71553],[-122.34631,37.76475],[-122.36778,37.80725],[-122.37516,37.8224],[-122.38653,37.8586],[-122.3799,37.93017],[-122.34761,37.96312],[-122.30106,37.99087],[-122.24848,38.02258],[-122.19575,38.05438],[-122.15327,38.08037],[-122.09414,38.11647],[-122.03544,38.15251],[-121.97236,38.1909],[-121.91532,38.2254],[-121.86951,38.25306],[-121.84628,38.26705],[-121.74785,38.32628],[-121.71877,38.34371],[-121.62449,38.40017],[-121.57679,38.42872],[-121.50939,38.469],[-121.44366,38.50968],[-121.43173,38.51697]],"type":"LineString"}
}
