{
  "id": 2014418107,
  "type": "Feature",
  "properties": {
    "geom:area": 0,
    "geom:bbox": "-122.353660,37.491790,-121.253050,37.612110",
    "geom:latitude": 37.546354626287794,
    "geom:longitude": -121.80815899159785,
    "src:alt_label": "swim-approach",
    "src:geom": "swim",
    "swim:elevations": [
      4671,
      4365,
      4186,
      3771,
      3537,
      3229,
      3108,
      3053,
      2931,
      2738,
      2537,
      2328,
      2274,
      2142,
      2045,
      1919,
      1861,
      1646,
      1534,
      1459,
      1300,
      1113,
      1065,
      762,
      591,
      511,
      336,
      244,
      88,
      47
    ],
    "swim:geom": "approach",
    "swim:timestamps": [
      1766914555,
      1766914586,
      1766914604,
      1766914646,
      1766914670,
      1766914703,
      1766914738,
      1766914758,
      1766914783,
      1766914809,
      1766914841,
      1766914883,
      1766914890,
      1766914917,
      1766914940,
      1766914973,
      1766914988,
      1766915031,
      1766915048,
      1766915097,
      1766915125,
      1766915152,
      1766915162,
      1766915218,
      1766915243,
      1766915263,
      1766915301,
      1766915321,
      1766915362,
      1766915370
    ],
    "wof:geomhash": "21dc4388997897b25bfbc7bde2792f8f",
    "wof:id": 2014418107,
    "wof:repo": "sfomuseum-data-flights-2025-12"
  },
  "bbox": [
    -122.35366,
    37.49179,
    -121.25305,
    37.61211
  ],
  "geometry": {"coordinates":[[-121.25305,37.59411],[-121.31495,37.58658],[-121.35139,37.58259],[-121.43149,37.57338],[-121.47859,37.56794],[-121.54037,37.56071],[-121.60546,37.55303],[-121.63887,37.5474],[-121.67819,37.53814],[-121.72001,37.52797],[-121.76909,37.51625],[-121.83042,37.50156],[-121.84172,37.49889],[-121.88019,37.49179],[-121.91295,37.49205],[-121.95798,37.49305],[-121.97817,37.49387],[-122.0295,37.5082],[-122.05039,37.51483],[-122.10687,37.53324],[-122.13574,37.54256],[-122.16255,37.55135],[-122.17215,37.55439],[-122.22504,37.57152],[-122.24535,37.57801],[-122.26177,37.58331],[-122.29567,37.59299],[-122.31242,37.59803],[-122.34706,37.60928],[-122.35366,37.61211]],"type":"LineString"}
}
