{
  "id": 2014439441,
  "type": "Feature",
  "properties": {
    "geom:area": 0,
    "geom:bbox": "-122.385560,37.637200,-121.243760,38.412220",
    "geom:latitude": 38.08791180099904,
    "geom:longitude": -121.925686136255,
    "src:alt_label": "swim-takeoff",
    "src:geom": "swim",
    "swim:elevations": [
      410,
      838,
      1090,
      1165,
      1379,
      1497,
      1889,
      2462,
      2800,
      2904,
      3245,
      3551,
      3720,
      3882,
      4340,
      4450,
      4723,
      5182,
      5409,
      5596,
      5769,
      5907,
      6128,
      6503,
      6616,
      6794,
      6945,
      7144,
      7270
    ],
    "swim:geom": "takeoff",
    "swim:timestamps": [
      1767157518,
      1767157552,
      1767157582,
      1767157600,
      1767157643,
      1767157655,
      1767157683,
      1767157732,
      1767157762,
      1767157771,
      1767157807,
      1767157858,
      1767157885,
      1767157903,
      1767157943,
      1767157954,
      1767157984,
      1767158038,
      1767158065,
      1767158099,
      1767158122,
      1767158138,
      1767158170,
      1767158218,
      1767158242,
      1767158269,
      1767158290,
      1767158323,
      1767158344
    ],
    "wof:geomhash": "021d297aaeed4992921872f323641b7a",
    "wof:id": 2014439441,
    "wof:repo": "sfomuseum-data-flights-2025-12"
  },
  "bbox": [
    -122.38556,
    37.6372,
    -121.24376,
    38.41222
  ],
  "geometry": {"coordinates":[[-122.3578,37.6372],[-122.33486,37.65781],[-122.31401,37.67715],[-122.30912,37.69373],[-122.33058,37.73787],[-122.33876,37.75181],[-122.35706,37.78562],[-122.38556,37.84839],[-122.38497,37.89005],[-122.38448,37.9027],[-122.35849,37.94819],[-122.27383,37.98508],[-122.22351,38.00537],[-122.189,38.01921],[-122.11381,38.04967],[-122.09048,38.05892],[-122.03068,38.08258],[-121.92068,38.12652],[-121.86417,38.14902],[-121.79324,38.17731],[-121.74114,38.19789],[-121.70786,38.21102],[-121.63481,38.23996],[-121.52789,38.28425],[-121.47484,38.30832],[-121.41406,38.33565],[-121.36675,38.35696],[-121.29179,38.3907],[-121.24376,38.41222]],"type":"LineString"}
}
