{
  "id": 2014409869,
  "type": "Feature",
  "properties": {
    "geom:area": 0,
    "geom:bbox": "-122.362410,37.491820,-121.278730,37.615800",
    "geom:latitude": 37.54189229534256,
    "geom:longitude": -121.82760557020356,
    "src:alt_label": "swim-approach",
    "src:geom": "swim",
    "swim:elevations": [
      4569,
      4380,
      3956,
      3771,
      3680,
      3533,
      3118,
      2988,
      2595,
      2528,
      2479,
      2288,
      2088,
      1890,
      1829,
      1816,
      1566,
      1460,
      1248,
      1125,
      1006,
      789,
      667,
      442,
      279,
      133,
      91,
      120
    ],
    "swim:geom": "approach",
    "swim:timestamps": [
      1766833219,
      1766833235,
      1766833280,
      1766833304,
      1766833325,
      1766833352,
      1766833420,
      1766833442,
      1766833493,
      1766833521,
      1766833532,
      1766833563,
      1766833601,
      1766833639,
      1766833672,
      1766833698,
      1766833729,
      1766833741,
      1766833772,
      1766833813,
      1766833831,
      1766833867,
      1766833893,
      1766833938,
      1766833977,
      1766834006,
      1766834018,
      1766834044
    ],
    "wof:geomhash": "35144f73ae5a172fcd51811582ecde44",
    "wof:id": 2014409869,
    "wof:repo": "sfomuseum-data-flights-2025-12"
  },
  "bbox": [
    -122.36241,
    37.49182,
    -121.27873,
    37.6158
  ],
  "geometry": {"coordinates":[[-121.27873,37.59057],[-121.31259,37.58662],[-121.40066,37.57717],[-121.44797,37.5717],[-121.48858,37.56681],[-121.53814,37.56082],[-121.64694,37.54538],[-121.67991,37.53755],[-121.74981,37.52099],[-121.78609,37.51248],[-121.80138,37.50871],[-121.84231,37.49865],[-121.89222,37.49182],[-121.94275,37.49463],[-121.98524,37.49704],[-122.0181,37.49899],[-122.05747,37.50131],[-122.07286,37.50214],[-122.11119,37.50974],[-122.1572,37.52943],[-122.17841,37.53834],[-122.215,37.55376],[-122.23927,37.56399],[-122.27927,37.58076],[-122.30908,37.5933],[-122.33178,37.60287],[-122.34147,37.60692],[-122.36241,37.6158]],"type":"LineString"}
}
