{
  "id": 2014439249,
  "type": "Feature",
  "properties": {
    "geom:area": 0,
    "geom:bbox": "-122.385100,37.628420,-121.259830,38.416500",
    "geom:latitude": 38.08106168668476,
    "geom:longitude": -121.93359593674579,
    "src:alt_label": "swim-takeoff",
    "src:geom": "swim",
    "swim:elevations": [
      244,
      567,
      1036,
      1285,
      1573,
      1704,
      1770,
      1996,
      2477,
      2826,
      3240,
      3356,
      3774,
      4088,
      4513,
      4601,
      4987,
      5342,
      5702,
      5890,
      6265,
      6532,
      6719,
      6982,
      7063,
      7252,
      7529,
      7605,
      7685,
      7971,
      8070
    ],
    "swim:geom": "takeoff",
    "swim:timestamps": [
      1767162864,
      1767162884,
      1767162926,
      1767162955,
      1767162988,
      1767163007,
      1767163020,
      1767163042,
      1767163075,
      1767163102,
      1767163132,
      1767163154,
      1767163197,
      1767163225,
      1767163258,
      1767163270,
      1767163305,
      1767163339,
      1767163377,
      1767163396,
      1767163432,
      1767163460,
      1767163483,
      1767163523,
      1767163541,
      1767163568,
      1767163606,
      1767163617,
      1767163629,
      1767163670,
      1767163685
    ],
    "wof:geomhash": "fbeb633ad13bad776d9aab176d7b6d9d",
    "wof:id": 2014439249,
    "wof:repo": "sfomuseum-data-flights-2025-12"
  },
  "bbox": [
    -122.3851,
    37.62842,
    -121.25983,
    38.4165
  ],
  "geometry": {"coordinates":[[-122.36636,37.62842],[-122.35493,37.63913],[-122.32958,37.66147],[-122.30998,37.68003],[-122.31502,37.71021],[-122.32586,37.72792],[-122.33413,37.74235],[-122.34885,37.77013],[-122.36981,37.81282],[-122.3851,37.84921],[-122.38411,37.89268],[-122.37767,37.92538],[-122.3093,37.96939],[-122.25674,37.99128],[-122.19291,38.01735],[-122.16913,38.02682],[-122.09809,38.05542],[-122.02718,38.08383],[-121.94671,38.11598],[-121.90555,38.13246],[-121.82691,38.16369],[-121.76597,38.18789],[-121.71509,38.20808],[-121.62703,38.24287],[-121.58569,38.25914],[-121.5223,38.28411],[-121.43063,38.32021],[-121.40519,38.3312],[-121.37762,38.34434],[-121.29233,38.39633],[-121.25983,38.4165]],"type":"LineString"}
}
