{
  "id": 2014442431,
  "type": "Feature",
  "properties": {
    "geom:area": 0,
    "geom:bbox": "-122.362620,37.499270,-121.245090,37.613930",
    "geom:latitude": 37.54466026775236,
    "geom:longitude": -121.81046471944187,
    "src:alt_label": "swim-approach",
    "src:geom": "swim",
    "swim:elevations": [
      4717,
      4576,
      4148,
      3839,
      3562,
      3282,
      3140,
      3011,
      2897,
      2741,
      2653,
      2490,
      2277,
      2067,
      1932,
      1839,
      1829,
      1759,
      1560,
      1376,
      1196,
      1137,
      979,
      607,
      495,
      335,
      246,
      199,
      245
    ],
    "swim:geom": "approach",
    "swim:timestamps": [
      1767216408,
      1767216425,
      1767216469,
      1767216503,
      1767216530,
      1767216566,
      1767216595,
      1767216618,
      1767216634,
      1767216655,
      1767216667,
      1767216712,
      1767216739,
      1767216769,
      1767216789,
      1767216811,
      1767216832,
      1767216856,
      1767216888,
      1767216912,
      1767216949,
      1767216969,
      1767216996,
      1767217045,
      1767217065,
      1767217107,
      1767217131,
      1767217145,
      1767217196
    ],
    "wof:geomhash": "fdc714ad7d68a4a62d7ad2e40fd8c751",
    "wof:id": 2014442431,
    "wof:repo": "sfomuseum-data-flights-2025-12"
  },
  "bbox": [
    -122.36262,
    37.49927,
    -121.24509,
    37.61393
  ],
  "geometry": {"coordinates":[[-121.24509,37.59494],[-121.27909,37.59039],[-121.36845,37.58032],[-121.43483,37.5729],[-121.48766,37.56673],[-121.55829,37.55856],[-121.61115,37.55239],[-121.6502,37.54496],[-121.67648,37.53841],[-121.71038,37.53004],[-121.72962,37.52546],[-121.80073,37.50851],[-121.84388,37.49927],[-121.89375,37.50066],[-121.92616,37.50241],[-121.96099,37.50391],[-121.99255,37.50529],[-122.02594,37.50685],[-122.06926,37.50879],[-122.10074,37.50997],[-122.14615,37.52203],[-122.16818,37.5318],[-122.19602,37.5435],[-122.24399,37.56367],[-122.26324,37.57178],[-122.2965,37.58573],[-122.31421,37.59322],[-122.32403,37.59726],[-122.36262,37.61393]],"type":"LineString"}
}
