{
  "id": 2014433713,
  "type": "Feature",
  "properties": {
    "geom:area": 0,
    "geom:bbox": "-123.488510,37.259840,-122.145180,37.682160",
    "geom:latitude": 37.42591912645886,
    "geom:longitude": -122.57475616725101,
    "src:alt_label": "swim-approach",
    "src:geom": "swim",
    "swim:elevations": [
      5463,
      5358,
      5141,
      4895,
      4723,
      4353,
      4168,
      3325,
      3108,
      3049,
      3048,
      3048,
      2929,
      2744,
      2743,
      2743,
      2743,
      2743,
      2743,
      2743,
      2597,
      2437,
      2363,
      2161,
      1930,
      1835,
      1523,
      1436,
      1258,
      1139,
      1095,
      802,
      661,
      518,
      391,
      443,
      707,
      906,
      914,
      914,
      948,
      1285,
      1441,
      1523,
      1524,
      1524,
      1524,
      1524,
      1524,
      1524,
      1524,
      1481,
      1390,
      1221,
      1021,
      913,
      812,
      634,
      498,
      425,
      265,
      99,
      89
    ],
    "swim:geom": "approach",
    "swim:timestamps": [
      1767110262,
      1767110280,
      1767110299,
      1767110326,
      1767110345,
      1767110386,
      1767110409,
      1767110508,
      1767110538,
      1767110557,
      1767110587,
      1767110618,
      1767110641,
      1767110690,
      1767110753,
      1767110798,
      1767110838,
      1767110870,
      1767110897,
      1767110913,
      1767110952,
      1767110987,
      1767111011,
      1767111048,
      1767111080,
      1767111090,
      1767111140,
      1767111177,
      1767111203,
      1767111228,
      1767111245,
      1767111297,
      1767111326,
      1767111353,
      1767111378,
      1767111418,
      1767111440,
      1767111473,
      1767111491,
      1767111530,
      1767111553,
      1767111584,
      1767111617,
      1767111641,
      1767111661,
      1767111712,
      1767111722,
      1767111769,
      1767111801,
      1767111813,
      1767111845,
      1767111885,
      1767111907,
      1767111941,
      1767111968,
      1767111994,
      1767112040,
      1767112073,
      1767112096,
      1767112115,
      1767112155,
      1767112197,
      1767112201
    ],
    "wof:geomhash": "c0f0563763e8b3cba8271741ed87bdad",
    "wof:id": 2014433713,
    "wof:repo": "sfomuseum-data-flights-2025-12"
  },
  "bbox": [
    -123.48851,
    37.25984,
    -122.14518,
    37.68216
  ],
  "geometry": {"coordinates":[[-123.48851,37.30257],[-123.44936,37.29982],[-123.40893,37.29696],[-123.35117,37.29292],[-123.3108,37.29004],[-123.22369,37.2838],[-123.17706,37.28045],[-122.98507,37.26642],[-122.92984,37.26238],[-122.89697,37.25984],[-122.84716,37.26091],[-122.80078,37.27261],[-122.76569,37.28061],[-122.69208,37.29727],[-122.59616,37.31982],[-122.53687,37.32627],[-122.4857,37.31827],[-122.44491,37.31231],[-122.40984,37.30727],[-122.38966,37.30571],[-122.33767,37.31279],[-122.29116,37.31962],[-122.26117,37.32393],[-122.21281,37.33059],[-122.17737,37.34561],[-122.17208,37.35571],[-122.15928,37.40944],[-122.1501,37.4512],[-122.14518,37.47961],[-122.15954,37.50531],[-122.17301,37.52018],[-122.22009,37.55551],[-122.24867,37.56774],[-122.27443,37.57873],[-122.29523,37.58756],[-122.32744,37.60108],[-122.34743,37.60956],[-122.38467,37.6264],[-122.40943,37.63747],[-122.46403,37.66157],[-122.49643,37.67625],[-122.54288,37.68216],[-122.57583,37.65349],[-122.56926,37.62598],[-122.55595,37.60451],[-122.49479,37.57001],[-122.47998,37.56541],[-122.41376,37.54462],[-122.3689,37.53063],[-122.35198,37.52533],[-122.30695,37.51132],[-122.25508,37.49611],[-122.22864,37.48869],[-122.18994,37.47894],[-122.16056,37.48898],[-122.15623,37.51506],[-122.20356,37.54611],[-122.23997,37.56194],[-122.26363,37.57194],[-122.28093,37.57915],[-122.31219,37.59235],[-122.34289,37.60527],[-122.3462,37.60666]],"type":"LineString"}
}
