{
  "id": 2014435109,
  "type": "Feature",
  "properties": {
    "geom:area": 0,
    "geom:bbox": "-123.468900,36.980250,-122.136380,37.609470",
    "geom:latitude": 37.29378903086163,
    "geom:longitude": -122.69292360279005,
    "src:alt_label": "swim-approach",
    "src:geom": "swim",
    "swim:elevations": [
      5662,
      5364,
      5020,
      4946,
      4473,
      4204,
      3902,
      3629,
      3459,
      3332,
      3219,
      3159,
      3082,
      3048,
      3048,
      3048,
      3048,
      3048,
      2961,
      2772,
      2538,
      2435,
      2438,
      2438,
      2426,
      2173,
      2089,
      1858,
      1828,
      1829,
      1798,
      1588,
      1493,
      1362,
      1219,
      1203,
      1111,
      1087,
      913,
      910,
      871,
      822,
      795,
      639,
      409,
      233,
      182,
      42
    ],
    "swim:geom": "approach",
    "swim:timestamps": [
      1767129416,
      1767129445,
      1767129478,
      1767129486,
      1767129533,
      1767129560,
      1767129590,
      1767129617,
      1767129635,
      1767129647,
      1767129674,
      1767129695,
      1767129726,
      1767129760,
      1767129807,
      1767129823,
      1767129835,
      1767129847,
      1767129882,
      1767129920,
      1767129953,
      1767129974,
      1767130016,
      1767130028,
      1767130055,
      1767130100,
      1767130127,
      1767130168,
      1767130190,
      1767130202,
      1767130223,
      1767130258,
      1767130275,
      1767130302,
      1767130346,
      1767130359,
      1767130377,
      1767130380,
      1767130406,
      1767130430,
      1767130459,
      1767130494,
      1767130503,
      1767130536,
      1767130577,
      1767130616,
      1767130634,
      1767130666
    ],
    "wof:geomhash": "c5f7e1709bbbdcc7abdbd3432c5a73bb",
    "wof:id": 2014435109,
    "wof:repo": "sfomuseum-data-flights-2025-12"
  },
  "bbox": [
    -123.4689,
    36.98025,
    -122.13638,
    37.60947
  ],
  "geometry": {"coordinates":[[-123.4689,36.98025],[-123.40906,37.00761],[-123.3427,37.03813],[-123.32727,37.04531],[-123.23441,37.08799],[-123.18355,37.11147],[-123.12742,37.13715],[-123.07696,37.16006],[-123.04352,37.17547],[-123.02119,37.18569],[-122.97191,37.20821],[-122.93575,37.22478],[-122.88599,37.24743],[-122.83256,37.26492],[-122.7579,37.28233],[-122.73343,37.28808],[-122.71448,37.29243],[-122.69563,37.29681],[-122.64344,37.30899],[-122.59251,37.32075],[-122.54765,37.33122],[-122.51924,37.33752],[-122.46166,37.33294],[-122.44541,37.33061],[-122.40901,37.32539],[-122.34928,37.32551],[-122.32956,37.35184],[-122.34163,37.39916],[-122.33402,37.42247],[-122.32179,37.43098],[-122.29489,37.4338],[-122.25314,37.42139],[-122.23284,37.4159],[-122.19901,37.4102],[-122.15478,37.428],[-122.14864,37.44037],[-122.14088,37.45706],[-122.13963,37.45975],[-122.13638,37.48311],[-122.15227,37.50167],[-122.17346,37.52303],[-122.20178,37.54548],[-122.21092,37.54952],[-122.24453,37.5634],[-122.28397,37.58064],[-122.31479,37.59341],[-122.32827,37.59919],[-122.35311,37.60947]],"type":"LineString"}
}
