{
  "id": 2014409461,
  "type": "Feature",
  "properties": {
    "geom:area": 0,
    "geom:bbox": "-123.465730,36.983750,-122.731820,37.288430",
    "geom:latitude": 37.146842627117906,
    "geom:longitude": -123.10257325383738,
    "src:alt_label": "swim-approach",
    "src:geom": "swim",
    "swim:elevations": [
      6557,
      6237,
      5753,
      5604,
      5210,
      4998,
      4790,
      4395,
      4088,
      3716,
      3420,
      3046,
      3048,
      3048
    ],
    "swim:geom": "approach",
    "swim:timestamps": [
      1766846235,
      1766846263,
      1766846308,
      1766846322,
      1766846366,
      1766846384,
      1766846406,
      1766846445,
      1766846477,
      1766846517,
      1766846544,
      1766846586,
      1766846628,
      1766846664
    ],
    "wof:geomhash": "19ced36bdfd66bb0b1be7f73b7204b96",
    "wof:id": 2014409461,
    "wof:repo": "sfomuseum-data-flights-2025-12"
  },
  "bbox": [
    -123.46573,
    36.98375,
    -122.73182,
    37.28843
  ],
  "geometry": {"coordinates":[[-123.46573,36.98375],[-123.41601,37.00744],[-123.33501,37.04403],[-123.3107,37.05509],[-123.23165,37.09113],[-123.19995,37.10555],[-123.16204,37.12273],[-123.09548,37.15266],[-123.04102,37.17744],[-122.97594,37.20698],[-122.93072,37.22729],[-122.86249,37.25658],[-122.79224,37.27429],[-122.73182,37.28843]],"type":"LineString"}
}
