{
  "id": 2014407445,
  "type": "Feature",
  "properties": {
    "geom:area": 0,
    "geom:bbox": "-122.358460,36.745340,-121.892800,37.611570",
    "geom:latitude": 37.24141408572396,
    "geom:longitude": -122.08085057173338,
    "src:alt_label": "swim-approach",
    "src:geom": "swim",
    "swim:elevations": [
      5435,
      5201,
      5044,
      4588,
      4476,
      4273,
      4084,
      3872,
      3799,
      3718,
      3421,
      3317,
      3216,
      3086,
      3007,
      2770,
      2527,
      2488,
      2438,
      2338,
      2230,
      2040,
      1862,
      1683,
      1416,
      1309,
      1191,
      1159,
      1053,
      913,
      914,
      914,
      914,
      869,
      811,
      644,
      549,
      331,
      180,
      82,
      2
    ],
    "swim:geom": "approach",
    "swim:timestamps": [
      1766875768,
      1766875795,
      1766875810,
      1766875853,
      1766875865,
      1766875886,
      1766875910,
      1766875947,
      1766875959,
      1766875988,
      1766876024,
      1766876036,
      1766876046,
      1766876077,
      1766876101,
      1766876140,
      1766876181,
      1766876191,
      1766876224,
      1766876256,
      1766876270,
      1766876292,
      1766876316,
      1766876354,
      1766876389,
      1766876404,
      1766876456,
      1766876466,
      1766876487,
      1766876514,
      1766876545,
      1766876561,
      1766876585,
      1766876603,
      1766876615,
      1766876648,
      1766876672,
      1766876719,
      1766876757,
      1766876782,
      1766876797
    ],
    "wof:geomhash": "f95bc7d981372e0092310c27c74d3709",
    "wof:id": 2014407445,
    "wof:repo": "sfomuseum-data-flights-2025-12"
  },
  "bbox": [
    -122.35846,
    36.74534,
    -121.8928,
    37.61157
  ],
  "geometry": {"coordinates":[[-121.8928,36.74534],[-121.90667,36.78613],[-121.91305,36.80915],[-121.93127,36.87484],[-121.93627,36.89283],[-121.94516,36.92401],[-121.95588,36.9589],[-121.97451,37.0074],[-121.98042,37.0226],[-121.99448,37.05791],[-122.01022,37.09745],[-122.01527,37.11041],[-122.01949,37.1212],[-122.03234,37.15397],[-122.04183,37.1787],[-122.05689,37.21794],[-122.07288,37.25859],[-122.07674,37.26863],[-122.09981,37.29575],[-122.13585,37.31329],[-122.1507,37.32064],[-122.17348,37.33548],[-122.17742,37.35922],[-122.14736,37.38687],[-122.11674,37.41081],[-122.10401,37.4214],[-122.09375,37.46283],[-122.09726,37.46995],[-122.10492,37.48535],[-122.11499,37.50433],[-122.14028,37.51969],[-122.15401,37.52605],[-122.17603,37.5349],[-122.19247,37.54202],[-122.20367,37.54672],[-122.2342,37.55953],[-122.25602,37.56871],[-122.29546,37.58486],[-122.32642,37.59822],[-122.34655,37.60671],[-122.35846,37.61157]],"type":"LineString"}
}
