{
  "id": 2014409361,
  "type": "Feature",
  "properties": {
    "geom:area": 0,
    "geom:bbox": "-122.356960,37.491380,-121.626330,37.613460",
    "geom:latitude": 37.53375578759685,
    "geom:longitude": -121.99402961650645,
    "src:alt_label": "swim-approach",
    "src:geom": "swim",
    "swim:elevations": [
      3078,
      2944,
      2652,
      2601,
      2486,
      2369,
      2191,
      2133,
      1827,
      1819,
      1585,
      1356,
      973,
      853,
      762,
      670,
      485,
      397,
      332,
      209,
      122,
      0
    ],
    "swim:geom": "approach",
    "swim:timestamps": [
      1766853400,
      1766853420,
      1766853473,
      1766853480,
      1766853501,
      1766853521,
      1766853557,
      1766853572,
      1766853625,
      1766853641,
      1766853680,
      1766853711,
      1766853747,
      1766853774,
      1766853794,
      1766853814,
      1766853861,
      1766853895,
      1766853912,
      1766853953,
      1766853975,
      1766854001
    ],
    "wof:geomhash": "f172ff9e05e99d3ac025a17e8363b423",
    "wof:id": 2014409361,
    "wof:repo": "sfomuseum-data-flights-2025-12"
  },
  "bbox": [
    -122.35696,
    37.49138,
    -121.62633,
    37.61346
  ],
  "geometry": {"coordinates":[[-121.62633,37.54964],[-121.65897,37.5427],[-121.74557,37.52197],[-121.75754,37.5191],[-121.79082,37.51106],[-121.82232,37.50346],[-121.87785,37.49209],[-121.89973,37.49138],[-121.97782,37.49425],[-121.99986,37.49872],[-122.05176,37.51514],[-122.08919,37.52744],[-122.13142,37.54148],[-122.16295,37.55165],[-122.18614,37.55905],[-122.20833,37.56611],[-122.25389,37.58091],[-122.28116,37.58881],[-122.29378,37.59252],[-122.32333,37.60104],[-122.33906,37.60624],[-122.35696,37.61346]],"type":"LineString"}
}
