{
  "id": 2014426463,
  "type": "Feature",
  "properties": {
    "geom:area": 0,
    "geom:bbox": "-122.451460,37.556940,-122.097260,37.712570",
    "geom:latitude": 37.62407536041773,
    "geom:longitude": -122.24968139382622,
    "src:alt_label": "swim-approach",
    "src:geom": "swim",
    "swim:elevations": [
      3277,
      2819,
      2584,
      2490,
      2047,
      1851,
      1829,
      1659,
      1340,
      1277,
      1034,
      904,
      701,
      537,
      428,
      336,
      236,
      62,
      93
    ],
    "swim:geom": "approach",
    "swim:timestamps": [
      1767023641,
      1767023698,
      1767023721,
      1767023733,
      1767023783,
      1767023816,
      1767023859,
      1767023890,
      1767023933,
      1767023947,
      1767023988,
      1767024020,
      1767024056,
      1767024088,
      1767024114,
      1767024132,
      1767024159,
      1767024199,
      1767024216
    ],
    "wof:geomhash": "49375405e6fe8373456b10ae3bd29b97",
    "wof:id": 2014426463,
    "wof:repo": "sfomuseum-data-flights-2025-12"
  },
  "bbox": [
    -122.45146,
    37.55694,
    -122.09726,
    37.71257
  ],
  "geometry": {"coordinates":[[-122.45146,37.71257],[-122.37833,37.69027],[-122.34884,37.68135],[-122.33373,37.67677],[-122.26858,37.65913],[-122.22544,37.64754],[-122.1703,37.63194],[-122.13096,37.62069],[-122.09726,37.58681],[-122.10189,37.57231],[-122.14442,37.55694],[-122.1815,37.55833],[-122.21837,37.56965],[-122.25147,37.58022],[-122.27729,37.58785],[-122.29281,37.59224],[-122.3149,37.59872],[-122.34566,37.6089],[-122.35827,37.61396]],"type":"LineString"}
}
