{
  "id": 2014420865,
  "type": "Feature",
  "properties": {
    "date:inception_lower": "2025-12-28",
    "date:inception_upper": "2025-12-28",
    "edtf:cessation": "",
    "edtf:inception": "2025-12-28",
    "flysfo:actual_timestamp": -1,
    "flysfo:airline": "F9",
    "flysfo:date": "2025-12-28",
    "flysfo:estimated_timestamp": 1766992920,
    "flysfo:event": "D",
    "flysfo:flight_number": "F92638",
    "flysfo:gate": "",
    "flysfo:journey": "SFO-PHX",
    "flysfo:scheduled_timestamp": 1766987760,
    "flysfo:timestamp": 1766992920,
    "geom:area": 0,
    "geom:bbox": "-122.370943,33.432684,-112.017392,37.617990",
    "geom:latitude": 35.525337,
    "geom:longitude": -117.19416749999999,
    "iata:airline": "F9",
    "icao:airline": "FFT",
    "lbl:latitude": 37.61799,
    "lbl:longitude": -122.370943,
    "sfomuseum:airline_id": 1159284401,
    "sfomuseum:arrival_id": 102526751,
    "sfomuseum:departure_id": 102527513,
    "sfomuseum:flight_id": "20251228-D-FFT-2638",
    "sfomuseum:flight_number": [
      "FFT2638",
      "F92638"
    ],
    "sfomuseum:placetype": "flight",
    "src:geom": "flysfo",
    "wof:belongsto": [],
    "wof:country": "US",
    "wof:created": 1767024834,
    "wof:geomhash": "2a19f056fd5d16c52f22f1bf5dc85c9c",
    "wof:hierarchy": [
      {
        "custom_id": 2014420865,
        "flight_id": 2014420865
      }
    ],
    "wof:id": 2014420865,
    "wof:involves": [
      102526751,
      102527513,
      1159284401,
      -1
    ],
    "wof:lastmodified": 1767024834,
    "wof:name": "F92638 (SFO-PHX)",
    "wof:parent_id": -1,
    "wof:placetype": "custom",
    "wof:placetype_alt": [
      "flight"
    ],
    "wof:repo": "sfomuseum-data-flights-2025-12",
    "wof:superseded_by": [],
    "wof:supersedes": []
  },
  "bbox": [
    -122.370943,
    33.432684,
    -112.017392,
    37.61799
  ],
  "geometry": {"coordinates":[[-122.370943,37.61799],[-112.017392,33.432684]],"type":"MultiPoint"}
}
