{
  "id": 2014443419,
  "type": "Feature",
  "properties": {
    "geom:area": 0,
    "geom:bbox": "-122.356650,37.469040,-121.294370,37.611000",
    "geom:latitude": 37.53680764968252,
    "geom:longitude": -121.83331098570729,
    "src:alt_label": "swim-approach",
    "src:geom": "swim",
    "swim:elevations": [
      4390,
      4173,
      3934,
      3740,
      3372,
      3263,
      3137,
      3038,
      2951,
      2773,
      2635,
      2408,
      2158,
      1995,
      1855,
      1830,
      1817,
      1494,
      1295,
      1162,
      992,
      823,
      773,
      574,
      394,
      304,
      285,
      141,
      19
    ],
    "swim:geom": "approach",
    "swim:timestamps": [
      1767213808,
      1767213829,
      1767213852,
      1767213876,
      1767213927,
      1767213950,
      1767213987,
      1767214015,
      1767214032,
      1767214069,
      1767214090,
      1767214127,
      1767214165,
      1767214198,
      1767214226,
      1767214238,
      1767214268,
      1767214318,
      1767214342,
      1767214360,
      1767214381,
      1767214426,
      1767214434,
      1767214461,
      1767214498,
      1767214521,
      1767214531,
      1767214567,
      1767214596
    ],
    "wof:geomhash": "3775bd565c3005311b968bac866d794d",
    "wof:id": 2014443419,
    "wof:repo": "sfomuseum-data-flights-2025-12"
  },
  "bbox": [
    -122.35665,
    37.46904,
    -121.29437,
    37.611
  ],
  "geometry": {"coordinates":[[-121.29437,37.58851],[-121.33713,37.58386],[-121.38309,37.57873],[-121.43075,37.57336],[-121.52845,37.56184],[-121.57333,37.55665],[-121.63812,37.54749],[-121.67855,37.53786],[-121.70376,37.5318],[-121.75422,37.51973],[-121.78205,37.51296],[-121.83069,37.50133],[-121.88164,37.48909],[-121.92403,37.47796],[-121.95897,37.46904],[-121.9751,37.46928],[-122.01525,37.4809],[-122.07881,37.49915],[-122.10968,37.50785],[-122.13201,37.51618],[-122.1575,37.52715],[-122.20878,37.54894],[-122.21723,37.55238],[-122.24658,37.56477],[-122.28246,37.57976],[-122.30146,37.58787],[-122.30849,37.59085],[-122.33423,37.60161],[-122.35665,37.611]],"type":"LineString"}
}
