{
  "id": 2014413277,
  "type": "Feature",
  "properties": {
    "geom:area": 0,
    "geom:bbox": "-122.435230,37.123530,-121.279790,37.706930",
    "geom:latitude": 37.35297912925171,
    "geom:longitude": -121.9777591828847,
    "src:alt_label": "swim-takeoff",
    "src:geom": "swim",
    "swim:elevations": [
      122,
      520,
      835,
      1236,
      1382,
      1940,
      2376,
      3186,
      3592,
      4044,
      4144,
      4632,
      4758,
      5429,
      5770,
      5964,
      6560,
      6797,
      7030,
      7446,
      7748,
      8137,
      8408,
      8617,
      8785,
      8966,
      9238,
      9450
    ],
    "swim:geom": "takeoff",
    "swim:timestamps": [
      1766845156,
      1766845195,
      1766845224,
      1766845256,
      1766845268,
      1766845305,
      1766845330,
      1766845377,
      1766845401,
      1766845429,
      1766845444,
      1766845496,
      1766845505,
      1766845549,
      1766845578,
      1766845592,
      1766845639,
      1766845661,
      1766845685,
      1766845725,
      1766845752,
      1766845796,
      1766845825,
      1766845853,
      1766845870,
      1766845898,
      1766845934,
      1766845963
    ],
    "wof:geomhash": "0754f70f6ef38198f116877b5bb35909",
    "wof:id": 2014413277,
    "wof:repo": "sfomuseum-data-flights-2025-12"
  },
  "bbox": [
    -122.43523,
    37.12353,
    -121.27979,
    37.70693
  ],
  "geometry": {"coordinates":[[-122.37025,37.62703],[-122.36385,37.65604],[-122.36168,37.68385],[-122.38821,37.70693],[-122.40567,37.70639],[-122.43523,37.6713],[-122.43173,37.63724],[-122.42417,37.57251],[-122.42082,37.53824],[-122.41609,37.49721],[-122.4047,37.47684],[-122.31169,37.44129],[-122.29241,37.43723],[-122.19874,37.41736],[-122.13745,37.40323],[-122.10945,37.39186],[-122.02288,37.34052],[-121.98051,37.31495],[-121.93368,37.28545],[-121.8567,37.23683],[-121.79933,37.20743],[-121.69587,37.1876],[-121.62497,37.17708],[-121.556,37.16651],[-121.51447,37.15995],[-121.44422,37.14916],[-121.35255,37.13502],[-121.27979,37.12353]],"type":"LineString"}
}
