{
  "id": 2014439333,
  "type": "Feature",
  "properties": {
    "geom:area": 0,
    "geom:bbox": "-123.490500,37.089190,-122.400870,37.667810",
    "geom:latitude": 37.402599691286156,
    "geom:longitude": -122.94829750706502,
    "src:alt_label": "swim-takeoff",
    "src:geom": "swim",
    "swim:elevations": [
      260,
      620,
      916,
      1167,
      1390,
      1655,
      1844,
      2275,
      2362,
      2983,
      3185,
      3416,
      3554,
      3976,
      4256,
      4360,
      4977,
      5121,
      5414,
      5673,
      6118,
      6408,
      6520,
      6764,
      6902
    ],
    "swim:geom": "takeoff",
    "swim:timestamps": [
      1767086996,
      1767087026,
      1767087053,
      1767087087,
      1767087115,
      1767087145,
      1767087174,
      1767087206,
      1767087213,
      1767087264,
      1767087280,
      1767087322,
      1767087351,
      1767087387,
      1767087408,
      1767087420,
      1767087476,
      1767087489,
      1767087522,
      1767087555,
      1767087594,
      1767087627,
      1767087640,
      1767087674,
      1767087695
    ],
    "wof:geomhash": "caf5867bbe2a9d847c9b4682661f8817",
    "wof:id": 2014439333,
    "wof:repo": "sfomuseum-data-flights-2025-12"
  },
  "bbox": [
    -123.4905,
    37.08919,
    -122.40087,
    37.66781
  ],
  "geometry": {"coordinates":[[-122.40087,37.62955],[-122.42783,37.64142],[-122.45322,37.65312],[-122.48746,37.66781],[-122.52083,37.66505],[-122.55138,37.64474],[-122.58594,37.62204],[-122.62604,37.59646],[-122.63495,37.59077],[-122.70161,37.54865],[-122.72546,37.53456],[-122.78965,37.49741],[-122.83914,37.46868],[-122.90286,37.43182],[-122.94096,37.40991],[-122.96322,37.39705],[-123.06648,37.33702],[-123.09142,37.32252],[-123.15379,37.28636],[-123.21799,37.24897],[-123.29354,37.2049],[-123.35819,37.16721],[-123.38355,37.1523],[-123.45008,37.11311],[-123.4905,37.08919]],"type":"LineString"}
}
