{
  "id": 2014426033,
  "type": "Feature",
  "properties": {
    "geom:area": 0,
    "geom:bbox": "-123.480060,37.239980,-122.056570,37.612840",
    "geom:latitude": 37.357459153303324,
    "geom:longitude": -122.64889738195974,
    "src:alt_label": "swim-approach",
    "src:geom": "swim",
    "swim:elevations": [
      5897,
      5590,
      5336,
      5040,
      4668,
      4483,
      4080,
      3886,
      3539,
      3303,
      3167,
      3048,
      3048,
      3048,
      3048,
      3048,
      3048,
      3036,
      2767,
      2553,
      2469,
      2438,
      2377,
      2154,
      1972,
      1880,
      1830,
      1829,
      1829,
      1829,
      1829,
      1668,
      1518,
      1266,
      1219,
      1219,
      1155,
      1088,
      828,
      801,
      581,
      426,
      328,
      239,
      153,
      0
    ],
    "swim:geom": "approach",
    "swim:timestamps": [
      1767032157,
      1767032187,
      1767032217,
      1767032240,
      1767032277,
      1767032298,
      1767032337,
      1767032357,
      1767032392,
      1767032422,
      1767032455,
      1767032482,
      1767032505,
      1767032526,
      1767032568,
      1767032590,
      1767032633,
      1767032655,
      1767032693,
      1767032725,
      1767032739,
      1767032777,
      1767032807,
      1767032843,
      1767032878,
      1767032899,
      1767032925,
      1767032944,
      1767032993,
      1767033021,
      1767033055,
      1767033087,
      1767033112,
      1767033148,
      1767033177,
      1767033191,
      1767033231,
      1767033246,
      1767033296,
      1767033302,
      1767033344,
      1767033387,
      1767033414,
      1767033437,
      1767033461,
      1767033499
    ],
    "wof:geomhash": "e391d6830427e394d5a08711740a3cd9",
    "wof:id": 2014426033,
    "wof:repo": "sfomuseum-data-flights-2025-12"
  },
  "bbox": [
    -123.48006,
    37.23998,
    -122.05657,
    37.61284
  ],
  "geometry": {"coordinates":[[-123.48006,37.30681],[-123.41875,37.30222],[-123.35817,37.29747],[-123.31131,37.29376],[-123.23552,37.28766],[-123.19442,37.28445],[-123.11891,37.27841],[-123.08099,37.27537],[-123.01885,37.27035],[-122.96517,37.26584],[-122.91113,37.26147],[-122.87069,37.25814],[-122.83732,37.25531],[-122.80654,37.25273],[-122.74545,37.24768],[-122.71289,37.24507],[-122.64952,37.24003],[-122.6174,37.23998],[-122.58138,37.27161],[-122.56335,37.30801],[-122.55283,37.3223],[-122.50177,37.34094],[-122.46307,37.3504],[-122.41505,37.36237],[-122.36872,37.3739],[-122.34107,37.38045],[-122.30643,37.38838],[-122.28208,37.39391],[-122.21743,37.4086],[-122.1803,37.41689],[-122.13498,37.42686],[-122.09373,37.43594],[-122.06277,37.44525],[-122.05657,37.4773],[-122.08301,37.49509],[-122.09797,37.50164],[-122.13629,37.51815],[-122.15006,37.524],[-122.19739,37.544],[-122.20307,37.54638],[-122.24382,37.56367],[-122.27933,37.5785],[-122.29916,37.58689],[-122.31528,37.59364],[-122.33348,37.60129],[-122.36193,37.61284]],"type":"LineString"}
}
