{
  "id": 2014428761,
  "type": "Feature",
  "properties": {
    "geom:area": 0,
    "geom:bbox": "-122.364860,37.631110,-122.115190,38.518180",
    "geom:latitude": 38.04051577571354,
    "geom:longitude": -122.17781959438477,
    "src:alt_label": "swim-takeoff",
    "src:geom": "swim",
    "swim:elevations": [
      183,
      592,
      778,
      1214,
      1624,
      2062,
      2577,
      2719,
      3268,
      3406,
      3591,
      3999,
      4436,
      4559,
      4985,
      5452,
      5539,
      6031,
      6254,
      6525,
      6647,
      6891
    ],
    "swim:geom": "takeoff",
    "swim:timestamps": [
      1767030879,
      1767030925,
      1767030940,
      1767030981,
      1767031009,
      1767031042,
      1767031075,
      1767031083,
      1767031133,
      1767031158,
      1767031182,
      1767031217,
      1767031249,
      1767031260,
      1767031300,
      1767031343,
      1767031359,
      1767031403,
      1767031432,
      1767031466,
      1767031479,
      1767031513
    ],
    "wof:geomhash": "7b5af54149a63876cca1d214e71874ea",
    "wof:id": 2014428761,
    "wof:repo": "sfomuseum-data-flights-2025-12"
  },
  "bbox": [
    -122.36486,
    37.63111,
    -122.11519,
    38.51818
  ],
  "geometry": {"coordinates":[[-122.36486,37.63111],[-122.32834,37.65595],[-122.31224,37.66453],[-122.26584,37.69088],[-122.22924,37.71026],[-122.20849,37.74723],[-122.20237,37.78961],[-122.20103,37.79948],[-122.19084,37.86417],[-122.18463,37.90189],[-122.17831,37.93997],[-122.1685,37.99687],[-122.15956,38.05023],[-122.15655,38.06886],[-122.14566,38.13651],[-122.1335,38.21065],[-122.1289,38.23862],[-122.11636,38.31468],[-122.11519,38.36725],[-122.11917,38.42873],[-122.12078,38.45268],[-122.12183,38.51818]],"type":"LineString"}
}
