{
  "id": 2014424951,
  "type": "Feature",
  "properties": {
    "geom:area": 0,
    "geom:bbox": "-122.332940,37.526010,-121.267190,37.603780",
    "geom:latitude": 37.554187726996446,
    "geom:longitude": -121.8035532052987,
    "src:alt_label": "swim-approach",
    "src:geom": "swim",
    "swim:elevations": [
      4343,
      4076,
      4035,
      3850,
      3522,
      3278,
      3097,
      3071,
      2788,
      2617,
      2258,
      2135,
      2134,
      1870,
      1829,
      1669,
      1639,
      1401,
      1279,
      1116,
      946,
      789,
      693,
      496,
      474,
      265,
      143
    ],
    "swim:geom": "approach",
    "swim:timestamps": [
      1767017747,
      1767017785,
      1767017795,
      1767017835,
      1767017876,
      1767017901,
      1767017935,
      1767017945,
      1767017985,
      1767018004,
      1767018055,
      1767018086,
      1767018093,
      1767018145,
      1767018175,
      1767018202,
      1767018210,
      1767018262,
      1767018295,
      1767018325,
      1767018358,
      1767018383,
      1767018407,
      1767018443,
      1767018450,
      1767018495,
      1767018522
    ],
    "wof:geomhash": "db337305af796f84e322b554dcc36a4c",
    "wof:id": 2014424951,
    "wof:repo": "sfomuseum-data-flights-2025-12"
  },
  "bbox": [
    -122.33294,
    37.52601,
    -121.26719,
    37.60378
  ],
  "geometry": {"coordinates":[[-121.26719,37.59118],[-121.34481,37.58342],[-121.36583,37.58148],[-121.4405,37.57302],[-121.51158,37.56411],[-121.55336,37.55894],[-121.60884,37.55234],[-121.62392,37.55005],[-121.68732,37.53872],[-121.71754,37.5378],[-121.79597,37.53514],[-121.84099,37.53413],[-121.85072,37.53377],[-121.92058,37.53129],[-121.96148,37.52985],[-121.99619,37.52841],[-122.00743,37.52803],[-122.07335,37.52601],[-122.11011,37.5341],[-122.14109,37.54392],[-122.17429,37.55524],[-122.20071,37.56379],[-122.22568,37.57162],[-122.26224,37.58358],[-122.2691,37.58542],[-122.30914,37.5966],[-122.33294,37.60378]],"type":"LineString"}
}
