{
  "id": 2014430001,
  "type": "Feature",
  "properties": {
    "geom:area": 0,
    "geom:bbox": "-122.447130,36.727400,-121.327320,37.700800",
    "geom:latitude": 37.19476002953952,
    "geom:longitude": -122.0057140897777,
    "src:alt_label": "swim-takeoff",
    "src:geom": "swim",
    "swim:elevations": [
      122,
      372,
      529,
      746,
      934,
      1625,
      2118,
      2369,
      2430,
      2927,
      3239,
      3432,
      3586,
      3754,
      3973,
      4154,
      4384,
      4831,
      4939,
      5197,
      5429,
      5627,
      5855,
      6065,
      6173,
      6454,
      6552,
      6760,
      6856,
      6980,
      7137,
      7274,
      7295,
      7375,
      7400
    ],
    "swim:geom": "takeoff",
    "swim:timestamps": [
      1767032817,
      1767032840,
      1767032859,
      1767032890,
      1767032912,
      1767032964,
      1767032997,
      1767033024,
      1767033030,
      1767033075,
      1767033109,
      1767033145,
      1767033173,
      1767033195,
      1767033220,
      1767033242,
      1767033272,
      1767033327,
      1767033340,
      1767033372,
      1767033409,
      1767033440,
      1767033472,
      1767033499,
      1767033514,
      1767033566,
      1767033581,
      1767033624,
      1767033647,
      1767033680,
      1767033719,
      1767033747,
      1767033750,
      1767033774,
      1767033781
    ],
    "wof:geomhash": "5e70790dba1c8ca0ff3272acc5ae1684",
    "wof:id": 2014430001,
    "wof:repo": "sfomuseum-data-flights-2025-12"
  },
  "bbox": [
    -122.44713,
    36.7274,
    -121.32732,
    37.7008
  ],
  "geometry": {"coordinates":[[-122.36956,37.62842],[-122.36405,37.64326],[-122.36353,37.65664],[-122.36226,37.68216],[-122.37245,37.7008],[-122.43017,37.68156],[-122.44713,37.64698],[-122.44227,37.61382],[-122.44129,37.60615],[-122.43502,37.54668],[-122.43131,37.49982],[-122.42667,37.44464],[-122.41145,37.40233],[-122.37942,37.37928],[-122.33715,37.35346],[-122.30025,37.33094],[-122.25033,37.30046],[-122.15572,37.24244],[-122.13179,37.2277],[-122.0758,37.19331],[-122.00979,37.15258],[-121.95598,37.11939],[-121.89847,37.08383],[-121.84867,37.05296],[-121.82292,37.03702],[-121.72805,36.97818],[-121.70082,36.96115],[-121.62346,36.91297],[-121.58084,36.88636],[-121.51965,36.84808],[-121.44634,36.80218],[-121.39179,36.76789],[-121.38609,36.76434],[-121.34063,36.7358],[-121.32732,36.7274]],"type":"LineString"}
}
