{
  "id": 2014421767,
  "type": "Feature",
  "properties": {
    "geom:area": 0,
    "geom:bbox": "-122.562110,36.734830,-122.363410,37.741030",
    "geom:latitude": 37.305037123719224,
    "geom:longitude": -122.50821072635121,
    "src:alt_label": "swim-takeoff",
    "src:geom": "swim",
    "swim:elevations": [
      250,
      638,
      801,
      1111,
      1219,
      1219,
      1924,
      2019,
      2446,
      2952,
      3487,
      3903,
      4019,
      4269,
      4600,
      4938,
      5200,
      5501,
      5905,
      6238,
      6405,
      6676,
      7133,
      7322,
      7620,
      7620,
      7620,
      7620,
      7620,
      7620
    ],
    "swim:geom": "takeoff",
    "swim:timestamps": [
      1766950371,
      1766950407,
      1766950425,
      1766950459,
      1766950498,
      1766950504,
      1766950557,
      1766950563,
      1766950596,
      1766950633,
      1766950671,
      1766950706,
      1766950715,
      1766950738,
      1766950761,
      1766950785,
      1766950804,
      1766950843,
      1766950885,
      1766950914,
      1766950928,
      1766950955,
      1766950996,
      1766951014,
      1766951068,
      1766951097,
      1766951100,
      1766951112,
      1766951139,
      1766951169
    ],
    "wof:geomhash": "667a8e638f3ee342193ebe4cd0c611fb",
    "wof:id": 2014421767,
    "wof:repo": "sfomuseum-data-flights-2025-12"
  },
  "bbox": [
    -122.56211,
    36.73483,
    -122.36341,
    37.74103
  ],
  "geometry": {"coordinates":[[-122.36741,37.63223],[-122.36529,37.65941],[-122.36341,37.67452],[-122.3757,37.70375],[-122.42922,37.72705],[-122.43785,37.7305],[-122.51877,37.74103],[-122.52684,37.73641],[-122.55016,37.69804],[-122.55055,37.64552],[-122.55168,37.59079],[-122.55265,37.53785],[-122.55291,37.524],[-122.55364,37.48795],[-122.55495,37.45009],[-122.55572,37.41188],[-122.55618,37.38089],[-122.55777,37.31321],[-122.55932,37.23761],[-122.56067,37.1832],[-122.56125,37.15562],[-122.56211,37.10426],[-122.56106,37.02438],[-122.54991,36.99155],[-122.48889,36.90432],[-122.45462,36.85722],[-122.45107,36.85238],[-122.43684,36.83305],[-122.40422,36.78853],[-122.36446,36.73483]],"type":"LineString"}
}
