{
  "id": 2014420881,
  "type": "Feature",
  "properties": {
    "geom:area": 0,
    "geom:bbox": "-122.532270,37.041890,-122.363470,37.704730",
    "geom:latitude": 37.41362053728507,
    "geom:longitude": -122.47552920527686,
    "src:alt_label": "swim-takeoff",
    "src:geom": "swim",
    "swim:elevations": [
      319,
      465,
      605,
      1183,
      1550,
      2100,
      2266,
      3029,
      3232,
      3517,
      3580,
      4106,
      4393,
      4958,
      5146,
      5351,
      5739,
      5756,
      5976
    ],
    "swim:geom": "takeoff",
    "swim:timestamps": [
      1766932347,
      1766932359,
      1766932380,
      1766932426,
      1766932455,
      1766932492,
      1766932505,
      1766932553,
      1766932578,
      1766932616,
      1766932621,
      1766932662,
      1766932682,
      1766932731,
      1766932749,
      1766932772,
      1766932827,
      1766932831,
      1766932861
    ],
    "wof:geomhash": "6beaa33f9a1bb08341f05be742a49087",
    "wof:id": 2014420881,
    "wof:repo": "sfomuseum-data-flights-2025-12"
  },
  "bbox": [
    -122.53227,
    37.04189,
    -122.36347,
    37.70473
  ],
  "geometry": {"coordinates":[[-122.36692,37.63355],[-122.36551,37.64223],[-122.36347,37.65954],[-122.37327,37.70207],[-122.41374,37.70473],[-122.4425,37.6645],[-122.44651,37.64642],[-122.45954,37.58081],[-122.46638,37.5434],[-122.47771,37.48316],[-122.47935,37.4732],[-122.49094,37.40353],[-122.49787,37.36895],[-122.51439,37.28031],[-122.52034,37.24807],[-122.52825,37.20458],[-122.53227,37.09833],[-122.52934,37.09183],[-122.48737,37.04189]],"type":"LineString"}
}
