{
  "id": 2014431981,
  "type": "Feature",
  "properties": {
    "geom:area": 0,
    "geom:bbox": "-122.358050,37.491690,-121.253110,37.613820",
    "geom:latitude": 37.54663928107789,
    "geom:longitude": -121.81047315362797,
    "src:alt_label": "swim-approach",
    "src:geom": "swim",
    "swim:elevations": [
      4445,
      4317,
      4062,
      3677,
      3539,
      3231,
      3068,
      2978,
      2779,
      2590,
      2436,
      2259,
      2071,
      1960,
      1865,
      1770,
      1308,
      1174,
      876,
      760,
      557,
      548,
      459,
      365,
      168,
      143,
      0
    ],
    "swim:geom": "approach",
    "swim:timestamps": [
      1767115435,
      1767115450,
      1767115477,
      1767115522,
      1767115537,
      1767115577,
      1767115615,
      1767115630,
      1767115666,
      1767115695,
      1767115722,
      1767115768,
      1767115798,
      1767115827,
      1767115844,
      1767115864,
      1767115910,
      1767115926,
      1767115972,
      1767115994,
      1767116036,
      1767116053,
      1767116090,
      1767116111,
      1767116156,
      1767116162,
      1767116194
    ],
    "wof:geomhash": "9a86e2450c9e5c26bb604ac22da70908",
    "wof:id": 2014431981,
    "wof:repo": "sfomuseum-data-flights-2025-12"
  },
  "bbox": [
    -122.35805,
    37.49169,
    -121.25311,
    37.61382
  ],
  "geometry": {"coordinates":[[-121.25311,37.59432],[-121.2827,37.59032],[-121.33799,37.5842],[-121.42692,37.5741],[-121.45691,37.57062],[-121.53472,37.56142],[-121.60808,37.55286],[-121.63547,37.54818],[-121.69723,37.53354],[-121.74598,37.52188],[-121.79025,37.51124],[-121.86084,37.49426],[-121.90721,37.49169],[-121.95206,37.49294],[-121.97661,37.49368],[-122.00421,37.49993],[-122.06706,37.52031],[-122.08906,37.52743],[-122.14591,37.54587],[-122.17009,37.55365],[-122.21429,37.5681],[-122.23157,37.57356],[-122.26936,37.58547],[-122.28847,37.59091],[-122.32717,37.60241],[-122.33264,37.60401],[-122.35805,37.61382]],"type":"LineString"}
}
