{
  "id": 2014414637,
  "type": "Feature",
  "properties": {
    "geom:area": 0,
    "geom:bbox": "-122.355470,37.491970,-121.258610,37.612910",
    "geom:latitude": 37.546426630501564,
    "geom:longitude": -121.81200932020838,
    "src:alt_label": "swim-approach",
    "src:geom": "swim",
    "swim:elevations": [
      4271,
      4092,
      3853,
      3820,
      3545,
      3425,
      3292,
      3235,
      3039,
      2866,
      2836,
      2530,
      2345,
      2316,
      2061,
      2005,
      1828,
      1755,
      1536,
      1390,
      1163,
      955,
      765,
      655,
      547,
      523,
      482,
      327,
      213,
      116,
      17
    ],
    "swim:geom": "approach",
    "swim:timestamps": [
      1766952058,
      1766952087,
      1766952117,
      1766952122,
      1766952160,
      1766952184,
      1766952202,
      1766952214,
      1766952244,
      1766952264,
      1766952273,
      1766952323,
      1766952358,
      1766952361,
      1766952415,
      1766952427,
      1766952471,
      1766952487,
      1766952525,
      1766952555,
      1766952581,
      1766952604,
      1766952632,
      1766952657,
      1766952675,
      1766952715,
      1766952734,
      1766952770,
      1766952796,
      1766952825,
      1766952846
    ],
    "wof:geomhash": "6f41e45b3e6a4c5cbd566dfa86418b2d",
    "wof:id": 2014414637,
    "wof:repo": "sfomuseum-data-flights-2025-12"
  },
  "bbox": [
    -122.35547,
    37.49197,
    -121.25861,
    37.61291
  ],
  "geometry": {"coordinates":[[-121.25861,37.59382],[-121.31993,37.58601],[-121.38289,37.57908],[-121.39328,37.57788],[-121.47209,37.5688],[-121.51958,37.56328],[-121.55396,37.55923],[-121.57642,37.55666],[-121.62918,37.54978],[-121.66441,37.54137],[-121.67968,37.53758],[-121.76192,37.51811],[-121.81555,37.50524],[-121.82014,37.50414],[-121.90281,37.49197],[-121.92131,37.49245],[-121.98691,37.49542],[-122.00925,37.50198],[-122.06028,37.51832],[-122.09597,37.5298],[-122.12317,37.53857],[-122.14692,37.54647],[-122.17501,37.55587],[-122.19975,37.56368],[-122.21791,37.56949],[-122.25289,37.58048],[-122.26793,37.58502],[-122.29836,37.59082],[-122.31897,37.59758],[-122.34028,37.6065],[-122.35547,37.61291]],"type":"LineString"}
}
