{
  "id": 2014443455,
  "type": "Feature",
  "properties": {
    "geom:area": 0,
    "geom:bbox": "-122.360460,36.719380,-121.876920,37.613100",
    "geom:latitude": 37.21043411969884,
    "geom:longitude": -122.06994479612952,
    "src:alt_label": "swim-approach",
    "src:geom": "swim",
    "swim:elevations": [
      4717,
      4674,
      4182,
      4027,
      3724,
      3591,
      3531,
      3246,
      2920,
      2899,
      2498,
      2438,
      2438,
      2438,
      2266,
      2108,
      1916,
      1707,
      1555,
      1227,
      1085,
      966,
      896,
      776,
      671,
      611,
      395,
      214,
      101,
      0
    ],
    "swim:geom": "approach",
    "swim:timestamps": [
      1767211378,
      1767211384,
      1767211438,
      1767211455,
      1767211494,
      1767211521,
      1767211535,
      1767211575,
      1767211618,
      1767211621,
      1767211675,
      1767211702,
      1767211729,
      1767211754,
      1767211793,
      1767211808,
      1767211846,
      1767211885,
      1767211900,
      1767211939,
      1767211963,
      1767211992,
      1767212016,
      1767212037,
      1767212055,
      1767212070,
      1767212116,
      1767212152,
      1767212185,
      1767212209
    ],
    "wof:geomhash": "69f0a6409ab5430248b4781046544d7d",
    "wof:id": 2014443455,
    "wof:repo": "sfomuseum-data-flights-2025-12"
  },
  "bbox": [
    -122.36046,
    36.71938,
    -121.87692,
    37.6131
  ],
  "geometry": {"coordinates":[[-121.87692,36.71938],[-121.88388,36.72843],[-121.91565,36.81791],[-121.92365,36.84643],[-121.9413,36.9091],[-121.9532,36.95075],[-121.96069,36.97101],[-121.98306,37.02836],[-122.00612,37.08737],[-122.00776,37.09148],[-122.03633,37.16455],[-122.05051,37.20068],[-122.06481,37.23719],[-122.07685,37.26787],[-122.09477,37.31362],[-122.10175,37.33132],[-122.11896,37.37529],[-122.133,37.41631],[-122.1382,37.4315],[-122.15176,37.47042],[-122.15968,37.49343],[-122.16878,37.52046],[-122.18675,37.53833],[-122.20901,37.54861],[-122.22866,37.55707],[-122.24456,37.56396],[-122.28965,37.58284],[-122.31874,37.59506],[-122.34295,37.60522],[-122.36046,37.6131]],"type":"LineString"}
}
