{
  "id": 2014437903,
  "type": "Feature",
  "properties": {
    "geom:area": 0,
    "geom:bbox": "-122.360310,37.636430,-121.278560,38.111720",
    "geom:latitude": 37.88879761561354,
    "geom:longitude": -121.82627164797313,
    "src:alt_label": "swim-takeoff",
    "src:geom": "swim",
    "swim:elevations": [
      338,
      672,
      862,
      1093,
      1686,
      2118,
      2266,
      2372,
      2808,
      3301,
      3417,
      3702,
      4173,
      4353,
      4836,
      5018,
      5395,
      5575,
      5761,
      5902,
      6380,
      6425,
      6813,
      7091,
      7402,
      7500
    ],
    "swim:geom": "takeoff",
    "swim:timestamps": [
      1767086156,
      1767086188,
      1767086214,
      1767086232,
      1767086270,
      1767086295,
      1767086304,
      1767086310,
      1767086337,
      1767086367,
      1767086384,
      1767086419,
      1767086452,
      1767086464,
      1767086500,
      1767086513,
      1767086548,
      1767086566,
      1767086585,
      1767086614,
      1767086658,
      1767086662,
      1767086698,
      1767086725,
      1767086755,
      1767086767
    ],
    "wof:geomhash": "f1c9a03bd7d316223660c962c001bb23",
    "wof:id": 2014437903,
    "wof:repo": "sfomuseum-data-flights-2025-12"
  },
  "bbox": [
    -122.36031,
    37.63643,
    -121.27856,
    38.11172
  ],
  "geometry": {"coordinates":[[-122.36031,37.63643],[-122.33632,37.65086],[-122.31065,37.66559],[-122.29001,37.67735],[-122.2416,37.70358],[-122.20827,37.72083],[-122.19607,37.72714],[-122.18787,37.73142],[-122.15135,37.75032],[-122.10906,37.77201],[-122.08339,37.78522],[-122.0241,37.81576],[-121.96301,37.84272],[-121.93999,37.85207],[-121.86818,37.8805],[-121.84167,37.89094],[-121.76945,37.91934],[-121.73169,37.93411],[-121.6911,37.95013],[-121.62792,37.97511],[-121.53161,38.01288],[-121.52149,38.0169],[-121.43909,38.04916],[-121.37632,38.07362],[-121.30703,38.10069],[-121.27856,38.11172]],"type":"LineString"}
}
