{
  "id": 2014439239,
  "type": "Feature",
  "properties": {
    "geom:area": 0,
    "geom:bbox": "-122.458680,36.721870,-121.278010,37.709330",
    "geom:latitude": 37.215670033252,
    "geom:longitude": -121.95513701140156,
    "src:alt_label": "swim-takeoff",
    "src:geom": "swim",
    "swim:elevations": [
      429,
      683,
      1062,
      1139,
      1398,
      2032,
      2389,
      3238,
      3509,
      3627,
      3808,
      4521,
      4752,
      5262,
      5292,
      5467,
      5615,
      5905,
      6209,
      6441,
      6844,
      6951,
      7281,
      7629,
      7785,
      8216,
      8230,
      8230,
      8230,
      8230,
      8230,
      8230,
      8230,
      8230,
      8230
    ],
    "swim:geom": "takeoff",
    "swim:timestamps": [
      1767083997,
      1767084017,
      1767084055,
      1767084068,
      1767084092,
      1767084140,
      1767084158,
      1767084206,
      1767084227,
      1767084250,
      1767084277,
      1767084324,
      1767084345,
      1767084382,
      1767084385,
      1767084403,
      1767084417,
      1767084444,
      1767084472,
      1767084493,
      1767084536,
      1767084553,
      1767084595,
      1767084625,
      1767084637,
      1767084671,
      1767084717,
      1767084740,
      1767084773,
      1767084784,
      1767084802,
      1767084833,
      1767084866,
      1767084892,
      1767084920
    ],
    "wof:geomhash": "e4ee940cefff49903f8ab2f82a90aa84",
    "wof:id": 2014439239,
    "wof:repo": "sfomuseum-data-flights-2025-12"
  },
  "bbox": [
    -122.45868,
    36.72187,
    -121.27801,
    37.70933
  ],
  "geometry": {"coordinates":[[-122.36402,37.64521],[-122.3638,37.66053],[-122.36379,37.69303],[-122.37203,37.70325],[-122.40417,37.70933],[-122.44019,37.66262],[-122.44414,37.6385],[-122.45573,37.57881],[-122.45868,37.55069],[-122.43837,37.5243],[-122.39758,37.49943],[-122.32536,37.45061],[-122.2939,37.42881],[-122.23436,37.38776],[-122.22953,37.38443],[-122.20079,37.36459],[-122.17698,37.3482],[-122.13212,37.31735],[-122.08449,37.28467],[-122.04841,37.2597],[-121.97288,37.20732],[-121.94245,37.18642],[-121.86476,37.13255],[-121.80978,37.09444],[-121.78679,37.07869],[-121.72406,37.0354],[-121.64085,36.97647],[-121.60015,36.94808],[-121.54035,36.907],[-121.52066,36.89302],[-121.48867,36.87035],[-121.43285,36.8313],[-121.37443,36.78999],[-121.32657,36.75609],[-121.27801,36.72187]],"type":"LineString"}
}
