{
  "id": 2014431967,
  "type": "Feature",
  "properties": {
    "geom:area": 0,
    "geom:bbox": "-122.360980,36.722890,-121.878830,37.612600",
    "geom:latitude": 37.220021453660316,
    "geom:longitude": -122.06874967831457,
    "src:alt_label": "swim-approach",
    "src:geom": "swim",
    "swim:elevations": [
      4712,
      4414,
      4264,
      4088,
      3649,
      3540,
      3294,
      3239,
      3200,
      3200,
      3066,
      2888,
      2688,
      2553,
      2449,
      2255,
      2102,
      1918,
      1858,
      1617,
      1526,
      1499,
      1472,
      1345,
      1234,
      1014,
      861,
      677,
      606,
      446,
      394,
      258,
      100,
      0
    ],
    "swim:geom": "approach",
    "swim:timestamps": [
      1767121854,
      1767121887,
      1767121903,
      1767121923,
      1767121974,
      1767121987,
      1767122028,
      1767122043,
      1767122064,
      1767122079,
      1767122123,
      1767122149,
      1767122182,
      1767122203,
      1767122218,
      1767122245,
      1767122274,
      1767122303,
      1767122314,
      1767122356,
      1767122389,
      1767122427,
      1767122430,
      1767122448,
      1767122468,
      1767122517,
      1767122543,
      1767122576,
      1767122596,
      1767122632,
      1767122644,
      1767122682,
      1767122721,
      1767122745
    ],
    "wof:geomhash": "9f0327cf0136958b70d1fc7728ebae6a",
    "wof:id": 2014431967,
    "wof:repo": "sfomuseum-data-flights-2025-12"
  },
  "bbox": [
    -122.36098,
    36.72289,
    -121.87883,
    37.6126
  ],
  "geometry": {"coordinates":[[-121.87883,36.72289],[-121.9032,36.77664],[-121.91097,36.80402],[-121.92027,36.83675],[-121.94322,36.91875],[-121.94929,36.94068],[-121.9726,37.00309],[-121.98101,37.02483],[-121.99251,37.0541],[-122.00012,37.07368],[-122.02059,37.12648],[-122.03229,37.15641],[-122.04751,37.1951],[-122.05701,37.21909],[-122.06376,37.23623],[-122.07596,37.26712],[-122.08883,37.29997],[-122.10144,37.33202],[-122.10646,37.34479],[-122.12281,37.39057],[-122.11583,37.42568],[-122.10665,37.46172],[-122.10611,37.46469],[-122.112,37.48109],[-122.12583,37.49659],[-122.16643,37.53029],[-122.19253,37.542],[-122.22479,37.55546],[-122.24302,37.56323],[-122.27587,37.5771],[-122.28502,37.58092],[-122.31387,37.59305],[-122.34315,37.6053],[-122.36098,37.6126]],"type":"LineString"}
}
