{
  "id": 2014413757,
  "type": "Feature",
  "properties": {
    "geom:area": 0,
    "geom:bbox": "-122.464960,36.720550,-121.298230,37.702640",
    "geom:latitude": 37.20500809140294,
    "geom:longitude": -121.9849501366051,
    "src:alt_label": "swim-takeoff",
    "src:geom": "swim",
    "swim:elevations": [
      183,
      341,
      793,
      1061,
      1158,
      1325,
      1551,
      2041,
      2270,
      2633,
      3185,
      3259,
      3687,
      4022,
      4260,
      4682,
      5183,
      5421,
      5753,
      5861,
      6065,
      6315,
      6518,
      6866,
      6979,
      7112,
      7260,
      7444,
      7577,
      7798,
      7865,
      7991,
      8372,
      8524,
      8830,
      8839,
      8839
    ],
    "swim:geom": "takeoff",
    "swim:timestamps": [
      1766875940,
      1766875950,
      1766875982,
      1766876015,
      1766876033,
      1766876062,
      1766876089,
      1766876119,
      1766876134,
      1766876162,
      1766876218,
      1766876233,
      1766876270,
      1766876292,
      1766876313,
      1766876346,
      1766876395,
      1766876413,
      1766876456,
      1766876466,
      1766876487,
      1766876514,
      1766876533,
      1766876573,
      1766876585,
      1766876603,
      1766876621,
      1766876645,
      1766876663,
      1766876696,
      1766876707,
      1766876730,
      1766876785,
      1766876809,
      1766876846,
      1766876867,
      1766876881
    ],
    "wof:geomhash": "5b7163aaff997019808284196759c292",
    "wof:id": 2014413757,
    "wof:repo": "sfomuseum-data-flights-2025-12"
  },
  "bbox": [
    -122.46496,
    36.72055,
    -121.29823,
    37.70264
  ],
  "geometry": {"coordinates":[[-122.36819,37.63028],[-122.36482,37.63691],[-122.3636,37.66118],[-122.36212,37.68489],[-122.37085,37.69882],[-122.40666,37.70264],[-122.43153,37.67519],[-122.43795,37.63601],[-122.44184,37.61644],[-122.45155,37.57931],[-122.46496,37.50134],[-122.45256,37.47886],[-122.39503,37.44082],[-122.35897,37.41698],[-122.32567,37.39448],[-122.27378,37.36039],[-122.19147,37.30764],[-122.16086,37.28835],[-122.08628,37.23977],[-122.06984,37.22895],[-122.03344,37.20505],[-121.98602,37.17407],[-121.95269,37.15235],[-121.88103,37.10569],[-121.85944,37.09159],[-121.82662,37.07011],[-121.79383,37.04859],[-121.74966,37.01975],[-121.7163,36.99791],[-121.6546,36.95742],[-121.63276,36.94319],[-121.58975,36.91473],[-121.48229,36.84378],[-121.43577,36.81261],[-121.36428,36.76493],[-121.32379,36.73756],[-121.29823,36.72055]],"type":"LineString"}
}
