{
  "id": 2014437949,
  "type": "Feature",
  "properties": {
    "geom:area": 0,
    "geom:bbox": "-122.365190,37.631420,-121.248610,38.423490",
    "geom:latitude": 38.03774363574152,
    "geom:longitude": -121.81585724451361,
    "src:alt_label": "swim-takeoff",
    "src:geom": "swim",
    "swim:elevations": [
      244,
      635,
      842,
      1045,
      1176,
      1870,
      1989,
      2618,
      2925,
      3278,
      3477,
      3722,
      3951,
      4399,
      4453,
      4677,
      4903,
      5079,
      5187,
      5471,
      5644,
      5884,
      6075,
      6289,
      6427,
      6641,
      6884,
      6972,
      6984
    ],
    "swim:geom": "takeoff",
    "swim:timestamps": [
      1767088722,
      1767088761,
      1767088789,
      1767088814,
      1767088832,
      1767088888,
      1767088896,
      1767088946,
      1767088969,
      1767088999,
      1767089031,
      1767089061,
      1767089082,
      1767089124,
      1767089132,
      1767089158,
      1767089185,
      1767089205,
      1767089220,
      1767089257,
      1767089295,
      1767089333,
      1767089363,
      1767089398,
      1767089418,
      1767089449,
      1767089486,
      1767089502,
      1767089505
    ],
    "wof:geomhash": "8ef9c9192d3c0b2adb9c2eaeda7128a5",
    "wof:id": 2014437949,
    "wof:repo": "sfomuseum-data-flights-2025-12"
  },
  "bbox": [
    -122.36519,
    37.63142,
    -121.24861,
    38.42349
  ],
  "geometry": {"coordinates":[[-122.36519,37.63142],[-122.33903,37.65053],[-122.31295,37.66482],[-122.28652,37.67987],[-122.26483,37.69166],[-122.19869,37.73467],[-122.19115,37.74302],[-122.14233,37.79672],[-122.11922,37.82239],[-122.08905,37.85628],[-122.05133,37.8911],[-122.00641,37.92139],[-121.9747,37.94305],[-121.91003,37.98695],[-121.89708,37.99567],[-121.85625,38.02333],[-121.81275,38.05266],[-121.78003,38.07475],[-121.75601,38.09094],[-121.69404,38.1326],[-121.63008,38.17552],[-121.56358,38.22006],[-121.51106,38.25521],[-121.44797,38.29733],[-121.41093,38.322],[-121.35374,38.3586],[-121.28425,38.4014],[-121.25423,38.41999],[-121.24861,38.42349]],"type":"LineString"}
}
