{
  "id": 2014422575,
  "type": "Feature",
  "properties": {
    "geom:area": 0,
    "geom:bbox": "-122.365170,37.630390,-121.250430,37.964580",
    "geom:latitude": 37.83819843182824,
    "geom:longitude": -121.82270845998026,
    "src:alt_label": "swim-takeoff",
    "src:geom": "swim",
    "swim:elevations": [
      122,
      183,
      866,
      972,
      1174,
      1604,
      1667,
      2322,
      2710,
      3047,
      3240,
      3274,
      3596,
      3642,
      4445,
      4840,
      5150,
      5413,
      5663,
      5905,
      6244,
      6438,
      6749,
      6805
    ],
    "swim:geom": "takeoff",
    "swim:timestamps": [
      1766928716,
      1766928721,
      1766928776,
      1766928783,
      1766928816,
      1766928868,
      1766928873,
      1766928926,
      1766928954,
      1766928981,
      1766929012,
      1766929021,
      1766929076,
      1766929083,
      1766929133,
      1766929166,
      1766929194,
      1766929220,
      1766929254,
      1766929279,
      1766929317,
      1766929337,
      1766929374,
      1766929382
    ],
    "wof:geomhash": "6a8df52981cea46ecb6426111f0d3c45",
    "wof:id": 2014422575,
    "wof:repo": "sfomuseum-data-flights-2025-12"
  },
  "bbox": [
    -122.36517,
    37.63039,
    -121.25043,
    37.96458
  ],
  "geometry": {"coordinates":[[-122.36517,37.63039],[-122.36297,37.63389],[-122.32194,37.66229],[-122.31583,37.66545],[-122.28713,37.68015],[-122.22655,37.71143],[-122.22065,37.71449],[-122.1525,37.74964],[-122.11538,37.76908],[-122.07934,37.78755],[-122.03545,37.81036],[-122.02002,37.81775],[-121.91354,37.84332],[-121.89863,37.84605],[-121.79127,37.86561],[-121.72309,37.87825],[-121.66336,37.88936],[-121.60867,37.8994],[-121.534,37.91318],[-121.47958,37.92329],[-121.3955,37.93842],[-121.35077,37.94646],[-121.26685,37.96163],[-121.25043,37.96458]],"type":"LineString"}
}
