{
  "id": 2014439819,
  "type": "Feature",
  "properties": {
    "geom:area": 0,
    "geom:bbox": "-122.462240,36.727890,-121.306690,37.693540",
    "geom:latitude": 37.199369936881986,
    "geom:longitude": -121.98106338436412,
    "src:alt_label": "swim-takeoff",
    "src:geom": "swim",
    "swim:elevations": [
      122,
      405,
      693,
      937,
      987,
      1180,
      1614,
      1836,
      2299,
      2642,
      3031,
      3290,
      3437,
      3479,
      3966,
      4194,
      4324,
      4736,
      5181,
      5369,
      5625,
      5757,
      5956,
      6129,
      6513,
      6799,
      7284,
      7337,
      7505,
      7773,
      7804,
      7906,
      7957,
      8016
    ],
    "swim:geom": "takeoff",
    "swim:timestamps": [
      1767097637,
      1767097655,
      1767097689,
      1767097723,
      1767097744,
      1767097770,
      1767097823,
      1767097852,
      1767097887,
      1767097910,
      1767097943,
      1767097979,
      1767098005,
      1767098016,
      1767098066,
      1767098086,
      1767098101,
      1767098140,
      1767098182,
      1767098202,
      1767098244,
      1767098264,
      1767098290,
      1767098319,
      1767098346,
      1767098371,
      1767098425,
      1767098434,
      1767098463,
      1767098514,
      1767098529,
      1767098570,
      1767098590,
      1767098625
    ],
    "wof:geomhash": "d1d3ef66d2625c9b16323660d5ab3306",
    "wof:id": 2014439819,
    "wof:repo": "sfomuseum-data-flights-2025-12"
  },
  "bbox": [
    -122.46224,
    36.72789,
    -121.30669,
    37.69354
  ],
  "geometry": {"coordinates":[[-122.37003,37.62756],[-122.36497,37.63987],[-122.36255,37.66266],[-122.36597,37.68852],[-122.38446,37.69354],[-122.40445,37.67823],[-122.41866,37.63048],[-122.4304,37.5992],[-122.44762,37.55681],[-122.45921,37.52963],[-122.46224,37.48847],[-122.42139,37.45477],[-122.38192,37.4299],[-122.36499,37.41912],[-122.28523,37.36828],[-122.25201,37.34683],[-122.22566,37.33],[-122.15932,37.28695],[-122.08801,37.24078],[-122.05359,37.21841],[-121.98115,37.1712],[-121.94623,37.14847],[-121.89917,37.11773],[-121.84731,37.0839],[-121.79856,37.05205],[-121.75529,37.02378],[-121.66431,36.96392],[-121.64792,36.95313],[-121.59899,36.9209],[-121.51055,36.86307],[-121.48338,36.84523],[-121.40975,36.79592],[-121.37204,36.77084],[-121.30669,36.72789]],"type":"LineString"}
}
