{
  "id": 2014417831,
  "type": "Feature",
  "properties": {
    "geom:area": 0,
    "geom:bbox": "-123.491290,36.934960,-122.143070,37.614290",
    "geom:latitude": 37.223600950598325,
    "geom:longitude": -122.6910954173437,
    "src:alt_label": "swim-approach",
    "src:geom": "swim",
    "swim:elevations": [
      6967,
      6543,
      6101,
      6088,
      5421,
      5038,
      4907,
      4313,
      4099,
      3598,
      3490,
      3120,
      3049,
      3048,
      3048,
      3048,
      3048,
      3048,
      3048,
      3048,
      2962,
      2887,
      2755,
      2547,
      2316,
      2222,
      2184,
      1982,
      1856,
      1829,
      1829,
      1829,
      1829,
      1829,
      1732,
      1561,
      1532,
      1423,
      1258,
      1218,
      1097,
      1036,
      913,
      845,
      803,
      709,
      565,
      457,
      326,
      187,
      18,
      28
    ],
    "swim:geom": "approach",
    "swim:timestamps": [
      1766955376,
      1766955412,
      1766955448,
      1766955451,
      1766955506,
      1766955536,
      1766955545,
      1766955593,
      1766955611,
      1766955656,
      1766955667,
      1766955705,
      1766955729,
      1766955742,
      1766955751,
      1766955802,
      1766955819,
      1766955860,
      1766955874,
      1766955952,
      1766955980,
      1766955998,
      1766956021,
      1766956055,
      1766956105,
      1766956136,
      1766956148,
      1766956195,
      1766956219,
      1766956245,
      1766956272,
      1766956298,
      1766956310,
      1766956323,
      1766956352,
      1766956376,
      1766956385,
      1766956406,
      1766956433,
      1766956461,
      1766956484,
      1766956502,
      1766956552,
      1766956576,
      1766956588,
      1766956615,
      1766956646,
      1766956662,
      1766956692,
      1766956727,
      1766956766,
      1766956775
    ],
    "wof:geomhash": "349aaacf440031321c6cef1dd0fea004",
    "wof:id": 2014417831,
    "wof:repo": "sfomuseum-data-flights-2025-12"
  },
  "bbox": [
    -123.49129,
    36.93496,
    -122.14307,
    37.61429
  ],
  "geometry": {"coordinates":[[-123.49129,36.93496],[-123.42788,36.96721],[-123.36694,36.99905],[-123.36182,37.0018],[-123.26953,37.04921],[-123.21945,37.07508],[-123.20314,37.08347],[-123.12607,37.12318],[-123.09733,37.13781],[-123.02579,37.17449],[-123.00882,37.18333],[-122.9526,37.21205],[-122.92022,37.22875],[-122.90356,37.23723],[-122.89172,37.24288],[-122.81626,37.23094],[-122.79103,37.21993],[-122.73182,37.19465],[-122.71152,37.18601],[-122.59847,37.13883],[-122.55532,37.13836],[-122.52809,37.14415],[-122.49329,37.15179],[-122.44055,37.16154],[-122.36678,37.17582],[-122.3247,37.18387],[-122.30902,37.18679],[-122.25828,37.20636],[-122.24615,37.22816],[-122.23376,37.25206],[-122.21993,37.27703],[-122.20712,37.30088],[-122.20094,37.31234],[-122.19458,37.32428],[-122.18068,37.35098],[-122.16963,37.3731],[-122.16555,37.38147],[-122.15632,37.40065],[-122.14507,37.42447],[-122.14307,37.4493],[-122.15236,37.46757],[-122.15977,37.4813],[-122.1905,37.51392],[-122.2073,37.52956],[-122.21495,37.53757],[-122.23277,37.55438],[-122.25852,37.56969],[-122.27307,37.57575],[-122.29969,37.5868],[-122.32603,37.59815],[-122.35683,37.61109],[-122.36373,37.61429]],"type":"LineString"}
}
