{
  "id": 2014431955,
  "type": "Feature",
  "properties": {
    "geom:area": 0,
    "geom:bbox": "-122.354020,37.491580,-121.292950,37.613700",
    "geom:latitude": 37.54470437518336,
    "geom:longitude": -121.82842827062929,
    "src:alt_label": "swim-approach",
    "src:geom": "swim",
    "swim:elevations": [
      4340,
      4091,
      3781,
      3643,
      3516,
      3112,
      2998,
      2764,
      2674,
      2440,
      2421,
      2288,
      2064,
      1883,
      1829,
      1829,
      1673,
      1476,
      1112,
      948,
      570,
      537,
      396,
      332,
      263,
      133,
      23
    ],
    "swim:geom": "approach",
    "swim:timestamps": [
      1767101088,
      1767101120,
      1767101157,
      1767101172,
      1767101190,
      1767101248,
      1767101268,
      1767101300,
      1767101311,
      1767101363,
      1767101382,
      1767101404,
      1767101445,
      1767101480,
      1767101515,
      1767101520,
      1767101562,
      1767101605,
      1767101638,
      1767101658,
      1767101698,
      1767101707,
      1767101758,
      1767101778,
      1767101794,
      1767101829,
      1767101854
    ],
    "wof:geomhash": "c26cce5cb99f6adc2f8a4ca8a272d4e8",
    "wof:id": 2014431955,
    "wof:repo": "sfomuseum-data-flights-2025-12"
  },
  "bbox": [
    -122.35402,
    37.49158,
    -121.29295,
    37.6137
  ],
  "geometry": {"coordinates":[[-121.29295,37.58856],[-121.35931,37.58136],[-121.43286,37.57289],[-121.46046,37.56964],[-121.49618,37.56565],[-121.6031,37.55326],[-121.63895,37.54722],[-121.69217,37.53447],[-121.71001,37.53029],[-121.78954,37.51136],[-121.81681,37.50494],[-121.84765,37.49746],[-121.90468,37.49158],[-121.95409,37.49308],[-122.00353,37.49919],[-122.01038,37.50137],[-122.06871,37.52104],[-122.12382,37.53883],[-122.16297,37.55148],[-122.18581,37.55891],[-122.22888,37.57267],[-122.23787,37.57554],[-122.28038,37.58852],[-122.29666,37.59331],[-122.30908,37.59722],[-122.3366,37.60524],[-122.35402,37.6137]],"type":"LineString"}
}
