{
  "id": 2014413703,
  "type": "Feature",
  "properties": {
    "geom:area": 0,
    "geom:bbox": "-122.539340,36.737470,-122.194190,37.716810",
    "geom:latitude": 37.24435234696131,
    "geom:longitude": -122.43375694875489,
    "src:alt_label": "swim-takeoff",
    "src:geom": "swim",
    "swim:elevations": [
      392,
      752,
      1033,
      1123,
      1273,
      1770,
      2251,
      2782,
      3365,
      3490,
      3650,
      4028,
      4375,
      4596,
      4905,
      5287,
      5399,
      5963,
      6241,
      6461,
      6671,
      6929,
      7218,
      7662,
      7725,
      7841,
      7942,
      8219
    ],
    "swim:geom": "takeoff",
    "swim:timestamps": [
      1766877628,
      1766877652,
      1766877673,
      1766877686,
      1766877707,
      1766877745,
      1766877774,
      1766877804,
      1766877838,
      1766877847,
      1766877859,
      1766877883,
      1766877907,
      1766877934,
      1766877982,
      1766878009,
      1766878020,
      1766878077,
      1766878105,
      1766878127,
      1766878148,
      1766878174,
      1766878204,
      1766878256,
      1766878263,
      1766878281,
      1766878293,
      1766878327
    ],
    "wof:geomhash": "7b14e8aa9831bcd7e442c0ec53b71b41",
    "wof:id": 2014413703,
    "wof:repo": "sfomuseum-data-flights-2025-12"
  },
  "bbox": [
    -122.53934,
    36.73747,
    -122.19419,
    37.71681
  ],
  "geometry": {"coordinates":[[-122.36469,37.64082],[-122.36382,37.65829],[-122.36263,37.67283],[-122.36173,37.68286],[-122.36878,37.70139],[-122.41755,37.71681],[-122.45409,37.69273],[-122.46135,37.65285],[-122.46972,37.6057],[-122.47221,37.59183],[-122.47516,37.57372],[-122.48062,37.53847],[-122.48648,37.50081],[-122.49335,37.45645],[-122.50722,37.36799],[-122.51533,37.31771],[-122.51867,37.29586],[-122.53729,37.18065],[-122.53934,37.12307],[-122.51826,37.08056],[-122.48544,37.04598],[-122.44321,37.00196],[-122.39587,36.95185],[-122.31096,36.86189],[-122.29987,36.85002],[-122.27069,36.81857],[-122.25057,36.79731],[-122.19419,36.73747]],"type":"LineString"}
}
