{
  "id": 2014424335,
  "type": "Feature",
  "properties": {
    "geom:area": 0,
    "geom:bbox": "-122.821190,37.432040,-122.118110,38.497470",
    "geom:latitude": 37.829703285142536,
    "geom:longitude": -122.49934883969576,
    "src:alt_label": "swim-approach",
    "src:geom": "swim",
    "swim:elevations": [
      7620,
      7269,
      7038,
      6680,
      6595,
      6424,
      6180,
      6094,
      5982,
      5589,
      5433,
      5052,
      4796,
      4579,
      4500,
      4329,
      3942,
      3584,
      3413,
      3352,
      3353,
      3353,
      3353,
      3353,
      3224,
      2942,
      2789,
      2543,
      2293,
      2224,
      1730,
      1598,
      1330,
      1219,
      1126,
      1033,
      915,
      869,
      677,
      517,
      482,
      307,
      133,
      65
    ],
    "swim:geom": "approach",
    "swim:timestamps": [
      1767029294,
      1767029334,
      1767029358,
      1767029395,
      1767029404,
      1767029421,
      1767029448,
      1767029456,
      1767029469,
      1767029518,
      1767029535,
      1767029576,
      1767029602,
      1767029625,
      1767029632,
      1767029651,
      1767029687,
      1767029724,
      1767029755,
      1767029777,
      1767029818,
      1767029845,
      1767029870,
      1767029903,
      1767029936,
      1767029967,
      1767029985,
      1767030021,
      1767030050,
      1767030061,
      1767030114,
      1767030132,
      1767030178,
      1767030203,
      1767030225,
      1767030250,
      1767030298,
      1767030319,
      1767030351,
      1767030385,
      1767030392,
      1767030432,
      1767030472,
      1767030491
    ],
    "wof:geomhash": "2524627b4af1b2002b0b00a5c74ab699",
    "wof:id": 2014424335,
    "wof:repo": "sfomuseum-data-flights-2025-12"
  },
  "bbox": [
    -122.82119,
    37.43204,
    -122.11811,
    38.49747
  ],
  "geometry": {"coordinates":[[-122.82119,38.49747],[-122.8023,38.42338],[-122.79158,38.38024],[-122.77492,38.31316],[-122.77124,38.29832],[-122.76382,38.26764],[-122.75208,38.21976],[-122.7488,38.20637],[-122.74307,38.18369],[-122.72275,38.10052],[-122.71592,38.07292],[-122.69925,38.00488],[-122.68856,37.96125],[-122.67918,37.92379],[-122.67517,37.91269],[-122.65767,37.88578],[-122.61176,37.84168],[-122.56501,37.79738],[-122.52833,37.76248],[-122.50363,37.73912],[-122.45954,37.69782],[-122.43067,37.67059],[-122.40356,37.6451],[-122.37045,37.61367],[-122.34855,37.58184],[-122.33193,37.54866],[-122.32079,37.53066],[-122.29903,37.49533],[-122.27755,37.46845],[-122.26546,37.46325],[-122.19777,37.43998],[-122.17526,37.43204],[-122.12725,37.44981],[-122.11811,37.47014],[-122.12762,37.48712],[-122.14322,37.50244],[-122.17621,37.53336],[-122.19458,37.54269],[-122.22684,37.55586],[-122.25924,37.56977],[-122.26623,37.57282],[-122.30192,37.58786],[-122.33581,37.60227],[-122.35059,37.60841]],"type":"LineString"}
}
