{
  "id": 2014434871,
  "type": "Feature",
  "properties": {
    "geom:area": 0,
    "geom:bbox": "-122.364660,36.722500,-121.878410,37.616090",
    "geom:latitude": 37.21631910978367,
    "geom:longitude": -122.06913121749355,
    "src:alt_label": "swim-approach",
    "src:geom": "swim",
    "swim:elevations": [
      5408,
      4982,
      4684,
      4374,
      4104,
      3817,
      3587,
      3262,
      3083,
      3077,
      2890,
      2873,
      2739,
      2686,
      2451,
      2231,
      2152,
      1759,
      1500,
      1299,
      1249,
      942,
      783,
      617,
      429,
      333,
      240,
      78,
      24
    ],
    "swim:geom": "approach",
    "swim:timestamps": [
      1767131090,
      1767131125,
      1767131152,
      1767131182,
      1767131209,
      1767131237,
      1767131261,
      1767131294,
      1767131336,
      1767131342,
      1767131396,
      1767131400,
      1767131425,
      1767131440,
      1767131484,
      1767131516,
      1767131523,
      1767131570,
      1767131606,
      1767131636,
      1767131642,
      1767131695,
      1767131723,
      1767131750,
      1767131783,
      1767131813,
      1767131832,
      1767131873,
      1767131897
    ],
    "wof:geomhash": "a250f77c2f4647d5da562644deca721c",
    "wof:id": 2014434871,
    "wof:repo": "sfomuseum-data-flights-2025-12"
  },
  "bbox": [
    -122.36466,
    36.7225,
    -121.87841,
    37.61609
  ],
  "geometry": {"coordinates":[[-121.87841,36.7225],[-121.90539,36.78324],[-121.91933,36.83215],[-121.93434,36.88468],[-121.94687,36.9301],[-121.96288,36.97753],[-121.97847,37.0173],[-121.99931,37.07094],[-122.02513,37.13667],[-122.02856,37.14549],[-122.05752,37.21993],[-122.05938,37.22474],[-122.07197,37.25638],[-122.07956,37.27536],[-122.09941,37.32596],[-122.10091,37.36019],[-122.09871,37.36783],[-122.09823,37.42053],[-122.11751,37.45705],[-122.14308,37.48312],[-122.14808,37.48822],[-122.19121,37.53153],[-122.21447,37.55003],[-122.24143,37.56211],[-122.27326,37.57571],[-122.29915,37.58644],[-122.31392,37.59289],[-122.34635,37.60671],[-122.36466,37.61609]],"type":"LineString"}
}
