{
  "id": 2014413799,
  "type": "Feature",
  "properties": {
    "geom:area": 0,
    "geom:bbox": "-122.460950,36.749730,-121.258210,37.716700",
    "geom:latitude": 37.24603441547899,
    "geom:longitude": -121.94200367972492,
    "src:alt_label": "swim-takeoff",
    "src:geom": "swim",
    "swim:elevations": [
      244,
      530,
      721,
      1096,
      1223,
      1347,
      1658,
      2358,
      2529,
      2917,
      3216,
      3377,
      3501,
      3729,
      3802,
      4079,
      4266,
      4530,
      4933,
      5168,
      5362,
      5581,
      5642,
      5915,
      6094,
      6363,
      6618,
      6710,
      6947,
      7137,
      7283
    ],
    "swim:geom": "takeoff",
    "swim:timestamps": [
      1766831750,
      1766831773,
      1766831792,
      1766831841,
      1766831864,
      1766831882,
      1766831913,
      1766831968,
      1766831988,
      1766832021,
      1766832051,
      1766832084,
      1766832106,
      1766832148,
      1766832156,
      1766832192,
      1766832213,
      1766832244,
      1766832292,
      1766832319,
      1766832348,
      1766832384,
      1766832393,
      1766832427,
      1766832452,
      1766832496,
      1766832532,
      1766832545,
      1766832585,
      1766832625,
      1766832653
    ],
    "wof:geomhash": "2537d91a6c27c7449e6894cbf10256da",
    "wof:id": 2014413799,
    "wof:repo": "sfomuseum-data-flights-2025-12"
  },
  "bbox": [
    -122.46095,
    36.74973,
    -121.25821,
    37.7167
  ],
  "geometry": {"coordinates":[[-122.36583,37.63369],[-122.36309,37.65109],[-122.36266,37.66656],[-122.37355,37.70529],[-122.39807,37.7167],[-122.42355,37.71533],[-122.45264,37.68687],[-122.46095,37.61695],[-122.45189,37.59146],[-122.40962,37.56175],[-122.37111,37.53592],[-122.32268,37.50134],[-122.28967,37.47754],[-122.222,37.42839],[-122.20825,37.41825],[-122.14669,37.37345],[-122.11126,37.34775],[-122.05614,37.30755],[-121.96918,37.24403],[-121.91828,37.20882],[-121.86303,37.1708],[-121.79404,37.12309],[-121.77776,37.11193],[-121.71197,37.06672],[-121.66344,37.03296],[-121.57593,36.97211],[-121.50392,36.92163],[-121.47764,36.90327],[-121.39882,36.84853],[-121.31555,36.79037],[-121.25821,36.74973]],"type":"LineString"}
}
