{
  "id": 2014435207,
  "type": "Feature",
  "properties": {
    "geom:area": 0,
    "geom:bbox": "-123.477440,37.132310,-122.166750,37.610850",
    "geom:latitude": 37.32026917917147,
    "geom:longitude": -122.72374302368266,
    "src:alt_label": "swim-approach",
    "src:geom": "swim",
    "swim:elevations": [
      5517,
      5212,
      4873,
      4689,
      4573,
      4275,
      3959,
      3743,
      3573,
      3393,
      3086,
      3055,
      3048,
      3048,
      3048,
      3048,
      3048,
      3048,
      2973,
      2583,
      2342,
      2279,
      2045,
      1923,
      1829,
      1675,
      1524,
      1524,
      1485,
      1233,
      1020,
      762,
      760,
      567,
      457,
      367,
      280,
      183,
      20
    ],
    "swim:geom": "approach",
    "swim:timestamps": [
      1767128234,
      1767128271,
      1767128307,
      1767128336,
      1767128348,
      1767128386,
      1767128426,
      1767128456,
      1767128481,
      1767128502,
      1767128546,
      1767128560,
      1767128588,
      1767128637,
      1767128640,
      1767128643,
      1767128667,
      1767128684,
      1767128700,
      1767128753,
      1767128786,
      1767128795,
      1767128837,
      1767128859,
      1767128904,
      1767128936,
      1767128968,
      1767128990,
      1767129010,
      1767129045,
      1767129072,
      1767129118,
      1767129121,
      1767129176,
      1767129205,
      1767129229,
      1767129248,
      1767129275,
      1767129312
    ],
    "wof:geomhash": "9d25e762900669bc9d143a402db8b83f",
    "wof:id": 2014435207,
    "wof:repo": "sfomuseum-data-flights-2025-12"
  },
  "bbox": [
    -123.47744,
    37.13231,
    -122.16675,
    37.61085
  ],
  "geometry": {"coordinates":[[-123.47744,37.13231],[-123.40211,37.14842],[-123.32672,37.1641],[-123.26945,37.17577],[-123.24603,37.18049],[-123.17078,37.19578],[-123.09424,37.21127],[-123.03783,37.22263],[-122.99165,37.23192],[-122.9525,37.23984],[-122.87602,37.25522],[-122.85104,37.26017],[-122.80585,37.27082],[-122.72605,37.28996],[-122.72118,37.29113],[-122.71629,37.29227],[-122.67616,37.30151],[-122.64803,37.30806],[-122.62266,37.31387],[-122.53773,37.33348],[-122.4849,37.34572],[-122.4706,37.34904],[-122.4046,37.36419],[-122.37114,37.37179],[-122.30273,37.38754],[-122.26014,37.40797],[-122.22231,37.43288],[-122.20118,37.44711],[-122.18455,37.45851],[-122.16677,37.48544],[-122.16675,37.5097],[-122.19977,37.54256],[-122.20261,37.54408],[-122.25266,37.56709],[-122.27751,37.57771],[-122.29548,37.58526],[-122.30963,37.59121],[-122.3295,37.59952],[-122.3564,37.61085]],"type":"LineString"}
}
