{
  "id": 2014420645,
  "type": "Feature",
  "properties": {
    "geom:area": 0,
    "geom:bbox": "-122.367390,37.626970,-121.269680,38.410610",
    "geom:latitude": 38.02957574245925,
    "geom:longitude": -121.82781443997317,
    "src:alt_label": "swim-takeoff",
    "src:geom": "swim",
    "swim:elevations": [
      183,
      421,
      640,
      1176,
      1299,
      1691,
      2422,
      2918,
      3293,
      3448,
      3833,
      4309,
      4476,
      4804,
      5076,
      5428,
      5804,
      5881,
      6353,
      6585,
      6758,
      7135,
      7213,
      7406,
      7613,
      7709
    ],
    "swim:geom": "takeoff",
    "swim:timestamps": [
      1766919890,
      1766919910,
      1766919933,
      1766919987,
      1766919999,
      1766920027,
      1766920078,
      1766920113,
      1766920154,
      1766920176,
      1766920208,
      1766920246,
      1766920263,
      1766920294,
      1766920320,
      1766920367,
      1766920407,
      1766920414,
      1766920474,
      1766920508,
      1766920533,
      1766920583,
      1766920594,
      1766920629,
      1766920667,
      1766920690
    ],
    "wof:geomhash": "d62f0e865d69e98b22322feed4d2f2b0",
    "wof:id": 2014420645,
    "wof:repo": "sfomuseum-data-flights-2025-12"
  },
  "bbox": [
    -122.36739,
    37.62697,
    -121.26968,
    38.41061
  ],
  "geometry": {"coordinates":[[-122.36739,37.62697],[-122.35562,37.6379],[-122.33856,37.64852],[-122.28639,37.67915],[-122.27277,37.6872],[-122.23782,37.70567],[-122.1846,37.75052],[-122.15239,37.78662],[-122.11373,37.82956],[-122.09063,37.85502],[-122.04933,37.89213],[-121.99311,37.93064],[-121.96766,37.94797],[-121.92061,37.97996],[-121.88066,38.00701],[-121.80786,38.05619],[-121.74362,38.09949],[-121.7324,38.10704],[-121.63697,38.17115],[-121.58097,38.2087],[-121.53738,38.23787],[-121.45484,38.29301],[-121.43596,38.30555],[-121.37728,38.34431],[-121.30956,38.38591],[-121.26968,38.41061]],"type":"LineString"}
}
