{
  "id": 2014422007,
  "type": "Feature",
  "properties": {
    "geom:area": 0,
    "geom:bbox": "-122.367690,37.626500,-121.253010,38.421070",
    "geom:latitude": 38.03053943240564,
    "geom:longitude": -121.81540445343046,
    "src:alt_label": "swim-takeoff",
    "src:geom": "swim",
    "swim:elevations": [
      122,
      324,
      909,
      1059,
      1260,
      1451,
      1646,
      2037,
      2315,
      2951,
      3174,
      3403,
      3537,
      3658,
      4136,
      4353,
      4793,
      4935,
      5292,
      5400,
      5608,
      5769,
      6082,
      6393,
      6457,
      6768,
      6857,
      6961,
      7049
    ],
    "swim:geom": "takeoff",
    "swim:timestamps": [
      1766991778,
      1766991788,
      1766991828,
      1766991850,
      1766991889,
      1766991919,
      1766991937,
      1766991958,
      1766991973,
      1766992016,
      1766992041,
      1766992075,
      1766992093,
      1766992111,
      1766992168,
      1766992189,
      1766992228,
      1766992242,
      1766992279,
      1766992294,
      1766992327,
      1766992355,
      1766992395,
      1766992438,
      1766992447,
      1766992498,
      1766992513,
      1766992532,
      1766992549
    ],
    "wof:geomhash": "839b85d6e979884e4bba34d7b7d672d9",
    "wof:id": 2014422007,
    "wof:repo": "sfomuseum-data-flights-2025-12"
  },
  "bbox": [
    -122.36769,
    37.6265,
    -121.25301,
    38.42107
  ],
  "geometry": {"coordinates":[[-122.36769,37.6265],[-122.36274,37.63326],[-122.33933,37.65433],[-122.32466,37.66501],[-122.29181,37.68822],[-122.25828,37.71158],[-122.23656,37.7272],[-122.21136,37.7455],[-122.19406,37.75822],[-122.14532,37.79483],[-122.11533,37.81733],[-122.07049,37.84966],[-122.04529,37.86718],[-122.01842,37.88578],[-121.92782,37.95041],[-121.89413,37.97512],[-121.83275,38.02098],[-121.81021,38.03773],[-121.74618,38.0813],[-121.72014,38.09924],[-121.6642,38.14082],[-121.61659,38.17546],[-121.5446,38.22662],[-121.46664,38.28176],[-121.45016,38.29348],[-121.35381,38.35852],[-121.32417,38.37688],[-121.2868,38.40017],[-121.25301,38.42107]],"type":"LineString"}
}
