{
  "id": 2014430309,
  "type": "Feature",
  "properties": {
    "geom:area": 0,
    "geom:bbox": "-122.526900,36.722420,-122.122830,37.710000",
    "geom:latitude": 37.22959618141095,
    "geom:longitude": -122.39766358901313,
    "src:alt_label": "swim-takeoff",
    "src:geom": "swim",
    "swim:elevations": [
      329,
      524,
      858,
      1023,
      1039,
      1267,
      1798,
      2356,
      2597,
      3107,
      3292,
      3553,
      3926,
      4251,
      4636,
      4742,
      5278,
      5417,
      5675,
      5994,
      6218,
      6732,
      6869,
      7207,
      7559,
      7696,
      8053,
      8279,
      8396
    ],
    "swim:geom": "takeoff",
    "swim:timestamps": [
      1767042022,
      1767042050,
      1767042085,
      1767042099,
      1767042102,
      1767042127,
      1767042163,
      1767042206,
      1767042225,
      1767042265,
      1767042296,
      1767042321,
      1767042353,
      1767042379,
      1767042414,
      1767042423,
      1767042465,
      1767042479,
      1767042505,
      1767042532,
      1767042551,
      1767042598,
      1767042613,
      1767042649,
      1767042686,
      1767042701,
      1767042740,
      1767042768,
      1767042783
    ],
    "wof:geomhash": "c295ea6fd290387755f042b06c63ad92",
    "wof:id": 2014430309,
    "wof:repo": "sfomuseum-data-flights-2025-12"
  },
  "bbox": [
    -122.5269,
    36.72242,
    -122.12283,
    37.71
  ],
  "geometry": {"coordinates":[[-122.36447,37.64079],[-122.36381,37.66407],[-122.3668,37.69707],[-122.38036,37.70838],[-122.38398,37.71],[-122.41966,37.70885],[-122.44318,37.66984],[-122.45319,37.61566],[-122.45764,37.59062],[-122.46715,37.53748],[-122.47511,37.49356],[-122.48242,37.45397],[-122.49174,37.40399],[-122.49987,37.36044],[-122.51075,37.3002],[-122.51361,37.28448],[-122.5269,37.21049],[-122.5253,37.18584],[-122.5004,37.14402],[-122.46542,37.10588],[-122.44079,37.07849],[-122.37896,37.00961],[-122.35885,36.98719],[-122.31001,36.93263],[-122.25812,36.87474],[-122.23722,36.85138],[-122.1824,36.78921],[-122.14416,36.74627],[-122.12283,36.72242]],"type":"LineString"}
}
