{
  "id": 2014412839,
  "type": "Feature",
  "properties": {
    "geom:area": 0,
    "geom:bbox": "-122.364860,37.630330,-121.289670,37.949360",
    "geom:latitude": 37.8170437468228,
    "geom:longitude": -121.83798645565643,
    "src:alt_label": "swim-takeoff",
    "src:geom": "swim",
    "swim:elevations": [
      183,
      558,
      677,
      954,
      1131,
      1211,
      1478,
      1615,
      2172,
      2491,
      2843,
      3264,
      3448,
      3459,
      3707,
      4220,
      4489,
      4652,
      5010,
      5249,
      5466,
      5629,
      5921,
      5985
    ],
    "swim:geom": "takeoff",
    "swim:timestamps": [
      1766823925,
      1766823949,
      1766823967,
      1766824006,
      1766824036,
      1766824048,
      1766824072,
      1766824082,
      1766824123,
      1766824149,
      1766824177,
      1766824223,
      1766824257,
      1766824260,
      1766824307,
      1766824348,
      1766824378,
      1766824397,
      1766824434,
      1766824460,
      1766824494,
      1766824515,
      1766824554,
      1766824561
    ],
    "wof:geomhash": "b4f9f8c246c0275a1d2a7b939c138a95",
    "wof:id": 2014412839,
    "wof:repo": "sfomuseum-data-flights-2025-12"
  },
  "bbox": [
    -122.36486,
    37.63033,
    -121.28967,
    37.94936
  ],
  "geometry": {"coordinates":[[-122.36486,37.63033],[-122.34861,37.64433],[-122.33424,37.65246],[-122.29708,37.67337],[-122.26466,37.69196],[-122.25047,37.70011],[-122.21943,37.71645],[-122.20655,37.72282],[-122.1509,37.75035],[-122.11289,37.76145],[-122.06822,37.77196],[-121.99482,37.78932],[-121.93589,37.8029],[-121.93031,37.80418],[-121.83703,37.82533],[-121.75121,37.84464],[-121.68885,37.85888],[-121.65074,37.86751],[-121.57156,37.88555],[-121.5151,37.89838],[-121.43883,37.91567],[-121.39237,37.92613],[-121.30582,37.9457],[-121.28967,37.94936]],"type":"LineString"}
}
