{
  "id": 2014425587,
  "type": "Feature",
  "properties": {
    "geom:area": 0,
    "geom:bbox": "-123.492220,37.264220,-122.127440,37.611440",
    "geom:latitude": 37.38462685296301,
    "geom:longitude": -122.70622709045213,
    "src:alt_label": "swim-approach",
    "src:geom": "swim",
    "swim:elevations": [
      5844,
      5511,
      5106,
      4854,
      4413,
      3987,
      3685,
      3360,
      3233,
      3169,
      3076,
      3048,
      3048,
      3048,
      3048,
      3048,
      3048,
      2867,
      2534,
      2174,
      1860,
      1829,
      1829,
      1714,
      1491,
      1373,
      1223,
      1167,
      1087,
      930,
      913,
      896,
      796,
      565,
      523,
      315,
      208,
      52,
      0
    ],
    "swim:geom": "approach",
    "swim:timestamps": [
      1767004035,
      1767004060,
      1767004098,
      1767004120,
      1767004156,
      1767004194,
      1767004220,
      1767004251,
      1767004279,
      1767004304,
      1767004335,
      1767004373,
      1767004396,
      1767004419,
      1767004448,
      1767004491,
      1767004515,
      1767004541,
      1767004569,
      1767004600,
      1767004627,
      1767004676,
      1767004699,
      1767004725,
      1767004765,
      1767004787,
      1767004821,
      1767004851,
      1767004875,
      1767004915,
      1767004925,
      1767004943,
      1767004957,
      1767005005,
      1767005012,
      1767005064,
      1767005088,
      1767005125,
      1767005132
    ],
    "wof:geomhash": "5b68511e07355f76fd5fe9dffe543573",
    "wof:id": 2014425587,
    "wof:repo": "sfomuseum-data-flights-2025-12"
  },
  "bbox": [
    -123.49222,
    37.26422,
    -122.12744,
    37.61144
  ],
  "geometry": {"coordinates":[[-123.49222,37.453],[-123.43728,37.43601],[-123.35578,37.41109],[-123.31021,37.39691],[-123.23543,37.37377],[-123.16097,37.35083],[-123.10908,37.33481],[-123.04839,37.31567],[-122.99319,37.29832],[-122.94518,37.28331],[-122.88399,37.26422],[-122.80685,37.27018],[-122.76152,37.28095],[-122.71607,37.29197],[-122.65794,37.30581],[-122.57609,37.3248],[-122.53572,37.33405],[-122.49649,37.3431],[-122.45354,37.35304],[-122.40745,37.36348],[-122.36674,37.37286],[-122.29729,37.3888],[-122.26746,37.3957],[-122.23491,37.40376],[-122.18437,37.41632],[-122.15684,37.42321],[-122.12744,37.44903],[-122.13029,37.47885],[-122.13938,37.50154],[-122.16418,37.52997],[-122.17379,37.53424],[-122.19058,37.54124],[-122.20446,37.54696],[-122.24985,37.56606],[-122.25625,37.56877],[-122.30084,37.58751],[-122.3213,37.59614],[-122.35168,37.60889],[-122.35755,37.61144]],"type":"LineString"}
}
