{
  "id": 2014408023,
  "type": "Feature",
  "properties": {
    "geom:area": 0,
    "geom:bbox": "-122.358190,37.491630,-121.267880,37.614010",
    "geom:latitude": 37.54603934336442,
    "geom:longitude": -121.81787131740059,
    "src:alt_label": "swim-approach",
    "src:geom": "swim",
    "swim:elevations": [
      4413,
      4279,
      4035,
      3877,
      3710,
      3430,
      3199,
      3138,
      3081,
      2774,
      2679,
      2624,
      2564,
      2513,
      2291,
      2111,
      1988,
      1887,
      1804,
      1592,
      1533,
      1452,
      1210,
      1171,
      952,
      834,
      653,
      536,
      464,
      442,
      210,
      120,
      43
    ],
    "swim:geom": "approach",
    "swim:timestamps": [
      1766877598,
      1766877612,
      1766877640,
      1766877661,
      1766877679,
      1766877713,
      1766877745,
      1766877763,
      1766877783,
      1766877838,
      1766877850,
      1766877862,
      1766877870,
      1766877883,
      1766877922,
      1766877955,
      1766877985,
      1766878012,
      1766878029,
      1766878065,
      1766878077,
      1766878093,
      1766878136,
      1766878142,
      1766878187,
      1766878207,
      1766878241,
      1766878266,
      1766878281,
      1766878290,
      1766878343,
      1766878364,
      1766878388
    ],
    "wof:geomhash": "7a872b9252db26c8e1a4eecb19cd0fb8",
    "wof:id": 2014408023,
    "wof:repo": "sfomuseum-data-flights-2025-12"
  },
  "bbox": [
    -122.35819,
    37.49163,
    -121.26788,
    37.61401
  ],
  "geometry": {"coordinates":[[-121.26788,37.59209],[-121.29619,37.58795],[-121.35232,37.58144],[-121.39187,37.57737],[-121.42604,37.57427],[-121.48974,37.56734],[-121.54898,37.56005],[-121.58352,37.55592],[-121.61842,37.55167],[-121.70901,37.53049],[-121.72944,37.52522],[-121.74833,37.52046],[-121.76005,37.51765],[-121.78001,37.51297],[-121.83856,37.49953],[-121.88676,37.49163],[-121.93092,37.49332],[-121.96758,37.49401],[-121.99109,37.49646],[-122.03361,37.50989],[-122.04822,37.51458],[-122.06733,37.52083],[-122.11711,37.53667],[-122.12398,37.5387],[-122.17374,37.55406],[-122.194,37.56139],[-122.22852,37.5741],[-122.25343,37.58118],[-122.26719,37.58501],[-122.27528,37.5871],[-122.32109,37.60067],[-122.33903,37.60615],[-122.35819,37.61401]],"type":"LineString"}
}
