{
  "id": 2014445579,
  "type": "Feature",
  "properties": {
    "geom:area": 0,
    "geom:bbox": "-122.344980,37.645990,-122.232770,38.487020",
    "geom:latitude": 38.0486850177791,
    "geom:longitude": -122.26491038693358,
    "src:alt_label": "swim-takeoff",
    "src:geom": "swim",
    "swim:elevations": [
      544,
      700,
      953,
      1201,
      1712,
      2339,
      2627,
      2960,
      3201,
      3804,
      4248,
      4429,
      4854,
      5006,
      5270,
      5638,
      5878,
      6368,
      6626,
      6936,
      6978
    ],
    "swim:geom": "takeoff",
    "swim:timestamps": [
      1767168024,
      1767168053,
      1767168082,
      1767168100,
      1767168133,
      1767168176,
      1767168193,
      1767168216,
      1767168241,
      1767168297,
      1767168327,
      1767168343,
      1767168381,
      1767168393,
      1767168415,
      1767168447,
      1767168466,
      1767168508,
      1767168533,
      1767168567,
      1767168571
    ],
    "wof:geomhash": "cb0410af3a4089ba86b04d428836e11e",
    "wof:id": 2014445579,
    "wof:repo": "sfomuseum-data-flights-2025-12"
  },
  "bbox": [
    -122.34498,
    37.64599,
    -122.23277,
    38.48702
  ],
  "geometry": {"coordinates":[[-122.34498,37.64599],[-122.319,37.66025],[-122.28698,37.67893],[-122.27201,37.69654],[-122.2744,37.73873],[-122.2838,37.79553],[-122.28738,37.82001],[-122.28761,37.85207],[-122.28409,37.88797],[-122.27354,37.98005],[-122.26784,38.03074],[-122.26467,38.05833],[-122.25704,38.12562],[-122.25459,38.14753],[-122.25,38.18868],[-122.2432,38.24869],[-122.23917,38.28449],[-122.23277,38.36318],[-122.2371,38.41138],[-122.24379,38.47732],[-122.24482,38.48702]],"type":"LineString"}
}
