{
  "id": 2014447449,
  "type": "Feature",
  "properties": {
    "geom:area": 0,
    "geom:bbox": "-123.506260,37.084890,-122.392670,37.665480",
    "geom:latitude": 37.402247472088874,
    "geom:longitude": -122.95427903700808,
    "src:alt_label": "swim-takeoff",
    "src:geom": "swim",
    "swim:elevations": [
      274,
      563,
      912,
      959,
      1161,
      1806,
      2235,
      2706,
      2759,
      3396,
      3543,
      3817,
      4045,
      4665,
      4809,
      4993,
      5203,
      5443,
      5631,
      5997,
      6031,
      6488,
      6750,
      6912,
      7189,
      7279
    ],
    "swim:geom": "takeoff",
    "swim:timestamps": [
      1767179775,
      1767179795,
      1767179843,
      1767179868,
      1767179890,
      1767179935,
      1767179964,
      1767179998,
      1767180002,
      1767180056,
      1767180073,
      1767180100,
      1767180122,
      1767180177,
      1767180193,
      1767180215,
      1767180238,
      1767180266,
      1767180286,
      1767180326,
      1767180330,
      1767180382,
      1767180414,
      1767180440,
      1767180478,
      1767180494
    ],
    "wof:geomhash": "2a5b2c67f19cc0660e97d041134f3433",
    "wof:id": 2014447449,
    "wof:repo": "sfomuseum-data-flights-2025-12"
  },
  "bbox": [
    -123.50626,
    37.08489,
    -122.39267,
    37.66548
  ],
  "geometry": {"coordinates":[[-122.39267,37.62836],[-122.41251,37.6367],[-122.46567,37.65896],[-122.49976,37.66548],[-122.52958,37.65705],[-122.58439,37.62226],[-122.62041,37.59946],[-122.66559,37.5742],[-122.67106,37.5712],[-122.74473,37.5285],[-122.77006,37.51375],[-122.81192,37.48954],[-122.84667,37.46949],[-122.93615,37.41807],[-122.96386,37.40201],[-123.00086,37.38048],[-123.04142,37.35698],[-123.09009,37.32885],[-123.12623,37.30776],[-123.19626,37.2668],[-123.20361,37.26248],[-123.29763,37.2074],[-123.35713,37.17253],[-123.40383,37.14508],[-123.47601,37.10265],[-123.50626,37.08489]],"type":"LineString"}
}
