{
  "id": 2014437871,
  "type": "Feature",
  "properties": {
    "geom:area": 0,
    "geom:bbox": "-122.465350,36.721070,-121.441460,37.712100",
    "geom:latitude": 37.22005315330882,
    "geom:longitude": -122.05765926057731,
    "src:alt_label": "swim-takeoff",
    "src:geom": "swim",
    "swim:elevations": [
      122,
      549,
      790,
      1247,
      1567,
      2172,
      2560,
      2972,
      3197,
      3489,
      3965,
      4057,
      4517,
      5030,
      5301,
      5894,
      6303,
      6542,
      6792,
      6941,
      7185,
      7528,
      8055,
      8335,
      8751,
      8838,
      8839,
      8839,
      8839,
      8839,
      8839
    ],
    "swim:geom": "takeoff",
    "swim:timestamps": [
      1767087820,
      1767087861,
      1767087891,
      1767087928,
      1767087949,
      1767087987,
      1767088012,
      1767088038,
      1767088056,
      1767088105,
      1767088134,
      1767088140,
      1767088176,
      1767088218,
      1767088238,
      1767088285,
      1767088317,
      1767088339,
      1767088372,
      1767088389,
      1767088410,
      1767088441,
      1767088486,
      1767088512,
      1767088558,
      1767088583,
      1767088606,
      1767088641,
      1767088677,
      1767088704,
      1767088716
    ],
    "wof:geomhash": "dfd116918a935cec44535c39e920a756",
    "wof:id": 2014437871,
    "wof:repo": "sfomuseum-data-flights-2025-12"
  },
  "bbox": [
    -122.46535,
    36.72107,
    -121.44146,
    37.7121
  ],
  "geometry": {"coordinates":[[-122.36772,37.63086],[-122.36037,37.66569],[-122.36767,37.69839],[-122.41723,37.7121],[-122.44206,37.69544],[-122.45248,37.64893],[-122.45635,37.61783],[-122.46108,37.58444],[-122.46453,37.56109],[-122.46535,37.48974],[-122.42994,37.45586],[-122.42135,37.44971],[-122.36904,37.41172],[-122.30489,37.36473],[-122.27343,37.34186],[-122.19839,37.28702],[-122.14688,37.24864],[-122.11065,37.22165],[-122.05419,37.17973],[-122.02529,37.1583],[-121.98717,37.12999],[-121.93264,37.0892],[-121.85304,37.02975],[-121.8079,36.9966],[-121.72681,36.93649],[-121.68309,36.90425],[-121.64185,36.87337],[-121.57643,36.82444],[-121.51209,36.77557],[-121.46405,36.73828],[-121.44146,36.72107]],"type":"LineString"}
}
