{
  "id": 2014430753,
  "type": "Feature",
  "properties": {
    "geom:area": 0,
    "geom:bbox": "-122.422890,37.275500,-121.267480,37.676950",
    "geom:latitude": 37.452910104478526,
    "geom:longitude": -121.9081962944777,
    "src:alt_label": "swim-takeoff",
    "src:geom": "swim",
    "swim:elevations": [
      152,
      423,
      735,
      1044,
      1349,
      1661,
      2305,
      2523,
      3081,
      3448,
      3641,
      4054,
      4292,
      4686,
      4933,
      5266,
      5668,
      5893,
      6336,
      6632,
      6851,
      7152,
      7455,
      7627,
      7812,
      8138,
      8230
    ],
    "swim:geom": "takeoff",
    "swim:timestamps": [
      1767025347,
      1767025367,
      1767025389,
      1767025423,
      1767025464,
      1767025488,
      1767025527,
      1767025540,
      1767025575,
      1767025607,
      1767025627,
      1767025663,
      1767025687,
      1767025723,
      1767025743,
      1767025772,
      1767025817,
      1767025840,
      1767025882,
      1767025912,
      1767025936,
      1767025967,
      1767026001,
      1767026021,
      1767026044,
      1767026092,
      1767026108
    ],
    "wof:geomhash": "94b4d353287094ffcd1087c0eae9dd81",
    "wof:id": 2014430753,
    "wof:repo": "sfomuseum-data-flights-2025-12"
  },
  "bbox": [
    -122.42289,
    37.2755,
    -121.26748,
    37.67695
  ],
  "geometry": {"coordinates":[[-122.36867,37.62956],[-122.36359,37.64359],[-122.36323,37.66036],[-122.38534,37.67695],[-122.42289,37.64865],[-122.41554,37.61932],[-122.38674,37.57473],[-122.37198,37.56246],[-122.31814,37.54902],[-122.26713,37.53678],[-122.23347,37.52815],[-122.17271,37.51218],[-122.12761,37.50031],[-122.06005,37.48296],[-122.02205,37.47315],[-121.96596,37.45875],[-121.87713,37.43576],[-121.83181,37.42396],[-121.74571,37.40171],[-121.68372,37.38544],[-121.63474,37.37259],[-121.57076,37.3559],[-121.499,37.33698],[-121.45603,37.32563],[-121.40693,37.31244],[-121.30186,37.28469],[-121.26748,37.2755]],"type":"LineString"}
}
