{
  "id": 2014420175,
  "type": "Feature",
  "properties": {
    "geom:area": 0,
    "geom:bbox": "-122.365420,37.630000,-121.242580,37.966050",
    "geom:latitude": 37.83891696482704,
    "geom:longitude": -121.81902503875747,
    "src:alt_label": "swim-takeoff",
    "src:geom": "swim",
    "swim:elevations": [
      152,
      485,
      676,
      1014,
      1115,
      1526,
      1659,
      1945,
      2291,
      2657,
      2804,
      3200,
      3413,
      3511,
      3774,
      4170,
      4644,
      4921,
      5034,
      5089,
      5120,
      5275,
      5308,
      5407,
      5500,
      5924,
      6242,
      6482,
      6558
    ],
    "swim:geom": "takeoff",
    "swim:timestamps": [
      1766957578,
      1766957598,
      1766957628,
      1766957667,
      1766957677,
      1766957726,
      1766957736,
      1766957758,
      1766957786,
      1766957813,
      1766957826,
      1766957861,
      1766957902,
      1766957924,
      1766957963,
      1766957997,
      1766958026,
      1766958050,
      1766958064,
      1766958073,
      1766958085,
      1766958117,
      1766958122,
      1766958145,
      1766958159,
      1766958200,
      1766958233,
      1766958266,
      1766958281
    ],
    "wof:geomhash": "b304933c567c40b1e4c166db31a12f1a",
    "wof:id": 2014420175,
    "wof:repo": "sfomuseum-data-flights-2025-12"
  },
  "bbox": [
    -122.36542,
    37.63,
    -121.24258,
    37.96605
  ],
  "geometry": {"coordinates":[[-122.36542,37.63],[-122.35413,37.64242],[-122.32942,37.65524],[-122.29344,37.67534],[-122.28347,37.68123],[-122.22575,37.71087],[-122.21373,37.71711],[-122.18646,37.73173],[-122.15007,37.75142],[-122.11506,37.76955],[-122.0981,37.77811],[-122.05161,37.80202],[-121.98976,37.82828],[-121.94929,37.8363],[-121.87475,37.85028],[-121.80741,37.86281],[-121.7505,37.87311],[-121.70694,37.88122],[-121.6804,37.88623],[-121.66305,37.88947],[-121.63977,37.8938],[-121.57523,37.90565],[-121.56522,37.90744],[-121.51787,37.91601],[-121.49041,37.92099],[-121.40587,37.9364],[-121.33923,37.94852],[-121.27302,37.96057],[-121.24258,37.96605]],"type":"LineString"}
}
