{
  "id": 2014430677,
  "type": "Feature",
  "properties": {
    "geom:area": 0,
    "geom:bbox": "-122.363690,37.632890,-121.248890,38.253490",
    "geom:latitude": 37.98373425435066,
    "geom:longitude": -121.83038086314029,
    "src:alt_label": "swim-takeoff",
    "src:geom": "swim",
    "swim:elevations": [
      213,
      915,
      1167,
      1468,
      1680,
      2112,
      3080,
      3194,
      3367,
      3761,
      3997,
      4291,
      4564,
      5077,
      5437,
      5710,
      6121,
      6378,
      6801,
      7242,
      7413,
      7702,
      7938,
      8195,
      8264
    ],
    "swim:geom": "takeoff",
    "swim:timestamps": [
      1767043930,
      1767043978,
      1767044004,
      1767044036,
      1767044053,
      1767044077,
      1767044128,
      1767044140,
      1767044164,
      1767044204,
      1767044220,
      1767044238,
      1767044256,
      1767044294,
      1767044323,
      1767044350,
      1767044387,
      1767044411,
      1767044444,
      1767044486,
      1767044505,
      1767044541,
      1767044566,
      1767044603,
      1767044613
    ],
    "wof:geomhash": "9a40d77b45fd3b72d4ad744c1ecda0f3",
    "wof:id": 2014430677,
    "wof:repo": "sfomuseum-data-flights-2025-12"
  },
  "bbox": [
    -122.36369,
    37.63289,
    -121.24889,
    38.25349
  ],
  "geometry": {"coordinates":[[-122.36369,37.63289],[-122.32952,37.65441],[-122.30846,37.6668],[-122.27524,37.68635],[-122.25388,37.69809],[-122.22215,37.71481],[-122.17142,37.76589],[-122.1594,37.7785],[-122.13327,37.80658],[-122.08644,37.85937],[-122.06344,37.8811],[-122.035,37.90242],[-122.00534,37.92246],[-121.94145,37.96646],[-121.89091,38.00045],[-121.83906,38.03015],[-121.76038,38.06103],[-121.70784,38.08101],[-121.63624,38.10812],[-121.54383,38.1432],[-121.50128,38.15926],[-121.41832,38.19033],[-121.35878,38.21299],[-121.27336,38.24431],[-121.24889,38.25349]],"type":"LineString"}
}
