{
  "id": 2014435643,
  "type": "Feature",
  "properties": {
    "geom:area": 0,
    "geom:bbox": "-123.469960,36.979000,-122.182290,37.613200",
    "geom:latitude": 37.284993241424125,
    "geom:longitude": -122.74328778315243,
    "src:alt_label": "swim-approach",
    "src:geom": "swim",
    "swim:elevations": [
      6312,
      5852,
      5634,
      5414,
      5278,
      4867,
      4437,
      4182,
      4031,
      3655,
      3128,
      3049,
      3048,
      2920,
      2849,
      2685,
      2570,
      2516,
      2316,
      2207,
      2118,
      1917,
      1821,
      1668,
      1598,
      1474,
      1316,
      1273,
      1028,
      900,
      720,
      596,
      401,
      242,
      120,
      0
    ],
    "swim:geom": "approach",
    "swim:timestamps": [
      1767134509,
      1767134546,
      1767134577,
      1767134605,
      1767134615,
      1767134653,
      1767134693,
      1767134716,
      1767134731,
      1767134766,
      1767134813,
      1767134831,
      1767134860,
      1767134904,
      1767134921,
      1767134960,
      1767134990,
      1767135002,
      1767135051,
      1767135075,
      1767135093,
      1767135136,
      1767135158,
      1767135200,
      1767135219,
      1767135237,
      1767135266,
      1767135275,
      1767135314,
      1767135338,
      1767135375,
      1767135397,
      1767135440,
      1767135478,
      1767135507,
      1767135538
    ],
    "wof:geomhash": "c7ce779c0f66aa3bf91f9597b1b1b7ed",
    "wof:id": 2014435643,
    "wof:repo": "sfomuseum-data-flights-2025-12"
  },
  "bbox": [
    -123.46996,
    36.979,
    -122.18229,
    37.6132
  ],
  "geometry": {"coordinates":[[-123.46996,36.979],[-123.39531,37.01325],[-123.33293,37.04238],[-123.27802,37.06781],[-123.25687,37.07761],[-123.18386,37.11105],[-123.10706,37.14659],[-123.06341,37.16674],[-123.03463,37.17983],[-122.96862,37.20959],[-122.88345,37.2481],[-122.85028,37.26],[-122.79656,37.27316],[-122.72275,37.29056],[-122.69619,37.29661],[-122.63418,37.31113],[-122.58639,37.32225],[-122.56723,37.32663],[-122.48822,37.34477],[-122.45079,37.35359],[-122.42194,37.36021],[-122.35407,37.37576],[-122.32206,37.38805],[-122.2705,37.42114],[-122.24913,37.43511],[-122.23012,37.44744],[-122.20177,37.46633],[-122.193,37.47227],[-122.18229,37.50846],[-122.19264,37.53124],[-122.22197,37.5541],[-122.24442,37.56387],[-122.2833,37.58013],[-122.31472,37.59316],[-122.33811,37.60323],[-122.36243,37.6132]],"type":"LineString"}
}
