{
  "id": 2014430547,
  "type": "Feature",
  "properties": {
    "geom:area": 0,
    "geom:bbox": "-122.527580,37.635630,-121.247290,37.974910",
    "geom:latitude": 37.87083953089801,
    "geom:longitude": -121.97963985081353,
    "src:alt_label": "swim-takeoff",
    "src:geom": "swim",
    "swim:elevations": [
      401,
      705,
      1127,
      1261,
      1547,
      2336,
      2831,
      3122,
      3437,
      3629,
      3775,
      4084,
      4589,
      4828,
      5388,
      5645,
      5936,
      6290,
      6468,
      6934,
      7280,
      7622,
      7993,
      8028,
      8229,
      8504,
      8747
    ],
    "swim:geom": "takeoff",
    "swim:timestamps": [
      1767006953,
      1767006976,
      1767007011,
      1767007029,
      1767007065,
      1767007103,
      1767007137,
      1767007168,
      1767007188,
      1767007217,
      1767007230,
      1767007265,
      1767007303,
      1767007323,
      1767007379,
      1767007399,
      1767007424,
      1767007456,
      1767007474,
      1767007517,
      1767007545,
      1767007571,
      1767007614,
      1767007624,
      1767007654,
      1767007689,
      1767007719
    ],
    "wof:geomhash": "c1532fa62ded32f853dddc910a2f126a",
    "wof:id": 2014430547,
    "wof:repo": "sfomuseum-data-flights-2025-12"
  },
  "bbox": [
    -122.52758,
    37.63563,
    -121.24729,
    37.97491
  ],
  "geometry": {"coordinates":[[-122.41546,37.63563],[-122.43758,37.64512],[-122.47244,37.6607],[-122.49223,37.66913],[-122.52654,37.70054],[-122.52758,37.74964],[-122.52471,37.79117],[-122.48933,37.81943],[-122.45926,37.82978],[-122.41193,37.84077],[-122.38687,37.8435],[-122.31715,37.85172],[-122.23739,37.86151],[-122.19505,37.86661],[-122.0717,37.88119],[-122.02423,37.88671],[-121.9666,37.89339],[-121.89168,37.90213],[-121.84868,37.90714],[-121.74555,37.91899],[-121.67843,37.92666],[-121.61652,37.93382],[-121.5127,37.94536],[-121.49007,37.94781],[-121.41289,37.95631],[-121.32608,37.96636],[-121.24729,37.97491]],"type":"LineString"}
}
