{
  "id": 2014426279,
  "type": "Feature",
  "properties": {
    "geom:area": 0,
    "geom:bbox": "-122.364010,37.466560,-121.263220,37.614320",
    "geom:latitude": 37.53780697165496,
    "geom:longitude": -121.82260203551024,
    "src:alt_label": "swim-approach",
    "src:geom": "swim",
    "swim:elevations": [
      4364,
      3835,
      3720,
      3304,
      3202,
      3200,
      3184,
      3135,
      2930,
      2625,
      2408,
      2273,
      2202,
      2136,
      1953,
      1744,
      1561,
      1478,
      1278,
      1161,
      919,
      756,
      697,
      499,
      338,
      285,
      58,
      160
    ],
    "swim:geom": "approach",
    "swim:timestamps": [
      1767004803,
      1767004856,
      1767004868,
      1767004915,
      1767004936,
      1767004943,
      1767004967,
      1767004988,
      1767005019,
      1767005064,
      1767005098,
      1767005122,
      1767005132,
      1767005164,
      1767005204,
      1767005243,
      1767005274,
      1767005287,
      1767005321,
      1767005356,
      1767005396,
      1767005421,
      1767005435,
      1767005479,
      1767005508,
      1767005524,
      1767005575,
      1767005591
    ],
    "wof:geomhash": "ea950a61ed29784bec57fada67de646e",
    "wof:id": 2014426279,
    "wof:repo": "sfomuseum-data-flights-2025-12"
  },
  "bbox": [
    -122.36401,
    37.46656,
    -121.26322,
    37.61432
  ],
  "geometry": {"coordinates":[[-121.26322,37.59258],[-121.37741,37.57982],[-121.40347,37.57691],[-121.50243,37.56517],[-121.54433,37.56035],[-121.55669,37.55896],[-121.60033,37.55367],[-121.63402,37.54841],[-121.68299,37.53687],[-121.75338,37.52004],[-121.80653,37.50725],[-121.84237,37.49832],[-121.85775,37.4946],[-121.90448,37.48323],[-121.9614,37.46774],[-122.01456,37.46656],[-122.0526,37.48278],[-122.06785,37.48934],[-122.10835,37.50617],[-122.14447,37.52138],[-122.18571,37.53891],[-122.21061,37.5491],[-122.22581,37.55491],[-122.26726,37.57339],[-122.29233,37.58399],[-122.30596,37.58975],[-122.34976,37.60804],[-122.36401,37.61432]],"type":"LineString"}
}
