{
  "id": 2014422339,
  "type": "Feature",
  "properties": {
    "geom:area": 0,
    "geom:bbox": "-122.361620,37.635990,-121.271680,37.960990",
    "geom:latitude": 37.83811054212671,
    "geom:longitude": -121.83031845607822,
    "src:alt_label": "swim-takeoff",
    "src:geom": "swim",
    "swim:elevations": [
      288,
      885,
      1092,
      1328,
      1492,
      2011,
      2489,
      3014,
      3412,
      3531,
      3702,
      4415,
      4772,
      5045,
      5445,
      5874,
      6105,
      6666,
      6905,
      7312,
      7527,
      7786
    ],
    "swim:geom": "takeoff",
    "swim:timestamps": [
      1766914246,
      1766914282,
      1766914299,
      1766914327,
      1766914341,
      1766914378,
      1766914405,
      1766914436,
      1766914465,
      1766914481,
      1766914506,
      1766914559,
      1766914586,
      1766914604,
      1766914639,
      1766914673,
      1766914693,
      1766914738,
      1766914758,
      1766914795,
      1766914813,
      1766914836
    ],
    "wof:geomhash": "bfd3f56b72f33333c118689db4bdb612",
    "wof:id": 2014422339,
    "wof:repo": "sfomuseum-data-flights-2025-12"
  },
  "bbox": [
    -122.36162,
    37.63599,
    -121.27168,
    37.96099
  ],
  "geometry": {"coordinates":[[-122.36162,37.63599],[-122.33482,37.65448],[-122.32019,37.66239],[-122.29379,37.67657],[-122.27774,37.68501],[-122.23284,37.70838],[-122.19693,37.72691],[-122.15588,37.74845],[-122.11517,37.76893],[-122.0909,37.78098],[-122.04955,37.80109],[-121.94713,37.84002],[-121.88597,37.85141],[-121.8434,37.85905],[-121.76377,37.87355],[-121.68211,37.88838],[-121.63467,37.89692],[-121.52297,37.9169],[-121.47318,37.9258],[-121.3795,37.9425],[-121.33295,37.95062],[-121.27168,37.96099]],"type":"LineString"}
}
