{
  "id": 2014447849,
  "type": "Feature",
  "properties": {
    "geom:area": 0,
    "geom:bbox": "-122.362560,37.633890,-121.245830,38.425930",
    "geom:latitude": 38.03936456159975,
    "geom:longitude": -121.81305166241198,
    "src:alt_label": "swim-takeoff",
    "src:geom": "swim",
    "swim:elevations": [
      213,
      549,
      698,
      1045,
      1220,
      1560,
      1832,
      2142,
      2717,
      3075,
      3382,
      3821,
      4216,
      4530,
      4843,
      5021,
      5438,
      5721,
      5979,
      6242,
      6316,
      6406,
      6497,
      6555,
      6684,
      6789,
      7087,
      7139,
      7285
    ],
    "swim:geom": "takeoff",
    "swim:timestamps": [
      1767174277,
      1767174295,
      1767174312,
      1767174342,
      1767174372,
      1767174408,
      1767174428,
      1767174452,
      1767174492,
      1767174514,
      1767174554,
      1767174594,
      1767174624,
      1767174656,
      1767174683,
      1767174696,
      1767174737,
      1767174767,
      1767174797,
      1767174827,
      1767174842,
      1767174864,
      1767174884,
      1767174893,
      1767174911,
      1767174932,
      1767174979,
      1767174990,
      1767175020
    ],
    "wof:geomhash": "0b6fc6215891ab8923a0a3546ec4b2f9",
    "wof:id": 2014447849,
    "wof:repo": "sfomuseum-data-flights-2025-12"
  },
  "bbox": [
    -122.36256,
    37.63389,
    -121.24583,
    38.42593
  ],
  "geometry": {"coordinates":[[-122.36256,37.63389],[-122.35087,37.64536],[-122.33758,37.65248],[-122.31045,37.66634],[-122.28105,37.68257],[-122.23647,37.70661],[-122.21218,37.72168],[-122.18817,37.74667],[-122.14892,37.79015],[-122.12588,37.81555],[-122.08263,37.86302],[-122.02702,37.90793],[-121.98073,37.9389],[-121.92912,37.9736],[-121.8832,38.0049],[-121.86149,38.01963],[-121.79263,38.06589],[-121.74038,38.10094],[-121.68867,38.13571],[-121.6343,38.17212],[-121.60665,38.19059],[-121.56687,38.21708],[-121.52745,38.24333],[-121.50967,38.25516],[-121.47402,38.27878],[-121.43222,38.30691],[-121.33479,38.37081],[-121.31143,38.38552],[-121.24583,38.42593]],"type":"LineString"}
}
