{
  "id": 2014439573,
  "type": "Feature",
  "properties": {
    "geom:area": 0,
    "geom:bbox": "-122.445770,37.303740,-121.243610,37.706800",
    "geom:latitude": 37.50120471717586,
    "geom:longitude": -121.91093543563025,
    "src:alt_label": "swim-takeoff",
    "src:geom": "swim",
    "swim:elevations": [
      474,
      800,
      972,
      1145,
      1398,
      1565,
      2084,
      2314,
      2749,
      3209,
      3406,
      3664,
      3706,
      3963,
      4241,
      4589,
      4845,
      5383,
      5413,
      5946,
      6233,
      6573,
      6817,
      6902,
      7204,
      7305,
      7590,
      7910
    ],
    "swim:geom": "takeoff",
    "swim:timestamps": [
      1767130106,
      1767130137,
      1767130155,
      1767130184,
      1767130211,
      1767130226,
      1767130258,
      1767130275,
      1767130307,
      1767130343,
      1767130368,
      1767130400,
      1767130406,
      1767130430,
      1767130456,
      1767130485,
      1767130506,
      1767130556,
      1767130565,
      1767130613,
      1767130640,
      1767130675,
      1767130701,
      1767130714,
      1767130755,
      1767130770,
      1767130810,
      1767130840
    ],
    "wof:geomhash": "414982e48aaf45960c6f840078301853",
    "wof:id": 2014439573,
    "wof:repo": "sfomuseum-data-flights-2025-12"
  },
  "bbox": [
    -122.44577,
    37.30374,
    -121.24361,
    37.7068
  ],
  "geometry": {"coordinates":[[-122.36351,37.64539],[-122.36267,37.67005],[-122.36207,37.6853],[-122.38151,37.70592],[-122.41763,37.7068],[-122.43543,37.69698],[-122.44577,37.66217],[-122.4338,37.64547],[-122.38799,37.62989],[-122.3327,37.61448],[-122.291,37.60267],[-122.23331,37.58602],[-122.22177,37.58278],[-122.17422,37.56947],[-122.12108,37.55457],[-122.06121,37.53788],[-122.01687,37.52551],[-121.90908,37.49508],[-121.88934,37.48944],[-121.78391,37.4595],[-121.72239,37.44195],[-121.64174,37.41886],[-121.58157,37.40155],[-121.55103,37.39276],[-121.45264,37.36429],[-121.41601,37.35369],[-121.31648,37.32485],[-121.24361,37.30374]],"type":"LineString"}
}
