{
  "id": 2014421979,
  "type": "Feature",
  "properties": {
    "geom:area": 0,
    "geom:bbox": "-122.360450,37.637350,-121.260410,38.138320",
    "geom:latitude": 37.93761327354578,
    "geom:longitude": -121.85166379665947,
    "src:alt_label": "swim-takeoff",
    "src:geom": "swim",
    "swim:elevations": [
      351,
      707,
      993,
      1132,
      1285,
      1730,
      1810,
      2456,
      2531,
      2808,
      3073,
      3305,
      3454,
      3772,
      4002,
      4177,
      4370,
      4386,
      4834,
      4986,
      5380,
      5539,
      5785,
      5859,
      6101,
      6283,
      6450
    ],
    "swim:geom": "takeoff",
    "swim:timestamps": [
      1766991526,
      1766991553,
      1766991589,
      1766991613,
      1766991644,
      1766991689,
      1766991695,
      1766991738,
      1766991744,
      1766991765,
      1766991788,
      1766991825,
      1766991850,
      1766991896,
      1766991919,
      1766991934,
      1766991958,
      1766991961,
      1766992012,
      1766992029,
      1766992075,
      1766992105,
      1766992138,
      1766992149,
      1766992180,
      1766992210,
      1766992238
    ],
    "wof:geomhash": "dc5b50381172ce75f06b59c3dbea507b",
    "wof:id": 2014421979,
    "wof:repo": "sfomuseum-data-flights-2025-12"
  },
  "bbox": [
    -122.36045,
    37.63735,
    -121.26041,
    38.13832
  ],
  "geometry": {"coordinates":[[-122.36045,37.63735],[-122.34436,37.65091],[-122.31997,37.6706],[-122.30221,37.68605],[-122.28941,37.71675],[-122.27511,37.77],[-122.27301,37.77747],[-122.24563,37.8261],[-122.23861,37.83113],[-122.20942,37.8438],[-122.1731,37.85339],[-122.11294,37.87003],[-122.06796,37.88473],[-121.98123,37.9128],[-121.93486,37.92753],[-121.90521,37.93711],[-121.85726,37.95245],[-121.85122,37.95442],[-121.74892,37.98799],[-121.71239,37.99908],[-121.61419,38.02808],[-121.55139,38.04775],[-121.47977,38.0698],[-121.4571,38.07688],[-121.38877,38.0988],[-121.32443,38.11883],[-121.26041,38.13832]],"type":"LineString"}
}
