{
  "id": 2014430741,
  "type": "Feature",
  "properties": {
    "geom:area": 0,
    "geom:bbox": "-122.361880,37.635050,-121.254380,37.976910",
    "geom:latitude": 37.85034331079639,
    "geom:longitude": -121.82336072040596,
    "src:alt_label": "swim-takeoff",
    "src:geom": "swim",
    "swim:elevations": [
      224,
      476,
      847,
      1070,
      1235,
      1517,
      2084,
      2342,
      2954,
      3362,
      3413,
      3731,
      4123,
      4372,
      4548,
      5021,
      5147,
      5453,
      5762,
      5920,
      6123,
      6341,
      6557
    ],
    "swim:geom": "takeoff",
    "swim:timestamps": [
      1767044456,
      1767044477,
      1767044505,
      1767044535,
      1767044560,
      1767044592,
      1767044634,
      1767044651,
      1767044684,
      1767044723,
      1767044735,
      1767044778,
      1767044808,
      1767044842,
      1767044860,
      1767044909,
      1767044921,
      1767044961,
      1767044999,
      1767045023,
      1767045049,
      1767045076,
      1767045102
    ],
    "wof:geomhash": "7b48584b7d3c0f6fc0ebe1099b1462a3",
    "wof:id": 2014430741,
    "wof:repo": "sfomuseum-data-flights-2025-12"
  },
  "bbox": [
    -122.36188,
    37.63505,
    -121.25438,
    37.97691
  ],
  "geometry": {"coordinates":[[-122.36188,37.63505],[-122.34696,37.64597],[-122.32472,37.65689],[-122.30001,37.67166],[-122.27459,37.6867],[-122.23563,37.7071],[-122.17873,37.73574],[-122.15455,37.74887],[-122.11009,37.77233],[-122.05767,37.7992],[-122.03855,37.80911],[-121.96861,37.84332],[-121.91506,37.86505],[-121.84685,37.87983],[-121.80867,37.88589],[-121.7027,37.90292],[-121.67412,37.90735],[-121.58669,37.9211],[-121.50023,37.93603],[-121.44306,37.94577],[-121.38144,37.95605],[-121.31596,37.96683],[-121.25438,37.97691]],"type":"LineString"}
}
