{
  "id": 2014416395,
  "type": "Feature",
  "properties": {
    "geom:area": 0,
    "geom:bbox": "-122.356880,36.744080,-121.892120,37.613400",
    "geom:latitude": 37.21871490708551,
    "geom:longitude": -122.07430196699379,
    "src:alt_label": "swim-approach",
    "src:geom": "swim",
    "swim:elevations": [
      5609,
      5429,
      5383,
      4793,
      4530,
      4465,
      4161,
      3801,
      3718,
      3507,
      3061,
      2924,
      2877,
      2683,
      2499,
      2270,
      2139,
      1849,
      1765,
      1662,
      1583,
      1331,
      1187,
      974,
      770,
      668,
      550,
      397,
      302,
      179,
      0
    ],
    "swim:geom": "approach",
    "swim:timestamps": [
      1766959617,
      1766959646,
      1766959651,
      1766959708,
      1766959735,
      1766959745,
      1766959774,
      1766959820,
      1766959835,
      1766959865,
      1766959916,
      1766959947,
      1766959959,
      1766960001,
      1766960022,
      1766960057,
      1766960075,
      1766960121,
      1766960142,
      1766960175,
      1766960193,
      1766960244,
      1766960267,
      1766960299,
      1766960333,
      1766960360,
      1766960390,
      1766960421,
      1766960445,
      1766960472,
      1766960510
    ],
    "wof:geomhash": "cc6d63c2a1a3542eccacab14bddea602",
    "wof:id": 2014416395,
    "wof:repo": "sfomuseum-data-flights-2025-12"
  },
  "bbox": [
    -122.35688,
    36.74408,
    -121.89212,
    37.6134
  ],
  "geometry": {"coordinates":[[-121.89212,36.74408],[-121.90559,36.78258],[-121.90774,36.79037],[-121.92892,36.86758],[-121.94026,36.9058],[-121.94414,36.91954],[-121.9564,36.96016],[-121.98084,37.02278],[-121.98858,37.04283],[-122.00377,37.08204],[-122.02943,37.14812],[-122.04498,37.18636],[-122.05055,37.20042],[-122.06831,37.24657],[-122.07609,37.26835],[-122.09017,37.30483],[-122.09798,37.32367],[-122.11674,37.36987],[-122.12414,37.38979],[-122.13433,37.41913],[-122.1396,37.43515],[-122.15896,37.48039],[-122.17399,37.49681],[-122.19866,37.51891],[-122.22113,37.53963],[-122.23629,37.55576],[-122.25637,37.57121],[-122.28396,37.58265],[-122.30322,37.59084],[-122.32577,37.60037],[-122.35688,37.6134]],"type":"LineString"}
}
