{
  "id": 2014430327,
  "type": "Feature",
  "properties": {
    "geom:area": 0,
    "geom:bbox": "-122.552760,36.731950,-122.226420,37.707350",
    "geom:latitude": 37.23800885679036,
    "geom:longitude": -122.45201886053158,
    "src:alt_label": "swim-takeoff",
    "src:geom": "swim",
    "swim:elevations": [
      122,
      478,
      749,
      1119,
      1440,
      1680,
      2270,
      2630,
      3032,
      3232,
      3666,
      3805,
      3962,
      4440,
      4571,
      4745,
      5121,
      5412,
      5874,
      6092,
      6528,
      6680,
      6920,
      7239,
      7403,
      7819,
      7909,
      8006
    ],
    "swim:geom": "takeoff",
    "swim:timestamps": [
      1767028160,
      1767028196,
      1767028221,
      1767028245,
      1767028273,
      1767028304,
      1767028339,
      1767028368,
      1767028406,
      1767028425,
      1767028468,
      1767028480,
      1767028502,
      1767028551,
      1767028561,
      1767028576,
      1767028605,
      1767028629,
      1767028678,
      1767028698,
      1767028738,
      1767028756,
      1767028783,
      1767028819,
      1767028836,
      1767028888,
      1767028899,
      1767028912
    ],
    "wof:geomhash": "842b8487797ebe37c844a956e3e0a84f",
    "wof:id": 2014430327,
    "wof:repo": "sfomuseum-data-flights-2025-12"
  },
  "bbox": [
    -122.55276,
    36.73195,
    -122.22642,
    37.70735
  ],
  "geometry": {"coordinates":[[-122.36939,37.62861],[-122.36423,37.65642],[-122.36274,37.6796],[-122.37073,37.70152],[-122.40426,37.70735],[-122.43419,37.68052],[-122.46502,37.6424],[-122.48846,37.6098],[-122.49702,37.55897],[-122.50079,37.53144],[-122.50831,37.46573],[-122.51056,37.44673],[-122.51471,37.41128],[-122.52481,37.32583],[-122.52673,37.30903],[-122.52999,37.28083],[-122.53616,37.22773],[-122.54216,37.18362],[-122.55276,37.09246],[-122.53963,37.05555],[-122.48555,36.99681],[-122.45966,36.97104],[-122.4194,36.93092],[-122.36707,36.87756],[-122.34065,36.8504],[-122.26301,36.76965],[-122.24662,36.75245],[-122.22642,36.73195]],"type":"LineString"}
}
