{
  "id": 2014417811,
  "type": "Feature",
  "properties": {
    "geom:area": 0,
    "geom:bbox": "-122.364770,37.491570,-121.282820,37.616910",
    "geom:latitude": 37.54583986517279,
    "geom:longitude": -121.82876164581597,
    "src:alt_label": "swim-approach",
    "src:geom": "swim",
    "swim:elevations": [
      4535,
      4499,
      4217,
      3728,
      3410,
      3228,
      3170,
      2871,
      2762,
      2529,
      2363,
      2255,
      2095,
      1977,
      1856,
      1675,
      1586,
      1475,
      1336,
      1193,
      1042,
      842,
      711,
      609,
      511,
      313,
      193,
      63,
      14
    ],
    "swim:geom": "approach",
    "swim:timestamps": [
      1766914436,
      1766914442,
      1766914470,
      1766914522,
      1766914555,
      1766914579,
      1766914597,
      1766914646,
      1766914660,
      1766914702,
      1766914738,
      1766914755,
      1766914789,
      1766914813,
      1766914841,
      1766914875,
      1766914890,
      1766914911,
      1766914934,
      1766914963,
      1766914988,
      1766915031,
      1766915060,
      1766915084,
      1766915109,
      1766915152,
      1766915181,
      1766915209,
      1766915228
    ],
    "wof:geomhash": "03d3accdca08894a2931abc5e7a9b4f8",
    "wof:id": 2014417811,
    "wof:repo": "sfomuseum-data-flights-2025-12"
  },
  "bbox": [
    -122.36477,
    37.49157,
    -121.28282,
    37.61691
  ],
  "geometry": {"coordinates":[[-121.28282,37.59006],[-121.29437,37.58872],[-121.34794,37.58303],[-121.44763,37.57152],[-121.51104,37.56413],[-121.5566,37.55877],[-121.5902,37.55479],[-121.67604,37.53855],[-121.70041,37.53271],[-121.7698,37.51617],[-121.82319,37.50331],[-121.84804,37.49736],[-121.89832,37.49157],[-121.93342,37.49236],[-121.97343,37.49363],[-122.01768,37.5044],[-122.03644,37.51044],[-122.06183,37.51864],[-122.09008,37.52774],[-122.12416,37.53899],[-122.15171,37.54782],[-122.19274,37.56099],[-122.21834,37.56974],[-122.23861,37.57616],[-122.26125,37.58324],[-122.29893,37.59425],[-122.32371,37.60164],[-122.34781,37.60953],[-122.36477,37.61691]],"type":"LineString"}
}
