{
  "id": 2014443529,
  "type": "Feature",
  "properties": {
    "geom:area": 0,
    "geom:bbox": "-122.361590,36.721940,-121.878400,37.614270",
    "geom:latitude": 37.21304022138838,
    "geom:longitude": -122.07077902888611,
    "src:alt_label": "swim-approach",
    "src:geom": "swim",
    "swim:elevations": [
      4847,
      4619,
      4419,
      4295,
      4118,
      3943,
      3702,
      3605,
      3256,
      3116,
      3045,
      2883,
      2665,
      2579,
      2308,
      2144,
      1870,
      1661,
      1430,
      1373,
      1114,
      887,
      663,
      599,
      563,
      362,
      273,
      171,
      71
    ],
    "swim:geom": "approach",
    "swim:timestamps": [
      1767206633,
      1767206663,
      1767206687,
      1767206705,
      1767206726,
      1767206751,
      1767206783,
      1767206792,
      1767206839,
      1767206871,
      1767206901,
      1767206931,
      1767206964,
      1767206978,
      1767207025,
      1767207045,
      1767207081,
      1767207113,
      1767207144,
      1767207153,
      1767207195,
      1767207231,
      1767207266,
      1767207279,
      1767207285,
      1767207322,
      1767207338,
      1767207363,
      1767207402
    ],
    "wof:geomhash": "2dbfc9867d80ee660cb4946a558a1af9",
    "wof:id": 2014443529,
    "wof:repo": "sfomuseum-data-flights-2025-12"
  },
  "bbox": [
    -122.36159,
    36.72194,
    -121.8784,
    37.61427
  ],
  "geometry": {"coordinates":[[-121.8784,36.72194],[-121.90169,36.76927],[-121.91241,36.80753],[-121.9205,36.8369],[-121.92995,36.86992],[-121.94113,36.90921],[-121.95583,36.95895],[-121.96134,36.97254],[-121.98894,37.04387],[-122.0071,37.09086],[-122.02365,37.13308],[-122.03941,37.17262],[-122.05655,37.2165],[-122.06343,37.23434],[-122.08728,37.29571],[-122.09764,37.32185],[-122.11615,37.36829],[-122.13106,37.41029],[-122.14521,37.45145],[-122.1491,37.46307],[-122.16571,37.51559],[-122.19575,37.54695],[-122.23682,37.56326],[-122.25214,37.56928],[-122.25891,37.57214],[-122.29652,37.58803],[-122.31039,37.59393],[-122.33112,37.60259],[-122.36159,37.61427]],"type":"LineString"}
}
