{
  "id": 2014426695,
  "type": "Feature",
  "properties": {
    "geom:area": 0,
    "geom:bbox": "-122.363250,37.492210,-121.250580,37.616200",
    "geom:latitude": 37.547150503168844,
    "geom:longitude": -121.81195505586248,
    "src:alt_label": "swim-approach",
    "src:geom": "swim",
    "swim:elevations": [
      4581,
      4165,
      3997,
      3607,
      3303,
      3118,
      3109,
      3047,
      3016,
      2634,
      2577,
      2289,
      2208,
      2013,
      1909,
      1750,
      1711,
      1544,
      1306,
      1160,
      1037,
      941,
      764,
      519,
      426,
      349,
      239,
      65,
      0
    ],
    "swim:geom": "approach",
    "swim:timestamps": [
      1767045040,
      1767045076,
      1767045094,
      1767045136,
      1767045169,
      1767045208,
      1767045211,
      1767045235,
      1767045241,
      1767045296,
      1767045303,
      1767045356,
      1767045368,
      1767045414,
      1767045440,
      1767045476,
      1767045482,
      1767045513,
      1767045560,
      1767045585,
      1767045613,
      1767045631,
      1767045665,
      1767045717,
      1767045737,
      1767045761,
      1767045782,
      1767045821,
      1767045841
    ],
    "wof:geomhash": "72000bf042b5b3a2cd102179d4d18f03",
    "wof:id": 2014426695,
    "wof:repo": "sfomuseum-data-flights-2025-12"
  },
  "bbox": [
    -122.36325,
    37.49221,
    -121.25058,
    37.6162
  ],
  "geometry": {"coordinates":[[-121.25058,37.59441],[-121.32758,37.58535],[-121.36477,37.58117],[-121.45176,37.57099],[-121.51765,37.56328],[-121.59427,37.55434],[-121.5999,37.55368],[-121.6428,37.54637],[-121.65306,37.54395],[-121.74498,37.52217],[-121.75685,37.5193],[-121.84029,37.49914],[-121.85809,37.49497],[-121.92302,37.49221],[-121.95812,37.49302],[-122.00275,37.49939],[-122.00955,37.50164],[-122.04438,37.51295],[-122.09789,37.53031],[-122.12503,37.53917],[-122.15322,37.54831],[-122.17169,37.55422],[-122.20546,37.56526],[-122.25555,37.58129],[-122.27446,37.58701],[-122.29559,37.59309],[-122.31386,37.59846],[-122.34766,37.60947],[-122.36325,37.6162]],"type":"LineString"}
}
