{
  "id": 2014437885,
  "type": "Feature",
  "properties": {
    "geom:area": 0,
    "geom:bbox": "-122.468000,36.757690,-121.544310,37.703940",
    "geom:latitude": 37.238224300081534,
    "geom:longitude": -122.09463801415856,
    "src:alt_label": "swim-takeoff",
    "src:geom": "swim",
    "swim:elevations": [
      244,
      565,
      890,
      1006,
      1246,
      1686,
      2319,
      2856,
      2925,
      3354,
      3712,
      4303,
      4467,
      4959,
      5481,
      5815,
      5874,
      6438,
      6684,
      6991,
      7099,
      7188,
      7226,
      7492,
      7826,
      8156,
      8218,
      8230,
      8230,
      8230
    ],
    "swim:geom": "takeoff",
    "swim:timestamps": [
      1767100014,
      1767100034,
      1767100077,
      1767100096,
      1767100134,
      1767100158,
      1767100197,
      1767100228,
      1767100232,
      1767100267,
      1767100293,
      1767100339,
      1767100352,
      1767100380,
      1767100428,
      1767100463,
      1767100470,
      1767100521,
      1767100547,
      1767100582,
      1767100612,
      1767100638,
      1767100652,
      1767100706,
      1767100758,
      1767100798,
      1767100812,
      1767100837,
      1767100885,
      1767100894
    ],
    "wof:geomhash": "d7dab91dd81690561b71a75990f679ba",
    "wof:id": 2014437885,
    "wof:repo": "sfomuseum-data-flights-2025-12"
  },
  "bbox": [
    -122.468,
    36.75769,
    -121.54431,
    37.70394
  ],
  "geometry": {"coordinates":[[-122.36703,37.63231],[-122.36352,37.64551],[-122.36155,37.67672],[-122.36691,37.69454],[-122.41351,37.70394],[-122.43366,37.68136],[-122.44077,37.63622],[-122.44791,37.59741],[-122.4491,37.59249],[-122.46011,37.54826],[-122.468,37.51148],[-122.43047,37.45499],[-122.41239,37.44205],[-122.37185,37.41468],[-122.3051,37.36647],[-122.25593,37.32953],[-122.24544,37.32164],[-122.17081,37.26597],[-122.13284,37.23766],[-122.08078,37.19879],[-122.0348,37.16096],[-121.99334,37.12696],[-121.97077,37.10845],[-121.87786,37.03215],[-121.78633,36.95752],[-121.71511,36.89932],[-121.68942,36.87817],[-121.6459,36.84264],[-121.55965,36.77111],[-121.54431,36.75769]],"type":"LineString"}
}
