{
  "id": 2014438927,
  "type": "Feature",
  "properties": {
    "geom:area": 0,
    "geom:bbox": "-122.385100,37.629800,-121.428390,38.517850",
    "geom:latitude": 38.12293749437987,
    "geom:longitude": -122.01062206000216,
    "src:alt_label": "swim-takeoff",
    "src:geom": "swim",
    "swim:elevations": [
      255,
      611,
      985,
      1314,
      1734,
      2286,
      2764,
      3157,
      3326,
      3519,
      4134,
      4380,
      4909,
      5419,
      5623,
      6053,
      6458,
      6647,
      7000,
      7133,
      7318,
      7794,
      7950,
      8200,
      8416,
      8531
    ],
    "swim:geom": "takeoff",
    "swim:timestamps": [
      1767142852,
      1767142877,
      1767142916,
      1767142949,
      1767142976,
      1767143005,
      1767143036,
      1767143066,
      1767143096,
      1767143111,
      1767143156,
      1767143171,
      1767143207,
      1767143245,
      1767143269,
      1767143306,
      1767143339,
      1767143357,
      1767143396,
      1767143411,
      1767143432,
      1767143486,
      1767143510,
      1767143546,
      1767143576,
      1767143594
    ],
    "wof:geomhash": "d0f8c867412012a7b6cd13ef3dc52995",
    "wof:id": 2014438927,
    "wof:repo": "sfomuseum-data-flights-2025-12"
  },
  "bbox": [
    -122.3851,
    37.6298,
    -121.42839,
    38.51785
  ],
  "geometry": {"coordinates":[[-122.36546,37.6298],[-122.35105,37.64402],[-122.31917,37.67155],[-122.31378,37.70785],[-122.33167,37.74083],[-122.35158,37.7771],[-122.37137,37.81636],[-122.3851,37.8564],[-122.38456,37.9037],[-122.37838,37.92848],[-122.31212,37.9838],[-122.28594,38.00006],[-122.22231,38.03913],[-122.1529,38.08146],[-122.10747,38.109],[-122.03823,38.15099],[-121.974,38.18982],[-121.93845,38.21129],[-121.85986,38.25875],[-121.82888,38.27741],[-121.78522,38.30362],[-121.6704,38.37317],[-121.61794,38.40421],[-121.53773,38.45229],[-121.47002,38.49356],[-121.42839,38.51785]],"type":"LineString"}
}
