{
  "id": 2014409931,
  "type": "Feature",
  "properties": {
    "geom:area": 0,
    "geom:bbox": "-122.361960,36.724770,-121.880660,37.613600",
    "geom:latitude": 37.21739802675511,
    "geom:longitude": -122.07045163020244,
    "src:alt_label": "swim-approach",
    "src:geom": "swim",
    "swim:elevations": [
      5885,
      5528,
      5423,
      4939,
      4898,
      4403,
      4234,
      3699,
      3418,
      3310,
      3098,
      2907,
      2733,
      2497,
      2283,
      2135,
      2062,
      1724,
      1661,
      1385,
      1324,
      1237,
      1161,
      1068,
      958,
      880,
      799,
      641,
      508,
      319,
      244,
      158,
      765
    ],
    "swim:geom": "approach",
    "swim:timestamps": [
      1766824397,
      1766824434,
      1766824451,
      1766824497,
      1766824500,
      1766824548,
      1766824565,
      1766824618,
      1766824648,
      1766824658,
      1766824696,
      1766824734,
      1766824755,
      1766824791,
      1766824823,
      1766824846,
      1766824862,
      1766824919,
      1766824924,
      1766824963,
      1766824976,
      1766824993,
      1766825005,
      1766825020,
      1766825046,
      1766825091,
      1766825111,
      1766825141,
      1766825174,
      1766825218,
      1766825238,
      1766825259,
      1766825309
    ],
    "wof:geomhash": "b64d089cd531930afc9cb26a36a685fd",
    "wof:id": 2014409931,
    "wof:repo": "sfomuseum-data-flights-2025-12"
  },
  "bbox": [
    -122.36196,
    36.72477,
    -121.88066,
    37.6136
  ],
  "geometry": {"coordinates":[[-121.88066,36.72477],[-121.90471,36.77913],[-121.91187,36.80473],[-121.93137,36.87423],[-121.93262,36.87863],[-121.95192,36.94834],[-121.96079,36.97164],[-121.99012,37.04689],[-122.00612,37.08794],[-122.01175,37.10226],[-122.03151,37.15301],[-122.04948,37.19911],[-122.05965,37.2245],[-122.077,37.26889],[-122.09122,37.3056],[-122.10177,37.33148],[-122.10895,37.34984],[-122.12498,37.40847],[-122.12561,37.41456],[-122.12972,37.45266],[-122.1312,37.46544],[-122.1329,37.47999],[-122.13409,37.49027],[-122.14005,37.50153],[-122.155,37.51797],[-122.18906,37.54058],[-122.20662,37.54836],[-122.23399,37.55929],[-122.26374,37.57156],[-122.29868,37.58664],[-122.31351,37.59279],[-122.3285,37.59915],[-122.36196,37.6136]],"type":"LineString"}
}
