{
  "id": 2014439793,
  "type": "Feature",
  "properties": {
    "geom:area": 0,
    "geom:bbox": "-122.362330,37.634610,-121.253530,38.121510",
    "geom:latitude": 37.89325955669,
    "geom:longitude": -121.8152168587546,
    "src:alt_label": "swim-takeoff",
    "src:geom": "swim",
    "swim:elevations": [
      244,
      305,
      863,
      1014,
      1354,
      1715,
      1941,
      2478,
      2903,
      3378,
      3497,
      3574,
      3599,
      4169,
      4304,
      4563,
      5209,
      5409,
      5569,
      5689,
      5970,
      6096,
      6337,
      6708,
      6995
    ],
    "swim:geom": "takeoff",
    "swim:timestamps": [
      1767086008,
      1767086013,
      1767086063,
      1767086080,
      1767086128,
      1767086153,
      1767086168,
      1767086205,
      1767086235,
      1767086270,
      1767086292,
      1767086307,
      1767086313,
      1767086364,
      1767086376,
      1767086400,
      1767086455,
      1767086473,
      1767086500,
      1767086513,
      1767086548,
      1767086566,
      1767086593,
      1767086631,
      1767086662
    ],
    "wof:geomhash": "6c182bee2cbde9d365c7f3e652e84fbb",
    "wof:id": 2014439793,
    "wof:repo": "sfomuseum-data-flights-2025-12"
  },
  "bbox": [
    -122.36233,
    37.63461,
    -121.25353,
    38.12151
  ],
  "geometry": {"coordinates":[[-122.36233,37.63461],[-122.35981,37.63797],[-122.31855,37.66062],[-122.30303,37.66932],[-122.24918,37.7001],[-122.21649,37.71694],[-122.19661,37.7272],[-122.14585,37.75321],[-122.10423,37.77468],[-122.05443,37.80037],[-122.02059,37.8177],[-121.99529,37.82961],[-121.98455,37.83394],[-121.8892,37.87179],[-121.86603,37.88098],[-121.81853,37.89987],[-121.70723,37.94388],[-121.67036,37.95841],[-121.61389,37.98064],[-121.58618,37.99156],[-121.51043,38.02127],[-121.47077,38.03682],[-121.41021,38.06054],[-121.32399,38.09411],[-121.25353,38.12151]],"type":"LineString"}
}
