{
  "id": 2014442185,
  "type": "Feature",
  "properties": {
    "geom:area": 0,
    "geom:bbox": "-122.358760,37.493320,-121.247960,37.614180",
    "geom:latitude": 37.55270331684877,
    "geom:longitude": -121.80995892960897,
    "src:alt_label": "swim-approach",
    "src:geom": "swim",
    "swim:elevations": [
      4533,
      4272,
      4175,
      3802,
      3504,
      3353,
      3172,
      3142,
      2898,
      2858,
      2744,
      2743,
      2743,
      2715,
      2539,
      2254,
      1916,
      1737,
      1562,
      1340,
      1219,
      1010,
      938,
      730,
      487,
      390,
      235,
      61,
      3
    ],
    "swim:geom": "approach",
    "swim:timestamps": [
      1767182605,
      1767182634,
      1767182646,
      1767182687,
      1767182723,
      1767182747,
      1767182785,
      1767182793,
      1767182844,
      1767182857,
      1767182890,
      1767182932,
      1767182958,
      1767182982,
      1767183014,
      1767183049,
      1767183087,
      1767183110,
      1767183127,
      1767183167,
      1767183193,
      1767183235,
      1767183246,
      1767183284,
      1767183325,
      1767183344,
      1767183374,
      1767183418,
      1767183428
    ],
    "wof:geomhash": "8d05a813b947d06f59d882ba66674050",
    "wof:id": 2014442185,
    "wof:repo": "sfomuseum-data-flights-2025-12"
  },
  "bbox": [
    -122.35876,
    37.49332,
    -121.24796,
    37.61418
  ],
  "geometry": {"coordinates":[[-121.24796,37.59479],[-121.30715,37.58723],[-121.33126,37.58461],[-121.41335,37.57552],[-121.48312,37.56751],[-121.52678,37.56239],[-121.5897,37.56033],[-121.60274,37.56389],[-121.68111,37.58492],[-121.70083,37.59012],[-121.74577,37.58535],[-121.77382,37.54701],[-121.79748,37.52716],[-121.83161,37.52118],[-121.87772,37.51488],[-121.9254,37.50801],[-121.97817,37.50067],[-122.00961,37.4965],[-122.03358,37.49332],[-122.08713,37.49875],[-122.11995,37.51372],[-122.17452,37.53661],[-122.187,37.54195],[-122.22904,37.55963],[-122.27367,37.57835],[-122.29112,37.58565],[-122.31698,37.59663],[-122.35129,37.61107],[-122.35876,37.61418]],"type":"LineString"}
}
