{
  "id": 2014447459,
  "type": "Feature",
  "properties": {
    "geom:area": 0,
    "geom:bbox": "-122.457980,36.731130,-121.400990,37.720360",
    "geom:latitude": 37.25126970005717,
    "geom:longitude": -121.98720350859168,
    "src:alt_label": "swim-takeoff",
    "src:geom": "swim",
    "swim:elevations": [
      527,
      777,
      1064,
      1303,
      1424,
      2312,
      2562,
      3053,
      3361,
      3521,
      3611,
      4007,
      4269,
      4738,
      5129,
      5361,
      5433,
      5919,
      6076,
      6671,
      6980,
      7498,
      7696,
      7879,
      8064,
      8228,
      8610,
      8802,
      8946,
      9126,
      9241,
      9325
    ],
    "swim:geom": "takeoff",
    "swim:timestamps": [
      1767176573,
      1767176592,
      1767176629,
      1767176660,
      1767176671,
      1767176723,
      1767176738,
      1767176773,
      1767176812,
      1767176838,
      1767176855,
      1767176895,
      1767176919,
      1767176960,
      1767176998,
      1767177021,
      1767177033,
      1767177083,
      1767177102,
      1767177143,
      1767177161,
      1767177202,
      1767177230,
      1767177259,
      1767177282,
      1767177308,
      1767177358,
      1767177386,
      1767177408,
      1767177444,
      1767177466,
      1767177484
    ],
    "wof:geomhash": "68ea4c5340efad1b4229327d25033005",
    "wof:id": 2014447459,
    "wof:repo": "sfomuseum-data-flights-2025-12"
  },
  "bbox": [
    -122.45798,
    36.73113,
    -121.40099,
    37.72036
  ],
  "geometry": {"coordinates":[[-122.36303,37.6459],[-122.36256,37.66213],[-122.36612,37.69751],[-122.40373,37.72036],[-122.42184,37.71977],[-122.45798,37.67033],[-122.45543,37.6534],[-122.42631,37.61859],[-122.38293,37.58104],[-122.3493,37.55231],[-122.32736,37.53367],[-122.26977,37.48484],[-122.23539,37.45544],[-122.17501,37.4035],[-122.11867,37.35434],[-122.08399,37.32444],[-122.06599,37.30891],[-121.98748,37.24153],[-121.95829,37.21642],[-121.89543,37.16213],[-121.86908,37.13936],[-121.81141,37.08941],[-121.7732,37.05569],[-121.73101,37.01936],[-121.69759,36.99037],[-121.66085,36.95803],[-121.58718,36.8945],[-121.54648,36.85909],[-121.51349,36.83023],[-121.46032,36.78351],[-121.42717,36.75419],[-121.40099,36.73113]],"type":"LineString"}
}
