{
  "id": 2014435357,
  "type": "Feature",
  "properties": {
    "date:cessation_lower": "2025-12-30",
    "date:cessation_upper": "2025-12-30",
    "date:inception_lower": "1970-01-01",
    "date:inception_upper": "1970-01-01",
    "edtf:cessation": "2025-12-30T13:52:14-08:00",
    "edtf:inception": "1970-01-01T00:00:00Z",
    "flysfo:actual_timestamp": -1,
    "flysfo:airline": "UA",
    "flysfo:base_airline": "",
    "flysfo:base_flight_number": "4174",
    "flysfo:date": "2025-12-30",
    "flysfo:estimated_timestamp": 1767160620,
    "flysfo:event": "A",
    "flysfo:flight_number": "UA2854",
    "flysfo:gate": "E6",
    "flysfo:journey": "BUR-SFO",
    "flysfo:scheduled_timestamp": 1767161340,
    "flysfo:timestamp": 1767161340,
    "geom:area": 0,
    "geom:bbox": "-122.370943,34.196704,-118.353322,37.617990",
    "geom:latitude": 35.907347,
    "geom:longitude": -120.3621325,
    "iata:airline": "UA",
    "iata:base_airline": "",
    "icao:aircraft": "A320",
    "icao:airline": "UAL",
    "icao:base_airline": "ACA",
    "lbl:latitude": 37.618774,
    "lbl:longitude": -122.384852,
    "sfomuseum:aircraft_id": 1159292085,
    "sfomuseum:airline_id": 1159285413,
    "sfomuseum:arrival_id": 102527513,
    "sfomuseum:base_flight_id": "20251230-A-ACA-4174",
    "sfomuseum:departure_id": 1746879083,
    "sfomuseum:flight_id": "20251230-A-UAL-2854",
    "sfomuseum:flight_number": [
      "UAL2854",
      "UA2854"
    ],
    "sfomuseum:placetype": "flight",
    "src:geom": "flysfo",
    "src:geom_alt": [
      "swim-approach"
    ],
    "swim:tail_number": "N489UA",
    "wof:belongsto": [
      1947304067,
      102527513,
      1947304511,
      102191575,
      85633793,
      102087579,
      85922583,
      554784711,
      85688637,
      1947304513,
      1947304447,
      102085387
    ],
    "wof:country": "US",
    "wof:created": 1767197316,
    "wof:geomhash": "579cc6c0d5668ba584a946b357aa3191",
    "wof:hierarchy": [
      {
        "building_id": 1947304067,
        "campus_id": 102527513,
        "concourse_id": 1947304511,
        "continent_id": 102191575,
        "country_id": 85633793,
        "county_id": 102087579,
        "custom_id": 2014435357,
        "flight_id": 2014435357,
        "locality_id": 85922583,
        "postalcode_id": 554784711,
        "region_id": 85688637,
        "venue_id": 1947304513,
        "wing_id": 1947304447
      },
      {
        "building_id": 1947304067,
        "campus_id": 102527513,
        "concourse_id": 1947304511,
        "continent_id": 102191575,
        "country_id": 85633793,
        "county_id": 102085387,
        "custom_id": 2014435357,
        "flight_id": 2014435357,
        "region_id": 85688637,
        "venue_id": 1947304513,
        "wing_id": 1947304447
      }
    ],
    "wof:id": 2014435357,
    "wof:involves": [
      1159285413,
      1947304513,
      1159283597,
      1159292085,
      102527513,
      1746879083
    ],
    "wof:lastmodified": 1767197895,
    "wof:name": "UA2854 (BUR-SFO)",
    "wof:parent_id": 1947304513,
    "wof:placetype": "custom",
    "wof:placetype_alt": [
      "flight"
    ],
    "wof:repo": "sfomuseum-data-flights-2025-12",
    "wof:superseded_by": [],
    "wof:supersedes": []
  },
  "bbox": [
    -122.370943,
    34.196704,
    -118.353322,
    37.61799
  ],
  "geometry": {"coordinates":[[-118.353322,34.196704],[-122.370943,37.61799]],"type":"MultiPoint"}
}
