{
  "id": 2014437361,
  "type": "Feature",
  "properties": {
    "geom:area": 0,
    "geom:bbox": "-122.496020,37.370930,-122.362730,37.720780",
    "geom:latitude": 37.58451209091596,
    "geom:longitude": -122.44898501296717,
    "src:alt_label": "swim-takeoff",
    "src:geom": "swim",
    "swim:elevations": [
      517,
      644,
      775,
      1266,
      1756,
      2170,
      2672,
      2941,
      3127,
      3358,
      3413,
      3706,
      4133,
      4692
    ],
    "swim:geom": "takeoff",
    "swim:timestamps": [
      1767165658,
      1767165682,
      1767165700,
      1767165743,
      1767165775,
      1767165800,
      1767165835,
      1767165853,
      1767165865,
      1767165896,
      1767165904,
      1767165933,
      1767165973,
      1767166015
    ],
    "wof:geomhash": "a71f420be5a16ae16c7fda21e5c7b826",
    "wof:id": 2014437361,
    "wof:repo": "sfomuseum-data-flights-2025-12"
  },
  "bbox": [
    -122.49602,
    37.37093,
    -122.36273,
    37.72078
  ],
  "geometry": {"coordinates":[[-122.36405,37.64924],[-122.36273,37.67085],[-122.36283,37.68986],[-122.4087,37.72078],[-122.45167,37.70198],[-122.46042,37.67274],[-122.46263,37.62923],[-122.46492,37.60661],[-122.46634,37.59156],[-122.46937,37.55116],[-122.47009,37.53989],[-122.47319,37.49671],[-122.48395,37.43638],[-122.49602,37.37093]],"type":"LineString"}
}
