{
  "id": 2014409393,
  "type": "Feature",
  "properties": {
    "geom:area": 0,
    "geom:bbox": "-122.361120,37.491300,-121.246070,37.615880",
    "geom:latitude": 37.547091297190896,
    "geom:longitude": -121.80874580337638,
    "src:alt_label": "swim-approach",
    "src:geom": "swim",
    "swim:elevations": [
      4604,
      4567,
      4381,
      4152,
      3814,
      3571,
      3485,
      3399,
      3158,
      3138,
      3080,
      3014,
      2885,
      2628,
      2398,
      2215,
      2107,
      1987,
      1971,
      1869,
      1723,
      1465,
      1340,
      1168,
      969,
      881,
      770,
      577,
      425,
      361,
      251,
      170,
      157,
      30,
      202
    ],
    "swim:geom": "approach",
    "swim:timestamps": [
      1766870458,
      1766870465,
      1766870485,
      1766870509,
      1766870546,
      1766870575,
      1766870583,
      1766870594,
      1766870636,
      1766870643,
      1766870665,
      1766870684,
      1766870701,
      1766870732,
      1766870777,
      1766870807,
      1766870831,
      1766870856,
      1766870862,
      1766870889,
      1766870914,
      1766870959,
      1766870983,
      1766871014,
      1766871056,
      1766871075,
      1766871101,
      1766871143,
      1766871178,
      1766871192,
      1766871213,
      1766871237,
      1766871240,
      1766871267,
      1766871276
    ],
    "wof:geomhash": "8de925e33c1235c25eee18e77756a3a4",
    "wof:id": 2014409393,
    "wof:repo": "sfomuseum-data-flights-2025-12"
  },
  "bbox": [
    -122.36112,
    37.4913,
    -121.24607,
    37.61588
  ],
  "geometry": {"coordinates":[[-121.24607,37.59504],[-121.25845,37.59334],[-121.29828,37.58838],[-121.34439,37.58351],[-121.41647,37.57509],[-121.47006,37.56889],[-121.48699,37.56691],[-121.50713,37.56458],[-121.58637,37.55534],[-121.59913,37.5539],[-121.63837,37.54756],[-121.66991,37.54001],[-121.69712,37.5336],[-121.74724,37.52157],[-121.81502,37.50525],[-121.85902,37.49479],[-121.89405,37.4913],[-121.92812,37.49202],[-121.93632,37.49226],[-121.97272,37.49342],[-122.00434,37.49993],[-122.05924,37.51772],[-122.08763,37.52707],[-122.12251,37.53823],[-122.16419,37.55177],[-122.18208,37.55755],[-122.2072,37.56583],[-122.24691,37.57853],[-122.27914,37.58821],[-122.29168,37.59184],[-122.30964,37.5972],[-122.32998,37.60325],[-122.33251,37.60401],[-122.35401,37.61226],[-122.36112,37.61588]],"type":"LineString"}
}
