{
  "id": 2014411585,
  "type": "Feature",
  "properties": {
    "geom:area": 0,
    "geom:bbox": "-122.552440,36.732370,-122.342840,37.710940",
    "geom:latitude": 37.25314336667638,
    "geom:longitude": -122.47742105697232,
    "src:alt_label": "swim-takeoff",
    "src:geom": "swim",
    "swim:elevations": [
      122,
      451,
      580,
      940,
      1252,
      1812,
      1963,
      2386,
      2968,
      3166,
      3639,
      3901,
      4010,
      4439,
      4649,
      5194,
      5236,
      5718,
      5879,
      6241,
      6506,
      7007,
      7159,
      7458
    ],
    "swim:geom": "takeoff",
    "swim:timestamps": [
      1766839048,
      1766839077,
      1766839100,
      1766839133,
      1766839156,
      1766839190,
      1766839201,
      1766839233,
      1766839279,
      1766839293,
      1766839341,
      1766839366,
      1766839381,
      1766839423,
      1766839442,
      1766839496,
      1766839500,
      1766839554,
      1766839568,
      1766839603,
      1766839632,
      1766839693,
      1766839713,
      1766839757
    ],
    "wof:geomhash": "7702775a4e1f1d57a2e1f466da33d76b",
    "wof:id": 2014411585,
    "wof:repo": "sfomuseum-data-flights-2025-12"
  },
  "bbox": [
    -122.55244,
    36.73237,
    -122.34284,
    37.71094
  ],
  "geometry": {"coordinates":[[-122.37017,37.62736],[-122.3639,37.65012],[-122.36239,37.67091],[-122.37711,37.70335],[-122.40999,37.71094],[-122.45197,37.68649],[-122.45745,37.67352],[-122.46476,37.63212],[-122.47375,37.56865],[-122.47732,37.54881],[-122.48886,37.47675],[-122.49483,37.43706],[-122.49954,37.41139],[-122.51257,37.33869],[-122.51784,37.30504],[-122.53295,37.20564],[-122.53412,37.1981],[-122.54832,37.09334],[-122.55244,37.06625],[-122.5502,36.99743],[-122.51844,36.94656],[-122.44045,36.83945],[-122.41426,36.80365],[-122.34284,36.73237]],"type":"LineString"}
}
