{
  "id": 2014424997,
  "type": "Feature",
  "properties": {
    "geom:area": 0,
    "geom:bbox": "-122.363160,37.492150,-121.249970,37.613150",
    "geom:latitude": 37.543303751331194,
    "geom:longitude": -121.81318925541464,
    "src:alt_label": "swim-approach",
    "src:geom": "swim",
    "swim:elevations": [
      4505,
      4284,
      4190,
      3935,
      3528,
      3151,
      3078,
      2895,
      2807,
      2621,
      2468,
      2235,
      2091,
      1950,
      1861,
      1746,
      1594,
      1344,
      1263,
      1063,
      961,
      812,
      627,
      517,
      374,
      270,
      153,
      28,
      5
    ],
    "swim:geom": "approach",
    "swim:timestamps": [
      1767056666,
      1767056696,
      1767056705,
      1767056732,
      1767056774,
      1767056816,
      1767056837,
      1767056877,
      1767056897,
      1767056928,
      1767056958,
      1767056997,
      1767057021,
      1767057046,
      1767057062,
      1767057106,
      1767057147,
      1767057176,
      1767057188,
      1767057233,
      1767057255,
      1767057285,
      1767057321,
      1767057348,
      1767057380,
      1767057411,
      1767057441,
      1767057471,
      1767057480
    ],
    "wof:geomhash": "89777226d82e8eb5b34c5a52abfd8210",
    "wof:id": 2014424997,
    "wof:repo": "sfomuseum-data-flights-2025-12"
  },
  "bbox": [
    -122.36316,
    37.49215,
    -121.24997,
    37.61315
  ],
  "geometry": {"coordinates":[[-121.24997,37.59451],[-121.31209,37.58669],[-121.33108,37.58472],[-121.3876,37.57828],[-121.47417,37.56847],[-121.55928,37.55867],[-121.5992,37.55395],[-121.66673,37.54078],[-121.69912,37.53309],[-121.74866,37.52136],[-121.7942,37.51037],[-121.85141,37.49648],[-121.88692,37.49215],[-121.92389,37.49467],[-121.94708,37.49655],[-122.00834,37.50175],[-122.05975,37.50578],[-122.09319,37.5088],[-122.10715,37.50953],[-122.15369,37.52556],[-122.17541,37.53471],[-122.20509,37.54724],[-122.2404,37.56214],[-122.26386,37.57208],[-122.28966,37.58289],[-122.31214,37.5923],[-122.33457,37.60176],[-122.35688,37.611],[-122.36316,37.61315]],"type":"LineString"}
}
