{
  "id": 2014413295,
  "type": "Feature",
  "properties": {
    "geom:area": 0,
    "geom:bbox": "-122.469400,37.189540,-121.243370,37.715520",
    "geom:latitude": 37.38813929852647,
    "geom:longitude": -121.986419727071,
    "src:alt_label": "swim-takeoff",
    "src:geom": "swim",
    "swim:elevations": [
      367,
      510,
      881,
      1294,
      1347,
      1758,
      2497,
      2815,
      3063,
      3299,
      3446,
      3799,
      4225,
      4351,
      4915,
      5003,
      5088,
      5441,
      5722,
      6083,
      6325,
      6596,
      7013,
      7077,
      7288,
      7640,
      7979,
      8214,
      8230,
      8230
    ],
    "swim:geom": "takeoff",
    "swim:timestamps": [
      1766862594,
      1766862622,
      1766862651,
      1766862684,
      1766862690,
      1766862726,
      1766862772,
      1766862798,
      1766862818,
      1766862857,
      1766862883,
      1766862921,
      1766862954,
      1766862963,
      1766863016,
      1766863024,
      1766863032,
      1766863066,
      1766863102,
      1766863132,
      1766863152,
      1766863178,
      1766863224,
      1766863233,
      1766863260,
      1766863303,
      1766863343,
      1766863364,
      1766863407,
      1766863410
    ],
    "wof:geomhash": "0f6a87ae93ab4bfb4ccc186a396c62df",
    "wof:id": 2014413295,
    "wof:repo": "sfomuseum-data-flights-2025-12"
  },
  "bbox": [
    -122.4694,
    37.18954,
    -121.24337,
    37.71552
  ],
  "geometry": {"coordinates":[[-122.36394,37.63912],[-122.36302,37.6621],[-122.36404,37.69155],[-122.39546,37.71408],[-122.40427,37.71552],[-122.45087,37.69392],[-122.45683,37.63385],[-122.4605,37.5993],[-122.46459,37.57153],[-122.4694,37.51461],[-122.44655,37.47592],[-122.38073,37.43569],[-122.31477,37.40751],[-122.29556,37.40297],[-122.17879,37.37971],[-122.16083,37.37618],[-122.14211,37.37244],[-122.06482,37.35704],[-121.97862,37.33988],[-121.90755,37.32555],[-121.85989,37.31593],[-121.79786,37.30344],[-121.68928,37.28154],[-121.66772,37.27722],[-121.60289,37.26399],[-121.49862,37.24253],[-121.40045,37.22228],[-121.34889,37.2116],[-121.25013,37.19096],[-121.24337,37.18954]],"type":"LineString"}
}
