{
  "id": 2014424749,
  "type": "Feature",
  "properties": {
    "geom:area": 0,
    "geom:bbox": "-122.936480,37.426930,-122.124030,38.484960",
    "geom:latitude": 37.8302940529476,
    "geom:longitude": -122.52307076261725,
    "src:alt_label": "swim-approach",
    "src:geom": "swim",
    "swim:elevations": [
      7038,
      7027,
      6917,
      6871,
      6561,
      6345,
      6225,
      5901,
      5635,
      5453,
      5303,
      5071,
      4586,
      4334,
      4112,
      3797,
      3596,
      3420,
      3352,
      3353,
      3353,
      3353,
      3353,
      3253,
      2985,
      2841,
      2507,
      2383,
      2119,
      2036,
      1856,
      1598,
      1323,
      1145,
      1082,
      831,
      767,
      600,
      461,
      396,
      282,
      151,
      68,
      0
    ],
    "swim:geom": "approach",
    "swim:timestamps": [
      1766999066,
      1766999070,
      1766999095,
      1766999104,
      1766999154,
      1766999188,
      1766999202,
      1766999239,
      1766999273,
      1766999296,
      1766999324,
      1766999348,
      1766999394,
      1766999424,
      1766999448,
      1766999482,
      1766999509,
      1766999542,
      1766999569,
      1766999595,
      1766999613,
      1766999652,
      1766999686,
      1766999719,
      1766999757,
      1766999773,
      1766999818,
      1766999835,
      1766999871,
      1766999883,
      1766999918,
      1766999957,
      1766999994,
      1767000019,
      1767000034,
      1767000085,
      1767000097,
      1767000135,
      1767000166,
      1767000181,
      1767000205,
      1767000238,
      1767000258,
      1767000278
    ],
    "wof:geomhash": "8a4f85591de142728e3fe470d9447b0b",
    "wof:id": 2014424749,
    "wof:repo": "sfomuseum-data-flights-2025-12"
  },
  "bbox": [
    -122.93648,
    37.42693,
    -122.12403,
    38.48496
  ],
  "geometry": {"coordinates":[[-122.93648,38.48496],[-122.93325,38.47768],[-122.91353,38.43391],[-122.90604,38.41737],[-122.86656,38.33031],[-122.83981,38.27075],[-122.82973,38.24847],[-122.80184,38.18667],[-122.77635,38.12997],[-122.75949,38.09229],[-122.73958,38.04789],[-122.723,38.01076],[-122.69104,37.93941],[-122.66577,37.89478],[-122.63631,37.8646],[-122.59578,37.82623],[-122.56607,37.79854],[-122.52985,37.76441],[-122.50086,37.73693],[-122.47269,37.71021],[-122.45273,37.69133],[-122.41029,37.65146],[-122.37451,37.61769],[-122.34896,37.58193],[-122.32252,37.54012],[-122.31221,37.52374],[-122.28289,37.47707],[-122.27106,37.45994],[-122.22919,37.43945],[-122.2137,37.434],[-122.16698,37.42693],[-122.13622,37.45896],[-122.12403,37.49484],[-122.13621,37.51705],[-122.1505,37.52419],[-122.20109,37.54552],[-122.21166,37.55001],[-122.24544,37.5642],[-122.27196,37.57538],[-122.28459,37.58071],[-122.3044,37.58905],[-122.33217,37.60075],[-122.34939,37.60798],[-122.36681,37.61562]],"type":"LineString"}
}
