{
  "id": 2014422221,
  "type": "Feature",
  "properties": {
    "geom:area": 0,
    "geom:bbox": "-122.365640,37.629390,-122.115630,38.507160",
    "geom:latitude": 38.03488863883553,
    "geom:longitude": -122.17897880937124,
    "src:alt_label": "swim-takeoff",
    "src:geom": "swim",
    "swim:elevations": [
      152,
      526,
      1004,
      1402,
      1610,
      1923,
      2565,
      3108,
      3398,
      3477,
      4012,
      4482,
      5094,
      5545,
      5642,
      6219,
      6687,
      6915,
      7105,
      7246,
      7678,
      7809
    ],
    "swim:geom": "takeoff",
    "swim:timestamps": [
      1766919770,
      1766919794,
      1766919824,
      1766919867,
      1766919890,
      1766919910,
      1766919951,
      1766919977,
      1766920013,
      1766920027,
      1766920078,
      1766920113,
      1766920154,
      1766920196,
      1766920204,
      1766920246,
      1766920280,
      1766920304,
      1766920337,
      1766920350,
      1766920394,
      1766920414
    ],
    "wof:geomhash": "2b5c7006ceab38052cf483cc3c22e230",
    "wof:id": 2014422221,
    "wof:repo": "sfomuseum-data-flights-2025-12"
  },
  "bbox": [
    -122.36564,
    37.62939,
    -122.11563,
    38.50716
  ],
  "geometry": {"coordinates":[[-122.36564,37.62939],[-122.34853,37.64385],[-122.32404,37.65715],[-122.28503,37.67962],[-122.25884,37.69471],[-122.23314,37.70815],[-122.20831,37.7525],[-122.20295,37.78522],[-122.19588,37.83074],[-122.19241,37.85234],[-122.17897,37.93393],[-122.16949,37.99198],[-122.1581,38.06115],[-122.14664,38.13126],[-122.14425,38.14566],[-122.13259,38.21755],[-122.12307,38.27492],[-122.11648,38.31451],[-122.11563,38.37234],[-122.11714,38.39555],[-122.12225,38.47094],[-122.12504,38.50716]],"type":"LineString"}
}
