{
  "id": 2014439357,
  "type": "Feature",
  "properties": {
    "geom:area": 0,
    "geom:bbox": "-122.364080,37.632310,-121.244140,37.957700",
    "geom:latitude": 37.817790196476665,
    "geom:longitude": -121.81319458859366,
    "src:alt_label": "swim-takeoff",
    "src:geom": "swim",
    "swim:elevations": [
      213,
      518,
      941,
      1251,
      1377,
      2039,
      2443,
      3174,
      3311,
      3864,
      4082,
      4578,
      5113,
      5443,
      5697,
      5941,
      6122,
      6711,
      7092,
      7415,
      7592,
      7821,
      7903
    ],
    "swim:geom": "takeoff",
    "swim:timestamps": [
      1767128854,
      1767128873,
      1767128904,
      1767128932,
      1767128945,
      1767128990,
      1767129013,
      1767129052,
      1767129061,
      1767129108,
      1767129131,
      1767129164,
      1767129200,
      1767129229,
      1767129245,
      1767129266,
      1767129280,
      1767129325,
      1767129354,
      1767129387,
      1767129411,
      1767129440,
      1767129452
    ],
    "wof:geomhash": "d838c7ce654542199bf9accd4b518f07",
    "wof:id": 2014439357,
    "wof:repo": "sfomuseum-data-flights-2025-12"
  },
  "bbox": [
    -122.36408,
    37.63231,
    -121.24414,
    37.9577
  ],
  "geometry": {"coordinates":[[-122.36408,37.63231],[-122.35312,37.64311],[-122.33003,37.65524],[-122.30495,37.66855],[-122.2923,37.67569],[-122.23667,37.70698],[-122.20565,37.72299],[-122.14448,37.74285],[-122.13003,37.74636],[-122.0439,37.76696],[-121.9989,37.77755],[-121.92889,37.79478],[-121.84944,37.81451],[-121.78608,37.82996],[-121.74866,37.83892],[-121.70029,37.85063],[-121.66853,37.85813],[-121.56173,37.88323],[-121.49064,37.89994],[-121.41055,37.91883],[-121.34952,37.93327],[-121.2758,37.95023],[-121.24414,37.9577]],"type":"LineString"}
}
