{
  "id": 2014428047,
  "type": "Feature",
  "properties": {
    "geom:area": 0,
    "geom:bbox": "-122.556190,36.731130,-122.286520,37.669410",
    "geom:latitude": 37.22515069109664,
    "geom:longitude": -122.4817782930725,
    "src:alt_label": "swim-takeoff",
    "src:geom": "swim",
    "swim:elevations": [
      152,
      322,
      605,
      809,
      1229,
      1587,
      1881,
      2233,
      2804,
      3208,
      3282,
      3412,
      3973,
      4237,
      4635,
      4760,
      5046,
      5379,
      5413,
      5775,
      6002,
      6135,
      6339,
      6594,
      6835,
      7137,
      7332,
      7588
    ],
    "swim:geom": "takeoff",
    "swim:timestamps": [
      1767011929,
      1767011943,
      1767011982,
      1767011995,
      1767012020,
      1767012054,
      1767012078,
      1767012101,
      1767012144,
      1767012177,
      1767012193,
      1767012211,
      1767012252,
      1767012276,
      1767012319,
      1767012331,
      1767012355,
      1767012388,
      1767012404,
      1767012439,
      1767012465,
      1767012481,
      1767012504,
      1767012533,
      1767012561,
      1767012595,
      1767012622,
      1767012653
    ],
    "wof:geomhash": "bfff5d62e4190cf0700fa42a9dad00c2",
    "wof:id": 2014428047,
    "wof:repo": "sfomuseum-data-flights-2025-12"
  },
  "bbox": [
    -122.55619,
    36.73113,
    -122.28652,
    37.66941
  ],
  "geometry": {"coordinates":[[-122.39789,37.62825],[-122.41229,37.6343],[-122.45552,37.65361],[-122.47191,37.66102],[-122.50528,37.66941],[-122.54303,37.64674],[-122.54186,37.6178],[-122.52745,37.5914],[-122.50005,37.53881],[-122.48024,37.49631],[-122.47797,37.47321],[-122.48302,37.44437],[-122.49584,37.3785],[-122.50291,37.33938],[-122.51614,37.26636],[-122.51982,37.24623],[-122.52778,37.20391],[-122.53883,37.14418],[-122.54405,37.11588],[-122.55619,37.05006],[-122.55298,37.00284],[-122.53873,36.97785],[-122.50532,36.94476],[-122.46364,36.90466],[-122.42248,36.86412],[-122.3736,36.81601],[-122.33323,36.77663],[-122.28652,36.73113]],"type":"LineString"}
}
