{
  "id": 2014413623,
  "type": "Feature",
  "properties": {
    "geom:area": 0,
    "geom:bbox": "-122.452740,36.725810,-121.391280,37.716670",
    "geom:latitude": 37.20368278473127,
    "geom:longitude": -122.04740225208353,
    "src:alt_label": "swim-takeoff",
    "src:geom": "swim",
    "swim:elevations": [
      213,
      607,
      1092,
      1168,
      1259,
      1339,
      1697,
      2234,
      2459,
      2627,
      2968,
      3108,
      3253,
      3430,
      3742,
      4128,
      4271,
      4591,
      5049,
      5406,
      5563,
      5782,
      5961,
      6198,
      6605,
      6736,
      6799,
      6828,
      7051,
      7071,
      7294,
      7431,
      7688,
      7870,
      8071,
      8123
    ],
    "swim:geom": "takeoff",
    "swim:timestamps": [
      1766878776,
      1766878803,
      1766878854,
      1766878869,
      1766878882,
      1766878897,
      1766878934,
      1766878971,
      1766878992,
      1766879004,
      1766879028,
      1766879040,
      1766879061,
      1766879090,
      1766879119,
      1766879158,
      1766879171,
      1766879199,
      1766879238,
      1766879277,
      1766879308,
      1766879335,
      1766879354,
      1766879380,
      1766879423,
      1766879453,
      1766879474,
      1766879483,
      1766879518,
      1766879521,
      1766879557,
      1766879581,
      1766879625,
      1766879660,
      1766879697,
      1766879703
    ],
    "wof:geomhash": "e34f406591d49adad77d7e0629de8e64",
    "wof:id": 2014413623,
    "wof:repo": "sfomuseum-data-flights-2025-12"
  },
  "bbox": [
    -122.45274,
    36.72581,
    -121.39128,
    37.71667
  ],
  "geometry": {"coordinates":[[-122.366,37.63369],[-122.36265,37.65497],[-122.36512,37.69365],[-122.37354,37.70479],[-122.38618,37.71267],[-122.40581,37.71667],[-122.45117,37.6917],[-122.45274,37.64426],[-122.44896,37.61631],[-122.44675,37.5999],[-122.44217,37.56697],[-122.43992,37.55047],[-122.43585,37.52033],[-122.42922,37.47575],[-122.42224,37.42897],[-122.39788,37.36639],[-122.37908,37.35232],[-122.32965,37.32388],[-122.26312,37.2842],[-122.19693,37.24338],[-122.14398,37.20877],[-122.09685,37.17854],[-122.06268,37.15687],[-122.01618,37.12745],[-121.93822,37.07793],[-121.88377,37.0432],[-121.84451,37.01806],[-121.82739,37.00703],[-121.76091,36.96422],[-121.75509,36.96047],[-121.68443,36.91482],[-121.63725,36.88439],[-121.54941,36.82781],[-121.47981,36.78253],[-121.40354,36.73376],[-121.39128,36.72581]],"type":"LineString"}
}
