{
  "id": 2014418057,
  "type": "Feature",
  "properties": {
    "geom:area": 0,
    "geom:bbox": "-122.360210,37.476360,-121.300420,37.614680",
    "geom:latitude": 37.53742206471617,
    "geom:longitude": -121.83366991506743,
    "src:alt_label": "swim-approach",
    "src:geom": "swim",
    "swim:elevations": [
      4244,
      4088,
      3659,
      3487,
      3326,
      3192,
      3028,
      2939,
      2562,
      2531,
      2270,
      2133,
      2134,
      2023,
      1939,
      1820,
      1525,
      1523,
      1240,
      1065,
      889,
      793,
      523,
      323,
      240,
      39
    ],
    "swim:geom": "approach",
    "swim:timestamps": [
      1766930867,
      1766930885,
      1766930938,
      1766930959,
      1766930992,
      1766931014,
      1766931037,
      1766931060,
      1766931116,
      1766931127,
      1766931178,
      1766931201,
      1766931215,
      1766931244,
      1766931272,
      1766931303,
      1766931358,
      1766931362,
      1766931400,
      1766931429,
      1766931466,
      1766931484,
      1766931541,
      1766931581,
      1766931604,
      1766931660
    ],
    "wof:geomhash": "1b4cb38f30f40a83359567e3b3d2fc9a",
    "wof:id": 2014418057,
    "wof:repo": "sfomuseum-data-flights-2025-12"
  },
  "bbox": [
    -122.36021,
    37.47636,
    -121.30042,
    37.61468
  ],
  "geometry": {"coordinates":[[-121.30042,37.58788],[-121.33553,37.58402],[-121.4352,37.57325],[-121.47612,37.56809],[-121.53372,37.55385],[-121.57271,37.54265],[-121.61076,37.53176],[-121.64624,37.52145],[-121.73378,37.49489],[-121.75047,37.4896],[-121.82289,37.47636],[-121.85415,37.48603],[-121.8736,37.48999],[-121.91518,37.49197],[-121.95437,37.49305],[-121.99458,37.4969],[-122.06024,37.51821],[-122.06494,37.51975],[-122.10964,37.53433],[-122.1427,37.54497],[-122.18291,37.55792],[-122.20126,37.56343],[-122.25874,37.58235],[-122.29581,37.5932],[-122.31514,37.59889],[-122.36021,37.61468]],"type":"LineString"}
}
