{
  "id": 2014436197,
  "type": "Feature",
  "properties": {
    "geom:area": 0,
    "geom:bbox": "-122.383490,37.635890,-121.243070,38.427000",
    "geom:latitude": 38.08991998938351,
    "geom:longitude": -121.92138928925068,
    "src:alt_label": "swim-takeoff",
    "src:geom": "swim",
    "swim:elevations": [
      362,
      520,
      733,
      1094,
      1435,
      1746,
      2526,
      2633,
      3258,
      3317,
      3554,
      3727,
      4160,
      4401,
      4676,
      5100,
      5397,
      5739,
      5972,
      6292,
      6508,
      6889,
      7123,
      7266,
      7478,
      7633,
      7976,
      8173
    ],
    "swim:geom": "takeoff",
    "swim:timestamps": [
      1767162114,
      1767162129,
      1767162164,
      1767162201,
      1767162220,
      1767162241,
      1767162298,
      1767162305,
      1767162355,
      1767162364,
      1767162401,
      1767162413,
      1767162446,
      1767162467,
      1767162489,
      1767162532,
      1767162562,
      1767162597,
      1767162619,
      1767162649,
      1767162671,
      1767162716,
      1767162745,
      1767162769,
      1767162799,
      1767162820,
      1767162866,
      1767162899
    ],
    "wof:geomhash": "07bc191fe14697b06a982d8d9e826f8c",
    "wof:id": 2014436197,
    "wof:repo": "sfomuseum-data-flights-2025-12"
  },
  "bbox": [
    -122.38349,
    37.63589,
    -121.24307,
    38.427
  ],
  "geometry": {"coordinates":[[-122.36008,37.63589],[-122.3509,37.6442],[-122.32348,37.66796],[-122.31537,37.70775],[-122.32787,37.72907],[-122.34118,37.75485],[-122.37749,37.82748],[-122.38165,37.83614],[-122.38349,37.90911],[-122.37935,37.92263],[-122.32748,37.96289],[-122.30458,37.9717],[-122.24104,37.99802],[-122.20052,38.01452],[-122.15582,38.03256],[-122.06626,38.06843],[-122.00246,38.09401],[-121.92663,38.12427],[-121.87818,38.14357],[-121.81183,38.16993],[-121.76488,38.18854],[-121.66122,38.22955],[-121.59427,38.2559],[-121.53852,38.27785],[-121.4663,38.30624],[-121.41559,38.32658],[-121.31514,38.38191],[-121.24307,38.427]],"type":"LineString"}
}
