{
  "id": 2014442771,
  "type": "Feature",
  "properties": {
    "geom:area": 0,
    "geom:bbox": "-123.504290,37.264140,-122.181680,37.615740",
    "geom:latitude": 37.38008775951541,
    "geom:longitude": -122.74409200561612,
    "src:alt_label": "swim-approach",
    "src:geom": "swim",
    "swim:elevations": [
      5892,
      5798,
      5615,
      5540,
      5389,
      5208,
      4889,
      4572,
      4351,
      4145,
      3729,
      3620,
      3413,
      3223,
      3076,
      3048,
      3048,
      3048,
      3048,
      3046,
      2941,
      2821,
      2770,
      2632,
      2528,
      2502,
      2456,
      2438,
      2438,
      2438,
      2438,
      2361,
      2192,
      2008,
      1797,
      1700,
      1617,
      1490,
      1275,
      967,
      838,
      648,
      579,
      388,
      259,
      97,
      341
    ],
    "swim:geom": "approach",
    "swim:timestamps": [
      1767174266,
      1767174276,
      1767174295,
      1767174305,
      1767174324,
      1767174342,
      1767174378,
      1767174411,
      1767174437,
      1767174458,
      1767174505,
      1767174521,
      1767174563,
      1767174588,
      1767174614,
      1767174644,
      1767174680,
      1767174693,
      1767174713,
      1767174728,
      1767174761,
      1767174786,
      1767174806,
      1767174830,
      1767174850,
      1767174854,
      1767174864,
      1767174893,
      1767174923,
      1767174935,
      1767174979,
      1767174999,
      1767175034,
      1767175070,
      1767175104,
      1767175122,
      1767175146,
      1767175178,
      1767175211,
      1767175253,
      1767175286,
      1767175318,
      1767175329,
      1767175366,
      1767175395,
      1767175433,
      1767175457
    ],
    "wof:geomhash": "6fa9d640f53c40388c318ac6916df738",
    "wof:id": 2014442771,
    "wof:repo": "sfomuseum-data-flights-2025-12"
  },
  "bbox": [
    -123.50429,
    37.26414,
    -122.18168,
    37.61574
  ],
  "geometry": {"coordinates":[[-123.50429,37.45685],[-123.48449,37.45076],[-123.44899,37.43976],[-123.43161,37.43442],[-123.39553,37.42341],[-123.3631,37.41339],[-123.29727,37.39305],[-123.23604,37.37408],[-123.18965,37.35956],[-123.15199,37.3479],[-123.07075,37.32248],[-123.04297,37.31387],[-122.97167,37.2916],[-122.93048,37.27872],[-122.88723,37.2651],[-122.83559,37.26414],[-122.77933,37.27718],[-122.75992,37.28178],[-122.73082,37.28866],[-122.70901,37.29374],[-122.66505,37.30387],[-122.63275,37.31087],[-122.60578,37.31045],[-122.57431,37.30723],[-122.54957,37.30456],[-122.54441,37.30403],[-122.53139,37.30264],[-122.49311,37.29867],[-122.45451,37.29462],[-122.43908,37.29298],[-122.39527,37.32114],[-122.38941,37.34434],[-122.38052,37.38482],[-122.34662,37.41352],[-122.30907,37.43336],[-122.28903,37.44367],[-122.2626,37.45717],[-122.22765,37.47503],[-122.19556,37.492],[-122.18168,37.5266],[-122.20595,37.55012],[-122.24066,37.56455],[-122.25101,37.56889],[-122.28759,37.58429],[-122.31091,37.59413],[-122.34246,37.60736],[-122.36296,37.61574]],"type":"LineString"}
}
