{
  "id": 2014426831,
  "type": "Feature",
  "properties": {
    "geom:area": 0,
    "geom:bbox": "-122.625710,37.425120,-122.126380,37.855100",
    "geom:latitude": 37.59642462644417,
    "geom:longitude": -122.33485944663447,
    "src:alt_label": "swim-approach",
    "src:geom": "swim",
    "swim:elevations": [
      3945,
      3766,
      3475,
      3410,
      3353,
      3353,
      3353,
      3345,
      3288,
      3138,
      3026,
      2883,
      2704,
      2489,
      2277,
      2140,
      1917,
      1765,
      1612,
      1274,
      1218,
      1047,
      1036,
      903,
      660,
      539,
      332,
      303,
      149,
      0
    ],
    "swim:geom": "approach",
    "swim:timestamps": [
      1767024264,
      1767024286,
      1767024324,
      1767024344,
      1767024387,
      1767024416,
      1767024431,
      1767024468,
      1767024482,
      1767024502,
      1767024527,
      1767024552,
      1767024579,
      1767024615,
      1767024651,
      1767024675,
      1767024705,
      1767024729,
      1767024754,
      1767024796,
      1767024817,
      1767024861,
      1767024878,
      1767024903,
      1767024948,
      1767024976,
      1767025017,
      1767025021,
      1767025062,
      1767025101
    ],
    "wof:geomhash": "6864a3c1b49449b0560690a0ed177305",
    "wof:id": 2014426831,
    "wof:repo": "sfomuseum-data-flights-2025-12"
  },
  "bbox": [
    -122.62571,
    37.42512,
    -122.12638,
    37.8551
  ],
  "geometry": {"coordinates":[[-122.62571,37.8551],[-122.59771,37.82864],[-122.55103,37.78417],[-122.52687,37.76121],[-122.48309,37.71989],[-122.45677,37.69527],[-122.44325,37.68254],[-122.41017,37.65153],[-122.39769,37.6398],[-122.37983,37.6229],[-122.35853,37.59919],[-122.34338,37.57369],[-122.32782,37.54674],[-122.30648,37.51024],[-122.27617,37.48045],[-122.24968,37.46611],[-122.21646,37.44859],[-122.18853,37.43369],[-122.15704,37.42512],[-122.12638,37.45508],[-122.13235,37.47505],[-122.14714,37.51496],[-122.15893,37.52694],[-122.18399,37.53848],[-122.22997,37.55774],[-122.25749,37.56932],[-122.29473,37.58497],[-122.29858,37.58659],[-122.33184,37.60057],[-122.36265,37.61334]],"type":"LineString"}
}
