{
  "id": 2014413419,
  "type": "Feature",
  "properties": {
    "geom:area": 0,
    "geom:bbox": "-122.818740,37.746810,-122.435560,38.510470",
    "geom:latitude": 38.124353785853486,
    "geom:longitude": -122.63395783903616,
    "src:alt_label": "swim-takeoff",
    "src:geom": "swim",
    "swim:elevations": [
      2013,
      2339,
      2896,
      2942,
      3164,
      3399,
      3510,
      3871,
      4446,
      4639,
      5089,
      5494,
      5745,
      6078,
      6279,
      6884,
      7108,
      7293,
      7556
    ],
    "swim:geom": "takeoff",
    "swim:timestamps": [
      1766853417,
      1766853439,
      1766853477,
      1766853480,
      1766853494,
      1766853524,
      1766853542,
      1766853582,
      1766853625,
      1766853641,
      1766853677,
      1766853717,
      1766853735,
      1766853762,
      1766853782,
      1766853838,
      1766853861,
      1766853880,
      1766853908
    ],
    "wof:geomhash": "0846db6fc8910f79b30e35fed799e9bf",
    "wof:id": 2014413419,
    "wof:repo": "sfomuseum-data-flights-2025-12"
  },
  "bbox": [
    -122.81874,
    37.74681,
    -122.43556,
    38.51047
  ],
  "geometry": {"coordinates":[[-122.43556,37.74681],[-122.4525,37.76973],[-122.4818,37.81146],[-122.48443,37.81528],[-122.49514,37.83101],[-122.52009,37.8671],[-122.53622,37.89042],[-122.5645,37.9507],[-122.59369,38.02091],[-122.60468,38.04698],[-122.62887,38.10804],[-122.65498,38.17584],[-122.66792,38.20811],[-122.68788,38.25433],[-122.70409,38.28945],[-122.75358,38.3869],[-122.77453,38.42718],[-122.79227,38.46099],[-122.81874,38.51047]],"type":"LineString"}
}
