{
  "id": 2014418093,
  "type": "Feature",
  "properties": {
    "geom:area": 0,
    "geom:bbox": "-122.357790,37.491870,-121.258360,37.613880",
    "geom:latitude": 37.546386652644166,
    "geom:longitude": -121.81300090023336,
    "src:alt_label": "swim-approach",
    "src:geom": "swim",
    "swim:elevations": [
      4299,
      4090,
      3858,
      3816,
      3558,
      3443,
      3135,
      2982,
      2901,
      2621,
      2437,
      2299,
      2187,
      1981,
      1858,
      1643,
      1406,
      1344,
      1064,
      891,
      811,
      640,
      612,
      506,
      338,
      256,
      129,
      0
    ],
    "swim:geom": "approach",
    "swim:timestamps": [
      1766952358,
      1766952388,
      1766952418,
      1766952424,
      1766952465,
      1766952482,
      1766952531,
      1766952558,
      1766952572,
      1766952623,
      1766952654,
      1766952686,
      1766952702,
      1766952746,
      1766952777,
      1766952806,
      1766952837,
      1766952846,
      1766952887,
      1766952927,
      1766952944,
      1766952980,
      1766952992,
      1766953022,
      1766953070,
      1766953094,
      1766953126,
      1766953154
    ],
    "wof:geomhash": "b5869695a292ff66d201cb914b7cca72",
    "wof:id": 2014418093,
    "wof:repo": "sfomuseum-data-flights-2025-12"
  },
  "bbox": [
    -122.35779,
    37.49187,
    -121.25836,
    37.61388
  ],
  "geometry": {"coordinates":[[-121.25836,37.59328],[-121.32186,37.58552],[-121.38326,37.57886],[-121.39543,37.57751],[-121.47619,37.56831],[-121.50969,37.56443],[-121.59672,37.55413],[-121.64114,37.54678],[-121.66251,37.5419],[-121.74169,37.52292],[-121.78832,37.51166],[-121.83634,37.50013],[-121.86089,37.49436],[-121.92837,37.49187],[-121.9743,37.49359],[-122.01252,37.50253],[-122.05151,37.5152],[-122.06261,37.51883],[-122.11126,37.53477],[-122.15496,37.54901],[-122.1718,37.55449],[-122.20767,37.56599],[-122.21877,37.56956],[-122.24698,37.57882],[-122.28922,37.59107],[-122.30957,37.59639],[-122.33625,37.60492],[-122.35779,37.61388]],"type":"LineString"}
}
