{
  "id": 2014435689,
  "type": "Feature",
  "properties": {
    "geom:area": 0,
    "geom:bbox": "-122.357760,36.717990,-121.875220,37.614440",
    "geom:latitude": 37.20632454009,
    "geom:longitude": -122.06898509169115,
    "src:alt_label": "swim-approach",
    "src:geom": "swim",
    "swim:elevations": [
      5373,
      5150,
      4911,
      4670,
      4128,
      4035,
      3762,
      3378,
      3138,
      3077,
      3018,
      2938,
      2720,
      2666,
      2319,
      2172,
      1988,
      1836,
      1770,
      1676,
      1372,
      1310,
      973,
      818,
      738,
      604,
      552,
      424,
      301,
      136,
      117,
      173
    ],
    "swim:geom": "approach",
    "swim:timestamps": [
      1767084478,
      1767084493,
      1767084515,
      1767084542,
      1767084595,
      1767084606,
      1767084633,
      1767084675,
      1767084714,
      1767084740,
      1767084767,
      1767084798,
      1767084833,
      1767084841,
      1767084884,
      1767084905,
      1767084935,
      1767084956,
      1767084963,
      1767084978,
      1767085012,
      1767085021,
      1767085066,
      1767085102,
      1767085126,
      1767085153,
      1767085165,
      1767085190,
      1767085219,
      1767085258,
      1767085264,
      1767085291
    ],
    "wof:geomhash": "3595f25cf3ae9d4b84bdade04275c334",
    "wof:id": 2014435689,
    "wof:repo": "sfomuseum-data-flights-2025-12"
  },
  "bbox": [
    -122.35776,
    36.71799,
    -121.87522,
    37.61444
  ],
  "geometry": {"coordinates":[[-121.87522,36.71799],[-121.89053,36.74284],[-121.90454,36.7803],[-121.9183,36.82831],[-121.9437,36.91771],[-121.94851,36.93503],[-121.96411,36.97936],[-121.99028,37.04729],[-122.01352,37.10709],[-122.02766,37.14314],[-122.04169,37.17887],[-122.05674,37.2172],[-122.07227,37.25677],[-122.07554,37.26529],[-122.09486,37.31463],[-122.10365,37.33758],[-122.11606,37.36946],[-122.12428,37.39159],[-122.1268,37.39882],[-122.13218,37.41437],[-122.14471,37.45008],[-122.14785,37.4586],[-122.17284,37.50311],[-122.19696,37.53467],[-122.21665,37.55069],[-122.24378,37.56327],[-122.25617,37.56859],[-122.2794,37.57792],[-122.30406,37.58853],[-122.33482,37.60176],[-122.34003,37.60395],[-122.35776,37.61444]],"type":"LineString"}
}
