{
  "id": 2014435145,
  "type": "Feature",
  "properties": {
    "geom:area": 0,
    "geom:bbox": "-122.664050,37.558180,-122.100660,38.484480",
    "geom:latitude": 37.883259013854804,
    "geom:longitude": -122.4289237814346,
    "src:alt_label": "swim-approach",
    "src:geom": "swim",
    "swim:elevations": [
      7014,
      6906,
      6735,
      6602,
      6507,
      6359,
      6146,
      6004,
      5653,
      5572,
      5097,
      4885,
      4542,
      4170,
      4055,
      3560,
      3463,
      3353,
      3292,
      3225,
      3033,
      2857,
      2690,
      2448,
      2201,
      2134,
      2134,
      2134,
      1974,
      1730,
      1441,
      1219,
      1062,
      901,
      761,
      657,
      504,
      306,
      212,
      171,
      0
    ],
    "swim:geom": "approach",
    "swim:timestamps": [
      1767128067,
      1767128090,
      1767128124,
      1767128151,
      1767128168,
      1767128197,
      1767128240,
      1767128267,
      1767128304,
      1767128312,
      1767128366,
      1767128386,
      1767128420,
      1767128456,
      1767128468,
      1767128517,
      1767128526,
      1767128577,
      1767128608,
      1767128616,
      1767128640,
      1767128664,
      1767128684,
      1767128713,
      1767128750,
      1767128786,
      1767128812,
      1767128834,
      1767128867,
      1767128894,
      1767128926,
      1767128955,
      1767128997,
      1767129021,
      1767129042,
      1767129057,
      1767129076,
      1767129118,
      1767129143,
      1767129152,
      1767129191
    ],
    "wof:geomhash": "684bc05383847d676f6e571ca7899baa",
    "wof:id": 2014435145,
    "wof:repo": "sfomuseum-data-flights-2025-12"
  },
  "bbox": [
    -122.66405,
    37.55818,
    -122.10066,
    38.48448
  ],
  "geometry": {"coordinates":[[-122.45151,38.48448],[-122.4668,38.44493],[-122.48786,38.38963],[-122.50478,38.34508],[-122.51553,38.31684],[-122.53347,38.26958],[-122.56004,38.19956],[-122.57644,38.15607],[-122.59915,38.09618],[-122.60389,38.0836],[-122.63507,38.00064],[-122.64675,37.96946],[-122.66405,37.91757],[-122.63805,37.86666],[-122.62318,37.85244],[-122.5613,37.79393],[-122.54977,37.78313],[-122.49262,37.72899],[-122.45186,37.71373],[-122.44077,37.71147],[-122.40793,37.70434],[-122.37568,37.69714],[-122.34969,37.69139],[-122.31278,37.68337],[-122.26596,37.67346],[-122.22256,37.66186],[-122.19274,37.65062],[-122.16761,37.64111],[-122.13023,37.6261],[-122.10592,37.60789],[-122.10066,37.57745],[-122.12731,37.55818],[-122.17807,37.56765],[-122.2047,37.57211],[-122.22722,37.57588],[-122.24273,37.57865],[-122.26131,37.58302],[-122.29852,37.59419],[-122.31923,37.59999],[-122.32704,37.60222],[-122.35941,37.61536]],"type":"LineString"}
}
