{
  "id": 2014408001,
  "type": "Feature",
  "properties": {
    "geom:area": 0,
    "geom:bbox": "-122.357980,37.492810,-121.247080,37.613970",
    "geom:latitude": 37.54316551429712,
    "geom:longitude": -121.80956911119499,
    "src:alt_label": "swim-approach",
    "src:geom": "swim",
    "swim:elevations": [
      4566,
      4426,
      4059,
      3839,
      3551,
      3236,
      3132,
      3048,
      2962,
      2633,
      2573,
      2361,
      2277,
      2041,
      1913,
      1646,
      1462,
      1402,
      1218,
      1130,
      927,
      749,
      598,
      560,
      335,
      290,
      133,
      0
    ],
    "swim:geom": "approach",
    "swim:timestamps": [
      1766832325,
      1766832339,
      1766832378,
      1766832405,
      1766832437,
      1766832473,
      1766832499,
      1766832536,
      1766832545,
      1766832596,
      1766832605,
      1766832653,
      1766832664,
      1766832703,
      1766832725,
      1766832773,
      1766832808,
      1766832821,
      1766832856,
      1766832874,
      1766832914,
      1766832958,
      1766832984,
      1766832990,
      1766833044,
      1766833051,
      1766833090,
      1766833116
    ],
    "wof:geomhash": "b3e0699d3df1c96606a2d49388f877cf",
    "wof:id": 2014408001,
    "wof:repo": "sfomuseum-data-flights-2025-12"
  },
  "bbox": [
    -122.35798,
    37.49281,
    -121.24708,
    37.61397
  ],
  "geometry": {"coordinates":[[-121.24708,37.59472],[-121.27662,37.59098],[-121.35316,37.58251],[-121.40456,37.57689],[-121.46678,37.56928],[-121.53674,37.56098],[-121.58554,37.55541],[-121.64849,37.54506],[-121.66369,37.54135],[-121.74455,37.52259],[-121.75828,37.51935],[-121.83218,37.50097],[-121.8485,37.49715],[-121.90522,37.49281],[-121.93913,37.49461],[-122.01067,37.4985],[-122.06061,37.50171],[-122.07799,37.50246],[-122.12075,37.51363],[-122.14147,37.52223],[-122.18503,37.54118],[-122.2267,37.55865],[-122.25079,37.56881],[-122.25625,37.57111],[-122.30114,37.59],[-122.30663,37.59229],[-122.33756,37.60535],[-122.35798,37.61397]],"type":"LineString"}
}
