{
  "id": 2014412117,
  "type": "Feature",
  "properties": {
    "geom:area": 0,
    "geom:bbox": "-123.506940,37.627690,-122.396500,37.763160",
    "geom:latitude": 37.70526826395711,
    "geom:longitude": -122.94803446660272,
    "src:alt_label": "swim-takeoff",
    "src:geom": "swim",
    "swim:elevations": [
      213,
      448,
      588,
      779,
      954,
      1167,
      1667,
      2019,
      2414,
      2630,
      2899,
      3198,
      3331,
      3384,
      3890,
      3973,
      4359,
      4503,
      4711,
      5056,
      5323,
      5476,
      5608
    ],
    "swim:geom": "takeoff",
    "swim:timestamps": [
      1766874236,
      1766874251,
      1766874261,
      1766874283,
      1766874327,
      1766874352,
      1766874386,
      1766874418,
      1766874448,
      1766874466,
      1766874492,
      1766874534,
      1766874564,
      1766874579,
      1766874626,
      1766874635,
      1766874685,
      1766874698,
      1766874723,
      1766874769,
      1766874799,
      1766874818,
      1766874848
    ],
    "wof:geomhash": "73ff9b39943e009ddef5f231484e9625",
    "wof:id": 2014412117,
    "wof:repo": "sfomuseum-data-flights-2025-12"
  },
  "bbox": [
    -123.50694,
    37.62769,
    -122.3965,
    37.76316
  ],
  "geometry": {"coordinates":[[-122.3965,37.62769],[-122.41007,37.63319],[-122.41937,37.63696],[-122.4409,37.64587],[-122.48971,37.66931],[-122.52486,37.67963],[-122.57941,37.68319],[-122.62966,37.68378],[-122.67791,37.68538],[-122.70611,37.68695],[-122.74859,37.68959],[-122.82114,37.69402],[-122.87858,37.69734],[-122.90906,37.69913],[-123.00812,37.70477],[-123.02712,37.70584],[-123.13483,37.71591],[-123.16452,37.72028],[-123.22,37.72792],[-123.32216,37.74081],[-123.39184,37.74919],[-123.43681,37.75463],[-123.50694,37.76316]],"type":"LineString"}
}
