{
  "id": 2014446727,
  "type": "Feature",
  "properties": {
    "geom:area": 0,
    "geom:bbox": "-122.386950,37.637050,-121.618590,38.516210",
    "geom:latitude": 38.14874338077089,
    "geom:longitude": -122.11598027051484,
    "src:alt_label": "swim-takeoff",
    "src:geom": "swim",
    "swim:elevations": [
      360,
      606,
      702,
      831,
      1182,
      1529,
      1990,
      2150,
      2491,
      3025,
      3308,
      3430,
      3660,
      3726,
      3881,
      4076,
      4193,
      4633,
      4980,
      5255,
      5513,
      5604,
      5891,
      5982,
      6282,
      6463,
      6627
    ],
    "swim:geom": "takeoff",
    "swim:timestamps": [
      1767249237,
      1767249268,
      1767249285,
      1767249308,
      1767249357,
      1767249381,
      1767249416,
      1767249431,
      1767249463,
      1767249503,
      1767249532,
      1767249549,
      1767249585,
      1767249600,
      1767249627,
      1767249651,
      1767249660,
      1767249708,
      1767249741,
      1767249774,
      1767249806,
      1767249815,
      1767249861,
      1767249873,
      1767249918,
      1767249948,
      1767249972
    ],
    "wof:geomhash": "ee42a6a256b73319d792726839bf0e62",
    "wof:id": 2014446727,
    "wof:repo": "sfomuseum-data-flights-2025-12"
  },
  "bbox": [
    -122.38695,
    37.63705,
    -121.61859,
    38.51621
  ],
  "geometry": {"coordinates":[[-122.36043,37.63705],[-122.33947,37.65481],[-122.32513,37.66656],[-122.31053,37.68669],[-122.33316,37.74358],[-122.34959,37.77218],[-122.37187,37.81565],[-122.38143,37.83502],[-122.38695,37.88095],[-122.3764,37.9398],[-122.33872,37.9701],[-122.3122,37.98611],[-122.2605,38.02867],[-122.24447,38.05172],[-122.22078,38.09718],[-122.19995,38.13935],[-122.19221,38.15531],[-122.15053,38.24235],[-122.11717,38.30051],[-122.05932,38.34308],[-121.99044,38.36963],[-121.97085,38.37736],[-121.87142,38.41694],[-121.84473,38.42752],[-121.74265,38.46774],[-121.67416,38.4946],[-121.61859,38.51621]],"type":"LineString"}
}
