{
  "id": 2014430745,
  "type": "Feature",
  "properties": {
    "geom:area": 0,
    "geom:bbox": "-122.525680,37.626560,-122.062790,38.465330",
    "geom:latitude": 38.01192454698981,
    "geom:longitude": -122.31654493335661,
    "src:alt_label": "swim-takeoff",
    "src:geom": "swim",
    "swim:elevations": [
      128,
      412,
      662,
      1053,
      1217,
      1593,
      2010,
      2722,
      3149,
      3334,
      3462,
      3541,
      4090,
      4684,
      4932,
      5200,
      5412,
      5516,
      6068,
      6155,
      6657,
      6827,
      7139,
      7252
    ],
    "swim:geom": "takeoff",
    "swim:timestamps": [
      1767012444,
      1767012462,
      1767012484,
      1767012527,
      1767012561,
      1767012595,
      1767012615,
      1767012656,
      1767012685,
      1767012711,
      1767012740,
      1767012750,
      1767012788,
      1767012837,
      1767012862,
      1767012890,
      1767012923,
      1767012932,
      1767012987,
      1767012995,
      1767013037,
      1767013056,
      1767013104,
      1767013116
    ],
    "wof:geomhash": "e90eb783915af77bc188e0e1c76c0f00",
    "wof:id": 2014430745,
    "wof:repo": "sfomuseum-data-flights-2025-12"
  },
  "bbox": [
    -122.52568,
    37.62656,
    -122.06279,
    38.46533
  ],
  "geometry": {"coordinates":[[-122.38827,37.62656],[-122.40489,37.63354],[-122.42448,37.64147],[-122.46342,37.65795],[-122.50116,37.67382],[-122.52473,37.70904],[-122.52568,37.73579],[-122.52515,37.78809],[-122.49616,37.81582],[-122.45585,37.83021],[-122.41818,37.86078],[-122.40887,37.87505],[-122.37342,37.93169],[-122.32654,38.00598],[-122.30173,38.04465],[-122.27353,38.08838],[-122.23961,38.14085],[-122.23057,38.15482],[-122.17266,38.24445],[-122.16349,38.25863],[-122.11833,38.32764],[-122.09842,38.35822],[-122.06543,38.44417],[-122.06279,38.46533]],"type":"LineString"}
}
