{
  "id": 2014447945,
  "type": "Feature",
  "properties": {
    "geom:area": 0,
    "geom:bbox": "-123.325690,37.630170,-122.396640,38.501830",
    "geom:latitude": 38.02411591300649,
    "geom:longitude": -122.89441504311553,
    "src:alt_label": "swim-takeoff",
    "src:geom": "swim",
    "swim:elevations": [
      244,
      604,
      699,
      898,
      949,
      1458,
      1623,
      2347,
      2723,
      2831,
      3165,
      3503,
      3575,
      3902,
      4205,
      4398,
      4579,
      4644,
      5101,
      5423,
      5535,
      5915,
      6176,
      6218,
      6614
    ],
    "swim:geom": "takeoff",
    "swim:timestamps": [
      1767181278,
      1767181306,
      1767181328,
      1767181377,
      1767181383,
      1767181431,
      1767181443,
      1767181495,
      1767181526,
      1767181533,
      1767181560,
      1767181618,
      1767181632,
      1767181668,
      1767181698,
      1767181713,
      1767181731,
      1767181740,
      1767181789,
      1767181824,
      1767181846,
      1767181884,
      1767181918,
      1767181923,
      1767181975
    ],
    "wof:geomhash": "2661c6af2faff7dd3e287cf75e6d3d97",
    "wof:id": 2014447945,
    "wof:repo": "sfomuseum-data-flights-2025-12"
  },
  "bbox": [
    -123.32569,
    37.63017,
    -122.39664,
    38.50183
  ],
  "geometry": {"coordinates":[[-122.39664,37.63017],[-122.42497,37.64201],[-122.44852,37.65179],[-122.51376,37.68032],[-122.5217,37.68481],[-122.58595,37.72376],[-122.60261,37.7336],[-122.67627,37.77646],[-122.72052,37.8028],[-122.73086,37.80899],[-122.76669,37.83666],[-122.83189,37.91449],[-122.84884,37.935],[-122.89445,37.99006],[-122.93332,38.03675],[-122.95282,38.06031],[-122.97631,38.08863],[-122.98832,38.103],[-123.05534,38.18226],[-123.10466,38.24102],[-123.13519,38.27735],[-123.19131,38.34412],[-123.24078,38.40207],[-123.24829,38.41084],[-123.32569,38.50183]],"type":"LineString"}
}
