{
  "id": 2014444447,
  "type": "Feature",
  "properties": {
    "geom:area": 0,
    "geom:bbox": "-122.366530,37.628420,-121.243470,38.427190",
    "geom:latitude": 38.03851438911295,
    "geom:longitude": -121.81437710817244,
    "src:alt_label": "swim-takeoff",
    "src:geom": "swim",
    "swim:elevations": [
      152,
      730,
      807,
      1060,
      1294,
      1743,
      2145,
      2421,
      2911,
      3021,
      3358,
      3512,
      4014,
      4251,
      4558,
      4656,
      4939,
      5014,
      5447,
      5653,
      5911,
      6163,
      6308,
      6425,
      6667,
      6905,
      7200,
      7294
    ],
    "swim:geom": "takeoff",
    "swim:timestamps": [
      1767172088,
      1767172136,
      1767172151,
      1767172188,
      1767172212,
      1767172247,
      1767172283,
      1767172305,
      1767172343,
      1767172352,
      1767172403,
      1767172418,
      1767172461,
      1767172486,
      1767172520,
      1767172530,
      1767172556,
      1767172566,
      1767172618,
      1767172642,
      1767172673,
      1767172706,
      1767172727,
      1767172742,
      1767172778,
      1767172812,
      1767172858,
      1767172870
    ],
    "wof:geomhash": "0c512b3ead04cec6d3dec9f9670e70a0",
    "wof:id": 2014444447,
    "wof:repo": "sfomuseum-data-flights-2025-12"
  },
  "bbox": [
    -122.36653,
    37.62842,
    -121.24347,
    38.42719
  ],
  "geometry": {"coordinates":[[-122.36653,37.62842],[-122.33135,37.65458],[-122.31823,37.66169],[-122.27911,37.68353],[-122.24997,37.69904],[-122.20695,37.72572],[-122.17272,37.76382],[-122.15118,37.78773],[-122.11375,37.82909],[-122.10433,37.8395],[-122.0423,37.89723],[-122.02021,37.91195],[-121.95496,37.95635],[-121.9153,37.98328],[-121.86103,38.01992],[-121.84626,38.02996],[-121.80193,38.05991],[-121.78698,38.06998],[-121.6991,38.12929],[-121.65762,38.15714],[-121.6042,38.193],[-121.54775,38.23083],[-121.51021,38.25595],[-121.48251,38.27447],[-121.41832,38.31723],[-121.35509,38.35875],[-121.26665,38.41286],[-121.24347,38.42719]],"type":"LineString"}
}
