{
  "id": 2014440949,
  "type": "Feature",
  "properties": {
    "geom:area": 0,
    "geom:bbox": "-122.326730,37.492070,-121.263820,37.600740",
    "geom:latitude": 37.54053983152982,
    "geom:longitude": -121.80154089589935,
    "src:alt_label": "swim-approach",
    "src:geom": "swim",
    "swim:elevations": [
      4794,
      4403,
      4075,
      3907,
      3543,
      3175,
      3108,
      2819,
      2791,
      2538,
      2454,
      2367,
      2169,
      1989,
      1860,
      1728,
      1625,
      1350,
      1259,
      1129,
      1032,
      869,
      627,
      528,
      333,
      210
    ],
    "swim:geom": "approach",
    "swim:timestamps": [
      1767226465,
      1767226497,
      1767226527,
      1767226544,
      1767226576,
      1767226616,
      1767226634,
      1767226677,
      1767226684,
      1767226732,
      1767226749,
      1767226792,
      1767226828,
      1767226855,
      1767226879,
      1767226918,
      1767226939,
      1767226978,
      1767226987,
      1767227023,
      1767227056,
      1767227083,
      1767227126,
      1767227144,
      1767227183,
      1767227222
    ],
    "wof:geomhash": "94ff2e8c9f5c821de24fa27afc5b8da1",
    "wof:id": 2014440949,
    "wof:repo": "sfomuseum-data-flights-2025-12"
  },
  "bbox": [
    -122.32673,
    37.49207,
    -121.26382,
    37.60074
  ],
  "geometry": {"coordinates":[[-121.26382,37.5931],[-121.32997,37.58518],[-121.39002,37.57847],[-121.42173,37.57489],[-121.4852,37.56756],[-121.55959,37.55892],[-121.59123,37.5552],[-121.65982,37.54302],[-121.67067,37.54037],[-121.73929,37.52365],[-121.76353,37.51779],[-121.82326,37.50337],[-121.87168,37.49207],[-121.90954,37.49281],[-121.94278,37.49516],[-121.9968,37.49861],[-122.02471,37.50028],[-122.07556,37.50286],[-122.08739,37.50377],[-122.13219,37.51899],[-122.16942,37.53448],[-122.19925,37.54713],[-122.24639,37.56699],[-122.26429,37.57455],[-122.29769,37.58858],[-122.32673,37.60074]],"type":"LineString"}
}
