{
  "id": 2014440441,
  "type": "Feature",
  "properties": {
    "geom:area": 0,
    "geom:bbox": "-122.346820,37.492530,-121.277600,37.609250",
    "geom:latitude": 37.541125630347786,
    "geom:longitude": -121.81879933071242,
    "src:alt_label": "swim-approach",
    "src:geom": "swim",
    "swim:elevations": [
      4439,
      4239,
      3924,
      3701,
      3433,
      3243,
      3171,
      3057,
      2732,
      2687,
      2518,
      2326,
      2033,
      1991,
      1797,
      1646,
      1554,
      1208,
      1141,
      1016,
      780,
      630,
      537,
      381,
      190,
      87
    ],
    "swim:geom": "approach",
    "swim:timestamps": [
      1767206183,
      1767206207,
      1767206242,
      1767206268,
      1767206298,
      1767206338,
      1767206354,
      1767206373,
      1767206422,
      1767206433,
      1767206472,
      1767206498,
      1767206544,
      1767206550,
      1767206601,
      1767206627,
      1767206648,
      1767206693,
      1767206714,
      1767206744,
      1767206777,
      1767206804,
      1767206822,
      1767206851,
      1767206891,
      1767206918
    ],
    "wof:geomhash": "aa4a9e89c59108eb749278589d2fdb74",
    "wof:id": 2014440441,
    "wof:repo": "sfomuseum-data-flights-2025-12"
  },
  "bbox": [
    -122.34682,
    37.49253,
    -121.2776,
    37.60925
  ],
  "geometry": {"coordinates":[[-121.2776,37.59082],[-121.32616,37.58521],[-121.3971,37.57735],[-121.4492,37.57128],[-121.50759,37.56444],[-121.58089,37.55595],[-121.6103,37.55239],[-121.64136,37.54678],[-121.72072,37.5277],[-121.73783,37.52355],[-121.7958,37.50978],[-121.83359,37.50077],[-121.90236,37.49253],[-121.91154,37.49315],[-121.98857,37.49738],[-122.02755,37.49963],[-122.05813,37.50142],[-122.11891,37.51316],[-122.14476,37.52408],[-122.17946,37.53877],[-122.21661,37.55445],[-122.24584,37.56671],[-122.26484,37.57476],[-122.29277,37.58648],[-122.3263,37.60054],[-122.34682,37.60925]],"type":"LineString"}
}
