{
  "id": 2014409311,
  "type": "Feature",
  "properties": {
    "geom:area": 0,
    "geom:bbox": "-122.360240,37.491610,-121.267230,37.614560",
    "geom:latitude": 37.546099763460006,
    "geom:longitude": -121.8185558354982,
    "src:alt_label": "swim-approach",
    "src:geom": "swim",
    "swim:elevations": [
      4605,
      4427,
      4363,
      4233,
      4008,
      3827,
      3607,
      3498,
      3315,
      3164,
      3056,
      2987,
      2818,
      2584,
      2456,
      2258,
      2125,
      2011,
      1946,
      1891,
      1855,
      1587,
      1547,
      1308,
      1219,
      928,
      894,
      786,
      717,
      445,
      353,
      271,
      125,
      59,
      0
    ],
    "swim:geom": "approach",
    "swim:timestamps": [
      1766876428,
      1766876456,
      1766876466,
      1766876484,
      1766876514,
      1766876536,
      1766876567,
      1766876582,
      1766876606,
      1766876627,
      1766876642,
      1766876663,
      1766876687,
      1766876724,
      1766876757,
      1766876788,
      1766876815,
      1766876843,
      1766876861,
      1766876876,
      1766876884,
      1766876933,
      1766876942,
      1766876982,
      1766877000,
      1766877055,
      1766877061,
      1766877082,
      1766877094,
      1766877145,
      1766877166,
      1766877186,
      1766877219,
      1766877236,
      1766877248
    ],
    "wof:geomhash": "9c4e8a0aa968d03bae64a00649522fab",
    "wof:id": 2014409311,
    "wof:repo": "sfomuseum-data-flights-2025-12"
  },
  "bbox": [
    -122.36024,
    37.49161,
    -121.26723,
    37.61456
  ],
  "geometry": {"coordinates":[[-121.26723,37.5922],[-121.32036,37.58503],[-121.33737,37.58318],[-121.36884,37.57999],[-121.42078,37.57435],[-121.45918,37.57003],[-121.51093,37.564],[-121.53612,37.56106],[-121.57649,37.55644],[-121.61165,37.5524],[-121.63662,37.54792],[-121.6699,37.53992],[-121.70574,37.53149],[-121.75854,37.51887],[-121.80322,37.50808],[-121.84558,37.49802],[-121.8824,37.49161],[-121.92046,37.49206],[-121.94448,37.49264],[-121.96331,37.49318],[-121.9738,37.49355],[-122.03536,37.51002],[-122.04609,37.51348],[-122.09162,37.52824],[-122.1116,37.53471],[-122.17401,37.55493],[-122.18067,37.5571],[-122.20383,37.56466],[-122.21721,37.56899],[-122.27163,37.58639],[-122.29135,37.59177],[-122.30885,37.59698],[-122.33622,37.60545],[-122.35082,37.61083],[-122.36024,37.61456]],"type":"LineString"}
}
