{
  "id": 2014430555,
  "type": "Feature",
  "properties": {
    "geom:area": 0,
    "geom:bbox": "-122.539300,36.718740,-122.214620,37.714050",
    "geom:latitude": 37.23104036622693,
    "geom:longitude": -122.43894711016547,
    "src:alt_label": "swim-takeoff",
    "src:geom": "swim",
    "swim:elevations": [
      213,
      768,
      914,
      1105,
      1238,
      1688,
      1767,
      2232,
      2832,
      2883,
      3352,
      3544,
      3591,
      4108,
      4321,
      4690,
      4780,
      5117,
      5457,
      5662,
      6019,
      6046,
      6409,
      6627,
      6855,
      7112,
      7220
    ],
    "swim:geom": "takeoff",
    "swim:timestamps": [
      1767000392,
      1767000430,
      1767000452,
      1767000496,
      1767000523,
      1767000568,
      1767000572,
      1767000611,
      1767000656,
      1767000661,
      1767000710,
      1767000745,
      1767000752,
      1767000799,
      1767000820,
      1767000865,
      1767000873,
      1767000904,
      1767000951,
      1767000976,
      1767001017,
      1767001020,
      1767001065,
      1767001091,
      1767001122,
      1767001163,
      1767001178
    ],
    "wof:geomhash": "7b869587b5bcc5c8b2478dc4f2bd7413",
    "wof:id": 2014430555,
    "wof:repo": "sfomuseum-data-flights-2025-12"
  },
  "bbox": [
    -122.5393,
    36.71874,
    -122.21462,
    37.71405
  ],
  "geometry": {"coordinates":[[-122.36922,37.62875],[-122.36448,37.65409],[-122.36272,37.66861],[-122.37076,37.70246],[-122.4,37.71405],[-122.44402,37.68344],[-122.4451,37.67791],[-122.45203,37.63071],[-122.46165,37.57102],[-122.46271,37.56437],[-122.4745,37.49348],[-122.48435,37.43712],[-122.48654,37.42658],[-122.50232,37.34304],[-122.50964,37.30534],[-122.52482,37.22213],[-122.5276,37.20708],[-122.53806,37.14948],[-122.5393,37.05888],[-122.50952,37.02151],[-122.45086,36.96109],[-122.4466,36.9567],[-122.38198,36.89046],[-122.34366,36.85109],[-122.29845,36.8048],[-122.23708,36.74183],[-122.21462,36.71874]],"type":"LineString"}
}
