{
  "id": 2014441931,
  "type": "Feature",
  "properties": {
    "geom:area": 0,
    "geom:bbox": "-122.351450,37.491870,-121.255210,37.611110",
    "geom:latitude": 37.54224660567261,
    "geom:longitude": -121.81024125459645,
    "src:alt_label": "swim-approach",
    "src:geom": "swim",
    "swim:elevations": [
      4361,
      4185,
      3865,
      3609,
      3388,
      3299,
      3185,
      3078,
      2925,
      2657,
      2491,
      2449,
      2291,
      2114,
      1914,
      1830,
      1552,
      1388,
      1283,
      1219,
      1107,
      1005,
      764,
      586,
      497,
      358,
      232,
      87,
      46
    ],
    "swim:geom": "approach",
    "swim:timestamps": [
      1767236305,
      1767236326,
      1767236365,
      1767236396,
      1767236420,
      1767236432,
      1767236465,
      1767236498,
      1767236531,
      1767236577,
      1767236607,
      1767236625,
      1767236655,
      1767236685,
      1767236727,
      1767236745,
      1767236787,
      1767236817,
      1767236838,
      1767236851,
      1767236885,
      1767236918,
      1767236966,
      1767236996,
      1767237014,
      1767237048,
      1767237079,
      1767237112,
      1767237121
    ],
    "wof:geomhash": "73563097f5edface3e22fe4932de1daa",
    "wof:id": 2014441931,
    "wof:repo": "sfomuseum-data-flights-2025-12"
  },
  "bbox": [
    -122.35145,
    37.49187,
    -121.25521,
    37.61111
  ],
  "geometry": {"coordinates":[[-121.25521,37.59383],[-121.2957,37.58854],[-121.37042,37.58038],[-121.4286,37.57377],[-121.47328,37.56858],[-121.49546,37.56603],[-121.55488,37.55916],[-121.60986,37.55249],[-121.66066,37.54224],[-121.72854,37.52606],[-121.7715,37.51578],[-121.79634,37.50972],[-121.83666,37.5],[-121.87736,37.49187],[-121.93676,37.4944],[-121.96185,37.49588],[-122.0188,37.49925],[-122.05582,37.50125],[-122.08074,37.50271],[-122.09596,37.50463],[-122.1329,37.51924],[-122.16767,37.53385],[-122.21775,37.55491],[-122.24887,37.56802],[-122.26621,37.57532],[-122.29494,37.58742],[-122.31952,37.59771],[-122.34454,37.6082],[-122.35145,37.61111]],"type":"LineString"}
}
