{
  "id": 2014413897,
  "type": "Feature",
  "properties": {
    "geom:area": 0,
    "geom:bbox": "-122.427480,36.724910,-121.295600,37.699840",
    "geom:latitude": 37.194219627841505,
    "geom:longitude": -121.95586878576573,
    "src:alt_label": "swim-takeoff",
    "src:geom": "swim",
    "swim:elevations": [
      444,
      671,
      1129,
      1187,
      1487,
      1947,
      2154,
      2507,
      2902,
      3410,
      3555,
      3719,
      3846,
      3888,
      4380,
      4473,
      4889,
      5252,
      5394,
      5660,
      5914,
      6140,
      6548,
      6887,
      7047,
      7304,
      7564,
      7691,
      8035,
      8283,
      8545
    ],
    "swim:geom": "takeoff",
    "swim:timestamps": [
      1766881705,
      1766881722,
      1766881767,
      1766881785,
      1766881815,
      1766881856,
      1766881872,
      1766881896,
      1766881923,
      1766881972,
      1766881989,
      1766882017,
      1766882035,
      1766882041,
      1766882080,
      1766882089,
      1766882125,
      1766882156,
      1766882171,
      1766882207,
      1766882234,
      1766882253,
      1766882294,
      1766882334,
      1766882354,
      1766882390,
      1766882422,
      1766882437,
      1766882479,
      1766882510,
      1766882549
    ],
    "wof:geomhash": "ba47f9c5c3b877b3328ffd6931fc859d",
    "wof:id": 2014413897,
    "wof:repo": "sfomuseum-data-flights-2025-12"
  },
  "bbox": [
    -122.42748,
    36.72491,
    -121.2956,
    37.69984
  ],
  "geometry": {"coordinates":[[-122.35795,37.64403],[-122.35803,37.65603],[-122.36471,37.68908],[-122.38012,37.69984],[-122.41589,37.68917],[-122.42691,37.63745],[-122.42748,37.6177],[-122.41747,37.58503],[-122.4051,37.5499],[-122.38127,37.4817],[-122.372,37.45643],[-122.34318,37.41641],[-122.31346,37.39527],[-122.303,37.38842],[-122.23312,37.34429],[-122.21666,37.33369],[-122.14988,37.29095],[-122.09275,37.25362],[-122.06419,37.2347],[-121.99518,37.18928],[-121.94278,37.15479],[-121.9062,37.13065],[-121.82486,37.07701],[-121.7441,37.0237],[-121.70511,36.99799],[-121.6313,36.94902],[-121.56419,36.90444],[-121.5327,36.88373],[-121.44349,36.82459],[-121.37853,36.78101],[-121.2956,36.72491]],"type":"LineString"}
}
