{
  "id": 2014430267,
  "type": "Feature",
  "properties": {
    "geom:area": 0,
    "geom:bbox": "-123.496260,37.624830,-122.389360,38.273430",
    "geom:latitude": 37.942168770463816,
    "geom:longitude": -122.94637981950537,
    "src:alt_label": "swim-takeoff",
    "src:geom": "swim",
    "swim:elevations": [
      122,
      431,
      660,
      722,
      1107,
      1488,
      1720,
      2101,
      2245,
      2664,
      3020,
      3218,
      3493,
      3626,
      4141,
      4235,
      4397,
      4419,
      4753,
      5200,
      5372,
      5452,
      5714,
      5984,
      6126,
      6291
    ],
    "swim:geom": "takeoff",
    "swim:timestamps": [
      1767040766,
      1767040791,
      1767040827,
      1767040836,
      1767040885,
      1767040918,
      1767040939,
      1767040971,
      1767040988,
      1767041036,
      1767041067,
      1767041090,
      1767041120,
      1767041132,
      1767041181,
      1767041196,
      1767041242,
      1767041251,
      1767041295,
      1767041338,
      1767041363,
      1767041388,
      1767041427,
      1767041458,
      1767041482,
      1767041508
    ],
    "wof:geomhash": "97fbaa73330cebcff6e3902eeebe4277",
    "wof:id": 2014430267,
    "wof:repo": "sfomuseum-data-flights-2025-12"
  },
  "bbox": [
    -123.49626,
    37.62483,
    -122.38936,
    38.27343
  ],
  "geometry": {"coordinates":[[-122.38936,37.62483],[-122.4122,37.63493],[-122.44806,37.65039],[-122.45819,37.65457],[-122.51716,37.68112],[-122.55551,37.70415],[-122.58025,37.71987],[-122.61886,37.74456],[-122.63923,37.75628],[-122.70352,37.79248],[-122.74617,37.81749],[-122.77654,37.83809],[-122.81926,37.86378],[-122.83666,37.8739],[-122.90694,37.91615],[-122.9288,37.92964],[-123.00227,37.97485],[-123.01761,37.98421],[-123.09655,38.03226],[-123.17339,38.07887],[-123.2175,38.10571],[-123.26504,38.13465],[-123.33785,38.17874],[-123.39844,38.2154],[-123.44433,38.24281],[-123.49626,38.27343]],"type":"LineString"}
}
