{
  "id": 2014446347,
  "type": "Feature",
  "properties": {
    "geom:area": 0,
    "geom:bbox": "-122.385940,37.622860,-121.248730,38.021400",
    "geom:latitude": 37.93562297358022,
    "geom:longitude": -121.94027955711563,
    "src:alt_label": "swim-takeoff",
    "src:geom": "swim",
    "swim:elevations": [
      122,
      514,
      711,
      862,
      1021,
      1433,
      1597,
      2076,
      2385,
      3041,
      3264,
      3634,
      4281,
      4703,
      4963,
      5212,
      5631,
      6167,
      6248,
      6726,
      6876,
      7188,
      7494,
      7761,
      7954,
      8128,
      8282,
      8553,
      8666
    ],
    "swim:geom": "takeoff",
    "swim:timestamps": [
      1767249773,
      1767249803,
      1767249836,
      1767249864,
      1767249888,
      1767249924,
      1767249933,
      1767249966,
      1767249990,
      1767250035,
      1767250059,
      1767250102,
      1767250136,
      1767250166,
      1767250187,
      1767250208,
      1767250238,
      1767250287,
      1767250296,
      1767250347,
      1767250365,
      1767250395,
      1767250434,
      1767250467,
      1767250494,
      1767250521,
      1767250549,
      1767250576,
      1767250594
    ],
    "wof:geomhash": "b2b917dcd26ae232c7fb3aca92a8b43f",
    "wof:id": 2014446347,
    "wof:repo": "sfomuseum-data-flights-2025-12"
  },
  "bbox": [
    -122.38594,
    37.62286,
    -121.24873,
    38.0214
  ],
  "geometry": {"coordinates":[[-122.37022,37.62286],[-122.35528,37.63918],[-122.33398,37.65812],[-122.31325,37.67891],[-122.31271,37.70567],[-122.33655,37.74881],[-122.34298,37.75974],[-122.36518,37.80134],[-122.38082,37.83318],[-122.38594,37.89934],[-122.36549,37.93251],[-122.28487,37.9612],[-122.2169,37.9748],[-122.15789,37.98637],[-122.11551,37.98892],[-122.07272,37.98856],[-122.01022,37.98888],[-121.91143,37.98934],[-121.89294,37.98942],[-121.78723,37.99001],[-121.74926,37.99015],[-121.68544,37.99033],[-121.60277,37.99047],[-121.53198,37.99069],[-121.47323,37.99075],[-121.4139,37.99717],[-121.35111,38.00671],[-121.29031,38.01556],[-121.24873,38.0214]],"type":"LineString"}
}
