{
  "id": 2014435319,
  "type": "Feature",
  "properties": {
    "geom:area": 0,
    "geom:bbox": "-122.756940,37.431670,-122.125430,38.488090",
    "geom:latitude": 37.856052093246035,
    "geom:longitude": -122.48060202000796,
    "src:alt_label": "swim-approach",
    "src:geom": "swim",
    "swim:elevations": [
      6852,
      6737,
      6502,
      6420,
      6329,
      6216,
      6161,
      5919,
      5876,
      5637,
      5445,
      5468,
      5213,
      5038,
      4939,
      4472,
      4141,
      3884,
      3602,
      3395,
      3353,
      3353,
      3353,
      3353,
      3353,
      3040,
      2994,
      2879,
      2681,
      2418,
      2317,
      2257,
      1858,
      1714,
      1519,
      1309,
      1131,
      1038,
      857,
      796,
      637,
      596,
      477,
      331,
      242,
      120,
      12
    ],
    "swim:geom": "approach",
    "swim:timestamps": [
      1767086180,
      1767086202,
      1767086247,
      1767086266,
      1767086283,
      1767086304,
      1767086313,
      1767086364,
      1767086373,
      1767086416,
      1767086455,
      1767086467,
      1767086497,
      1767086513,
      1767086523,
      1767086569,
      1767086603,
      1767086631,
      1767086662,
      1767086698,
      1767086722,
      1767086741,
      1767086770,
      1767086818,
      1767086836,
      1767086877,
      1767086884,
      1767086905,
      1767086931,
      1767086968,
      1767086993,
      1767087007,
      1767087053,
      1767087068,
      1767087087,
      1767087109,
      1767087140,
      1767087158,
      1767087203,
      1767087220,
      1767087261,
      1767087270,
      1767087297,
      1767087325,
      1767087348,
      1767087378,
      1767087402
    ],
    "wof:geomhash": "711a8a2d01e702ba4d4a1c869a6d79b6",
    "wof:id": 2014435319,
    "wof:repo": "sfomuseum-data-flights-2025-12"
  },
  "bbox": [
    -122.75694,
    37.43167,
    -122.12543,
    38.48809
  ],
  "geometry": {"coordinates":[[-122.49594,38.48809],[-122.52803,38.45715],[-122.59498,38.39242],[-122.62169,38.36653],[-122.64728,38.34176],[-122.67694,38.313],[-122.68955,38.30073],[-122.75274,38.22999],[-122.75694,38.21527],[-122.74437,38.14588],[-122.72693,38.08471],[-122.72158,38.06624],[-122.70842,38.02063],[-122.70119,37.99592],[-122.69676,37.98063],[-122.67449,37.91],[-122.63842,37.8671],[-122.60356,37.8339],[-122.56557,37.79796],[-122.52247,37.75716],[-122.49572,37.73182],[-122.47595,37.7131],[-122.44576,37.68492],[-122.39622,37.63831],[-122.37782,37.62103],[-122.3441,37.57586],[-122.34059,37.56786],[-122.32871,37.54291],[-122.31001,37.5125],[-122.28289,37.47241],[-122.25057,37.45768],[-122.23212,37.45175],[-122.17511,37.4334],[-122.15462,37.43167],[-122.13376,37.44127],[-122.12543,37.46302],[-122.1415,37.49399],[-122.15111,37.51025],[-122.17511,37.54898],[-122.18908,37.55985],[-122.23162,37.57372],[-122.24182,37.57698],[-122.26713,37.58478],[-122.29282,37.59219],[-122.31183,37.59809],[-122.33659,37.6059],[-122.35635,37.61306]],"type":"LineString"}
}
