{
  "id": 2014439437,
  "type": "Feature",
  "properties": {
    "geom:area": 0,
    "geom:bbox": "-122.357720,37.640030,-121.250280,37.964650",
    "geom:latitude": 37.84028322324554,
    "geom:longitude": -121.81704722824058,
    "src:alt_label": "swim-takeoff",
    "src:geom": "swim",
    "swim:elevations": [
      305,
      750,
      1047,
      1233,
      1262,
      1484,
      1587,
      1982,
      2386,
      2679,
      3234,
      3341,
      3760,
      4057,
      4284,
      4535,
      4868,
      4943,
      5334,
      5512,
      5773,
      6231,
      6499,
      6672,
      7040,
      7142
    ],
    "swim:geom": "takeoff",
    "swim:timestamps": [
      1767086543,
      1767086575,
      1767086608,
      1767086638,
      1767086642,
      1767086662,
      1767086670,
      1767086698,
      1767086725,
      1767086745,
      1767086785,
      1767086806,
      1767086839,
      1767086861,
      1767086880,
      1767086905,
      1767086934,
      1767086940,
      1767086975,
      1767087002,
      1767087032,
      1767087087,
      1767087115,
      1767087134,
      1767087177,
      1767087191
    ],
    "wof:geomhash": "b14a0e4af1f90b049274058e5d58aa3e",
    "wof:id": 2014439437,
    "wof:repo": "sfomuseum-data-flights-2025-12"
  },
  "bbox": [
    -122.35772,
    37.64003,
    -121.25028,
    37.96465
  ],
  "geometry": {"coordinates":[[-122.35772,37.64003],[-122.33107,37.65411],[-122.30214,37.66978],[-122.27075,37.68782],[-122.26587,37.69057],[-122.24147,37.70366],[-122.23174,37.70877],[-122.19374,37.72831],[-122.15676,37.74738],[-122.129,37.76183],[-122.0726,37.79103],[-122.04083,37.80735],[-121.98495,37.8292],[-121.94509,37.83714],[-121.9086,37.84407],[-121.86163,37.85292],[-121.80313,37.86368],[-121.79126,37.86587],[-121.72088,37.87877],[-121.66684,37.88871],[-121.6052,37.90008],[-121.48574,37.92194],[-121.42309,37.9334],[-121.38048,37.94113],[-121.28252,37.95887],[-121.25028,37.96465]],"type":"LineString"}
}
