{
  "id": 2014407361,
  "type": "Feature",
  "properties": {
    "geom:area": 0,
    "geom:bbox": "-122.360950,36.719010,-121.876280,37.612660",
    "geom:latitude": 37.21714051915349,
    "geom:longitude": -122.06625875770648,
    "src:alt_label": "swim-approach",
    "src:geom": "swim",
    "swim:elevations": [
      5708,
      5648,
      5317,
      5046,
      4721,
      4623,
      4387,
      4100,
      3782,
      3459,
      3172,
      3108,
      2956,
      2833,
      2535,
      2459,
      2314,
      2253,
      2078,
      1867,
      1727,
      1589,
      1549,
      1312,
      1193,
      1018,
      945,
      910,
      795,
      735,
      546,
      423,
      300,
      164,
      81,
      113
    ],
    "swim:geom": "approach",
    "swim:timestamps": [
      1766875554,
      1766875560,
      1766875602,
      1766875628,
      1766875661,
      1766875670,
      1766875694,
      1766875723,
      1766875756,
      1766875792,
      1766875822,
      1766875847,
      1766875877,
      1766875895,
      1766875947,
      1766875968,
      1766876003,
      1766876012,
      1766876036,
      1766876066,
      1766876089,
      1766876116,
      1766876134,
      1766876176,
      1766876206,
      1766876238,
      1766876259,
      1766876270,
      1766876301,
      1766876313,
      1766876354,
      1766876383,
      1766876410,
      1766876446,
      1766876466,
      1766876484
    ],
    "wof:geomhash": "d6d646a1ed6f1a115f86aaafdf7be4f5",
    "wof:id": 2014407361,
    "wof:repo": "sfomuseum-data-flights-2025-12"
  },
  "bbox": [
    -122.36095,
    36.71901,
    -121.87628,
    37.61266
  ],
  "geometry": {"coordinates":[[-121.87628,36.71901],[-121.88234,36.7273],[-121.90761,36.78939],[-121.91858,36.82883],[-121.93229,36.8779],[-121.93598,36.89119],[-121.9459,36.92657],[-121.95949,36.9677],[-121.97756,37.01461],[-121.99739,37.06515],[-122.0135,37.10678],[-122.02686,37.14076],[-122.04128,37.17809],[-122.04972,37.19981],[-122.07349,37.25995],[-122.08282,37.28391],[-122.09739,37.32027],[-122.10089,37.32933],[-122.10608,37.35339],[-122.09716,37.38294],[-122.0898,37.40569],[-122.09002,37.43123],[-122.09687,37.44685],[-122.11604,37.47956],[-122.13686,37.49885],[-122.15883,37.51858],[-122.17296,37.53084],[-122.18061,37.53576],[-122.20857,37.54882],[-122.21946,37.55341],[-122.25565,37.56859],[-122.28036,37.57895],[-122.30217,37.58798],[-122.33076,37.60017],[-122.34674,37.60685],[-122.36095,37.61266]],"type":"LineString"}
}
