{
  "id": 2014443187,
  "type": "Feature",
  "properties": {
    "geom:area": 0,
    "geom:bbox": "-122.360080,37.492040,-121.278210,37.614630",
    "geom:latitude": 37.541816739456216,
    "geom:longitude": -121.82611517331738,
    "src:alt_label": "swim-approach",
    "src:geom": "swim",
    "swim:elevations": [
      5018,
      4878,
      4800,
      4643,
      4345,
      4239,
      3997,
      3882,
      3745,
      3627,
      3262,
      3144,
      2908,
      2663,
      2452,
      2380,
      2166,
      2069,
      1683,
      1404,
      1290,
      1122,
      964,
      736,
      524,
      376,
      362,
      153,
      126,
      72,
      0
    ],
    "swim:geom": "approach",
    "swim:timestamps": [
      1767187345,
      1767187366,
      1767187389,
      1767187416,
      1767187461,
      1767187474,
      1767187508,
      1767187526,
      1767187545,
      1767187561,
      1767187611,
      1767187627,
      1767187659,
      1767187688,
      1767187717,
      1767187723,
      1767187758,
      1767187770,
      1767187821,
      1767187857,
      1767187881,
      1767187910,
      1767187940,
      1767187969,
      1767188007,
      1767188037,
      1767188041,
      1767188085,
      1767188094,
      1767188106,
      1767188124
    ],
    "wof:geomhash": "278c3c4a24fbceb858c332e165b0b6c8",
    "wof:id": 2014443187,
    "wof:repo": "sfomuseum-data-flights-2025-12"
  },
  "bbox": [
    -122.36008,
    37.49204,
    -121.27821,
    37.61463
  ],
  "geometry": {"coordinates":[[-121.27821,37.59076],[-121.31673,37.58632],[-121.35791,37.58199],[-121.40391,37.57676],[-121.47954,37.56775],[-121.50227,37.56507],[-121.55622,37.55867],[-121.58537,37.55539],[-121.61593,37.55195],[-121.64087,37.547],[-121.71445,37.52947],[-121.73773,37.52386],[-121.78511,37.51241],[-121.82648,37.50256],[-121.86769,37.49297],[-121.87656,37.49204],[-121.92818,37.49398],[-121.94666,37.495],[-122.02061,37.49927],[-122.07234,37.50219],[-122.10657,37.50782],[-122.14534,37.5243],[-122.18535,37.5411],[-122.22097,37.55636],[-122.26146,37.57334],[-122.28967,37.58526],[-122.29327,37.58676],[-122.33033,37.60232],[-122.33744,37.6053],[-122.3464,37.60899],[-122.36008,37.61463]],"type":"LineString"}
}
