{
  "id": 2014439227,
  "type": "Feature",
  "properties": {
    "geom:area": 0,
    "geom:bbox": "-122.459630,36.739230,-121.434560,37.709330",
    "geom:latitude": 37.24153538120962,
    "geom:longitude": -122.0250827844686,
    "src:alt_label": "swim-takeoff",
    "src:geom": "swim",
    "swim:elevations": [
      213,
      637,
      962,
      1010,
      1106,
      1167,
      1711,
      2189,
      2796,
      3161,
      3533,
      3697,
      4281,
      4342,
      5053,
      5288,
      5603,
      5794,
      6351,
      6655,
      6735,
      7062,
      7167,
      7418,
      7506,
      7832,
      8081,
      8244,
      8401,
      8683,
      8839,
      8839,
      8839
    ],
    "swim:geom": "takeoff",
    "swim:timestamps": [
      1767091613,
      1767091647,
      1767091677,
      1767091682,
      1767091702,
      1767091711,
      1767091761,
      1767091786,
      1767091819,
      1767091847,
      1767091888,
      1767091911,
      1767091948,
      1767091953,
      1767092008,
      1767092028,
      1767092059,
      1767092070,
      1767092121,
      1767092154,
      1767092162,
      1767092198,
      1767092210,
      1767092238,
      1767092250,
      1767092294,
      1767092327,
      1767092348,
      1767092372,
      1767092409,
      1767092457,
      1767092478,
      1767092498
    ],
    "wof:geomhash": "5f63f63f52b33030bd825d4fdb15b6ea",
    "wof:id": 2014439227,
    "wof:repo": "sfomuseum-data-flights-2025-12"
  },
  "bbox": [
    -122.45963,
    36.73923,
    -121.43456,
    37.70933
  ],
  "geometry": {"coordinates":[[-122.36767,37.63144],[-122.36378,37.65688],[-122.36139,37.68198],[-122.36176,37.68617],[-122.37114,37.70312],[-122.37998,37.70933],[-122.44063,37.69191],[-122.44723,37.6603],[-122.45395,37.62043],[-122.45963,37.5848],[-122.42597,37.53922],[-122.39361,37.51596],[-122.34077,37.47537],[-122.33385,37.46984],[-122.2534,37.40498],[-122.22386,37.3813],[-122.17563,37.34249],[-122.15921,37.32928],[-122.07992,37.26563],[-122.02716,37.22327],[-122.01498,37.21343],[-121.95618,37.16566],[-121.9358,37.14906],[-121.88957,37.11144],[-121.86944,37.09513],[-121.79477,37.03407],[-121.73764,36.98782],[-121.70011,36.95843],[-121.66007,36.92394],[-121.59253,36.87028],[-121.50785,36.79973],[-121.47064,36.76852],[-121.43456,36.73923]],"type":"LineString"}
}
