{
  "id": 2014427433,
  "type": "Feature",
  "properties": {
    "geom:area": 0,
    "geom:bbox": "-122.524390,36.732140,-121.303500,37.743690",
    "geom:latitude": 37.23325210582442,
    "geom:longitude": -122.04596331333846,
    "src:alt_label": "swim-takeoff",
    "src:geom": "swim",
    "swim:elevations": [
      183,
      528,
      722,
      997,
      1333,
      1615,
      1691,
      2242,
      2573,
      2837,
      2964,
      3314,
      3467,
      3612,
      3814,
      4019,
      4128,
      4367,
      4396,
      4830,
      4931,
      5283,
      5313,
      5452,
      5709,
      5895,
      6111,
      6250,
      6351,
      6627,
      6711,
      6907,
      7074,
      7169
    ],
    "swim:geom": "takeoff",
    "swim:timestamps": [
      1767017916,
      1767017945,
      1767017985,
      1767018025,
      1767018055,
      1767018086,
      1767018093,
      1767018145,
      1767018179,
      1767018206,
      1767018215,
      1767018265,
      1767018291,
      1767018325,
      1767018358,
      1767018387,
      1767018407,
      1767018446,
      1767018450,
      1767018506,
      1767018522,
      1767018567,
      1767018571,
      1767018602,
      1767018645,
      1767018676,
      1767018707,
      1767018730,
      1767018754,
      1767018802,
      1767018818,
      1767018861,
      1767018898,
      1767018923
    ],
    "wof:geomhash": "7e22d1bde5c10cfb5b109cac9c29e835",
    "wof:id": 2014427433,
    "wof:repo": "sfomuseum-data-flights-2025-12"
  },
  "bbox": [
    -122.52439,
    36.73214,
    -121.3035,
    37.74369
  ],
  "geometry": {"coordinates":[[-122.3675,37.63114],[-122.36256,37.65149],[-122.36305,37.68596],[-122.39846,37.71777],[-122.43599,37.73887],[-122.48102,37.74369],[-122.49079,37.73992],[-122.52439,37.68227],[-122.51864,37.63887],[-122.50792,37.60242],[-122.50469,37.59099],[-122.48601,37.52157],[-122.47525,37.48222],[-122.44405,37.43398],[-122.40628,37.38736],[-122.37165,37.34357],[-122.34209,37.31699],[-122.26941,37.27401],[-122.26186,37.26962],[-122.15558,37.20734],[-122.12497,37.18939],[-122.03126,37.14769],[-122.02261,37.14444],[-121.95476,37.1188],[-121.86053,37.0833],[-121.79337,37.05469],[-121.73218,37.0153],[-121.68654,36.98545],[-121.64025,36.95501],[-121.5453,36.89241],[-121.51332,36.87132],[-121.42688,36.81411],[-121.35312,36.76512],[-121.3035,36.73214]],"type":"LineString"}
}
