{
  "id": 2014415223,
  "type": "Feature",
  "properties": {
    "geom:area": 0,
    "geom:bbox": "-122.362450,36.719610,-121.876620,37.612980",
    "geom:latitude": 37.20739291022307,
    "geom:longitude": -122.07031054774906,
    "src:alt_label": "swim-approach",
    "src:geom": "swim",
    "swim:elevations": [
      5818,
      5694,
      5460,
      5318,
      5067,
      4793,
      4578,
      4305,
      3965,
      3737,
      3385,
      3169,
      3115,
      3106,
      2964,
      2688,
      2356,
      2191,
      1959,
      1797,
      1766,
      1581,
      1475,
      1324,
      1160,
      766,
      707,
      463,
      299,
      211,
      103,
      174
    ],
    "swim:geom": "approach",
    "swim:timestamps": [
      1766958070,
      1766958082,
      1766958104,
      1766958125,
      1766958148,
      1766958173,
      1766958194,
      1766958221,
      1766958254,
      1766958275,
      1766958311,
      1766958338,
      1766958353,
      1766958362,
      1766958395,
      1766958434,
      1766958476,
      1766958500,
      1766958537,
      1766958562,
      1766958572,
      1766958618,
      1766958639,
      1766958663,
      1766958691,
      1766958748,
      1766958757,
      1766958798,
      1766958836,
      1766958859,
      1766958885,
      1766958910
    ],
    "wof:geomhash": "93b744695a03566940a85df0107a5960",
    "wof:id": 2014415223,
    "wof:repo": "sfomuseum-data-flights-2025-12"
  },
  "bbox": [
    -122.36245,
    36.71961,
    -121.87662,
    37.61298
  ],
  "geometry": {"coordinates":[[-121.87662,36.71961],[-121.8875,36.73634],[-121.90138,36.76817],[-121.91024,36.79901],[-121.91974,36.83275],[-121.92964,36.86959],[-121.93803,36.89987],[-121.9494,36.93969],[-121.96729,36.98811],[-121.97917,37.01906],[-121.99969,37.07196],[-122.01489,37.11108],[-122.02301,37.13158],[-122.02784,37.14369],[-122.04479,37.18581],[-122.06344,37.23417],[-122.08339,37.28515],[-122.09422,37.31319],[-122.11042,37.35414],[-122.12141,37.38144],[-122.12491,37.39154],[-122.14009,37.43784],[-122.14787,37.45886],[-122.15852,37.48162],[-122.17758,37.50664],[-122.22528,37.54757],[-122.23218,37.55354],[-122.26873,37.57418],[-122.30232,37.58816],[-122.32105,37.59602],[-122.34219,37.60492],[-122.36245,37.61298]],"type":"LineString"}
}
