{
  "id": 2014413803,
  "type": "Feature",
  "properties": {
    "geom:area": 0,
    "geom:bbox": "-122.362160,37.633880,-122.232390,38.505050",
    "geom:latitude": 38.05043549103852,
    "geom:longitude": -122.25969380765413,
    "src:alt_label": "swim-takeoff",
    "src:geom": "swim",
    "swim:elevations": [
      291,
      628,
      876,
      1011,
      1217,
      1448,
      1909,
      2390,
      2991,
      3315,
      3412,
      3720,
      4066,
      4391,
      4615,
      4958,
      5208,
      5349,
      5448,
      6047,
      6112,
      6541,
      6768,
      6808
    ],
    "swim:geom": "takeoff",
    "swim:timestamps": [
      1766856147,
      1766856177,
      1766856201,
      1766856216,
      1766856264,
      1766856289,
      1766856315,
      1766856345,
      1766856380,
      1766856411,
      1766856425,
      1766856472,
      1766856504,
      1766856534,
      1766856552,
      1766856582,
      1766856609,
      1766856624,
      1766856634,
      1766856687,
      1766856696,
      1766856744,
      1766856776,
      1766856781
    ],
    "wof:geomhash": "83e2cba862550d8257b881efe829f188",
    "wof:id": 2014413803,
    "wof:repo": "sfomuseum-data-flights-2025-12"
  },
  "bbox": [
    -122.36216,
    37.63388,
    -122.23239,
    38.50505
  ],
  "geometry": {"coordinates":[[-122.36216,37.63388],[-122.34129,37.64703],[-122.32393,37.65743],[-122.31337,37.66367],[-122.27855,37.69472],[-122.27485,37.72268],[-122.2737,37.7543],[-122.27162,37.79101],[-122.2683,37.83575],[-122.26545,37.87438],[-122.26413,37.89393],[-122.25927,37.96645],[-122.25532,38.01926],[-122.25171,38.06986],[-122.24974,38.10023],[-122.24612,38.15169],[-122.24264,38.19796],[-122.24065,38.22511],[-122.23944,38.24274],[-122.23278,38.33563],[-122.23239,38.3524],[-122.2406,38.43778],[-122.24672,38.49604],[-122.24762,38.50505]],"type":"LineString"}
}
