{
  "id": 2014435113,
  "type": "Feature",
  "properties": {
    "geom:area": 0,
    "geom:bbox": "-122.362930,37.491340,-121.283820,37.615760",
    "geom:latitude": 37.54567455000232,
    "geom:longitude": -121.82818330359704,
    "src:alt_label": "swim-approach",
    "src:geom": "swim",
    "swim:elevations": [
      4250,
      4103,
      3815,
      3570,
      3380,
      3239,
      3171,
      3078,
      2930,
      2860,
      2630,
      2514,
      2359,
      2163,
      2076,
      1880,
      1608,
      1348,
      1196,
      1070,
      936,
      745,
      596,
      517,
      416,
      373,
      304,
      209,
      30,
      345
    ],
    "swim:geom": "approach",
    "swim:timestamps": [
      1767124638,
      1767124655,
      1767124684,
      1767124714,
      1767124736,
      1767124754,
      1767124786,
      1767124820,
      1767124854,
      1767124868,
      1767124913,
      1767124934,
      1767124958,
      1767124993,
      1767125015,
      1767125058,
      1767125094,
      1767125123,
      1767125141,
      1767125165,
      1767125194,
      1767125231,
      1767125273,
      1767125293,
      1767125324,
      1767125336,
      1767125357,
      1767125382,
      1767125424,
      1767125435
    ],
    "wof:geomhash": "e5a795aaf8ebc8ed9c2aba63391e4213",
    "wof:id": 2014435113,
    "wof:repo": "sfomuseum-data-flights-2025-12"
  },
  "bbox": [
    -122.36293,
    37.49134,
    -121.28382,
    37.61576
  ],
  "geometry": {"coordinates":[[-121.28382,37.59019],[-121.31708,37.58632],[-121.37494,37.57989],[-121.43084,37.57347],[-121.46859,37.56898],[-121.49966,37.56534],[-121.55193,37.55931],[-121.60479,37.55311],[-121.65651,37.54327],[-121.6769,37.53822],[-121.74426,37.52221],[-121.77646,37.5145],[-121.81262,37.50589],[-121.86558,37.49345],[-121.89909,37.49134],[-121.96715,37.49329],[-122.02097,37.50532],[-122.06196,37.51864],[-122.08553,37.52633],[-122.11362,37.53547],[-122.14493,37.54563],[-122.1822,37.55772],[-122.22369,37.57115],[-122.24411,37.57773],[-122.27094,37.58588],[-122.2809,37.58883],[-122.29842,37.59399],[-122.31925,37.6001],[-122.35374,37.61214],[-122.36293,37.61576]],"type":"LineString"}
}
