{
  "id": 2014412029,
  "type": "Feature",
  "properties": {
    "geom:area": 0,
    "geom:bbox": "-123.482490,37.628810,-122.399390,37.731180",
    "geom:latitude": 37.69816677590238,
    "geom:longitude": -122.93697883165436,
    "src:alt_label": "swim-takeoff",
    "src:geom": "swim",
    "swim:elevations": [
      213,
      335,
      770,
      1084,
      1309,
      1650,
      1721,
      1914,
      2197,
      2435,
      2981,
      3234,
      3448,
      3869,
      4083,
      4557,
      4634,
      5044,
      5391,
      5770,
      5934,
      6200
    ],
    "swim:geom": "takeoff",
    "swim:timestamps": [
      1766839738,
      1766839746,
      1766839781,
      1766839818,
      1766839853,
      1766839881,
      1766839892,
      1766839905,
      1766839939,
      1766839960,
      1766840003,
      1766840035,
      1766840065,
      1766840098,
      1766840114,
      1766840154,
      1766840161,
      1766840202,
      1766840234,
      1766840277,
      1766840293,
      1766840319
    ],
    "wof:geomhash": "c9cfdf041873dc4e56172a56019c44aa",
    "wof:id": 2014412029,
    "wof:repo": "sfomuseum-data-flights-2025-12"
  },
  "bbox": [
    -123.48249,
    37.62881,
    -122.39939,
    37.73118
  ],
  "geometry": {"coordinates":[[-122.39939,37.62881],[-122.40753,37.63214],[-122.44261,37.64777],[-122.482,37.66509],[-122.52832,37.67639],[-122.57083,37.67907],[-122.58789,37.67999],[-122.60864,37.68122],[-122.66691,37.68456],[-122.7052,37.68683],[-122.78416,37.69174],[-122.84637,37.69546],[-122.90861,37.6993],[-122.97847,37.70317],[-123.01313,37.70519],[-123.1015,37.71015],[-123.11654,37.71102],[-123.20848,37.71624],[-123.28375,37.72037],[-123.384,37.72587],[-123.42055,37.72787],[-123.48249,37.73118]],"type":"LineString"}
}
