{
  "id": 2014417907,
  "type": "Feature",
  "properties": {
    "geom:area": 0,
    "geom:bbox": "-122.347240,37.491410,-121.261680,37.609230",
    "geom:latitude": 37.54560756073631,
    "geom:longitude": -121.8090521289503,
    "src:alt_label": "swim-approach",
    "src:geom": "swim",
    "swim:elevations": [
      4364,
      4098,
      4059,
      3773,
      3539,
      3195,
      3137,
      3080,
      2872,
      2703,
      2588,
      2173,
      2137,
      2078,
      1853,
      1830,
      1744,
      1364,
      1257,
      1127,
      975,
      894,
      812,
      671,
      641,
      515,
      427,
      335,
      183,
      92
    ],
    "swim:geom": "approach",
    "swim:timestamps": [
      1766921998,
      1766922028,
      1766922033,
      1766922066,
      1766922093,
      1766922146,
      1766922164,
      1766922182,
      1766922224,
      1766922251,
      1766922276,
      1766922327,
      1766922336,
      1766922375,
      1766922416,
      1766922424,
      1766922453,
      1766922506,
      1766922521,
      1766922546,
      1766922573,
      1766922592,
      1766922614,
      1766922646,
      1766922661,
      1766922698,
      1766922723,
      1766922755,
      1766922794,
      1766922825
    ],
    "wof:geomhash": "e388e22eaf5b003fa51c9f4aa9b77fd2",
    "wof:id": 2014417907,
    "wof:repo": "sfomuseum-data-flights-2025-12"
  },
  "bbox": [
    -122.34724,
    37.49141,
    -121.26168,
    37.60923
  ],
  "geometry": {"coordinates":[[-121.26168,37.59276],[-121.31993,37.58596],[-121.32923,37.58497],[-121.39431,37.57778],[-121.44505,37.57188],[-121.54398,37.56027],[-121.57546,37.55656],[-121.60702,37.55274],[-121.67259,37.53948],[-121.71636,37.52911],[-121.75473,37.51984],[-121.82796,37.50212],[-121.84095,37.49909],[-121.89704,37.49141],[-121.95131,37.49277],[-121.96211,37.49311],[-121.99931,37.4983],[-122.06079,37.51853],[-122.0774,37.52388],[-122.10427,37.53248],[-122.13166,37.54124],[-122.14972,37.54709],[-122.16942,37.55365],[-122.19819,37.56297],[-122.21131,37.56715],[-122.24394,37.57763],[-122.26665,37.58474],[-122.29266,37.59224],[-122.32303,37.60126],[-122.34724,37.60923]],"type":"LineString"}
}
