{
  "id": 2014421299,
  "type": "Feature",
  "properties": {
    "geom:area": 0,
    "geom:bbox": "-122.387090,37.627420,-121.254200,38.510010",
    "geom:latitude": 38.03728208745614,
    "geom:longitude": -121.92173338999841,
    "src:alt_label": "swim-takeoff",
    "src:geom": "swim",
    "swim:elevations": [
      122,
      386,
      704,
      916,
      1230,
      1407,
      1720,
      2101,
      2329,
      2583,
      3132,
      3314,
      3375,
      3608,
      3830,
      4175,
      4200,
      4621,
      4877,
      4950,
      5318,
      5617,
      5743,
      5975,
      6280,
      6478,
      6523,
      6800,
      305,
      676,
      788,
      907,
      1073,
      1398,
      1662,
      1970,
      2256,
      2495,
      3018,
      3198,
      3328,
      3398,
      3480,
      3580,
      4062,
      4189,
      4628,
      4944,
      5053,
      5418,
      5674,
      5817,
      6100,
      6277,
      6431,
      6707,
      6840,
      7048,
      7129
    ],
    "swim:geom": "takeoff",
    "swim:timestamps": [
      1766914124,
      1766914141,
      1766914175,
      1766914207,
      1766914252,
      1766914264,
      1766914290,
      1766914322,
      1766914338,
      1766914359,
      1766914405,
      1766914433,
      1766914446,
      1766914492,
      1766914527,
      1766914559,
      1766914562,
      1766914618,
      1766914646,
      1766914652,
      1766914687,
      1766914738,
      1766914755,
      1766914783,
      1766914824,
      1766914854,
      1766914860,
      1766914896,
      1766989765,
      1766989798,
      1766989818,
      1766989851,
      1766989873,
      1766989905,
      1766989925,
      1766989948,
      1766989967,
      1766989988,
      1766990032,
      1766990057,
      1766990091,
      1766990105,
      1766990121,
      1766990136,
      1766990181,
      1766990196,
      1766990245,
      1766990272,
      1766990281,
      1766990322,
      1766990366,
      1766990387,
      1766990423,
      1766990448,
      1766990469,
      1766990516,
      1766990540,
      1766990574,
      1766990587
    ],
    "wof:geomhash": "7a83c1cffb20560507904ec46e9d623f",
    "wof:id": 2014421299,
    "wof:repo": "sfomuseum-data-flights-2025-12"
  },
  "bbox": [
    -122.38709,
    37.62742,
    -121.2542,
    38.51001
  ],
  "geometry": {"coordinates":[[-122.36672,37.62742],[-122.35938,37.63879],[-122.3446,37.66211],[-122.32722,37.68718],[-122.29844,37.72992],[-122.28886,37.74166],[-122.26492,37.76431],[-122.23409,37.79451],[-122.21823,37.81006],[-122.19753,37.83012],[-122.15122,37.87462],[-122.12187,37.90273],[-122.10744,37.91667],[-122.05147,37.96977],[-122.0063,38.01259],[-121.96258,38.0542],[-121.95837,38.05822],[-121.87983,38.13314],[-121.83921,38.17191],[-121.83034,38.18034],[-121.77999,38.22804],[-121.70391,38.29996],[-121.6791,38.32357],[-121.63798,38.36273],[-121.57466,38.42132],[-121.5233,38.45994],[-121.51164,38.46755],[-121.4413,38.51001],[-122.36072,37.63789],[-122.33999,37.65709],[-122.3243,37.66948],[-122.31071,37.69955],[-122.32344,37.72403],[-122.34447,37.76147],[-122.3576,37.7863],[-122.37104,37.81382],[-122.3822,37.83684],[-122.38709,37.86304],[-122.38229,37.92001],[-122.35728,37.94464],[-122.30132,37.95809],[-122.27474,37.96303],[-122.24556,37.96835],[-122.21629,37.9739],[-122.12609,37.98837],[-122.09502,37.98876],[-121.99231,37.98954],[-121.93583,37.99658],[-121.91727,37.99912],[-121.83348,38.01026],[-121.7394,38.02279],[-121.69464,38.02867],[-121.6189,38.03857],[-121.56478,38.04561],[-121.51792,38.05164],[-121.41391,38.0651],[-121.35998,38.07214],[-121.28404,38.08181],[-121.2542,38.0856]],"type":"LineString"}
}
