{
  "id": 2014443437,
  "type": "Feature",
  "properties": {
    "geom:area": 0,
    "geom:bbox": "-122.352270,37.446640,-121.259030,37.611490",
    "geom:latitude": 37.53507375772131,
    "geom:longitude": -121.81599273761077,
    "src:alt_label": "swim-approach",
    "src:geom": "swim",
    "swim:elevations": [
      4569,
      4322,
      4241,
      4094,
      3894,
      3770,
      3579,
      3464,
      3445,
      3168,
      3014,
      2826,
      2744,
      2619,
      2438,
      2438,
      2438,
      2269,
      2229,
      2138,
      2135,
      2134,
      2072,
      1950,
      1858,
      1723,
      1640,
      1501,
      1378,
      1118,
      1065,
      804,
      613,
      541,
      426,
      272,
      212,
      186,
      38
    ],
    "swim:geom": "approach",
    "swim:timestamps": [
      1767216772,
      1767216807,
      1767216817,
      1767216838,
      1767216865,
      1767216882,
      1767216909,
      1767216955,
      1767216960,
      1767217002,
      1767217026,
      1767217059,
      1767217071,
      1767217086,
      1767217137,
      1767217141,
      1767217193,
      1767217225,
      1767217231,
      1767217252,
      1767217264,
      1767217291,
      1767217337,
      1767217366,
      1767217384,
      1767217405,
      1767217417,
      1767217442,
      1767217463,
      1767217496,
      1767217505,
      1767217553,
      1767217586,
      1767217604,
      1767217625,
      1767217660,
      1767217675,
      1767217681,
      1767217711
    ],
    "wof:geomhash": "82f9ad5894dfbb3ce2d9d2a8a11df92e",
    "wof:id": 2014443437,
    "wof:repo": "sfomuseum-data-flights-2025-12"
  },
  "bbox": [
    -122.35227,
    37.44664,
    -121.25903,
    37.61149
  ],
  "geometry": {"coordinates":[[-121.25903,37.59292],[-121.32092,37.58601],[-121.33847,37.58414],[-121.37557,37.58003],[-121.4228,37.57457],[-121.4537,37.57084],[-121.50031,37.56533],[-121.57291,37.55777],[-121.58062,37.55665],[-121.64008,37.54638],[-121.67286,37.53849],[-121.71743,37.52827],[-121.73422,37.52749],[-121.7542,37.53425],[-121.81598,37.56085],[-121.82043,37.55975],[-121.83692,37.51491],[-121.83809,37.48399],[-121.8417,37.47847],[-121.85446,37.45958],[-121.8657,37.45101],[-121.9022,37.44664],[-121.96563,37.44901],[-122.00324,37.46406],[-122.02565,37.47382],[-122.05162,37.485],[-122.06623,37.49116],[-122.09545,37.50357],[-122.11866,37.51315],[-122.1538,37.52788],[-122.16302,37.53175],[-122.21201,37.55253],[-122.24463,37.56616],[-122.26244,37.57381],[-122.28146,37.58173],[-122.31022,37.59386],[-122.32242,37.59896],[-122.32725,37.60097],[-122.35227,37.61149]],"type":"LineString"}
}
