{
  "id": 2014407403,
  "type": "Feature",
  "properties": {
    "geom:area": 0,
    "geom:bbox": "-122.360200,37.491920,-121.259140,37.615330",
    "geom:latitude": 37.54659494262225,
    "geom:longitude": -121.8146383521455,
    "src:alt_label": "swim-approach",
    "src:geom": "swim",
    "swim:elevations": [
      4656,
      4330,
      4223,
      4063,
      3814,
      3504,
      3439,
      3163,
      3024,
      2682,
      2504,
      2365,
      2195,
      2151,
      2039,
      1894,
      1697,
      1499,
      1335,
      1257,
      1008,
      882,
      649,
      580,
      446,
      214,
      198,
      0
    ],
    "swim:geom": "approach",
    "swim:timestamps": [
      1766876719,
      1766876754,
      1766876769,
      1766876791,
      1766876827,
      1766876875,
      1766876884,
      1766876918,
      1766876942,
      1766876994,
      1766877023,
      1766877055,
      1766877085,
      1766877094,
      1766877121,
      1766877156,
      1766877199,
      1766877230,
      1766877260,
      1766877272,
      1766877317,
      1766877343,
      1766877386,
      1766877401,
      1766877428,
      1766877476,
      1766877482,
      1766877529
    ],
    "wof:geomhash": "46f47005da3c143d69df03cae32cc9c4",
    "wof:id": 2014407403,
    "wof:repo": "sfomuseum-data-flights-2025-12"
  },
  "bbox": [
    -122.3602,
    37.49192,
    -121.25914,
    37.61533
  ],
  "geometry": {"coordinates":[[-121.25914,37.59345],[-121.32207,37.58586],[-121.3483,37.58303],[-121.38537,37.57882],[-121.44358,37.57211],[-121.52392,37.5625],[-121.53844,37.56083],[-121.59789,37.55398],[-121.63846,37.54757],[-121.72147,37.52776],[-121.7676,37.51667],[-121.81499,37.50516],[-121.85826,37.49498],[-121.87136,37.49265],[-121.91,37.49192],[-121.95959,37.49303],[-122.015,37.50343],[-122.05522,37.51653],[-122.09174,37.52886],[-122.10606,37.53334],[-122.15718,37.54903],[-122.18532,37.55818],[-122.23001,37.57322],[-122.24577,37.5783],[-122.27294,37.58652],[-122.31595,37.59879],[-122.32105,37.60025],[-122.3602,37.61533]],"type":"LineString"}
}
