{
  "id": 2014447115,
  "type": "Feature",
  "properties": {
    "geom:area": 0,
    "geom:bbox": "-122.385110,37.627690,-121.242300,38.166170",
    "geom:latitude": 37.99017486604147,
    "geom:longitude": -121.93248171528994,
    "src:alt_label": "swim-takeoff",
    "src:geom": "swim",
    "swim:elevations": [
      213,
      643,
      913,
      1175,
      1647,
      2206,
      2496,
      3142,
      3647,
      3815,
      4151,
      4478,
      4835,
      5557,
      5832,
      6119,
      6381,
      6751,
      7062,
      7390,
      7754,
      8134,
      8555,
      8815,
      9029,
      9289,
      9498,
      9691,
      9802,
      9911
    ],
    "swim:geom": "takeoff",
    "swim:timestamps": [
      1767247961,
      1767248003,
      1767248027,
      1767248043,
      1767248087,
      1767248121,
      1767248141,
      1767248174,
      1767248207,
      1767248220,
      1767248243,
      1767248261,
      1767248282,
      1767248328,
      1767248346,
      1767248367,
      1767248388,
      1767248418,
      1767248445,
      1767248472,
      1767248505,
      1767248538,
      1767248577,
      1767248605,
      1767248632,
      1767248668,
      1767248695,
      1767248723,
      1767248742,
      1767248763
    ],
    "wof:geomhash": "59eb023669c5d0311bc6c7377ff8da48",
    "wof:id": 2014447115,
    "wof:repo": "sfomuseum-data-flights-2025-12"
  },
  "bbox": [
    -122.38511,
    37.62769,
    -121.2423,
    38.16617
  ],
  "geometry": {"coordinates":[[-122.367,37.62769],[-122.34021,37.65391],[-122.31937,37.67237],[-122.31247,37.69031],[-122.33342,37.73968],[-122.35639,37.7832],[-122.36951,37.81021],[-122.38511,37.85668],[-122.38128,37.9057],[-122.37084,37.92305],[-122.33798,37.94711],[-122.30544,37.95617],[-122.26655,37.96431],[-122.17884,37.98223],[-122.14417,37.98913],[-122.10318,37.99721],[-122.06165,38.00549],[-122.00274,38.01735],[-121.9476,38.02839],[-121.89187,38.03941],[-121.82295,38.0529],[-121.7531,38.06673],[-121.66811,38.0836],[-121.60744,38.09533],[-121.54855,38.10699],[-121.46685,38.12277],[-121.40413,38.13497],[-121.33883,38.14776],[-121.29322,38.15656],[-121.2423,38.16617]],"type":"LineString"}
}
