{
  "id": 2014426497,
  "type": "Feature",
  "properties": {
    "geom:area": 0,
    "geom:bbox": "-122.360140,37.494950,-121.255140,37.639670",
    "geom:latitude": 37.56245258564378,
    "geom:longitude": -121.81101463073628,
    "src:alt_label": "swim-approach",
    "src:geom": "swim",
    "swim:elevations": [
      4405,
      4254,
      4236,
      4030,
      3892,
      3751,
      3624,
      3532,
      3379,
      3353,
      3353,
      3311,
      3148,
      3048,
      3024,
      2925,
      2687,
      2586,
      2355,
      2164,
      2022,
      1828,
      1824,
      1783,
      1478,
      1180,
      1020,
      1005,
      915,
      729,
      623,
      547,
      347,
      273,
      66,
      0
    ],
    "swim:geom": "approach",
    "swim:timestamps": [
      1766998837,
      1766998858,
      1766998862,
      1766998896,
      1766998941,
      1766998972,
      1766999000,
      1766999018,
      1766999048,
      1766999084,
      1766999090,
      1766999110,
      1766999137,
      1766999179,
      1766999211,
      1766999232,
      1766999270,
      1766999292,
      1766999324,
      1766999352,
      1766999372,
      1766999409,
      1766999428,
      1766999440,
      1766999470,
      1766999515,
      1766999548,
      1766999553,
      1766999581,
      1766999637,
      1766999655,
      1766999671,
      1766999715,
      1766999737,
      1766999787,
      1766999798
    ],
    "wof:geomhash": "cb685d801ac4b6e7f5f15c195e6e1262",
    "wof:id": 2014426497,
    "wof:repo": "sfomuseum-data-flights-2025-12"
  },
  "bbox": [
    -122.36014,
    37.49495,
    -121.25514,
    37.63967
  ],
  "geometry": {"coordinates":[[-121.25514,37.59363],[-121.29696,37.58826],[-121.30306,37.58756],[-121.37095,37.58017],[-121.45118,37.57098],[-121.50195,37.56507],[-121.54564,37.56],[-121.57391,37.55664],[-121.621,37.551],[-121.67108,37.56372],[-121.67711,37.56905],[-121.69576,37.58768],[-121.71985,37.61276],[-121.76851,37.63967],[-121.80922,37.62159],[-121.81738,37.59848],[-121.8233,37.5543],[-121.8272,37.52992],[-121.85809,37.50529],[-121.89734,37.50163],[-121.92441,37.49939],[-121.97418,37.49495],[-121.99702,37.49792],[-122.00989,37.50208],[-122.04073,37.51218],[-122.0897,37.52743],[-122.12478,37.53809],[-122.12995,37.53987],[-122.15882,37.54964],[-122.21797,37.56902],[-122.23728,37.57527],[-122.25316,37.58008],[-122.29219,37.59202],[-122.30999,37.59786],[-122.3518,37.61161],[-122.36014,37.61459]],"type":"LineString"}
}
