{
  "id": 2014416397,
  "type": "Feature",
  "properties": {
    "geom:area": 0,
    "geom:bbox": "-122.341810,37.492210,-121.256650,37.607290",
    "geom:latitude": 37.545763637101864,
    "geom:longitude": -121.80367040369043,
    "src:alt_label": "swim-approach",
    "src:geom": "swim",
    "swim:elevations": [
      4516,
      4369,
      4152,
      3881,
      3495,
      3237,
      3187,
      3071,
      2890,
      2702,
      2502,
      2439,
      2302,
      2031,
      1985,
      1722,
      1692,
      1397,
      1283,
      1007,
      971,
      711,
      576,
      452,
      336,
      203,
      102
    ],
    "swim:geom": "approach",
    "swim:timestamps": [
      1766918038,
      1766918056,
      1766918080,
      1766918110,
      1766918153,
      1766918183,
      1766918191,
      1766918234,
      1766918261,
      1766918287,
      1766918326,
      1766918346,
      1766918371,
      1766918423,
      1766918435,
      1766918487,
      1766918491,
      1766918542,
      1766918559,
      1766918608,
      1766918617,
      1766918663,
      1766918695,
      1766918719,
      1766918740,
      1766918777,
      1766918796
    ],
    "wof:geomhash": "24a9fa13e9f34828b9ee1177f8639562",
    "wof:id": 2014416397,
    "wof:repo": "sfomuseum-data-flights-2025-12"
  },
  "bbox": [
    -122.34181,
    37.49221,
    -121.25665,
    37.60729
  ],
  "geometry": {"coordinates":[[-121.25665,37.59374],[-121.29081,37.58907],[-121.33617,37.58402],[-121.39414,37.57765],[-121.47713,37.56813],[-121.53428,37.56152],[-121.54919,37.55987],[-121.62426,37.55062],[-121.66913,37.5403],[-121.70955,37.53066],[-121.77227,37.51531],[-121.80198,37.50811],[-121.83798,37.49989],[-121.91514,37.49221],[-121.93278,37.49261],[-122.00661,37.50064],[-122.01174,37.50243],[-122.07809,37.5239],[-122.09881,37.53071],[-122.15822,37.54985],[-122.16811,37.55295],[-122.21943,37.57027],[-122.25183,37.58052],[-122.27518,37.58719],[-122.29355,37.59252],[-122.32583,37.60199],[-122.34181,37.60729]],"type":"LineString"}
}
