{
  "id": 2014435717,
  "type": "Feature",
  "properties": {
    "geom:area": 0,
    "geom:bbox": "-123.501760,36.967660,-122.068200,37.611990",
    "geom:latitude": 37.29598609778123,
    "geom:longitude": -122.6874642549741,
    "src:alt_label": "swim-approach",
    "src:geom": "swim",
    "swim:elevations": [
      5773,
      5510,
      5399,
      5029,
      4492,
      4267,
      4042,
      3774,
      3533,
      3434,
      3230,
      3189,
      3109,
      3048,
      3048,
      2886,
      2577,
      2437,
      2438,
      2438,
      2438,
      2438,
      2438,
      2438,
      2438,
      2438,
      2404,
      2393,
      2165,
      2060,
      1914,
      1593,
      1522,
      1442,
      1274,
      1183,
      983,
      966,
      704,
      519,
      314,
      243,
      186,
      121,
      49
    ],
    "swim:geom": "approach",
    "swim:timestamps": [
      1767161845,
      1767161872,
      1767161881,
      1767161917,
      1767161965,
      1767161986,
      1767162007,
      1767162034,
      1767162056,
      1767162065,
      1767162114,
      1767162129,
      1767162161,
      1767162204,
      1767162227,
      1767162253,
      1767162292,
      1767162320,
      1767162355,
      1767162380,
      1767162404,
      1767162416,
      1767162446,
      1767162477,
      1767162507,
      1767162519,
      1767162568,
      1767162572,
      1767162607,
      1767162631,
      1767162660,
      1767162716,
      1767162733,
      1767162754,
      1767162808,
      1767162829,
      1767162869,
      1767162875,
      1767162917,
      1767162945,
      1767162988,
      1767163009,
      1767163020,
      1767163039,
      1767163057
    ],
    "wof:geomhash": "98dd03a8088bbf3227e3b3882c1e5050",
    "wof:id": 2014435717,
    "wof:repo": "sfomuseum-data-flights-2025-12"
  },
  "bbox": [
    -123.50176,
    36.96766,
    -122.0682,
    37.61199
  ],
  "geometry": {"coordinates":[[-123.50176,36.96766],[-123.44671,36.99398],[-123.42863,37.0026],[-123.35511,37.03489],[-123.25943,37.07851],[-123.21835,37.09718],[-123.17773,37.11563],[-123.12612,37.13897],[-123.08514,37.15744],[-123.06814,37.16515],[-122.97954,37.20526],[-122.95428,37.21676],[-122.90296,37.23998],[-122.83803,37.26365],[-122.80075,37.27226],[-122.75976,37.28186],[-122.69666,37.29648],[-122.65259,37.30687],[-122.59635,37.32004],[-122.55728,37.32906],[-122.51957,37.33773],[-122.50033,37.34218],[-122.45177,37.35342],[-122.40206,37.36483],[-122.35462,37.37571],[-122.33657,37.37987],[-122.26618,37.39602],[-122.26202,37.39698],[-122.21432,37.40786],[-122.18268,37.41508],[-122.14548,37.42352],[-122.07678,37.44399],[-122.0682,37.46018],[-122.07624,37.48058],[-122.12534,37.51594],[-122.14667,37.52497],[-122.18784,37.54136],[-122.19375,37.54412],[-122.23522,37.56265],[-122.2641,37.57426],[-122.30144,37.58988],[-122.31738,37.59676],[-122.32502,37.60007],[-122.33998,37.60634],[-122.3534,37.61199]],"type":"LineString"}
}
