{
  "id": 2014430863,
  "type": "Feature",
  "properties": {
    "geom:area": 0,
    "geom:bbox": "-122.363220,37.633470,-121.323160,38.139200",
    "geom:latitude": 37.953119777766595,
    "geom:longitude": -121.89243018802324,
    "src:alt_label": "swim-takeoff",
    "src:geom": "swim",
    "swim:elevations": [
      152,
      757,
      819,
      1038,
      1206,
      1453,
      2071,
      2305,
      2827,
      3057,
      3541,
      3695,
      3748,
      3942,
      4060,
      4278,
      4556,
      4794,
      4928,
      5372,
      5459,
      5730,
      5872,
      6265,
      6541,
      6593
    ],
    "swim:geom": "takeoff",
    "swim:timestamps": [
      1767016940,
      1767016977,
      1767016991,
      1767017038,
      1767017065,
      1767017087,
      1767017128,
      1767017147,
      1767017178,
      1767017199,
      1767017248,
      1767017277,
      1767017288,
      1767017331,
      1767017348,
      1767017372,
      1767017402,
      1767017421,
      1767017435,
      1767017489,
      1767017507,
      1767017544,
      1767017561,
      1767017604,
      1767017635,
      1767017643
    ],
    "wof:geomhash": "4059816ea060162e6ce94484874afbd3",
    "wof:id": 2014430863,
    "wof:repo": "sfomuseum-data-flights-2025-12"
  },
  "bbox": [
    -122.36322,
    37.63347,
    -121.32316,
    38.1392
  ],
  "geometry": {"coordinates":[[-122.36322,37.63347],[-122.33689,37.65254],[-122.3254,37.65834],[-122.27958,37.68306],[-122.24731,37.70097],[-122.22099,37.71868],[-122.19878,37.76834],[-122.1911,37.79084],[-122.17801,37.83035],[-122.17049,37.85578],[-122.15243,37.92013],[-122.12427,37.95203],[-122.10437,37.95671],[-122.02247,37.97285],[-121.98659,37.98146],[-121.93753,37.99353],[-121.8747,38.00887],[-121.83203,38.01918],[-121.80254,38.02621],[-121.68334,38.0545],[-121.64227,38.06426],[-121.55545,38.08477],[-121.51628,38.09398],[-121.41469,38.11786],[-121.34152,38.1349],[-121.32316,38.1392]],"type":"LineString"}
}
