{
  "id": 2014412131,
  "type": "Feature",
  "properties": {
    "geom:area": 0,
    "geom:bbox": "-122.367470,37.626890,-121.262780,38.263480",
    "geom:latitude": 37.97955864973633,
    "geom:longitude": -121.83698985800338,
    "src:alt_label": "swim-takeoff",
    "src:geom": "swim",
    "swim:elevations": [
      213,
      506,
      754,
      917,
      1072,
      1408,
      1620,
      1998,
      2619,
      3081,
      3393,
      3484,
      3842,
      4348,
      4574,
      5039,
      5489,
      5724,
      5814,
      6255,
      6538,
      6615,
      7096,
      7276,
      7347,
      7551,
      7610,
      7620,
      7620,
      7620
    ],
    "swim:geom": "takeoff",
    "swim:timestamps": [
      1766863548,
      1766863564,
      1766863588,
      1766863600,
      1766863612,
      1766863646,
      1766863664,
      1766863691,
      1766863731,
      1766863761,
      1766863796,
      1766863809,
      1766863836,
      1766863877,
      1766863895,
      1766863933,
      1766863974,
      1766863990,
      1766863997,
      1766864031,
      1766864065,
      1766864072,
      1766864125,
      1766864147,
      1766864156,
      1766864183,
      1766864197,
      1766864240,
      1766864264,
      1766864287
    ],
    "wof:geomhash": "4925004a5c4259e3034eab5c27101ce3",
    "wof:id": 2014412131,
    "wof:repo": "sfomuseum-data-flights-2025-12"
  },
  "bbox": [
    -122.36747,
    37.62689,
    -121.26278,
    38.26348
  ],
  "geometry": {"coordinates":[[-122.36747,37.62689],[-122.35786,37.63631],[-122.33948,37.6478],[-122.32947,37.65396],[-122.31876,37.66036],[-122.28569,37.67982],[-122.26432,37.69189],[-122.22974,37.7095],[-122.18928,37.74606],[-122.16076,37.77724],[-122.1257,37.8167],[-122.11227,37.83182],[-122.08148,37.86496],[-122.02349,37.90995],[-121.99462,37.92968],[-121.93639,37.96909],[-121.86279,38.00683],[-121.83309,38.01934],[-121.82014,38.02484],[-121.75817,38.05199],[-121.69626,38.07867],[-121.68201,38.08445],[-121.58227,38.12716],[-121.54048,38.14502],[-121.52339,38.15241],[-121.47232,38.17444],[-121.44558,38.18585],[-121.35776,38.2232],[-121.31,38.24346],[-121.26278,38.26348]],"type":"LineString"}
}
