{
  "id": 2014434843,
  "type": "Feature",
  "properties": {
    "geom:area": 0,
    "geom:bbox": "-122.354340,37.492750,-121.248160,37.612350",
    "geom:latitude": 37.54661052403664,
    "geom:longitude": -121.80609950497677,
    "src:alt_label": "swim-approach",
    "src:geom": "swim",
    "swim:elevations": [
      4498,
      4186,
      3967,
      3779,
      3569,
      3317,
      3047,
      2983,
      2628,
      2531,
      2435,
      2275,
      2228,
      1949,
      1884,
      1711,
      1411,
      1345,
      1206,
      958,
      827,
      682,
      498,
      334,
      181,
      110,
      38
    ],
    "swim:geom": "approach",
    "swim:timestamps": [
      1767103493,
      1767103527,
      1767103551,
      1767103571,
      1767103594,
      1767103622,
      1767103677,
      1767103691,
      1767103737,
      1767103751,
      1767103784,
      1767103819,
      1767103834,
      1767103878,
      1767103900,
      1767103931,
      1767103978,
      1767103986,
      1767104010,
      1767104049,
      1767104074,
      1767104103,
      1767104149,
      1767104182,
      1767104217,
      1767104232,
      1767104253
    ],
    "wof:geomhash": "d9b5b30f36ee2f2c0727d0c50184cac6",
    "wof:id": 2014434843,
    "wof:repo": "sfomuseum-data-flights-2025-12"
  },
  "bbox": [
    -122.35434,
    37.49275,
    -121.24816,
    37.61235
  ],
  "geometry": {"coordinates":[[-121.24816,37.59449],[-121.31857,37.58578],[-121.36658,37.5806],[-121.40737,37.57621],[-121.4536,37.57092],[-121.51073,37.56422],[-121.61484,37.55203],[-121.63855,37.54763],[-121.71537,37.52935],[-121.73902,37.52364],[-121.7927,37.51052],[-121.84618,37.49774],[-121.8687,37.49298],[-121.93529,37.49275],[-121.96752,37.49351],[-122.00939,37.50126],[-122.07378,37.52228],[-122.08545,37.52617],[-122.11884,37.53712],[-122.16618,37.55289],[-122.19227,37.56073],[-122.22224,37.57007],[-122.26614,37.58455],[-122.29554,37.59305],[-122.32428,37.60155],[-122.33768,37.60556],[-122.35434,37.61235]],"type":"LineString"}
}
