{
  "id": 2014447085,
  "type": "Feature",
  "properties": {
    "geom:area": 0,
    "geom:bbox": "-122.547970,36.729360,-122.229320,37.705920",
    "geom:latitude": 37.22892841344255,
    "geom:longitude": -122.44269601315557,
    "src:alt_label": "swim-takeoff",
    "src:geom": "swim",
    "swim:elevations": [
      303,
      521,
      690,
      1130,
      1418,
      1851,
      2324,
      3099,
      3290,
      3559,
      3725,
      4083,
      4862,
      5368,
      5601,
      6203,
      6351,
      6693,
      6995,
      7405,
      7423,
      7626,
      7643,
      7892,
      8415,
      8651
    ],
    "swim:geom": "takeoff",
    "swim:timestamps": [
      1767168648,
      1767168672,
      1767168695,
      1767168730,
      1767168760,
      1767168798,
      1767168823,
      1767168862,
      1767168875,
      1767168921,
      1767168933,
      1767168960,
      1767169009,
      1767169046,
      1767169067,
      1767169107,
      1767169117,
      1767169147,
      1767169178,
      1767169227,
      1767169233,
      1767169257,
      1767169260,
      1767169293,
      1767169345,
      1767169365
    ],
    "wof:geomhash": "c6b8097bf93c271b9acb9d23329e692a",
    "wof:id": 2014447085,
    "wof:repo": "sfomuseum-data-flights-2025-12"
  },
  "bbox": [
    -122.54797,
    36.72936,
    -122.22932,
    37.70592
  ],
  "geometry": {"coordinates":[[-122.36591,37.63558],[-122.36503,37.65324],[-122.36276,37.6743],[-122.37824,37.70592],[-122.41754,37.7031],[-122.43505,37.66055],[-122.43969,37.62952],[-122.4513,37.58196],[-122.45539,37.56582],[-122.47223,37.49884],[-122.47663,37.47896],[-122.48488,37.43364],[-122.5009,37.34833],[-122.51385,37.27957],[-122.52119,37.24039],[-122.53497,37.16575],[-122.53858,37.14605],[-122.54797,37.08878],[-122.52671,37.03318],[-122.45174,36.95752],[-122.44238,36.94799],[-122.40457,36.9093],[-122.39984,36.90443],[-122.34642,36.84961],[-122.26297,36.76384],[-122.22932,36.72936]],"type":"LineString"}
}
