{
  "id": 2014435625,
  "type": "Feature",
  "properties": {
    "geom:area": 0,
    "geom:bbox": "-122.653090,37.433200,-122.118060,38.513830",
    "geom:latitude": 37.85195193217267,
    "geom:longitude": -122.40260370372386,
    "src:alt_label": "swim-approach",
    "src:geom": "swim",
    "swim:elevations": [
      6697,
      6612,
      6497,
      6369,
      6228,
      6189,
      6116,
      6006,
      5964,
      5536,
      5402,
      5055,
      4704,
      4411,
      4366,
      4230,
      4017,
      3812,
      3666,
      3445,
      3382,
      3353,
      3353,
      3353,
      3353,
      3318,
      3051,
      2911,
      2712,
      2175,
      1885,
      1490,
      1341,
      1249,
      1219,
      1074,
      1035,
      835,
      669,
      516,
      409,
      317,
      150,
      30,
      41
    ],
    "swim:geom": "approach",
    "swim:timestamps": [
      1767086725,
      1767086745,
      1767086773,
      1767086815,
      1767086848,
      1767086861,
      1767086884,
      1767086908,
      1767086912,
      1767086954,
      1767086978,
      1767087015,
      1767087053,
      1767087081,
      1767087087,
      1767087115,
      1767087140,
      1767087164,
      1767087183,
      1767087220,
      1767087244,
      1767087276,
      1767087285,
      1767087310,
      1767087357,
      1767087374,
      1767087414,
      1767087434,
      1767087457,
      1767087507,
      1767087531,
      1767087567,
      1767087594,
      1767087614,
      1767087650,
      1767087682,
      1767087695,
      1767087747,
      1767087778,
      1767087808,
      1767087834,
      1767087853,
      1767087894,
      1767087925,
      1767087931
    ],
    "wof:geomhash": "f5e54ee0d3e244458a92adb5f2ffc6dc",
    "wof:id": 2014435625,
    "wof:repo": "sfomuseum-data-flights-2025-12"
  },
  "bbox": [
    -122.65309,
    37.4332,
    -122.11806,
    38.51383
  ],
  "geometry": {"coordinates":[[-122.29883,38.51383],[-122.31959,38.4799],[-122.34842,38.43275],[-122.39094,38.36338],[-122.4247,38.3082],[-122.43711,38.28788],[-122.45995,38.25054],[-122.48347,38.21194],[-122.48823,38.20416],[-122.52762,38.1394],[-122.55116,38.10069],[-122.58506,38.04477],[-122.61949,37.98791],[-122.64513,37.94538],[-122.65009,37.93636],[-122.65309,37.89251],[-122.63131,37.85983],[-122.60301,37.83252],[-122.57917,37.81032],[-122.53506,37.76934],[-122.50835,37.74421],[-122.47467,37.7124],[-122.46615,37.70436],[-122.43991,37.67979],[-122.39004,37.63274],[-122.37288,37.61651],[-122.34384,37.57027],[-122.33131,37.54633],[-122.31633,37.52044],[-122.26579,37.47475],[-122.23418,37.45927],[-122.18589,37.43516],[-122.14567,37.4332],[-122.12362,37.44822],[-122.11806,37.4846],[-122.13517,37.51367],[-122.14539,37.52147],[-122.19735,37.54393],[-122.22977,37.55766],[-122.26042,37.57053],[-122.28459,37.58069],[-122.30003,37.58723],[-122.33179,37.60055],[-122.35564,37.61052],[-122.36021,37.61239]],"type":"LineString"}
}
