{
  "id": 2014432489,
  "type": "Feature",
  "properties": {
    "geom:area": 0,
    "geom:bbox": "-122.348890,37.492020,-121.264390,37.610070",
    "geom:latitude": 37.54556992561649,
    "geom:longitude": -121.8112741571243,
    "src:alt_label": "swim-approach",
    "src:geom": "swim",
    "swim:elevations": [
      4679,
      4479,
      4184,
      4114,
      3962,
      3749,
      3678,
      3285,
      3164,
      2948,
      2767,
      2602,
      2480,
      2374,
      2218,
      2015,
      1918,
      1758,
      1529,
      1314,
      1154,
      956,
      797,
      696,
      546,
      351,
      277,
      129,
      59
    ],
    "swim:geom": "approach",
    "swim:timestamps": [
      1767131125,
      1767131149,
      1767131188,
      1767131197,
      1767131216,
      1767131246,
      1767131255,
      1767131308,
      1767131325,
      1767131355,
      1767131381,
      1767131403,
      1767131425,
      1767131440,
      1767131471,
      1767131510,
      1767131534,
      1767131567,
      1767131606,
      1767131632,
      1767131660,
      1767131695,
      1767131726,
      1767131746,
      1767131776,
      1767131817,
      1767131832,
      1767131867,
      1767131882
    ],
    "wof:geomhash": "e7e62d7b5b91e45b6bcab7beec2f3288",
    "wof:id": 2014432489,
    "wof:repo": "sfomuseum-data-flights-2025-12"
  },
  "bbox": [
    -122.34889,
    37.49202,
    -121.26439,
    37.61007
  ],
  "geometry": {"coordinates":[[-121.26439,37.59249],[-121.31235,37.58656],[-121.38711,37.5786],[-121.40414,37.57666],[-121.43832,37.57265],[-121.49346,37.56615],[-121.5098,37.5642],[-121.60397,37.55313],[-121.63333,37.54875],[-121.68184,37.53709],[-121.72385,37.52709],[-121.75868,37.51888],[-121.79201,37.51084],[-121.81507,37.50525],[-121.85867,37.49472],[-121.9168,37.49202],[-121.95229,37.4931],[-122.00143,37.49874],[-122.05607,37.51656],[-122.09171,37.52792],[-122.12684,37.53956],[-122.16701,37.55296],[-122.20061,37.56349],[-122.22156,37.57025],[-122.25372,37.58064],[-122.29427,37.59257],[-122.30752,37.5967],[-122.33666,37.60554],[-122.34889,37.61007]],"type":"LineString"}
}
