{
  "id": 2014418947,
  "type": "Feature",
  "properties": {
    "geom:area": 0,
    "geom:bbox": "-122.219740,36.738480,-121.269660,37.464900",
    "geom:latitude": 37.10273902430445,
    "geom:longitude": -121.74389806719094,
    "src:alt_label": "swim-takeoff",
    "src:geom": "swim",
    "swim:elevations": [
      3652,
      3830,
      4309,
      4331,
      4695,
      4876,
      5213,
      5351,
      5740,
      5956,
      6007,
      6143,
      6304,
      6443,
      6554,
      6690,
      7041,
      7116
    ],
    "swim:geom": "takeoff",
    "swim:timestamps": [
      1766942469,
      1766942510,
      1766942548,
      1766942551,
      1766942605,
      1766942633,
      1766942661,
      1766942671,
      1766942722,
      1766942756,
      1766942771,
      1766942817,
      1766942848,
      1766942872,
      1766942899,
      1766942923,
      1766942965,
      1766942971
    ],
    "wof:geomhash": "5e2e57e41153b968c556c12eb05fd25b",
    "wof:id": 2014418947,
    "wof:repo": "sfomuseum-data-flights-2025-12"
  },
  "bbox": [
    -122.21974,
    36.73848,
    -121.26966,
    37.4649
  ],
  "geometry": {"coordinates":[[-122.21974,37.4649],[-122.14827,37.41095],[-122.08034,37.35944],[-122.07505,37.35543],[-121.97928,37.28314],[-121.92686,37.24312],[-121.87347,37.20248],[-121.85613,37.18924],[-121.7624,37.11774],[-121.69848,37.06895],[-121.66931,37.04662],[-121.58081,36.97872],[-121.51932,36.93124],[-121.47094,36.89389],[-121.41524,36.85085],[-121.3666,36.81352],[-121.2831,36.74886],[-121.26966,36.73848]],"type":"LineString"}
}
