{
  "id": 2014443183,
  "type": "Feature",
  "properties": {
    "geom:area": 0,
    "geom:bbox": "-122.362730,37.473420,-121.248230,37.616030",
    "geom:latitude": 37.545230845818494,
    "geom:longitude": -121.83041645760031,
    "src:alt_label": "swim-approach",
    "src:geom": "swim",
    "swim:elevations": [
      4666,
      4336,
      4299,
      3962,
      3900,
      3837,
      3716,
      3639,
      3496,
      3364,
      3207,
      3098,
      2886,
      2747,
      2762,
      2743,
      2743,
      2743,
      2743,
      2560,
      2417,
      2282,
      2198,
      2131,
      2070,
      1818,
      1709,
      1663,
      1590,
      1430,
      1324,
      1269,
      862,
      685,
      578,
      393,
      172,
      145,
      42,
      0
    ],
    "swim:geom": "approach",
    "swim:timestamps": [
      1767172906,
      1767172945,
      1767172950,
      1767172995,
      1767173029,
      1767173063,
      1767173097,
      1767173112,
      1767173142,
      1767173169,
      1767173205,
      1767173222,
      1767173265,
      1767173300,
      1767173333,
      1767173354,
      1767173390,
      1767173426,
      1767173432,
      1767173471,
      1767173501,
      1767173526,
      1767173540,
      1767173555,
      1767173594,
      1767173636,
      1767173657,
      1767173666,
      1767173678,
      1767173711,
      1767173727,
      1767173734,
      1767173786,
      1767173817,
      1767173831,
      1767173865,
      1767173907,
      1767173910,
      1767173936,
      1767173948
    ],
    "wof:geomhash": "43fc8a58de4d81d0a9345385bb8e12f6",
    "wof:id": 2014443183,
    "wof:repo": "sfomuseum-data-flights-2025-12"
  },
  "bbox": [
    -122.36273,
    37.47342,
    -121.24823,
    37.61603
  ],
  "geometry": {"coordinates":[[-121.24823,37.48205],[-121.32024,37.49507],[-121.33058,37.49692],[-121.41463,37.51201],[-121.47477,37.52333],[-121.53055,37.53359],[-121.58254,37.54313],[-121.60517,37.54706],[-121.64707,37.56193],[-121.68005,37.58163],[-121.72557,37.60723],[-121.7505,37.60926],[-121.81551,37.60854],[-121.8664,37.60805],[-121.91471,37.60791],[-121.94555,37.60777],[-121.97734,37.58364],[-121.95125,37.5547],[-121.94561,37.5505],[-121.90846,37.52313],[-121.90262,37.49557],[-121.92387,37.47532],[-121.94256,37.47342],[-121.96439,37.47584],[-122.01784,37.48256],[-122.07096,37.49317],[-122.09428,37.50296],[-122.10452,37.50717],[-122.11805,37.51283],[-122.15485,37.52852],[-122.17037,37.53503],[-122.17767,37.53805],[-122.22906,37.55966],[-122.2576,37.57173],[-122.26972,37.57687],[-122.29829,37.58899],[-122.33126,37.60298],[-122.33353,37.60393],[-122.35338,37.61198],[-122.36273,37.61603]],"type":"LineString"}
}
