{
  "id": 2014433761,
  "type": "Feature",
  "properties": {
    "geom:area": 0,
    "geom:bbox": "-122.361270,37.491880,-121.256460,37.615030",
    "geom:latitude": 37.546784666315816,
    "geom:longitude": -121.81370972167082,
    "src:alt_label": "swim-approach",
    "src:geom": "swim",
    "swim:elevations": [
      4526,
      4298,
      4163,
      3735,
      3512,
      3332,
      3101,
      3031,
      2723,
      2662,
      2483,
      2354,
      2141,
      1944,
      1926,
      1669,
      1595,
      1294,
      1076,
      1047,
      944,
      792,
      634,
      461,
      303,
      239,
      40,
      0
    ],
    "swim:geom": "approach",
    "swim:timestamps": [
      1767088946,
      1767088969,
      1767088983,
      1767089028,
      1767089054,
      1767089073,
      1767089120,
      1767089144,
      1767089188,
      1767089197,
      1767089236,
      1767089254,
      1767089289,
      1767089337,
      1767089340,
      1767089389,
      1767089401,
      1767089449,
      1767089486,
      1767089491,
      1767089509,
      1767089533,
      1767089565,
      1767089600,
      1767089632,
      1767089648,
      1767089694,
      1767089703
    ],
    "wof:geomhash": "6a8139fcad38a5c4c4ab9c6eaeb47d06",
    "wof:id": 2014433761,
    "wof:repo": "sfomuseum-data-flights-2025-12"
  },
  "bbox": [
    -122.36127,
    37.49188,
    -121.25646,
    37.61503
  ],
  "geometry": {"coordinates":[[-121.25646,37.59367],[-121.30448,37.58756],[-121.33359,37.58433],[-121.42484,37.57415],[-121.47832,37.56811],[-121.51661,37.56357],[-121.60777,37.55281],[-121.64885,37.54492],[-121.72251,37.52757],[-121.73612,37.52447],[-121.79788,37.5091],[-121.82485,37.50278],[-121.87819,37.49188],[-121.95051,37.49298],[-121.95482,37.4931],[-122.02093,37.50556],[-122.03559,37.51051],[-122.09814,37.53037],[-122.1444,37.54533],[-122.15024,37.54719],[-122.17244,37.55429],[-122.20026,37.56341],[-122.23642,37.57507],[-122.27292,37.5858],[-122.30187,37.59446],[-122.31568,37.59879],[-122.35362,37.61206],[-122.36127,37.61503]],"type":"LineString"}
}
