{
  "id": 2014424375,
  "type": "Feature",
  "properties": {
    "geom:area": 0,
    "geom:bbox": "-122.362000,36.722430,-121.878650,37.613410",
    "geom:latitude": 37.20906602910131,
    "geom:longitude": -122.07099128306824,
    "src:alt_label": "swim-approach",
    "src:geom": "swim",
    "swim:elevations": [
      5415,
      5215,
      4868,
      4604,
      4435,
      4336,
      4037,
      3769,
      3657,
      3443,
      3360,
      3170,
      2917,
      2886,
      2566,
      2473,
      2326,
      2108,
      1890,
      1694,
      1544,
      1221,
      1085,
      942,
      857,
      664,
      521,
      390,
      340,
      186,
      133,
      0
    ],
    "swim:geom": "approach",
    "swim:timestamps": [
      1767043948,
      1767043966,
      1767044000,
      1767044025,
      1767044043,
      1767044053,
      1767044086,
      1767044128,
      1767044146,
      1767044186,
      1767044198,
      1767044238,
      1767044277,
      1767044283,
      1767044334,
      1767044350,
      1767044371,
      1767044405,
      1767044444,
      1767044477,
      1767044499,
      1767044541,
      1767044573,
      1767044597,
      1767044613,
      1767044666,
      1767044696,
      1767044729,
      1767044745,
      1767044781,
      1767044792,
      1767044826
    ],
    "wof:geomhash": "b7f74d93bc6514806e50cca3f7728a4a",
    "wof:id": 2014424375,
    "wof:repo": "sfomuseum-data-flights-2025-12"
  },
  "bbox": [
    -122.362,
    36.72243,
    -121.87865,
    37.61341
  ],
  "geometry": {"coordinates":[[-121.87865,36.72243],[-121.89425,36.74989],[-121.91146,36.80383],[-121.92266,36.84322],[-121.93047,36.87145],[-121.93482,36.88716],[-121.94893,36.93826],[-121.97144,37.0003],[-121.98116,37.02559],[-122.00223,37.07826],[-122.008,37.09268],[-122.02708,37.14124],[-122.04439,37.18564],[-122.04714,37.19235],[-122.0699,37.24974],[-122.07665,37.26763],[-122.08509,37.29044],[-122.1001,37.3278],[-122.11595,37.36804],[-122.12791,37.40124],[-122.13536,37.42259],[-122.15038,37.46287],[-122.16677,37.48977],[-122.18282,37.50688],[-122.19289,37.51771],[-122.22769,37.55512],[-122.25577,37.56859],[-122.28379,37.5803],[-122.29734,37.58605],[-122.32579,37.59804],[-122.33449,37.60164],[-122.362,37.61341]],"type":"LineString"}
}
