{
  "id": 2014433297,
  "type": "Feature",
  "properties": {
    "geom:area": 0,
    "geom:bbox": "-122.359190,37.562900,-122.104140,37.680190",
    "geom:latitude": 37.6146727906979,
    "geom:longitude": -122.2245594354904,
    "src:alt_label": "swim-approach",
    "src:geom": "swim",
    "swim:elevations": [
      2864,
      2599,
      2395,
      2171,
      1833,
      1829,
      1680,
      1474,
      1458,
      1255,
      982,
      920,
      697,
      516,
      363,
      250,
      97,
      29,
      164
    ],
    "swim:geom": "approach",
    "swim:timestamps": [
      1767081612,
      1767081634,
      1767081681,
      1767081710,
      1767081747,
      1767081778,
      1767081808,
      1767081838,
      1767081844,
      1767081871,
      1767081898,
      1767081904,
      1767081934,
      1767081967,
      1767082001,
      1767082029,
      1767082068,
      1767082088,
      1767082097
    ],
    "wof:geomhash": "3f0e0e0c0529dd42388d3fa827796bc2",
    "wof:id": 2014433297,
    "wof:repo": "sfomuseum-data-flights-2025-12"
  },
  "bbox": [
    -122.35919,
    37.5629,
    -122.10414,
    37.68019
  ],
  "geometry": {"coordinates":[[-122.34227,37.68019],[-122.3092,37.67234],[-122.24045,37.65626],[-122.20415,37.64768],[-122.15596,37.63514],[-122.1188,37.62452],[-122.10414,37.60096],[-122.12741,37.58335],[-122.13402,37.58165],[-122.16312,37.57501],[-122.19345,37.5689],[-122.19997,37.56762],[-122.23227,37.5629],[-122.26492,37.57476],[-122.29183,37.58608],[-122.31224,37.59473],[-122.34007,37.60627],[-122.35361,37.61195],[-122.35919,37.61462]],"type":"LineString"}
}
