{
  "id": 2014417951,
  "type": "Feature",
  "properties": {
    "geom:area": 0,
    "geom:bbox": "-122.353420,37.491260,-121.289290,37.656850",
    "geom:latitude": 37.56333686054079,
    "geom:longitude": -121.82610734651674,
    "src:alt_label": "swim-approach",
    "src:geom": "swim",
    "swim:elevations": [
      4349,
      4086,
      3940,
      3778,
      3628,
      3502,
      3298,
      3198,
      3050,
      3048,
      3048,
      3048,
      3048,
      3048,
      3048,
      3048,
      3048,
      3042,
      2893,
      2718,
      2446,
      2432,
      2292,
      2155,
      2129,
      2028,
      1920,
      1856,
      1829,
      1521,
      1464,
      1302,
      1119,
      999,
      895,
      820,
      631,
      514,
      398,
      275,
      209,
      45
    ],
    "swim:geom": "approach",
    "swim:timestamps": [
      1766941218,
      1766941247,
      1766941263,
      1766941295,
      1766941346,
      1766941371,
      1766941404,
      1766941418,
      1766941446,
      1766941471,
      1766941493,
      1766941527,
      1766941556,
      1766941586,
      1766941608,
      1766941641,
      1766941677,
      1766941680,
      1766941701,
      1766941734,
      1766941767,
      1766941785,
      1766941809,
      1766941833,
      1766941871,
      1766941885,
      1766941905,
      1766941924,
      1766941965,
      1766942005,
      1766942013,
      1766942050,
      1766942096,
      1766942124,
      1766942150,
      1766942168,
      1766942217,
      1766942242,
      1766942270,
      1766942301,
      1766942316,
      1766942356
    ],
    "wof:geomhash": "b4dfcc8fe1210950c8a8540fecd4970c",
    "wof:id": 2014417951,
    "wof:repo": "sfomuseum-data-flights-2025-12"
  },
  "bbox": [
    -122.35342,
    37.49126,
    -121.28929,
    37.65685
  ],
  "geometry": {"coordinates":[[-121.28929,37.58938],[-121.34682,37.583],[-121.37969,37.57938],[-121.44213,37.57208],[-121.52803,37.56211],[-121.56555,37.55801],[-121.6148,37.55193],[-121.63477,37.54912],[-121.67129,37.55919],[-121.69824,37.57707],[-121.72213,37.59295],[-121.75914,37.61743],[-121.79034,37.63789],[-121.8243,37.65685],[-121.85558,37.65477],[-121.88092,37.62334],[-121.85528,37.58844],[-121.85187,37.58636],[-121.82849,37.57204],[-121.79417,37.54734],[-121.79638,37.5109],[-121.81697,37.49885],[-121.84791,37.49447],[-121.87787,37.49126],[-121.92115,37.49189],[-121.93582,37.49229],[-121.95798,37.4931],[-121.97855,37.49395],[-122.01891,37.50476],[-122.05529,37.51653],[-122.06286,37.51892],[-122.09646,37.52995],[-122.1362,37.54281],[-122.15969,37.55034],[-122.18098,37.55754],[-122.19637,37.56228],[-122.23806,37.57559],[-122.25861,37.5824],[-122.28314,37.58942],[-122.3088,37.59702],[-122.32104,37.60071],[-122.35342,37.61197]],"type":"LineString"}
}
