{
  "id": 2014414631,
  "type": "Feature",
  "properties": {
    "geom:area": 0,
    "geom:bbox": "-122.670990,37.445180,-122.184620,38.513970",
    "geom:latitude": 37.85905704093497,
    "geom:longitude": -122.48793779833802,
    "src:alt_label": "swim-approach",
    "src:geom": "swim",
    "swim:elevations": [
      7498,
      7344,
      7105,
      6810,
      6480,
      5921,
      5832,
      5435,
      5331,
      5061,
      4603,
      4384,
      4107,
      3910,
      3837,
      3585,
      3419,
      3355,
      3353,
      3353,
      3353,
      3335,
      3198,
      3119,
      3021,
      2748,
      2167,
      1889,
      1554,
      1472,
      1325,
      1032,
      942,
      674,
      517,
      518,
      518,
      427,
      329,
      271,
      92,
      0
    ],
    "swim:geom": "approach",
    "swim:timestamps": [
      1766950712,
      1766950729,
      1766950750,
      1766950779,
      1766950808,
      1766950858,
      1766950867,
      1766950903,
      1766950918,
      1766950939,
      1766950975,
      1766950990,
      1766951036,
      1766951058,
      1766951068,
      1766951097,
      1766951121,
      1766951142,
      1766951166,
      1766951218,
      1766951240,
      1766951264,
      1766951285,
      1766951300,
      1766951313,
      1766951344,
      1766951395,
      1766951421,
      1766951455,
      1766951464,
      1766951481,
      1766951518,
      1766951542,
      1766951574,
      1766951607,
      1766951610,
      1766951635,
      1766951665,
      1766951691,
      1766951703,
      1766951748,
      1766951773
    ],
    "wof:geomhash": "4202ed8e3ceffad77e8359c88b1d6aa2",
    "wof:id": 2014414631,
    "wof:repo": "sfomuseum-data-flights-2025-12"
  },
  "bbox": [
    -122.67099,
    37.44518,
    -122.18462,
    38.51397
  ],
  "geometry": {"coordinates":[[-122.636,38.51397],[-122.63833,38.47636],[-122.64115,38.42957],[-122.64509,38.3664],[-122.64917,38.30271],[-122.65558,38.19825],[-122.65662,38.17977],[-122.66099,38.10757],[-122.66292,38.07642],[-122.6653,38.03357],[-122.66928,37.96231],[-122.67099,37.93204],[-122.6312,37.85995],[-122.60162,37.83137],[-122.58982,37.82023],[-122.55301,37.78596],[-122.52385,37.75844],[-122.4995,37.73545],[-122.47267,37.71028],[-122.41542,37.65631],[-122.39214,37.63438],[-122.36978,37.61328],[-122.35028,37.59514],[-122.33902,37.58084],[-122.33202,37.56657],[-122.31555,37.53395],[-122.2742,37.48968],[-122.24932,37.4683],[-122.21442,37.44557],[-122.20316,37.44518],[-122.18573,37.45237],[-122.18462,37.48576],[-122.19461,37.50528],[-122.20779,37.52975],[-122.22355,37.55286],[-122.22585,37.55451],[-122.24783,37.56542],[-122.27581,37.577],[-122.29717,37.58604],[-122.30684,37.59007],[-122.342,37.60484],[-122.3621,37.61314]],"type":"LineString"}
}
