{
  "id": 2014425039,
  "type": "Feature",
  "properties": {
    "geom:area": 0,
    "geom:bbox": "-122.358450,37.491400,-121.259950,37.614240",
    "geom:latitude": 37.546357806038344,
    "geom:longitude": -121.81408375598913,
    "src:alt_label": "swim-approach",
    "src:geom": "swim",
    "swim:elevations": [
      4759,
      4639,
      4168,
      3974,
      3657,
      3636,
      3458,
      3364,
      3079,
      2718,
      2547,
      2404,
      2118,
      2041,
      1796,
      1753,
      1335,
      1180,
      975,
      865,
      698,
      549,
      549,
      497,
      438,
      304,
      219,
      0
    ],
    "swim:geom": "approach",
    "swim:timestamps": [
      1767004308,
      1767004321,
      1767004373,
      1767004396,
      1767004436,
      1767004440,
      1767004460,
      1767004474,
      1767004508,
      1767004553,
      1767004580,
      1767004600,
      1767004641,
      1767004654,
      1767004707,
      1767004715,
      1767004765,
      1767004787,
      1767004821,
      1767004845,
      1767004875,
      1767004909,
      1767004932,
      1767004943,
      1767004957,
      1767004988,
      1767005012,
      1767005064
    ],
    "wof:geomhash": "7667c15ff2e957db8af76545bf55b453",
    "wof:id": 2014425039,
    "wof:repo": "sfomuseum-data-flights-2025-12"
  },
  "bbox": [
    -122.35845,
    37.4914,
    -121.25995,
    37.61424
  ],
  "geometry": {"coordinates":[[-121.25995,37.59307],[-121.28957,37.58921],[-121.40386,37.57649],[-121.45208,37.57105],[-121.53252,37.56149],[-121.54038,37.56055],[-121.57873,37.55596],[-121.60446,37.55306],[-121.66308,37.54144],[-121.73753,37.52368],[-121.78258,37.513],[-121.81477,37.50521],[-121.88015,37.4914],[-121.9021,37.49181],[-121.9864,37.4954],[-121.99764,37.49853],[-122.06386,37.51965],[-122.09109,37.52822],[-122.13187,37.54136],[-122.15848,37.54991],[-122.19084,37.56028],[-122.22589,37.57187],[-122.24932,37.57946],[-122.2602,37.58296],[-122.27417,37.58699],[-122.2998,37.59443],[-122.31974,37.6003],[-122.35845,37.61424]],"type":"LineString"}
}
