{
  "id": 2014426597,
  "type": "Feature",
  "properties": {
    "geom:area": 0,
    "geom:bbox": "-122.663300,37.419850,-122.121510,38.501500",
    "geom:latitude": 37.83033226303247,
    "geom:longitude": -122.43549975418597,
    "src:alt_label": "swim-approach",
    "src:geom": "swim",
    "swim:elevations": [
      7742,
      7412,
      7105,
      6807,
      6430,
      6170,
      5800,
      5537,
      5295,
      5129,
      4845,
      4521,
      4432,
      4164,
      3878,
      3674,
      3570,
      3443,
      3383,
      3353,
      3353,
      3353,
      3353,
      3096,
      2802,
      2649,
      2350,
      2275,
      1984,
      1670,
      1506,
      1246,
      1219,
      1186,
      1130,
      1032,
      822,
      656,
      583,
      417,
      273,
      176,
      55,
      38
    ],
    "swim:geom": "approach",
    "swim:timestamps": [
      1767031197,
      1767031223,
      1767031249,
      1767031273,
      1767031304,
      1767031327,
      1767031364,
      1767031392,
      1767031425,
      1767031443,
      1767031475,
      1767031510,
      1767031519,
      1767031550,
      1767031587,
      1767031610,
      1767031625,
      1767031655,
      1767031684,
      1767031701,
      1767031735,
      1767031760,
      1767031795,
      1767031856,
      1767031888,
      1767031910,
      1767031948,
      1767031955,
      1767031991,
      1767032026,
      1767032048,
      1767032087,
      1767032105,
      1767032143,
      1767032175,
      1767032207,
      1767032243,
      1767032277,
      1767032294,
      1767032331,
      1767032365,
      1767032396,
      1767032428,
      1767032431
    ],
    "wof:geomhash": "89cb40b5fef58ddaf84244740a8a89c5",
    "wof:id": 2014426597,
    "wof:repo": "sfomuseum-data-flights-2025-12"
  },
  "bbox": [
    -122.6633,
    37.41985,
    -122.12151,
    38.5015
  ],
  "geometry": {"coordinates":[[-122.47781,38.5015],[-122.50162,38.452],[-122.51721,38.40208],[-122.53165,38.35583],[-122.54961,38.29826],[-122.56275,38.25573],[-122.58363,38.1879],[-122.59948,38.13775],[-122.61687,38.0808],[-122.62626,38.05037],[-122.64255,37.99782],[-122.66003,37.93994],[-122.6633,37.92551],[-122.64941,37.87954],[-122.6055,37.8371],[-122.5786,37.81139],[-122.56103,37.79478],[-122.52841,37.7635],[-122.49793,37.73445],[-122.47997,37.71768],[-122.44321,37.68336],[-122.41757,37.65905],[-122.38358,37.62659],[-122.34479,37.56805],[-122.32397,37.53555],[-122.31,37.51335],[-122.28687,37.47592],[-122.28272,37.46899],[-122.24795,37.44372],[-122.20257,37.42805],[-122.17452,37.41985],[-122.13696,37.44185],[-122.12787,37.45676],[-122.12151,37.48774],[-122.14156,37.50895],[-122.1668,37.5269],[-122.20041,37.54313],[-122.23291,37.55811],[-122.24913,37.56523],[-122.28194,37.57932],[-122.30805,37.59039],[-122.33022,37.59983],[-122.35239,37.6091],[-122.3549,37.61016]],"type":"LineString"}
}
