{
  "id": 2014446095,
  "type": "Feature",
  "properties": {
    "geom:area": 0,
    "geom:bbox": "-122.365170,37.630190,-121.430200,38.518760",
    "geom:latitude": 38.070050886213,
    "geom:longitude": -121.89518410164551,
    "src:alt_label": "swim-takeoff",
    "src:geom": "swim",
    "swim:elevations": [
      244,
      577,
      789,
      1185,
      1848,
      2196,
      2708,
      3300,
      3495,
      4085,
      4397,
      5026,
      5575,
      5859,
      6273,
      6660,
      6796,
      7352,
      7475,
      7672,
      7926,
      8118,
      8298,
      8694
    ],
    "swim:geom": "takeoff",
    "swim:timestamps": [
      1767189107,
      1767189130,
      1767189153,
      1767189192,
      1767189228,
      1767189247,
      1767189277,
      1767189315,
      1767189342,
      1767189385,
      1767189403,
      1767189439,
      1767189472,
      1767189492,
      1767189527,
      1767189564,
      1767189577,
      1767189624,
      1767189638,
      1767189658,
      1767189681,
      1767189703,
      1767189725,
      1767189771
    ],
    "wof:geomhash": "434bad94b652ad491f97c1cf4555bd15",
    "wof:id": 2014446095,
    "wof:repo": "sfomuseum-data-flights-2025-12"
  },
  "bbox": [
    -122.36517,
    37.63019,
    -121.4302,
    38.51876
  ],
  "geometry": {"coordinates":[[-122.36517,37.63019],[-122.35219,37.64291],[-122.3326,37.65363],[-122.29112,37.67646],[-122.24627,37.70131],[-122.22086,37.71493],[-122.18744,37.74655],[-122.14766,37.79099],[-122.11567,37.82633],[-122.05988,37.88841],[-122.03463,37.91628],[-121.98423,37.97146],[-121.93806,38.02226],[-121.91022,38.05288],[-121.858,38.10974],[-121.80173,38.17096],[-121.78201,38.19247],[-121.70756,38.27368],[-121.68524,38.29785],[-121.65319,38.33272],[-121.61319,38.37401],[-121.57669,38.41352],[-121.53428,38.45085],[-121.4302,38.51876]],"type":"LineString"}
}
