{
  "id": 2014413671,
  "type": "Feature",
  "properties": {
    "geom:area": 0,
    "geom:bbox": "-122.361260,37.635540,-122.131580,38.505650",
    "geom:latitude": 38.03661517052195,
    "geom:longitude": -122.18246233612719,
    "src:alt_label": "swim-takeoff",
    "src:geom": "swim",
    "swim:elevations": [
      317,
      688,
      828,
      1210,
      1403,
      1720,
      1918,
      2756,
      3291,
      3522,
      3924,
      4340,
      4837,
      5402,
      5772,
      5990,
      6274,
      6588,
      6780,
      6860,
      7060,
      7083,
      7318,
      7802,
      7832
    ],
    "swim:geom": "takeoff",
    "swim:timestamps": [
      1766862506,
      1766862535,
      1766862548,
      1766862590,
      1766862612,
      1766862648,
      1766862660,
      1766862711,
      1766862737,
      1766862756,
      1766862804,
      1766862832,
      1766862861,
      1766862897,
      1766862921,
      1766862940,
      1766862969,
      1766862998,
      1766863016,
      1766863024,
      1766863048,
      1766863051,
      1766863084,
      1766863136,
      1766863152
    ],
    "wof:geomhash": "940af3914f366a60a7553c012492a987",
    "wof:id": 2014413671,
    "wof:repo": "sfomuseum-data-flights-2025-12"
  },
  "bbox": [
    -122.36126,
    37.63554,
    -122.13158,
    38.50565
  ],
  "geometry": {"coordinates":[[-122.36126,37.63554],[-122.34183,37.64837],[-122.33235,37.65315],[-122.30123,37.67044],[-122.28196,37.68179],[-122.24257,37.70347],[-122.22744,37.71137],[-122.20818,37.77054],[-122.20139,37.8027],[-122.1968,37.82663],[-122.1847,37.89767],[-122.1772,37.94372],[-122.1695,37.9919],[-122.15957,38.05304],[-122.1531,38.09324],[-122.14781,38.12534],[-122.13978,38.17627],[-122.13803,38.22602],[-122.13722,38.2591],[-122.1369,38.27312],[-122.13595,38.31541],[-122.13582,38.32079],[-122.13438,38.38121],[-122.13242,38.47599],[-122.13158,38.50565]],"type":"LineString"}
}
