{
  "id": 2014440437,
  "type": "Feature",
  "properties": {
    "geom:area": 0,
    "geom:bbox": "-122.383700,36.718390,-121.875980,37.610030",
    "geom:latitude": 37.25011805171775,
    "geom:longitude": -122.14516860343076,
    "src:alt_label": "swim-approach",
    "src:geom": "swim",
    "swim:elevations": [
      4963,
      4704,
      4573,
      4225,
      4158,
      3957,
      3760,
      3492,
      3300,
      3136,
      3075,
      2908,
      2744,
      2455,
      2437,
      2438,
      2438,
      2438,
      2438,
      2438,
      2438,
      2317,
      2099,
      1828,
      1829,
      1829,
      1794,
      1631,
      1355,
      1292,
      1219,
      1219,
      1133,
      970,
      939,
      913,
      914,
      841,
      622,
      486,
      369,
      273,
      148,
      58
    ],
    "swim:geom": "approach",
    "swim:timestamps": [
      1767201200,
      1767201236,
      1767201254,
      1767201298,
      1767201308,
      1767201331,
      1767201352,
      1767201380,
      1767201401,
      1767201439,
      1767201465,
      1767201498,
      1767201527,
      1767201568,
      1767201576,
      1767201628,
      1767201650,
      1767201681,
      1767201708,
      1767201731,
      1767201742,
      1767201775,
      1767201796,
      1767201837,
      1767201861,
      1767201892,
      1767201908,
      1767201926,
      1767201955,
      1767201964,
      1767202011,
      1767202030,
      1767202076,
      1767202105,
      1767202114,
      1767202134,
      1767202168,
      1767202186,
      1767202227,
      1767202252,
      1767202280,
      1767202306,
      1767202334,
      1767202364
    ],
    "wof:geomhash": "a59cbe45fe4626da1a89670c9e5695ee",
    "wof:id": 2014440437,
    "wof:repo": "sfomuseum-data-flights-2025-12"
  },
  "bbox": [
    -122.3837,
    36.71839,
    -121.87598,
    37.61003
  ],
  "geometry": {"coordinates":[[-121.87598,36.71839],[-121.90179,36.76944],[-121.90945,36.79659],[-121.92757,36.86079],[-121.93138,36.87449],[-121.94077,36.90811],[-121.94926,36.93831],[-121.9633,36.97819],[-121.97489,37.00754],[-121.99481,37.05906],[-122.00765,37.09188],[-122.02349,37.13227],[-122.04957,37.1603],[-122.09061,37.19512],[-122.0996,37.20311],[-122.15663,37.244],[-122.18165,37.25994],[-122.21755,37.28133],[-122.25182,37.29651],[-122.28073,37.30918],[-122.29472,37.31537],[-122.33725,37.33407],[-122.36223,37.34747],[-122.3837,37.39301],[-122.3784,37.42123],[-122.34201,37.43775],[-122.32275,37.43857],[-122.29957,37.4391],[-122.26216,37.4399],[-122.25057,37.43993],[-122.1978,37.43214],[-122.17779,37.42967],[-122.14723,37.46398],[-122.13773,37.49024],[-122.13894,37.49897],[-122.15132,37.51618],[-122.1823,37.53716],[-122.20131,37.54555],[-122.24333,37.56334],[-122.26687,37.57327],[-122.29133,37.58358],[-122.3118,37.59215],[-122.33275,37.60092],[-122.35432,37.61003]],"type":"LineString"}
}
