{
  "id": 2014442147,
  "type": "Feature",
  "properties": {
    "geom:area": 0,
    "geom:bbox": "-122.805000,37.418750,-122.119910,38.491240",
    "geom:latitude": 37.804601647661926,
    "geom:longitude": -122.48947376271867,
    "src:alt_label": "swim-approach",
    "src:geom": "swim",
    "swim:elevations": [
      8060,
      7671,
      7346,
      6673,
      6583,
      6504,
      6333,
      6184,
      5721,
      5436,
      5289,
      4934,
      4552,
      4375,
      4226,
      4002,
      3893,
      3611,
      3494,
      3353,
      3353,
      3353,
      3353,
      3353,
      3353,
      3353,
      3227,
      2925,
      2815,
      2674,
      2484,
      2384,
      2255,
      2135,
      1917,
      1761,
      1606,
      1466,
      1285,
      1219,
      1107,
      1013,
      766,
      728,
      513,
      422,
      272,
      96,
      77
    ],
    "swim:geom": "approach",
    "swim:timestamps": [
      1767201380,
      1767201407,
      1767201431,
      1767201477,
      1767201487,
      1767201523,
      1767201536,
      1767201551,
      1767201595,
      1767201622,
      1767201637,
      1767201672,
      1767201708,
      1767201727,
      1767201742,
      1767201775,
      1767201790,
      1767201834,
      1767201849,
      1767201883,
      1767201908,
      1767201917,
      1767201958,
      1767201973,
      1767202018,
      1767202024,
      1767202058,
      1767202102,
      1767202117,
      1767202137,
      1767202165,
      1767202183,
      1767202214,
      1767202233,
      1767202276,
      1767202309,
      1767202343,
      1767202368,
      1767202401,
      1767202422,
      1767202454,
      1767202483,
      1767202527,
      1767202536,
      1767202581,
      1767202599,
      1767202632,
      1767202677,
      1767202683
    ],
    "wof:geomhash": "4b20fd79087b4c2a68cbd8c6f37f0728",
    "wof:id": 2014442147,
    "wof:repo": "sfomuseum-data-flights-2025-12"
  },
  "bbox": [
    -122.805,
    37.41875,
    -122.11991,
    38.49124
  ],
  "geometry": {"coordinates":[[-122.805,38.49124],[-122.79784,38.43874],[-122.79115,38.39368],[-122.77867,38.30482],[-122.77623,38.28693],[-122.76663,38.22311],[-122.76001,38.19934],[-122.75254,38.17388],[-122.7311,38.10003],[-122.71819,38.05547],[-122.71114,38.03101],[-122.69521,37.97529],[-122.67829,37.91832],[-122.66272,37.89159],[-122.64419,37.87255],[-122.60299,37.83332],[-122.58551,37.8168],[-122.53811,37.77206],[-122.52256,37.75733],[-122.48813,37.72484],[-122.46634,37.70438],[-122.45825,37.69673],[-122.42513,37.66538],[-122.41355,37.65463],[-122.37666,37.61975],[-122.37113,37.61443],[-122.35131,37.58264],[-122.32743,37.54092],[-122.31878,37.52683],[-122.3072,37.50794],[-122.30316,37.48076],[-122.31332,37.46447],[-122.32635,37.4364],[-122.31407,37.42081],[-122.25854,37.41875],[-122.21526,37.42058],[-122.1721,37.42259],[-122.14401,37.43057],[-122.1269,37.4627],[-122.11991,37.48362],[-122.13833,37.51159],[-122.16488,37.53071],[-122.21313,37.55075],[-122.22265,37.55469],[-122.26612,37.5729],[-122.2825,37.57984],[-122.30969,37.59121],[-122.34526,37.60618],[-122.34982,37.60813]],"type":"LineString"}
}
