{
  "id": 2014406673,
  "type": "Feature",
  "properties": {
    "geom:area": 0,
    "geom:bbox": "-122.352780,37.434250,-121.266090,37.611680",
    "geom:latitude": 37.52742397945523,
    "geom:longitude": -121.81790114927944,
    "src:alt_label": "swim-approach",
    "src:geom": "swim",
    "swim:elevations": [
      4685,
      4494,
      4154,
      3933,
      3681,
      3449,
      3297,
      3201,
      2973,
      2757,
      2555,
      2439,
      2254,
      2248,
      2006,
      1839,
      1829,
      1751,
      1573,
      1521,
      1393,
      1100,
      914,
      836,
      704,
      480,
      362,
      279,
      150,
      33
    ],
    "swim:geom": "approach",
    "swim:timestamps": [
      1766834332,
      1766834354,
      1766834397,
      1766834425,
      1766834455,
      1766834484,
      1766834508,
      1766834520,
      1766834552,
      1766834587,
      1766834623,
      1766834655,
      1766834696,
      1766834716,
      1766834755,
      1766834787,
      1766834805,
      1766834837,
      1766834873,
      1766834897,
      1766834932,
      1766834968,
      1766834995,
      1766835009,
      1766835034,
      1766835080,
      1766835104,
      1766835128,
      1766835161,
      1766835189
    ],
    "wof:geomhash": "f454fefd07ba7e3d7d0b9693fe1f6827",
    "wof:id": 2014406673,
    "wof:repo": "sfomuseum-data-flights-2025-12"
  },
  "bbox": [
    -122.35278,
    37.43425,
    -121.26609,
    37.61168
  ],
  "geometry": {"coordinates":[[-121.26609,37.59221],[-121.31028,37.58708],[-121.39615,37.57738],[-121.45004,37.57114],[-121.50856,37.56434],[-121.56237,37.55803],[-121.60349,37.55319],[-121.62414,37.55013],[-121.67664,37.53812],[-121.72929,37.52561],[-121.77288,37.49822],[-121.7992,37.46606],[-121.83903,37.43447],[-121.86536,37.43425],[-121.91778,37.43574],[-121.95698,37.44506],[-121.97839,37.45313],[-122.01516,37.46851],[-122.05503,37.48605],[-122.08248,37.498],[-122.12179,37.51451],[-122.16264,37.5316],[-122.19239,37.54411],[-122.2071,37.55039],[-122.23106,37.56062],[-122.27266,37.57796],[-122.2918,37.58605],[-122.30919,37.59335],[-122.33266,37.60321],[-122.35278,37.61168]],"type":"LineString"}
}
