{
  "id": 2014439359,
  "type": "Feature",
  "properties": {
    "geom:area": 0,
    "geom:bbox": "-122.545160,36.760490,-122.265610,37.708870",
    "geom:latitude": 37.24888509637769,
    "geom:longitude": -122.451320623583,
    "src:alt_label": "swim-takeoff",
    "src:geom": "swim",
    "swim:elevations": [
      183,
      569,
      739,
      1097,
      1252,
      1435,
      1934,
      2497,
      3080,
      3242,
      3380,
      3654,
      3945,
      4184,
      4683,
      5115,
      5391,
      5821,
      6109,
      6242,
      6382,
      6773,
      6949,
      7203,
      7493,
      7545
    ],
    "swim:geom": "takeoff",
    "swim:timestamps": [
      1767095396,
      1767095423,
      1767095446,
      1767095485,
      1767095514,
      1767095535,
      1767095567,
      1767095602,
      1767095639,
      1767095656,
      1767095676,
      1767095716,
      1767095749,
      1767095767,
      1767095808,
      1767095847,
      1767095870,
      1767095908,
      1767095937,
      1767095952,
      1767095970,
      1767096023,
      1767096043,
      1767096078,
      1767096115,
      1767096122
    ],
    "wof:geomhash": "cb6c0cdb1fccd5ee4097d603bd73b785",
    "wof:id": 2014439359,
    "wof:repo": "sfomuseum-data-flights-2025-12"
  },
  "bbox": [
    -122.54516,
    36.76049,
    -122.26561,
    37.70887
  ],
  "geometry": {"coordinates":[[-122.36725,37.63147],[-122.36287,37.65179],[-122.36212,37.67025],[-122.37139,37.70348],[-122.40719,37.70887],[-122.42754,37.69196],[-122.43796,37.65381],[-122.44629,37.60994],[-122.45541,37.56346],[-122.4591,37.54093],[-122.46468,37.51152],[-122.47775,37.4489],[-122.4888,37.39236],[-122.49526,37.35868],[-122.50963,37.28568],[-122.524,37.21402],[-122.5323,37.17127],[-122.54516,37.10251],[-122.54478,37.04756],[-122.53024,37.02167],[-122.50383,36.99444],[-122.42144,36.91678],[-122.38885,36.88458],[-122.33453,36.83005],[-122.27633,36.77145],[-122.26561,36.76049]],"type":"LineString"}
}
