{
  "id": 2014418019,
  "type": "Feature",
  "properties": {
    "geom:area": 0,
    "geom:bbox": "-122.357890,36.752240,-121.895830,37.611500",
    "geom:latitude": 37.22440361897886,
    "geom:longitude": -122.07594899399017,
    "src:alt_label": "swim-approach",
    "src:geom": "swim",
    "swim:elevations": [
      5732,
      5538,
      5260,
      5045,
      4528,
      4484,
      3881,
      3771,
      3218,
      3134,
      3026,
      3012,
      2884,
      2605,
      2283,
      2178,
      1951,
      1798,
      1774,
      1587,
      1371,
      1190,
      1058,
      934,
      811,
      610,
      526,
      260,
      234,
      38,
      0
    ],
    "swim:geom": "approach",
    "swim:timestamps": [
      1766929854,
      1766929877,
      1766929913,
      1766929929,
      1766929975,
      1766929980,
      1766930034,
      1766930043,
      1766930096,
      1766930121,
      1766930153,
      1766930169,
      1766930193,
      1766930236,
      1766930273,
      1766930284,
      1766930308,
      1766930335,
      1766930343,
      1766930385,
      1766930427,
      1766930456,
      1766930481,
      1766930504,
      1766930525,
      1766930567,
      1766930580,
      1766930636,
      1766930646,
      1766930697,
      1766930701
    ],
    "wof:geomhash": "c24eeb13960cf4a6cf69bfb855140cb6",
    "wof:id": 2014418019,
    "wof:repo": "sfomuseum-data-flights-2025-12"
  },
  "bbox": [
    -122.35789,
    36.75224,
    -121.89583,
    37.6115
  ],
  "geometry": {"coordinates":[[-121.89583,36.75224],[-121.90636,36.78576],[-121.92109,36.83757],[-121.9282,36.86294],[-121.94751,36.93201],[-121.94919,36.93798],[-121.9786,37.01761],[-121.9838,37.03093],[-122.01326,37.10605],[-122.02677,37.14052],[-122.04271,37.18109],[-122.04966,37.19889],[-122.06033,37.22635],[-122.07941,37.27535],[-122.09515,37.31553],[-122.09984,37.3273],[-122.11043,37.35327],[-122.12123,37.38135],[-122.12433,37.3904],[-122.1389,37.43405],[-122.15467,37.47282],[-122.16926,37.49637],[-122.18336,37.51656],[-122.19567,37.53397],[-122.20921,37.54793],[-122.24852,37.5653],[-122.26057,37.57051],[-122.30756,37.58981],[-122.31487,37.59338],[-122.35478,37.61027],[-122.35789,37.6115]],"type":"LineString"}
}
