{
  "id": 2014413841,
  "type": "Feature",
  "properties": {
    "geom:area": 0,
    "geom:bbox": "-122.464230,36.733180,-121.457550,37.709920",
    "geom:latitude": 37.221328667199884,
    "geom:longitude": -122.05994047140923,
    "src:alt_label": "swim-takeoff",
    "src:geom": "swim",
    "swim:elevations": [
      152,
      444,
      825,
      1145,
      1327,
      1378,
      2008,
      2406,
      2629,
      2835,
      3446,
      3601,
      3804,
      3957,
      4541,
      4617,
      4867,
      5124,
      5406,
      5748,
      5973,
      6054,
      6317,
      6494,
      6640,
      6882,
      7038,
      7254,
      7611,
      7923,
      7932,
      8109,
      8201,
      8292,
      8513
    ],
    "swim:geom": "takeoff",
    "swim:timestamps": [
      1766870067,
      1766870088,
      1766870115,
      1766870155,
      1766870185,
      1766870190,
      1766870235,
      1766870256,
      1766870272,
      1766870288,
      1766870336,
      1766870365,
      1766870397,
      1766870408,
      1766870455,
      1766870465,
      1766870488,
      1766870509,
      1766870533,
      1766870569,
      1766870589,
      1766870598,
      1766870628,
      1766870649,
      1766870665,
      1766870689,
      1766870711,
      1766870738,
      1766870784,
      1766870818,
      1766870821,
      1766870850,
      1766870871,
      1766870886,
      1766870926
    ],
    "wof:geomhash": "54ec94d5aa800f31dddb8c9f399daed7",
    "wof:id": 2014413841,
    "wof:repo": "sfomuseum-data-flights-2025-12"
  },
  "bbox": [
    -122.46423,
    36.73318,
    -121.45755,
    37.70992
  ],
  "geometry": {"coordinates":[[-122.36969,37.62789],[-122.36454,37.64251],[-122.36347,37.66207],[-122.36428,37.69226],[-122.39295,37.70976],[-122.40089,37.70992],[-122.44088,37.66812],[-122.44153,37.63982],[-122.44394,37.61894],[-122.44833,37.59716],[-122.46423,37.53128],[-122.45758,37.48613],[-122.41275,37.4447],[-122.39506,37.43172],[-122.31591,37.37403],[-122.29991,37.36258],[-122.25919,37.33298],[-122.22348,37.30635],[-122.18365,37.27629],[-122.12181,37.22987],[-122.08537,37.20278],[-122.07017,37.19151],[-122.01657,37.15174],[-121.97894,37.12369],[-121.95023,37.10242],[-121.90687,37.07007],[-121.86713,37.04036],[-121.81689,37.00283],[-121.73142,36.93889],[-121.66529,36.89027],[-121.65954,36.88595],[-121.60475,36.84443],[-121.56477,36.81407],[-121.53564,36.79237],[-121.45755,36.73318]],"type":"LineString"}
}
