{
  "id": 2014413695,
  "type": "Feature",
  "properties": {
    "geom:area": 0,
    "geom:bbox": "-122.457220,36.720290,-121.253600,37.697610",
    "geom:latitude": 37.23011807576229,
    "geom:longitude": -121.91957565515082,
    "src:alt_label": "swim-takeoff",
    "src:geom": "swim",
    "swim:elevations": [
      183,
      489,
      1067,
      1206,
      1258,
      1521,
      1861,
      2124,
      2968,
      3275,
      3489,
      3832,
      4078,
      4507,
      4928,
      5131,
      5438,
      6016,
      6047,
      6630,
      6798,
      7222,
      7493,
      7673,
      7777,
      8134,
      8337,
      8589,
      8629,
      8872,
      8992,
      9280
    ],
    "swim:geom": "takeoff",
    "swim:timestamps": [
      1766841276,
      1766841301,
      1766841352,
      1766841373,
      1766841381,
      1766841405,
      1766841433,
      1766841452,
      1766841505,
      1766841527,
      1766841553,
      1766841589,
      1766841606,
      1766841640,
      1766841674,
      1766841690,
      1766841724,
      1766841777,
      1766841781,
      1766841834,
      1766841854,
      1766841894,
      1766841925,
      1766841949,
      1766841964,
      1766842005,
      1766842036,
      1766842076,
      1766842083,
      1766842117,
      1766842141,
      1766842182
    ],
    "wof:geomhash": "57c03d02adfb595ee12fe0c2f2d4c770",
    "wof:id": 2014413695,
    "wof:repo": "sfomuseum-data-flights-2025-12"
  },
  "bbox": [
    -122.45722,
    36.72029,
    -121.2536,
    37.69761
  ],
  "geometry": {"coordinates":[[-122.36969,37.62769],[-122.36519,37.64491],[-122.36648,37.68117],[-122.38539,37.68974],[-122.39497,37.69266],[-122.4247,37.69761],[-122.45431,37.67811],[-122.45722,37.65458],[-122.41707,37.59077],[-122.38972,37.56936],[-122.35579,37.54345],[-122.30203,37.50369],[-122.2759,37.48439],[-122.22254,37.44504],[-122.16805,37.40471],[-122.14106,37.38477],[-122.08538,37.34369],[-121.99411,37.27622],[-121.98871,37.27223],[-121.89611,37.20314],[-121.86081,37.17675],[-121.79002,37.1241],[-121.73513,37.08311],[-121.69298,37.05165],[-121.66461,37.03035],[-121.58887,36.97362],[-121.532,36.93085],[-121.45834,36.87548],[-121.44351,36.86438],[-121.37875,36.81518],[-121.33435,36.78158],[-121.2536,36.72029]],"type":"LineString"}
}
