{
  "id": 2014406755,
  "type": "Feature",
  "properties": {
    "geom:area": 0,
    "geom:bbox": "-122.357980,36.740300,-121.890200,37.611510",
    "geom:latitude": 37.22217410736416,
    "geom:longitude": -122.10665074142638,
    "src:alt_label": "swim-approach",
    "src:geom": "swim",
    "swim:elevations": [
      5623,
      5428,
      5144,
      5011,
      4839,
      4402,
      4073,
      3730,
      3641,
      3236,
      3115,
      2963,
      2906,
      2737,
      2527,
      2293,
      2129,
      2134,
      2134,
      2134,
      2106,
      1894,
      1798,
      1687,
      1613,
      1290,
      1024,
      919,
      677,
      509,
      482,
      395,
      361,
      243,
      85,
      7
    ],
    "swim:geom": "approach",
    "swim:timestamps": [
      1766863346,
      1766863364,
      1766863398,
      1766863410,
      1766863426,
      1766863466,
      1766863496,
      1766863528,
      1766863536,
      1766863574,
      1766863606,
      1766863646,
      1766863657,
      1766863704,
      1766863734,
      1766863767,
      1766863796,
      1766863821,
      1766863830,
      1766863868,
      1766863900,
      1766863936,
      1766863964,
      1766863987,
      1766863997,
      1766864034,
      1766864065,
      1766864072,
      1766864105,
      1766864147,
      1766864156,
      1766864183,
      1766864192,
      1766864230,
      1766864274,
      1766864287
    ],
    "wof:geomhash": "c6e56b0b9c078cb5b96bc9b705c61261",
    "wof:id": 2014406755,
    "wof:repo": "sfomuseum-data-flights-2025-12"
  },
  "bbox": [
    -122.35798,
    36.7403,
    -121.8902,
    37.61151
  ],
  "geometry": {"coordinates":[[-121.8902,36.7403],[-121.902,36.76971],[-121.91747,36.82425],[-121.92296,36.84367],[-121.93017,36.86968],[-121.94819,36.93475],[-121.96432,36.98082],[-121.98336,37.02979],[-121.98787,37.04145],[-122.01394,37.09655],[-122.0558,37.12708],[-122.10525,37.16065],[-122.11905,37.17001],[-122.17254,37.20703],[-122.20578,37.23023],[-122.23616,37.26035],[-122.24165,37.29226],[-122.22314,37.31597],[-122.21562,37.32432],[-122.18479,37.35957],[-122.15818,37.39004],[-122.12999,37.4218],[-122.11509,37.44836],[-122.12645,37.46698],[-122.13405,37.4743],[-122.16061,37.49891],[-122.18219,37.51901],[-122.18732,37.52384],[-122.20971,37.54358],[-122.24414,37.56326],[-122.25174,37.5665],[-122.27359,37.57561],[-122.28084,37.57873],[-122.31168,37.59169],[-122.34689,37.60684],[-122.35798,37.61151]],"type":"LineString"}
}
