{
  "id": 2014442805,
  "type": "Feature",
  "properties": {
    "geom:area": 0,
    "geom:bbox": "-122.363420,37.445460,-121.250330,37.616830",
    "geom:latitude": 37.51160672750296,
    "geom:longitude": -121.76938424470717,
    "src:alt_label": "swim-approach",
    "src:geom": "swim",
    "swim:elevations": [
      4772,
      4716,
      4415,
      4299,
      4267,
      4208,
      4172,
      4062,
      3834,
      3609,
      3354,
      3353,
      3353,
      3353,
      3353,
      3080,
      3047,
      2983,
      2818,
      2675,
      2650,
      2401,
      2124,
      1929,
      1829,
      1793,
      1506,
      1470,
      1363,
      1133,
      997,
      850,
      567,
      427,
      343,
      271,
      151,
      88,
      0
    ],
    "swim:geom": "approach",
    "swim:timestamps": [
      1767179518,
      1767179522,
      1767179571,
      1767179602,
      1767179638,
      1767179662,
      1767179666,
      1767179682,
      1767179714,
      1767179745,
      1767179784,
      1767179806,
      1767179828,
      1767179843,
      1767179851,
      1767179903,
      1767179919,
      1767179955,
      1767179978,
      1767179998,
      1767180002,
      1767180037,
      1767180073,
      1767180096,
      1767180133,
      1767180166,
      1767180207,
      1767180211,
      1767180224,
      1767180259,
      1767180283,
      1767180304,
      1767180354,
      1767180386,
      1767180404,
      1767180417,
      1767180448,
      1767180464,
      1767180485
    ],
    "wof:geomhash": "9ea5642ee67c597eaa9250b358f2afbd",
    "wof:id": 2014442805,
    "wof:repo": "sfomuseum-data-flights-2025-12"
  },
  "bbox": [
    -122.36342,
    37.44546,
    -121.25033,
    37.61683
  ],
  "geometry": {"coordinates":[[-121.25033,37.57659],[-121.25511,37.57133],[-121.28433,37.49854],[-121.30624,37.45892],[-121.36365,37.44546],[-121.39697,37.46272],[-121.40096,37.46742],[-121.41042,37.4865],[-121.43215,37.52496],[-121.47727,37.53677],[-121.53545,37.54169],[-121.56925,37.54517],[-121.60261,37.54857],[-121.62492,37.55006],[-121.63681,37.54839],[-121.699,37.52141],[-121.71206,37.50774],[-121.74198,37.47775],[-121.76871,37.46525],[-121.79895,37.46434],[-121.80478,37.46438],[-121.8554,37.46415],[-121.90656,37.46436],[-121.9394,37.46385],[-121.99312,37.46603],[-122.03791,37.47992],[-122.09086,37.50192],[-122.09577,37.50398],[-122.11214,37.51076],[-122.15337,37.52788],[-122.1798,37.53883],[-122.20136,37.54796],[-122.25386,37.57012],[-122.28355,37.58258],[-122.29829,37.5888],[-122.30947,37.59352],[-122.33364,37.60372],[-122.34611,37.60887],[-122.36342,37.61683]],"type":"LineString"}
}
