{
  "id": 2014439009,
  "type": "Feature",
  "properties": {
    "geom:area": 0,
    "geom:bbox": "-122.561270,36.718150,-122.353240,37.714520",
    "geom:latitude": 37.25822150811481,
    "geom:longitude": -122.4950156490879,
    "src:alt_label": "swim-takeoff",
    "src:geom": "swim",
    "swim:elevations": [
      221,
      507,
      750,
      1330,
      1377,
      1566,
      1675,
      1984,
      2255,
      2626,
      3140,
      3460,
      3936,
      4066,
      4193,
      4279,
      4392,
      4674,
      5148,
      5629,
      6031,
      6546,
      6834,
      6910,
      7066,
      7445,
      7755,
      7885,
      8252,
      8661,
      8751,
      9089
    ],
    "swim:geom": "takeoff",
    "swim:timestamps": [
      1767084825,
      1767084853,
      1767084884,
      1767084926,
      1767084932,
      1767084952,
      1767084966,
      1767084984,
      1767084999,
      1767085021,
      1767085053,
      1767085085,
      1767085132,
      1767085150,
      1767085159,
      1767085165,
      1767085173,
      1767085190,
      1767085219,
      1767085255,
      1767085282,
      1767085315,
      1767085346,
      1767085355,
      1767085370,
      1767085405,
      1767085434,
      1767085446,
      1767085480,
      1767085521,
      1767085530,
      1767085556
    ],
    "wof:geomhash": "6e60a099df054d8b57e711bf36ce6773",
    "wof:id": 2014439009,
    "wof:repo": "sfomuseum-data-flights-2025-12"
  },
  "bbox": [
    -122.56127,
    36.71815,
    -122.35324,
    37.71452
  ],
  "geometry": {"coordinates":[[-122.36649,37.63358],[-122.36344,37.65432],[-122.36222,37.6834],[-122.39522,37.71351],[-122.40343,37.71452],[-122.43103,37.70788],[-122.44447,37.69484],[-122.46048,37.67587],[-122.47398,37.66053],[-122.49401,37.63775],[-122.52358,37.60345],[-122.53266,37.56244],[-122.53493,37.49145],[-122.53696,37.46126],[-122.53839,37.44575],[-122.53934,37.43457],[-122.54031,37.42135],[-122.54222,37.39127],[-122.54519,37.33824],[-122.5489,37.27296],[-122.55172,37.22377],[-122.55535,37.16064],[-122.55864,37.10353],[-122.55959,37.08605],[-122.56127,37.0567],[-122.54746,36.98655],[-122.51262,36.93626],[-122.49671,36.91437],[-122.45271,36.85369],[-122.39927,36.78107],[-122.38754,36.765],[-122.35324,36.71815]],"type":"LineString"}
}
