{
  "id": 2014420571,
  "type": "Feature",
  "properties": {
    "geom:area": 0,
    "geom:bbox": "-122.466990,36.734540,-121.515850,37.713190",
    "geom:latitude": 37.23494162923387,
    "geom:longitude": -122.08799873827851,
    "src:alt_label": "swim-takeoff",
    "src:geom": "swim",
    "swim:elevations": [
      183,
      648,
      1237,
      1396,
      1694,
      2088,
      2287,
      2754,
      3178,
      3418,
      3785,
      4105,
      4556,
      4697,
      5447,
      5710,
      6012,
      6403,
      6601,
      7078,
      7398,
      7685,
      7813,
      8102,
      8239,
      8519,
      8762,
      8874,
      8986,
      9279,
      9438,
      9449
    ],
    "swim:geom": "takeoff",
    "swim:timestamps": [
      1766989329,
      1766989358,
      1766989408,
      1766989420,
      1766989448,
      1766989479,
      1766989494,
      1766989523,
      1766989555,
      1766989582,
      1766989614,
      1766989640,
      1766989676,
      1766989685,
      1766989736,
      1766989765,
      1766989792,
      1766989825,
      1766989845,
      1766989888,
      1766989917,
      1766989948,
      1766989963,
      1766989997,
      1766990014,
      1766990051,
      1766990088,
      1766990101,
      1766990118,
      1766990151,
      1766990169,
      1766990190
    ],
    "wof:geomhash": "0cac60dd993bfd863f054044ab4fe644",
    "wof:id": 2014420571,
    "wof:repo": "sfomuseum-data-flights-2025-12"
  },
  "bbox": [
    -122.46699,
    36.73454,
    -121.51585,
    37.71319
  ],
  "geometry": {"coordinates":[[-122.36569,37.63397],[-122.3615,37.6553],[-122.36867,37.70048],[-122.38032,37.70885],[-122.41688,37.71319],[-122.44943,37.69043],[-122.45267,37.67233],[-122.45497,37.63499],[-122.46003,37.59217],[-122.46554,37.55228],[-122.46699,37.50101],[-122.44236,37.46436],[-122.38802,37.42568],[-122.37393,37.41558],[-122.29417,37.35731],[-122.24849,37.3237],[-122.20464,37.29133],[-122.14906,37.25009],[-122.11529,37.22502],[-122.04253,37.17001],[-121.99446,37.12981],[-121.94355,37.0872],[-121.91879,37.06658],[-121.85987,37.01848],[-121.82977,36.99353],[-121.76358,36.94037],[-121.69821,36.88733],[-121.67359,36.86679],[-121.64404,36.84254],[-121.58393,36.7925],[-121.55179,36.76613],[-121.51585,36.73454]],"type":"LineString"}
}
