{
  "id": 2014419529,
  "type": "Feature",
  "properties": {
    "geom:area": 0,
    "geom:bbox": "-123.503280,37.625750,-122.391610,37.732300",
    "geom:latitude": 37.698316678566854,
    "geom:longitude": -122.94309040331721,
    "src:alt_label": "swim-takeoff",
    "src:geom": "swim",
    "swim:elevations": [
      122,
      837,
      887,
      1065,
      1379,
      2278,
      2905,
      3181,
      3739,
      4014,
      4085,
      4235,
      4424,
      4646,
      4808,
      4857,
      5117,
      5243,
      5311
    ],
    "swim:geom": "takeoff",
    "swim:timestamps": [
      1766923713,
      1766923765,
      1766923775,
      1766923814,
      1766923839,
      1766923896,
      1766923940,
      1766923959,
      1766924033,
      1766924067,
      1766924078,
      1766924105,
      1766924142,
      1766924186,
      1766924217,
      1766924228,
      1766924276,
      1766924303,
      1766924318
    ],
    "wof:geomhash": "9d88ce4cbc722389028f043e34e77a9d",
    "wof:id": 2014419529,
    "wof:repo": "sfomuseum-data-flights-2025-12"
  },
  "bbox": [
    -123.50328,
    37.62575,
    -122.39161,
    37.7323
  ],
  "geometry": {"coordinates":[[-122.39161,37.62575],[-122.44465,37.64892],[-122.45602,37.65403],[-122.5034,37.67347],[-122.54051,37.67714],[-122.63079,37.68248],[-122.70213,37.6867],[-122.73242,37.68867],[-122.87397,37.69718],[-122.94514,37.70117],[-122.96825,37.70255],[-123.02664,37.70588],[-123.10732,37.71047],[-123.20324,37.71591],[-123.27355,37.71983],[-123.29855,37.72117],[-123.40918,37.72729],[-123.47066,37.73057],[-123.50328,37.7323]],"type":"LineString"}
}
