{
  "id": 2014426909,
  "type": "Feature",
  "properties": {
    "geom:area": 0,
    "geom:bbox": "-122.360770,37.491420,-121.256490,37.614740",
    "geom:latitude": 37.546718301128294,
    "geom:longitude": -121.81348065784906,
    "src:alt_label": "swim-approach",
    "src:geom": "swim",
    "swim:elevations": [
      4491,
      4291,
      4158,
      3854,
      3435,
      3307,
      3137,
      3078,
      2956,
      2656,
      2503,
      2442,
      2283,
      2192,
      2102,
      1950,
      1913,
      1675,
      1595,
      1425,
      1376,
      1231,
      983,
      857,
      761,
      639,
      537,
      436,
      276,
      260,
      134,
      0
    ],
    "swim:geom": "approach",
    "swim:timestamps": [
      1767036087,
      1767036106,
      1767036121,
      1767036152,
      1767036197,
      1767036212,
      1767036237,
      1767036259,
      1767036277,
      1767036323,
      1767036352,
      1767036375,
      1767036399,
      1767036415,
      1767036434,
      1767036478,
      1767036488,
      1767036537,
      1767036551,
      1767036579,
      1767036591,
      1767036616,
      1767036657,
      1767036685,
      1767036705,
      1767036731,
      1767036751,
      1767036775,
      1767036808,
      1767036812,
      1767036843,
      1767036871
    ],
    "wof:geomhash": "5501c9e619b4b51295e69dbc08615508",
    "wof:id": 2014426909,
    "wof:repo": "sfomuseum-data-flights-2025-12"
  },
  "bbox": [
    -122.36077,
    37.49142,
    -121.25649,
    37.61474
  ],
  "geometry": {"coordinates":[[-121.25649,37.59359],[-121.29755,37.58841],[-121.32987,37.58509],[-121.39559,37.57765],[-121.48986,37.56661],[-121.51879,37.56321],[-121.57064,37.557],[-121.61207,37.55226],[-121.64417,37.54616],[-121.72087,37.5279],[-121.76857,37.51644],[-121.8056,37.50745],[-121.84035,37.49916],[-121.86096,37.49428],[-121.88685,37.49142],[-121.94496,37.49274],[-121.95771,37.49307],[-122.01948,37.50477],[-122.03554,37.50997],[-122.0687,37.52088],[-122.08282,37.52547],[-122.1122,37.535],[-122.1588,37.55017],[-122.18782,37.55935],[-122.20871,37.56613],[-122.2355,37.57512],[-122.25545,37.5815],[-122.27805,37.58776],[-122.30695,37.59646],[-122.31039,37.59749],[-122.33711,37.60561],[-122.36077,37.61474]],"type":"LineString"}
}
