{
  "id": 2014446353,
  "type": "Feature",
  "properties": {
    "geom:area": 0,
    "geom:bbox": "-122.461980,37.248210,-121.244540,37.727540",
    "geom:latitude": 37.453486827069426,
    "geom:longitude": -121.96757757772818,
    "src:alt_label": "swim-takeoff",
    "src:geom": "swim",
    "swim:elevations": [
      152,
      241,
      649,
      848,
      1166,
      1582,
      1783,
      2401,
      2969,
      3242,
      3583,
      3772,
      3928,
      4752,
      5139,
      5678,
      6116,
      6548,
      6706,
      7138,
      7304,
      7670,
      7877,
      8111,
      8518,
      8605,
      8744,
      8983,
      9241,
      9378,
      9449,
      9449,
      9449
    ],
    "swim:geom": "takeoff",
    "swim:timestamps": [
      1767247646,
      1767247653,
      1767247693,
      1767247719,
      1767247754,
      1767247784,
      1767247796,
      1767247826,
      1767247858,
      1767247881,
      1767247917,
      1767247938,
      1767247951,
      1767248000,
      1767248027,
      1767248063,
      1767248097,
      1767248126,
      1767248138,
      1767248180,
      1767248195,
      1767248234,
      1767248261,
      1767248285,
      1767248334,
      1767248346,
      1767248364,
      1767248385,
      1767248418,
      1767248436,
      1767248484,
      1767248493,
      1767248523
    ],
    "wof:geomhash": "8bf93f16c59c03cc04c4c16c26e79b76",
    "wof:id": 2014446353,
    "wof:repo": "sfomuseum-data-flights-2025-12"
  },
  "bbox": [
    -122.46198,
    37.24821,
    -121.24454,
    37.72754
  ],
  "geometry": {"coordinates":[[-122.37214,37.62419],[-122.36966,37.62814],[-122.36428,37.65432],[-122.36143,37.6765],[-122.36721,37.71263],[-122.40578,37.72754],[-122.42288,37.72421],[-122.44833,37.69843],[-122.45296,37.66365],[-122.45713,37.63665],[-122.46198,37.58939],[-122.45001,37.56155],[-122.43247,37.5465],[-122.34256,37.52025],[-122.29177,37.50515],[-122.2204,37.48664],[-122.15355,37.4715],[-122.09437,37.45742],[-122.0706,37.45169],[-121.9863,37.43121],[-121.95579,37.42374],[-121.87633,37.40439],[-121.8199,37.39086],[-121.76919,37.37864],[-121.664,37.35242],[-121.63813,37.34595],[-121.59842,37.33626],[-121.55258,37.32483],[-121.48208,37.30733],[-121.44247,37.2975],[-121.33478,37.27051],[-121.31432,37.26534],[-121.24454,37.24821]],"type":"LineString"}
}
