{
  "id": 2014411679,
  "type": "Feature",
  "properties": {
    "geom:area": 0,
    "geom:bbox": "-122.440730,36.728960,-121.257350,37.716170",
    "geom:latitude": 37.243726045905035,
    "geom:longitude": -121.91583850175432,
    "src:alt_label": "swim-takeoff",
    "src:geom": "swim",
    "swim:elevations": [
      213,
      296,
      627,
      823,
      1040,
      1174,
      1422,
      2202,
      2548,
      2906,
      3228,
      3366,
      3600,
      3944,
      4119,
      4545,
      4751,
      5023,
      5284,
      5417,
      5688,
      5964,
      6073,
      6367,
      6573,
      6628,
      6834,
      7167,
      7290,
      7624,
      7753,
      7955,
      8214,
      8422,
      8447
    ],
    "swim:geom": "takeoff",
    "swim:timestamps": [
      1766839797,
      1766839802,
      1766839841,
      1766839868,
      1766839892,
      1766839905,
      1766839920,
      1766839975,
      1766840003,
      1766840032,
      1766840065,
      1766840089,
      1766840114,
      1766840146,
      1766840161,
      1766840202,
      1766840224,
      1766840251,
      1766840277,
      1766840293,
      1766840329,
      1766840360,
      1766840372,
      1766840404,
      1766840426,
      1766840432,
      1766840461,
      1766840508,
      1766840525,
      1766840568,
      1766840585,
      1766840622,
      1766840666,
      1766840696,
      1766840702
    ],
    "wof:geomhash": "fa707a86e7b3b0cb258f12c108089b1f",
    "wof:id": 2014411679,
    "wof:repo": "sfomuseum-data-flights-2025-12"
  },
  "bbox": [
    -122.44073,
    36.72896,
    -121.25735,
    37.71617
  ],
  "geometry": {"coordinates":[[-122.36669,37.63225],[-122.36478,37.63598],[-122.36219,37.66707],[-122.36352,37.69273],[-122.38471,37.71209],[-122.4034,37.71617],[-122.42708,37.71131],[-122.44073,37.64867],[-122.41844,37.61651],[-122.38343,37.58849],[-122.34126,37.557],[-122.30769,37.53202],[-122.27165,37.50463],[-122.22326,37.46719],[-122.20087,37.45014],[-122.13674,37.40223],[-122.10081,37.37541],[-122.05679,37.34206],[-122.01379,37.30938],[-121.98815,37.28994],[-121.9271,37.2435],[-121.87437,37.20332],[-121.85343,37.1874],[-121.7979,37.14515],[-121.76007,37.11624],[-121.7495,37.1081],[-121.69829,37.0689],[-121.61394,37.00424],[-121.58388,36.98114],[-121.50483,36.92011],[-121.47485,36.89709],[-121.40566,36.84392],[-121.32477,36.78122],[-121.26838,36.73752],[-121.25735,36.72896]],"type":"LineString"}
}
