{
  "id": 2014430819,
  "type": "Feature",
  "properties": {
    "geom:area": 0,
    "geom:bbox": "-122.387430,37.629280,-121.446620,38.507190",
    "geom:latitude": 38.115182837037224,
    "geom:longitude": -122.0220074382123,
    "src:alt_label": "swim-takeoff",
    "src:geom": "swim",
    "swim:elevations": [
      152,
      614,
      1049,
      1133,
      1396,
      1923,
      2048,
      2564,
      3084,
      3238,
      3542,
      3758,
      4102,
      4270,
      4975,
      5287,
      5562,
      5764,
      6122,
      6401,
      6640,
      6906,
      7210,
      7282,
      7573,
      7959,
      8130,
      8206
    ],
    "swim:geom": "takeoff",
    "swim:timestamps": [
      1767058039,
      1767058071,
      1767058108,
      1767058120,
      1767058153,
      1767058197,
      1767058206,
      1767058248,
      1767058287,
      1767058296,
      1767058338,
      1767058370,
      1767058394,
      1767058412,
      1767058463,
      1767058493,
      1767058526,
      1767058544,
      1767058577,
      1767058616,
      1767058640,
      1767058670,
      1767058703,
      1767058712,
      1767058745,
      1767058796,
      1767058823,
      1767058835
    ],
    "wof:geomhash": "d560854c99eecfb4d70e711709f73e1e",
    "wof:id": 2014430819,
    "wof:repo": "sfomuseum-data-flights-2025-12"
  },
  "bbox": [
    -122.38743,
    37.62928,
    -121.44662,
    38.50719
  ],
  "geometry": {"coordinates":[[-122.36597,37.62928],[-122.34835,37.65022],[-122.32201,37.66997],[-122.31303,37.67745],[-122.30917,37.708],[-122.33997,37.75353],[-122.34532,37.7637],[-122.37189,37.81467],[-122.38743,37.86644],[-122.38655,37.87871],[-122.37801,37.93954],[-122.33723,37.97734],[-122.29395,37.99741],[-122.2625,38.01468],[-122.17523,38.06863],[-122.1216,38.1006],[-122.06195,38.13682],[-122.02881,38.15683],[-121.96725,38.19402],[-121.8924,38.23913],[-121.84522,38.26753],[-121.78488,38.30383],[-121.71827,38.34379],[-121.70002,38.35472],[-121.63323,38.39472],[-121.52813,38.45754],[-121.47175,38.49215],[-121.44662,38.50719]],"type":"LineString"}
}
