{
  "id": 2014433129,
  "type": "Feature",
  "properties": {
    "geom:area": 0,
    "geom:bbox": "-122.357970,37.492150,-121.247800,37.613920",
    "geom:latitude": 37.54676821088207,
    "geom:longitude": -121.80785038449186,
    "src:alt_label": "swim-approach",
    "src:geom": "swim",
    "swim:elevations": [
      4788,
      4525,
      4055,
      3537,
      3374,
      3239,
      3108,
      3047,
      2979,
      2632,
      2519,
      2412,
      2195,
      2182,
      1994,
      1829,
      1758,
      1465,
      1350,
      1156,
      1077,
      903,
      844,
      588,
      567,
      331,
      181,
      153,
      4
    ],
    "swim:geom": "approach",
    "swim:timestamps": [
      1767124386,
      1767124412,
      1767124450,
      1767124497,
      1767124517,
      1767124532,
      1767124556,
      1767124583,
      1767124595,
      1767124647,
      1767124676,
      1767124705,
      1767124736,
      1767124742,
      1767124782,
      1767124820,
      1767124835,
      1767124880,
      1767124897,
      1767124925,
      1767124940,
      1767124970,
      1767124983,
      1767125033,
      1767125040,
      1767125090,
      1767125123,
      1767125132,
      1767125160
    ],
    "wof:geomhash": "bd2fdefb3e5442d501527dfb5050d00b",
    "wof:id": 2014433129,
    "wof:repo": "sfomuseum-data-flights-2025-12"
  },
  "bbox": [
    -122.35797,
    37.49215,
    -121.2478,
    37.61392
  ],
  "geometry": {"coordinates":[[-121.2478,37.59423],[-121.29962,37.58791],[-121.37432,37.57982],[-121.46556,37.56933],[-121.50214,37.56495],[-121.5306,37.56163],[-121.57531,37.55651],[-121.62223,37.55081],[-121.64163,37.54678],[-121.72381,37.52718],[-121.76841,37.51642],[-121.81078,37.50628],[-121.85622,37.49546],[-121.86494,37.49353],[-121.92643,37.49215],[-121.98278,37.49451],[-122.0043,37.49984],[-122.06507,37.51968],[-122.08719,37.52686],[-122.12335,37.53859],[-122.14255,37.54478],[-122.17678,37.55588],[-122.19085,37.56041],[-122.243,37.5772],[-122.25047,37.57966],[-122.29837,37.59387],[-122.32686,37.60224],[-122.33448,37.60485],[-122.35797,37.61392]],"type":"LineString"}
}
