{
  "id": 2014434817,
  "type": "Feature",
  "properties": {
    "geom:area": 0,
    "geom:bbox": "-123.506740,37.260410,-122.131770,37.613710",
    "geom:latitude": 37.35818489041208,
    "geom:longitude": -122.70672109630041,
    "src:alt_label": "swim-approach",
    "src:geom": "swim",
    "swim:elevations": [
      6223,
      6129,
      5738,
      5355,
      4940,
      4444,
      4235,
      3727,
      3639,
      3368,
      3144,
      3107,
      3048,
      3048,
      3048,
      3048,
      3048,
      3048,
      3048,
      3039,
      2773,
      2710,
      2392,
      2246,
      2113,
      2064,
      1942,
      1903,
      1850,
      1647,
      1521,
      1405,
      1263,
      1071,
      883,
      515,
      436,
      396,
      274,
      182,
      48,
      0
    ],
    "swim:geom": "approach",
    "swim:timestamps": [
      1767120776,
      1767120785,
      1767120824,
      1767120860,
      1767120890,
      1767120925,
      1767120943,
      1767120988,
      1767120997,
      1767121028,
      1767121055,
      1767121072,
      1767121102,
      1767121111,
      1767121153,
      1767121194,
      1767121227,
      1767121235,
      1767121275,
      1767121313,
      1767121347,
      1767121356,
      1767121406,
      1767121432,
      1767121468,
      1767121475,
      1767121509,
      1767121532,
      1767121565,
      1767121608,
      1767121627,
      1767121654,
      1767121677,
      1767121697,
      1767121717,
      1767121761,
      1767121783,
      1767121806,
      1767121854,
      1767121883,
      1767121915,
      1767121927
    ],
    "wof:geomhash": "5ef5519bcf34f5aed3c8ed4d317518ce",
    "wof:id": 2014434817,
    "wof:repo": "sfomuseum-data-flights-2025-12"
  },
  "bbox": [
    -123.50674,
    37.26041,
    -122.13177,
    37.61371
  ],
  "geometry": {"coordinates":[[-123.50674,37.30616],[-123.48725,37.30475],[-123.4019,37.29848],[-123.32699,37.29303],[-123.2628,37.28821],[-123.18903,37.28272],[-123.15177,37.27997],[-123.06055,37.27305],[-123.0427,37.27163],[-122.98289,37.26712],[-122.93071,37.26304],[-122.8976,37.26041],[-122.84299,37.26198],[-122.82791,37.26593],[-122.76019,37.28227],[-122.6965,37.29671],[-122.64239,37.30925],[-122.63064,37.31203],[-122.56516,37.32726],[-122.50405,37.34139],[-122.45014,37.35396],[-122.43488,37.35748],[-122.35788,37.37507],[-122.31917,37.38401],[-122.26978,37.39541],[-122.26013,37.39764],[-122.21384,37.40809],[-122.18603,37.41452],[-122.1565,37.43521],[-122.13899,37.47419],[-122.13177,37.49007],[-122.13199,37.51219],[-122.15091,37.52428],[-122.16979,37.53236],[-122.18984,37.54079],[-122.23342,37.5593],[-122.25285,37.56744],[-122.27283,37.57574],[-122.30985,37.5914],[-122.33133,37.60017],[-122.35465,37.61016],[-122.36277,37.61371]],"type":"LineString"}
}
