{
  "id": 2014425649,
  "type": "Feature",
  "properties": {
    "geom:area": 0,
    "geom:bbox": "-122.627190,37.429950,-122.094030,38.476140",
    "geom:latitude": 37.82955028572842,
    "geom:longitude": -122.39263875449171,
    "src:alt_label": "swim-approach",
    "src:geom": "swim",
    "swim:elevations": [
      8870,
      8258,
      7522,
      6832,
      6427,
      6156,
      5880,
      5484,
      5136,
      4707,
      3746,
      3678,
      3352,
      3353,
      3353,
      3353,
      3134,
      2870,
      2776,
      2564,
      2433,
      2156,
      1891,
      1828,
      1829,
      1693,
      1477,
      1327,
      1067,
      967,
      914,
      914,
      881,
      639,
      511,
      421,
      254,
      194,
      62,
      0
    ],
    "swim:geom": "approach",
    "swim:timestamps": [
      1767053935,
      1767053963,
      1767053996,
      1767054026,
      1767054056,
      1767054081,
      1767054108,
      1767054147,
      1767054178,
      1767054216,
      1767054327,
      1767054336,
      1767054423,
      1767054463,
      1767054489,
      1767054522,
      1767054561,
      1767054595,
      1767054607,
      1767054633,
      1767054647,
      1767054675,
      1767054714,
      1767054738,
      1767054775,
      1767054798,
      1767054837,
      1767054858,
      1767054897,
      1767054915,
      1767054956,
      1767054975,
      1767054993,
      1767055047,
      1767055073,
      1767055097,
      1767055136,
      1767055154,
      1767055190,
      1767055208
    ],
    "wof:geomhash": "9827a8174e071a01888c637c4100d951",
    "wof:id": 2014425649,
    "wof:repo": "sfomuseum-data-flights-2025-12"
  },
  "bbox": [
    -122.62719,
    37.42995,
    -122.09403,
    38.47614
  ],
  "geometry": {"coordinates":[[-122.31278,38.47614],[-122.36295,38.43001],[-122.40046,38.36467],[-122.43467,38.30671],[-122.46742,38.252],[-122.49371,38.2075],[-122.52103,38.16061],[-122.55996,38.09399],[-122.59092,38.04052],[-122.62719,37.97802],[-122.58908,37.82085],[-122.57808,37.81045],[-122.4799,37.71712],[-122.44121,37.68059],[-122.41775,37.65853],[-122.38772,37.6303],[-122.35528,37.59573],[-122.33746,37.56163],[-122.33134,37.54947],[-122.31703,37.52385],[-122.30871,37.50997],[-122.29016,37.48382],[-122.24135,37.46346],[-122.21013,37.45277],[-122.16467,37.43712],[-122.13928,37.42995],[-122.09931,37.44526],[-122.09403,37.46218],[-122.10521,37.49353],[-122.11384,37.50699],[-122.15311,37.52537],[-122.17176,37.53317],[-122.18867,37.54035],[-122.2364,37.56047],[-122.25931,37.5701],[-122.27884,37.57833],[-122.30924,37.5911],[-122.32273,37.59676],[-122.34945,37.60794],[-122.36248,37.61307]],"type":"LineString"}
}
