{
  "id": 2014435163,
  "type": "Feature",
  "properties": {
    "geom:area": 0,
    "geom:bbox": "-122.360430,36.727500,-121.881860,37.612870",
    "geom:latitude": 37.212923541407726,
    "geom:longitude": -122.07098447852074,
    "src:alt_label": "swim-approach",
    "src:geom": "swim",
    "swim:elevations": [
      5060,
      4656,
      4320,
      4079,
      4020,
      3993,
      3964,
      3875,
      3746,
      3651,
      3311,
      3142,
      2970,
      2715,
      2275,
      1984,
      1951,
      1725,
      1565,
      1517,
      1382,
      1189,
      1060,
      803,
      776,
      572,
      480,
      277,
      177,
      0
    ],
    "swim:geom": "approach",
    "swim:timestamps": [
      1767125740,
      1767125783,
      1767125818,
      1767125845,
      1767125870,
      1767125906,
      1767125930,
      1767125966,
      1767125984,
      1767126001,
      1767126052,
      1767126080,
      1767126104,
      1767126133,
      1767126174,
      1767126204,
      1767126216,
      1767126250,
      1767126292,
      1767126305,
      1767126325,
      1767126356,
      1767126380,
      1767126418,
      1767126427,
      1767126465,
      1767126489,
      1767126534,
      1767126556,
      1767126596
    ],
    "wof:geomhash": "a210d191b74c979cd5b9a72f7052f319",
    "wof:id": 2014435163,
    "wof:repo": "sfomuseum-data-flights-2025-12"
  },
  "bbox": [
    -122.36043,
    36.7275,
    -121.88186,
    37.61287
  ],
  "geometry": {"coordinates":[[-121.88186,36.7275],[-121.90984,36.79891],[-121.92652,36.85681],[-121.93872,36.90139],[-121.94738,36.94235],[-121.96626,36.99712],[-121.9813,37.03001],[-122.00036,37.07513],[-122.00917,37.09688],[-122.0175,37.11733],[-122.04101,37.1768],[-122.05291,37.21029],[-122.06435,37.23796],[-122.07713,37.27106],[-122.09502,37.31603],[-122.10834,37.34953],[-122.11366,37.36273],[-122.12674,37.39886],[-122.14113,37.43987],[-122.14518,37.45164],[-122.15345,37.47016],[-122.17018,37.49779],[-122.18397,37.5185],[-122.20833,37.54849],[-122.21695,37.55292],[-122.25347,37.56764],[-122.27428,37.57652],[-122.31083,37.59177],[-122.32943,37.59965],[-122.36043,37.61287]],"type":"LineString"}
}
