{
  "id": 2014410425,
  "type": "Feature",
  "properties": {
    "geom:area": 0,
    "geom:bbox": "-122.364860,37.630580,-121.252040,37.964270",
    "geom:latitude": 37.837996150644585,
    "geom:longitude": -121.82305532451981,
    "src:alt_label": "swim-takeoff",
    "src:geom": "swim",
    "swim:elevations": [
      213,
      405,
      646,
      788,
      948,
      1160,
      1610,
      1964,
      2304,
      2508,
      2985,
      3230,
      3383,
      3542,
      3620,
      4004,
      4065,
      4505,
      4657,
      4961,
      5396,
      5601,
      5642,
      5958
    ],
    "swim:geom": "takeoff",
    "swim:timestamps": [
      1766843093,
      1766843106,
      1766843138,
      1766843166,
      1766843185,
      1766843202,
      1766843241,
      1766843272,
      1766843299,
      1766843313,
      1766843356,
      1766843382,
      1766843413,
      1766843449,
      1766843466,
      1766843514,
      1766843521,
      1766843569,
      1766843585,
      1766843617,
      1766843664,
      1766843697,
      1766843702,
      1766843743
    ],
    "wof:geomhash": "6fa37f317398d126a90a8ded9bff2556",
    "wof:id": 2014410425,
    "wof:repo": "sfomuseum-data-flights-2025-12"
  },
  "bbox": [
    -122.36486,
    37.63058,
    -121.25204,
    37.96427
  ],
  "geometry": {"coordinates":[[-122.36486,37.63058],[-122.35658,37.63817],[-122.32928,37.65461],[-122.30129,37.67065],[-122.28076,37.68247],[-122.26054,37.69373],[-122.21319,37.71821],[-122.17194,37.73945],[-122.13599,37.75804],[-122.11795,37.76743],[-122.06038,37.79717],[-122.02503,37.81537],[-121.97384,37.83166],[-121.90484,37.84427],[-121.87096,37.85067],[-121.76886,37.86966],[-121.75287,37.87261],[-121.64731,37.89223],[-121.61237,37.89863],[-121.54168,37.91164],[-121.43396,37.93127],[-121.35854,37.94496],[-121.34608,37.94725],[-121.25204,37.96427]],"type":"LineString"}
}
