{
  "id": 2014447427,
  "type": "Feature",
  "properties": {
    "geom:area": 0,
    "geom:bbox": "-122.352080,37.641640,-121.254080,37.955350",
    "geom:latitude": 37.81757251699187,
    "geom:longitude": -121.81021419627272,
    "src:alt_label": "swim-takeoff",
    "src:geom": "swim",
    "swim:elevations": [
      428,
      510,
      679,
      915,
      992,
      1188,
      1553,
      1702,
      2535,
      2906,
      3116,
      3419,
      3553,
      3932,
      4143,
      4412,
      4855,
      5275,
      5310,
      5562,
      5650,
      5986,
      6460,
      6721,
      6882,
      7028,
      7258
    ],
    "swim:geom": "takeoff",
    "swim:timestamps": [
      1767216807,
      1767216817,
      1767216832,
      1767216850,
      1767216856,
      1767216891,
      1767216927,
      1767216936,
      1767216984,
      1767217005,
      1767217021,
      1767217059,
      1767217068,
      1767217095,
      1767217116,
      1767217141,
      1767217181,
      1767217228,
      1767217231,
      1767217258,
      1767217264,
      1767217291,
      1767217340,
      1767217372,
      1767217390,
      1767217405,
      1767217431
    ],
    "wof:geomhash": "5c928570010f2318931a5c9aa26be942",
    "wof:id": 2014447427,
    "wof:repo": "sfomuseum-data-flights-2025-12"
  },
  "bbox": [
    -122.35208,
    37.64164,
    -121.25408,
    37.95535
  ],
  "geometry": {"coordinates":[[-122.35208,37.64164],[-122.34427,37.64587],[-122.33225,37.65292],[-122.31745,37.6615],[-122.31239,37.66422],[-122.277,37.68355],[-122.23122,37.70869],[-122.21875,37.71518],[-122.14685,37.73924],[-122.1141,37.74735],[-122.0901,37.75369],[-122.02388,37.76931],[-122.0075,37.77346],[-121.95877,37.78616],[-121.91953,37.79564],[-121.87274,37.80677],[-121.79348,37.8258],[-121.69732,37.8491],[-121.69106,37.85062],[-121.63382,37.86445],[-121.62078,37.86758],[-121.56235,37.88162],[-121.4576,37.9068],[-121.3866,37.92387],[-121.3464,37.93351],[-121.31268,37.94152],[-121.25408,37.95535]],"type":"LineString"}
}
