{
  "id": 2014409641,
  "type": "Feature",
  "properties": {
    "date:cessation_lower": "2025-12-27",
    "date:cessation_upper": "2025-12-27",
    "date:inception_lower": "1970-01-01",
    "date:inception_upper": "1970-01-01",
    "edtf:cessation": "2025-12-27T12:07:38-08:00",
    "edtf:inception": "1970-01-01T00:00:00Z",
    "flysfo:actual_timestamp": -1,
    "flysfo:airline": "UA",
    "flysfo:base_airline": "",
    "flysfo:base_flight_number": "9415",
    "flysfo:date": "2025-12-27",
    "flysfo:estimated_timestamp": 1766886180,
    "flysfo:event": "A",
    "flysfo:flight_number": "UA406",
    "flysfo:gate": "D5",
    "flysfo:journey": "BZN-SFO",
    "flysfo:scheduled_timestamp": 1766887620,
    "flysfo:timestamp": 1766887620,
    "geom:area": 0,
    "geom:bbox": "-122.370943,37.617990,-111.158267,45.775425",
    "geom:latitude": 41.6967075,
    "geom:longitude": -116.76460499999999,
    "iata:airline": "UA",
    "iata:base_airline": "",
    "icao:aircraft": "B738",
    "icao:airline": "UAL",
    "icao:base_airline": "ANZ",
    "lbl:latitude": 37.616825,
    "lbl:longitude": -122.381021,
    "sfomuseum:aircraft_id": 1159289871,
    "sfomuseum:airline_id": 1159285413,
    "sfomuseum:arrival_id": 102527513,
    "sfomuseum:base_flight_id": "20251227-A-ANZ-9415",
    "sfomuseum:departure_id": 102530815,
    "sfomuseum:flight_id": "20251227-A-UAL-406",
    "sfomuseum:flight_number": [
      "UAL406",
      "UA406"
    ],
    "sfomuseum:placetype": "flight",
    "src:geom": "flysfo",
    "src:geom_alt": [
      "swim-approach"
    ],
    "swim:tail_number": "N37290",
    "wof:belongsto": [
      1947304067,
      102527513,
      1947304595,
      102191575,
      85633793,
      102087579,
      85922583,
      554784711,
      85688637,
      1947304607,
      1947304591,
      102085387
    ],
    "wof:country": "US",
    "wof:created": 1766938108,
    "wof:geomhash": "acf2ad4ec949b4135a187e5a7cb03262",
    "wof:hierarchy": [
      {
        "building_id": 1947304067,
        "campus_id": 102527513,
        "concourse_id": 1947304595,
        "continent_id": 102191575,
        "country_id": 85633793,
        "county_id": 102087579,
        "custom_id": 2014409641,
        "flight_id": 2014409641,
        "locality_id": 85922583,
        "postalcode_id": 554784711,
        "region_id": 85688637,
        "venue_id": 1947304607,
        "wing_id": 1947304591
      },
      {
        "building_id": 1947304067,
        "campus_id": 102527513,
        "concourse_id": 1947304595,
        "continent_id": 102191575,
        "country_id": 85633793,
        "county_id": 102085387,
        "custom_id": 2014409641,
        "flight_id": 2014409641,
        "region_id": 85688637,
        "venue_id": 1947304607,
        "wing_id": 1947304591
      }
    ],
    "wof:id": 2014409641,
    "wof:involves": [
      1159285413,
      1947304607,
      1159283697,
      1159289871,
      102527513,
      102530815
    ],
    "wof:lastmodified": 1766938696,
    "wof:name": "UA406 (BZN-SFO)",
    "wof:parent_id": 1947304607,
    "wof:placetype": "custom",
    "wof:placetype_alt": [
      "flight"
    ],
    "wof:repo": "sfomuseum-data-flights-2025-12",
    "wof:superseded_by": [],
    "wof:supersedes": []
  },
  "bbox": [
    -122.370943,
    37.61799,
    -111.158267,
    45.775425
  ],
  "geometry": {"coordinates":[[-111.158267,45.775425],[-122.370943,37.61799]],"type":"MultiPoint"}
}
