{
  "id": 2014417943,
  "type": "Feature",
  "properties": {
    "geom:area": 0,
    "geom:bbox": "-122.445190,36.743070,-121.891350,37.611030",
    "geom:latitude": 37.210349638106976,
    "geom:longitude": -122.20311188678106,
    "src:alt_label": "swim-approach",
    "src:geom": "swim",
    "swim:elevations": [
      5423,
      5342,
      5150,
      4951,
      4600,
      4283,
      4206,
      4015,
      3983,
      3732,
      3621,
      3508,
      3416,
      3233,
      3047,
      2956,
      2898,
      2749,
      2503,
      2439,
      2231,
      2143,
      2134,
      2134,
      2134,
      2134,
      2134,
      2021,
      1888,
      1831,
      1575,
      1430,
      1262,
      1185,
      1128,
      914,
      788,
      627,
      547,
      503,
      460,
      214,
      159,
      37
    ],
    "swim:geom": "approach",
    "swim:timestamps": [
      1766956709,
      1766956727,
      1766956757,
      1766956781,
      1766956820,
      1766956854,
      1766956864,
      1766956888,
      1766956897,
      1766956935,
      1766956955,
      1766956976,
      1766956991,
      1766957023,
      1766957050,
      1766957099,
      1766957107,
      1766957133,
      1766957172,
      1766957199,
      1766957247,
      1766957268,
      1766957292,
      1766957317,
      1766957352,
      1766957376,
      1766957427,
      1766957455,
      1766957480,
      1766957505,
      1766957543,
      1766957558,
      1766957591,
      1766957622,
      1766957640,
      1766957684,
      1766957723,
      1766957752,
      1766957770,
      1766957810,
      1766957822,
      1766957876,
      1766957888,
      1766957921
    ],
    "wof:geomhash": "5d7b4e454efbda42350e0816e17f713c",
    "wof:id": 2014417943,
    "wof:repo": "sfomuseum-data-flights-2025-12"
  },
  "bbox": [
    -122.44519,
    36.74307,
    -121.89135,
    37.61103
  ],
  "geometry": {"coordinates":[[-121.89135,36.74307],[-121.9018,36.76946],[-121.91386,36.81296],[-121.92314,36.84557],[-121.93789,36.89783],[-121.96621,36.9397],[-121.98073,36.94896],[-122.01525,36.9709],[-122.02794,36.97917],[-122.0792,37.01252],[-122.10596,37.02998],[-122.13345,37.04822],[-122.15222,37.06065],[-122.19324,37.08795],[-122.22702,37.11032],[-122.28315,37.14762],[-122.29294,37.1542],[-122.32046,37.17269],[-122.36132,37.19952],[-122.38924,37.21778],[-122.4178,37.26131],[-122.42692,37.2818],[-122.43745,37.30498],[-122.44519,37.33022],[-122.41612,37.35186],[-122.38511,37.34602],[-122.31945,37.32957],[-122.28405,37.32101],[-122.25084,37.32113],[-122.22993,37.33859],[-122.20917,37.37111],[-122.20543,37.38583],[-122.19713,37.41792],[-122.19106,37.44412],[-122.18804,37.45824],[-122.19995,37.49099],[-122.21166,37.52056],[-122.21938,37.54294],[-122.22626,37.55674],[-122.26431,37.57207],[-122.27521,37.57663],[-122.31956,37.59535],[-122.32921,37.59944],[-122.35665,37.61103]],"type":"LineString"}
}
