{
  "id": 2014429135,
  "type": "Feature",
  "properties": {
    "geom:area": 0,
    "geom:bbox": "-122.365670,37.630000,-121.248770,38.319780",
    "geom:latitude": 38.008830683134065,
    "geom:longitude": -121.82871766505525,
    "src:alt_label": "swim-takeoff",
    "src:geom": "swim",
    "swim:elevations": [
      213,
      522,
      787,
      1008,
      1366,
      1629,
      2144,
      2737,
      2893,
      3107,
      3411,
      3619,
      4324,
      4656,
      4922,
      5258,
      5476,
      5643,
      5970,
      6023,
      6397,
      6612,
      6914,
      7073,
      7280,
      7522,
      7548
    ],
    "swim:geom": "takeoff",
    "swim:timestamps": [
      1767042684,
      1767042707,
      1767042740,
      1767042771,
      1767042798,
      1767042818,
      1767042855,
      1767042891,
      1767042900,
      1767042931,
      1767042974,
      1767042990,
      1767043043,
      1767043074,
      1767043097,
      1767043130,
      1767043151,
      1767043178,
      1767043224,
      1767043230,
      1767043274,
      1767043295,
      1767043339,
      1767043363,
      1767043398,
      1767043433,
      1767043440
    ],
    "wof:geomhash": "73b41c30d94460b4c54951ae98cbcad8",
    "wof:id": 2014429135,
    "wof:repo": "sfomuseum-data-flights-2025-12"
  },
  "bbox": [
    -122.36567,
    37.63,
    -121.24877,
    38.31978
  ],
  "geometry": {"coordinates":[[-122.36567,37.63],[-122.35136,37.64146],[-122.32297,37.65754],[-122.29096,37.67639],[-122.25799,37.69523],[-122.23018,37.70927],[-122.19103,37.74386],[-122.15625,37.782],[-122.14752,37.7913],[-122.11684,37.82531],[-122.0672,37.87829],[-122.04472,37.8953],[-121.96387,37.95043],[-121.917,37.98218],[-121.88196,38.00596],[-121.82967,38.04123],[-121.79633,38.06382],[-121.75319,38.09282],[-121.6748,38.14137],[-121.66331,38.14641],[-121.57914,38.18186],[-121.53827,38.19897],[-121.45305,38.23461],[-121.40553,38.25449],[-121.33389,38.28438],[-121.26405,38.3134],[-121.24877,38.31978]],"type":"LineString"}
}
