{
  "id": 2014426387,
  "type": "Feature",
  "properties": {
    "geom:area": 0,
    "geom:bbox": "-122.353190,37.491570,-121.276010,37.611910",
    "geom:latitude": 37.5453405050744,
    "geom:longitude": -121.8193022013239,
    "src:alt_label": "swim-approach",
    "src:geom": "swim",
    "swim:elevations": [
      4304,
      4075,
      3899,
      3585,
      3377,
      3188,
      3081,
      2953,
      2832,
      2523,
      2493,
      2366,
      2153,
      2038,
      1894,
      1876,
      1829,
      1797,
      1634,
      1480,
      1402,
      1187,
      1018,
      970,
      761,
      637,
      485,
      333,
      224,
      59,
      49
    ],
    "swim:geom": "approach",
    "swim:timestamps": [
      1767076853,
      1767076880,
      1767076898,
      1767076934,
      1767076961,
      1767076988,
      1767077012,
      1767077055,
      1767077076,
      1767077128,
      1767077137,
      1767077170,
      1767077213,
      1767077237,
      1767077276,
      1767077282,
      1767077304,
      1767077316,
      1767077338,
      1767077359,
      1767077374,
      1767077416,
      1767077454,
      1767077463,
      1767077501,
      1767077534,
      1767077565,
      1767077602,
      1767077626,
      1767077668,
      1767077671
    ],
    "wof:geomhash": "6a4d76ff17600d28f06e70b8c167b661",
    "wof:id": 2014426387,
    "wof:repo": "sfomuseum-data-flights-2025-12"
  },
  "bbox": [
    -122.35319,
    37.49157,
    -121.27601,
    37.61191
  ],
  "geometry": {"coordinates":[[-121.27601,37.59119],[-121.33208,37.58471],[-121.36894,37.58062],[-121.44215,37.57217],[-121.49571,37.56591],[-121.54826,37.56019],[-121.59234,37.55528],[-121.66093,37.54218],[-121.69211,37.5347],[-121.76573,37.517],[-121.77772,37.51417],[-121.8212,37.50387],[-121.87806,37.49172],[-121.91094,37.49157],[-121.96323,37.49313],[-121.97121,37.49339],[-121.99926,37.49829],[-122.01222,37.50266],[-122.03514,37.51012],[-122.05837,37.51762],[-122.07508,37.52286],[-122.12064,37.53782],[-122.16043,37.55068],[-122.16843,37.55326],[-122.20472,37.56505],[-122.23611,37.57505],[-122.26462,37.58417],[-122.29678,37.59331],[-122.3169,37.5995],[-122.35087,37.61091],[-122.35319,37.61191]],"type":"LineString"}
}
