{
  "id": 2014413647,
  "type": "Feature",
  "properties": {
    "geom:area": 0,
    "geom:bbox": "-122.526960,37.628190,-122.155510,38.031030",
    "geom:latitude": 37.83110191118226,
    "geom:longitude": -122.39152020607872,
    "src:alt_label": "swim-takeoff",
    "src:geom": "swim",
    "swim:elevations": [
      183,
      404,
      701,
      1006,
      1188,
      1200,
      1291,
      1607,
      1924,
      2220,
      2723,
      3106,
      3230,
      3482,
      3730,
      4232,
      4490
    ],
    "swim:geom": "takeoff",
    "swim:timestamps": [
      1766846186,
      1766846201,
      1766846227,
      1766846263,
      1766846304,
      1766846308,
      1766846322,
      1766846353,
      1766846378,
      1766846402,
      1766846448,
      1766846477,
      1766846505,
      1766846541,
      1766846586,
      1766846635,
      1766846658
    ],
    "wof:geomhash": "41bae8fb768ff607b7e25f7191ea6d63",
    "wof:id": 2014413647,
    "wof:repo": "sfomuseum-data-flights-2025-12"
  },
  "bbox": [
    -122.52696,
    37.62819,
    -122.15551,
    38.03103
  ],
  "geometry": {"coordinates":[[-122.39772,37.62819],[-122.41232,37.63425],[-122.43605,37.6448],[-122.47096,37.65998],[-122.51468,37.68063],[-122.51821,37.68403],[-122.52469,37.69796],[-122.52608,37.73491],[-122.52696,37.76501],[-122.52434,37.79387],[-122.46739,37.82681],[-122.42575,37.84392],[-122.39071,37.86769],[-122.34061,37.90265],[-122.27256,37.95014],[-122.19379,38.00459],[-122.15551,38.03103]],"type":"LineString"}
}
