{
  "id": 2014409507,
  "type": "Feature",
  "properties": {
    "geom:area": 0,
    "geom:bbox": "-122.362690,37.491940,-121.252900,37.616340",
    "geom:latitude": 37.54675600318199,
    "geom:longitude": -121.81286484234566,
    "src:alt_label": "swim-approach",
    "src:geom": "swim",
    "swim:elevations": [
      4491,
      4121,
      3872,
      3549,
      3424,
      3281,
      3073,
      2972,
      2632,
      2466,
      2437,
      2193,
      2183,
      1859,
      1829,
      1772,
      1651,
      1337,
      1140,
      946,
      916,
      854,
      795,
      467,
      374,
      242,
      183,
      0
    ],
    "swim:geom": "approach",
    "swim:timestamps": [
      1766854087,
      1766854121,
      1766854148,
      1766854197,
      1766854220,
      1766854245,
      1766854280,
      1766854297,
      1766854336,
      1766854376,
      1766854387,
      1766854436,
      1766854440,
      1766854488,
      1766854503,
      1766854528,
      1766854540,
      1766854588,
      1766854617,
      1766854647,
      1766854655,
      1766854700,
      1766854712,
      1766854766,
      1766854789,
      1766854820,
      1766854833,
      1766854885
    ],
    "wof:geomhash": "672ef309c82ac5cefa86d3e4a1909700",
    "wof:id": 2014409507,
    "wof:repo": "sfomuseum-data-flights-2025-12"
  },
  "bbox": [
    -122.36269,
    37.49194,
    -121.2529,
    37.61634
  ],
  "geometry": {"coordinates":[[-121.2529,37.59388],[-121.32451,37.58499],[-121.37976,37.57885],[-121.47407,37.56811],[-121.51645,37.56321],[-121.55957,37.55818],[-121.62005,37.5509],[-121.64783,37.54485],[-121.71275,37.5294],[-121.7761,37.51431],[-121.79258,37.51033],[-121.86654,37.49291],[-121.87216,37.49194],[-121.94539,37.49265],[-121.96687,37.49322],[-121.99992,37.49894],[-122.01497,37.50392],[-122.07502,37.52275],[-122.10907,37.53354],[-122.14456,37.54542],[-122.15474,37.5488],[-122.20335,37.56444],[-122.21484,37.56817],[-122.27018,37.58595],[-122.29085,37.59158],[-122.31454,37.59861],[-122.32427,37.60158],[-122.36269,37.61634]],"type":"LineString"}
}
