{
  "id": 2014433133,
  "type": "Feature",
  "properties": {
    "geom:area": 0,
    "geom:bbox": "-122.363990,36.738520,-121.888110,37.613100",
    "geom:latitude": 37.21802933116545,
    "geom:longitude": -122.07478551908545,
    "src:alt_label": "swim-approach",
    "src:geom": "swim",
    "swim:elevations": [
      4932,
      4709,
      4540,
      4284,
      3998,
      3743,
      3502,
      3271,
      3171,
      3103,
      2945,
      2781,
      2552,
      2370,
      2192,
      2031,
      1738,
      1736,
      1665,
      1583,
      1307,
      1183,
      921,
      813,
      546,
      454,
      371,
      179,
      119,
      0
    ],
    "swim:geom": "approach",
    "swim:timestamps": [
      1767130334,
      1767130359,
      1767130377,
      1767130406,
      1767130438,
      1767130468,
      1767130497,
      1767130527,
      1767130549,
      1767130574,
      1767130616,
      1767130643,
      1767130678,
      1767130704,
      1767130728,
      1767130758,
      1767130795,
      1767130801,
      1767130823,
      1767130837,
      1767130886,
      1767130903,
      1767130934,
      1767130952,
      1767131006,
      1767131026,
      1767131043,
      1767131096,
      1767131112,
      1767131140
    ],
    "wof:geomhash": "127d108830e6a67c026ee448903dac99",
    "wof:id": 2014433133,
    "wof:repo": "sfomuseum-data-flights-2025-12"
  },
  "bbox": [
    -122.36399,
    36.73852,
    -121.88811,
    37.6131
  ],
  "geometry": {"coordinates":[[-121.88811,36.73852],[-121.9048,36.77998],[-121.91346,36.81036],[-121.92692,36.85879],[-121.94142,36.91209],[-121.956,36.96023],[-121.97381,37.00482],[-121.99147,37.05069],[-122.00453,37.0839],[-122.01834,37.11888],[-122.03951,37.17355],[-122.05295,37.20814],[-122.07072,37.25295],[-122.08326,37.28489],[-122.0953,37.31528],[-122.10988,37.35262],[-122.1267,37.3967],[-122.12902,37.40389],[-122.13671,37.42757],[-122.14172,37.44236],[-122.16494,37.48797],[-122.17666,37.50079],[-122.1978,37.52366],[-122.21007,37.53691],[-122.25392,37.56794],[-122.27208,37.57564],[-122.28626,37.58147],[-122.32751,37.59887],[-122.34067,37.60425],[-122.36399,37.6131]],"type":"LineString"}
}
