{
  "id": 2014439381,
  "type": "Feature",
  "properties": {
    "geom:area": 0,
    "geom:bbox": "-122.435100,37.260630,-121.255590,37.708200",
    "geom:latitude": 37.453573429228356,
    "geom:longitude": -121.94008358709745,
    "src:alt_label": "swim-takeoff",
    "src:geom": "swim",
    "swim:elevations": [
      330,
      777,
      908,
      1093,
      1230,
      1587,
      1793,
      2545,
      2696,
      3140,
      3314,
      3401,
      3521,
      3881,
      4082,
      4680,
      5034,
      5296,
      5405,
      5726,
      6043,
      6255,
      6481,
      6805,
      7047,
      7133,
      7286,
      7411,
      7613,
      7620
    ],
    "swim:geom": "takeoff",
    "swim:timestamps": [
      1767129771,
      1767129807,
      1767129820,
      1767129838,
      1767129856,
      1767129896,
      1767129908,
      1767129956,
      1767129966,
      1767130001,
      1767130022,
      1767130034,
      1767130055,
      1767130095,
      1767130112,
      1767130160,
      1767130187,
      1767130211,
      1767130226,
      1767130258,
      1767130287,
      1767130307,
      1767130328,
      1767130365,
      1767130394,
      1767130407,
      1767130433,
      1767130453,
      1767130482,
      1767130512
    ],
    "wof:geomhash": "a6c7b79c8defb615008ae75c109e7df3",
    "wof:id": 2014439381,
    "wof:repo": "sfomuseum-data-flights-2025-12"
  },
  "bbox": [
    -122.4351,
    37.26063,
    -121.25559,
    37.7082
  ],
  "geometry": {"coordinates":[[-122.36423,37.6404],[-122.36325,37.6691],[-122.3628,37.67933],[-122.3656,37.69449],[-122.37836,37.7082],[-122.42754,37.70313],[-122.4351,37.69011],[-122.42984,37.63604],[-122.428,37.62422],[-122.4205,37.58072],[-122.40529,37.55548],[-122.38761,37.5454],[-122.34873,37.53463],[-122.26664,37.51606],[-122.22929,37.50709],[-122.12269,37.48063],[-122.06315,37.46558],[-122.00841,37.45163],[-121.97346,37.44284],[-121.89786,37.42365],[-121.82865,37.40625],[-121.77995,37.39399],[-121.72884,37.38115],[-121.63791,37.35809],[-121.56493,37.33959],[-121.53184,37.33121],[-121.46393,37.31385],[-121.41112,37.30037],[-121.33573,37.28117],[-121.25559,37.26063]],"type":"LineString"}
}
