{
  "id": 2014435055,
  "type": "Feature",
  "properties": {
    "geom:area": 0,
    "geom:bbox": "-122.807920,37.555060,-122.091600,38.417720",
    "geom:latitude": 37.84864157071395,
    "geom:longitude": -122.48497199182765,
    "src:alt_label": "swim-approach",
    "src:geom": "swim",
    "swim:elevations": [
      7437,
      7286,
      6832,
      6519,
      6316,
      6095,
      5719,
      5418,
      5401,
      4832,
      4691,
      4533,
      4321,
      4230,
      3959,
      3491,
      3442,
      3353,
      3353,
      3211,
      3097,
      2978,
      2593,
      2287,
      2114,
      2042,
      1799,
      1657,
      1521,
      1288,
      1170,
      874,
      762,
      597,
      460,
      446,
      267,
      165,
      0
    ],
    "swim:geom": "approach",
    "swim:timestamps": [
      1767128725,
      1767128741,
      1767128786,
      1767128816,
      1767128837,
      1767128859,
      1767128900,
      1767128932,
      1767128942,
      1767128997,
      1767129013,
      1767129030,
      1767129052,
      1767129061,
      1767129091,
      1767129143,
      1767129152,
      1767129194,
      1767129230,
      1767129245,
      1767129257,
      1767129272,
      1767129318,
      1767129358,
      1767129384,
      1767129394,
      1767129446,
      1767129462,
      1767129490,
      1767129538,
      1767129563,
      1767129593,
      1767129605,
      1767129632,
      1767129656,
      1767129662,
      1767129701,
      1767129724,
      1767129760
    ],
    "wof:geomhash": "1197cc3c646832ac019bbdf338d0b1ce",
    "wof:id": 2014435055,
    "wof:repo": "sfomuseum-data-flights-2025-12"
  },
  "bbox": [
    -122.80792,
    37.55506,
    -122.0916,
    38.41772
  ],
  "geometry": {"coordinates":[[-122.80792,38.41772],[-122.80093,38.39118],[-122.78083,38.31379],[-122.76761,38.26368],[-122.75849,38.22873],[-122.74909,38.19247],[-122.73167,38.12502],[-122.71848,38.07396],[-122.71462,38.05934],[-122.69208,37.97283],[-122.68572,37.94845],[-122.67898,37.92296],[-122.6624,37.89103],[-122.65238,37.87996],[-122.61497,37.84413],[-122.55185,37.78509],[-122.54121,37.77491],[-122.49363,37.72982],[-122.44571,37.70458],[-122.42037,37.69914],[-122.40083,37.69494],[-122.37662,37.68958],[-122.3045,37.67409],[-122.24366,37.65842],[-122.20853,37.64547],[-122.19528,37.64052],[-122.12847,37.61461],[-122.10727,37.60544],[-122.0916,37.57785],[-122.14135,37.55506],[-122.17216,37.55651],[-122.2051,37.56523],[-122.21787,37.5693],[-122.24542,37.57796],[-122.2701,37.58568],[-122.27587,37.58722],[-122.30972,37.59739],[-122.32929,37.60325],[-122.35895,37.61434]],"type":"LineString"}
}
