{
  "id": 2014426607,
  "type": "Feature",
  "properties": {
    "geom:area": 0,
    "geom:bbox": "-122.364920,36.726460,-121.881590,37.614250",
    "geom:latitude": 37.21369249557654,
    "geom:longitude": -122.07277019385202,
    "src:alt_label": "swim-approach",
    "src:geom": "swim",
    "swim:elevations": [
      5483,
      5308,
      5010,
      4666,
      4563,
      4365,
      3901,
      3603,
      3326,
      3139,
      3077,
      2952,
      2824,
      2474,
      2316,
      2208,
      1985,
      1730,
      1642,
      1476,
      1109,
      1034,
      890,
      822,
      704,
      579,
      556,
      327,
      205,
      121,
      449
    ],
    "swim:geom": "approach",
    "swim:timestamps": [
      1766995396,
      1766995415,
      1766995433,
      1766995467,
      1766995482,
      1766995502,
      1766995551,
      1766995585,
      1766995616,
      1766995648,
      1766995666,
      1766995693,
      1766995712,
      1766995763,
      1766995790,
      1766995802,
      1766995835,
      1766995880,
      1766995901,
      1766995927,
      1766995975,
      1766995987,
      1766996008,
      1766996026,
      1766996043,
      1766996067,
      1766996073,
      1766996126,
      1766996152,
      1766996168,
      1766996201
    ],
    "wof:geomhash": "12d951b1dd3002ed6b0edb77458f9ade",
    "wof:id": 2014426607,
    "wof:repo": "sfomuseum-data-flights-2025-12"
  },
  "bbox": [
    -122.36492,
    36.72646,
    -121.88159,
    37.61425
  ],
  "geometry": {"coordinates":[[-121.88159,36.72646],[-121.89708,36.75549],[-121.90631,36.78557],[-121.92172,36.84117],[-121.92843,36.86497],[-121.93721,36.89536],[-121.96051,36.97062],[-121.98016,37.02125],[-121.99769,37.0666],[-122.01613,37.1132],[-122.02574,37.13793],[-122.0395,37.17318],[-122.04876,37.19682],[-122.07396,37.26114],[-122.08775,37.29607],[-122.09364,37.31122],[-122.10953,37.35196],[-122.12945,37.4057],[-122.13777,37.43027],[-122.14811,37.459],[-122.17691,37.50739],[-122.18471,37.51884],[-122.19769,37.53708],[-122.21138,37.54933],[-122.22881,37.55661],[-122.25213,37.56681],[-122.2576,37.56923],[-122.30187,37.58786],[-122.32351,37.59691],[-122.33701,37.60267],[-122.36492,37.61425]],"type":"LineString"}
}
