{
  "id": 2014409585,
  "type": "Feature",
  "properties": {
    "geom:area": 0,
    "geom:bbox": "-122.359180,37.491300,-121.279310,37.614840",
    "geom:latitude": 37.545526508114264,
    "geom:longitude": -121.82421157292694,
    "src:alt_label": "swim-approach",
    "src:geom": "swim",
    "swim:elevations": [
      4586,
      4534,
      4119,
      4051,
      3861,
      3615,
      3520,
      3470,
      3446,
      3170,
      3137,
      2746,
      2457,
      2038,
      1938,
      1829,
      1829,
      1794,
      1705,
      1498,
      1318,
      1079,
      872,
      760,
      685,
      555,
      401,
      294,
      112,
      11
    ],
    "swim:geom": "approach",
    "swim:timestamps": [
      1766856414,
      1766856422,
      1766856472,
      1766856488,
      1766856534,
      1766856568,
      1766856582,
      1766856602,
      1766856615,
      1766856654,
      1766856660,
      1766856711,
      1766856736,
      1766856776,
      1766856796,
      1766856837,
      1766856841,
      1766856859,
      1766856883,
      1766856927,
      1766856948,
      1766856987,
      1766857017,
      1766857047,
      1766857061,
      1766857090,
      1766857125,
      1766857152,
      1766857197,
      1766857220
    ],
    "wof:geomhash": "c66cd2b9d259fe373646ea6852e0cabe",
    "wof:id": 2014409585,
    "wof:repo": "sfomuseum-data-flights-2025-12"
  },
  "bbox": [
    -122.35918,
    37.4913,
    -121.27931,
    37.61484
  ],
  "geometry": {"coordinates":[[-121.27931,37.59047],[-121.29593,37.58841],[-121.39676,37.57728],[-121.4278,37.57362],[-121.5128,37.56369],[-121.57211,37.55696],[-121.59648,37.55412],[-121.62892,37.54962],[-121.65067,37.54448],[-121.71124,37.53004],[-121.72057,37.52784],[-121.79822,37.50917],[-121.83535,37.50065],[-121.90027,37.4913],[-121.92965,37.49183],[-121.98594,37.49492],[-121.9913,37.49596],[-122.01418,37.50269],[-122.043,37.51276],[-122.09193,37.52863],[-122.11366,37.53561],[-122.15375,37.54789],[-122.18304,37.55723],[-122.21076,37.56624],[-122.22331,37.57051],[-122.24996,37.57954],[-122.2806,37.58827],[-122.30341,37.59471],[-122.34111,37.60717],[-122.35918,37.61484]],"type":"LineString"}
}
