{
  "id": 2014435401,
  "type": "Feature",
  "properties": {
    "date:cessation_lower": "2025-12-30",
    "date:cessation_upper": "2025-12-30",
    "date:inception_lower": "1970-01-01",
    "date:inception_upper": "1970-01-01",
    "edtf:cessation": "2025-12-30T14:15:10-08:00",
    "edtf:inception": "1970-01-01T00:00:00Z",
    "flysfo:actual_timestamp": -1,
    "flysfo:airline": "UA",
    "flysfo:date": "2025-12-30",
    "flysfo:estimated_timestamp": 1767162300,
    "flysfo:event": "A",
    "flysfo:flight_number": "UA3938",
    "flysfo:gate": "A2",
    "flysfo:journey": "LHR-SFO",
    "flysfo:scheduled_timestamp": 1767159240,
    "flysfo:timestamp": 1767162300,
    "geom:area": 0,
    "geom:bbox": "-122.370943,37.617990,-0.450443,51.470087",
    "geom:latitude": 44.5440385,
    "geom:longitude": -61.410693,
    "iata:airline": "UA",
    "icao:aircraft": "B772",
    "icao:airline": "UAL",
    "lbl:latitude": 37.61799,
    "lbl:longitude": -122.370943,
    "sfomuseum:aircraft_id": 1159289985,
    "sfomuseum:airline_id": 1159285413,
    "sfomuseum:arrival_id": 102527513,
    "sfomuseum:departure_id": 102556703,
    "sfomuseum:flight_id": "20251230-A-UAL-3938",
    "sfomuseum:flight_number": [
      "UAL3938",
      "UA3938"
    ],
    "sfomuseum:placetype": "flight",
    "src:geom": "flysfo",
    "src:geom_alt": [
      "swim-approach"
    ],
    "swim:tail_number": "N78001",
    "wof:belongsto": [
      1947304067,
      102527513,
      1947304073,
      102191575,
      85633793,
      102087579,
      85922583,
      554784711,
      85688637,
      1947304075,
      1947304069,
      102085387
    ],
    "wof:country": "US",
    "wof:created": 1767197321,
    "wof:geomhash": "c7bf5337358552a3a60caed0c1e9ea63",
    "wof:hierarchy": [
      {
        "building_id": 1947304067,
        "campus_id": 102527513,
        "concourse_id": 1947304073,
        "continent_id": 102191575,
        "country_id": 85633793,
        "county_id": 102087579,
        "custom_id": 2014435401,
        "flight_id": 2014435401,
        "locality_id": 85922583,
        "postalcode_id": 554784711,
        "region_id": 85688637,
        "venue_id": 1947304075,
        "wing_id": 1947304069
      },
      {
        "building_id": 1947304067,
        "campus_id": 102527513,
        "concourse_id": 1947304073,
        "continent_id": 102191575,
        "country_id": 85633793,
        "county_id": 102085387,
        "custom_id": 2014435401,
        "flight_id": 2014435401,
        "region_id": 85688637,
        "venue_id": 1947304075,
        "wing_id": 1947304069
      }
    ],
    "wof:id": 2014435401,
    "wof:involves": [
      102556703,
      1159285413,
      1947304075,
      1159289985,
      102527513
    ],
    "wof:lastmodified": 1767197908,
    "wof:name": "UA3938 (LHR-SFO)",
    "wof:parent_id": 1947304075,
    "wof:placetype": "custom",
    "wof:placetype_alt": [
      "flight"
    ],
    "wof:repo": "sfomuseum-data-flights-2025-12",
    "wof:superseded_by": [],
    "wof:supersedes": []
  },
  "bbox": [
    -122.370943,
    37.61799,
    -0.450443,
    51.470087
  ],
  "geometry": {"coordinates":[[-0.450443,51.470087],[-122.370943,37.61799]],"type":"MultiPoint"}
}
