{
  "id": 2014441687,
  "type": "Feature",
  "properties": {
    "geom:area": 0,
    "geom:bbox": "-122.351990,37.493590,-121.260530,37.611360",
    "geom:latitude": 37.54217017348509,
    "geom:longitude": -121.81319308357635,
    "src:alt_label": "swim-approach",
    "src:geom": "swim",
    "swim:elevations": [
      4464,
      4170,
      3870,
      3637,
      3232,
      3145,
      3011,
      2796,
      2669,
      2437,
      2266,
      2251,
      1966,
      1828,
      1829,
      1505,
      1279,
      1230,
      1032,
      881,
      796,
      572,
      413,
      227,
      111,
      54
    ],
    "swim:geom": "approach",
    "swim:timestamps": [
      1767185376,
      1767185409,
      1767185443,
      1767185466,
      1767185511,
      1767185536,
      1767185575,
      1767185604,
      1767185623,
      1767185666,
      1767185697,
      1767185700,
      1767185756,
      1767185786,
      1767185800,
      1767185846,
      1767185877,
      1767185897,
      1767185935,
      1767185962,
      1767185974,
      1767186009,
      1767186037,
      1767186081,
      1767186107,
      1767186123
    ],
    "wof:geomhash": "cc4654d9bd37a81b41089314fb79342d",
    "wof:id": 2014441687,
    "wof:repo": "sfomuseum-data-flights-2025-12"
  },
  "bbox": [
    -122.35199,
    37.49359,
    -121.26053,
    37.61136
  ],
  "geometry": {"coordinates":[[-121.26053,37.59322],[-121.32951,37.58483],[-121.3986,37.5773],[-121.4453,37.572],[-121.53491,37.56135],[-121.58181,37.55584],[-121.64923,37.54504],[-121.69631,37.53384],[-121.72565,37.52676],[-121.79205,37.51079],[-121.83725,37.49997],[-121.84161,37.49889],[-121.92633,37.49359],[-121.97009,37.4961],[-121.98903,37.49735],[-122.04786,37.50063],[-122.09103,37.5034],[-122.11761,37.51184],[-122.16533,37.53291],[-122.2002,37.54758],[-122.21472,37.55364],[-122.25453,37.57045],[-122.2827,37.58218],[-122.32054,37.59809],[-122.33987,37.60632],[-122.35199,37.61136]],"type":"LineString"}
}
