{
  "id": 2014414127,
  "type": "Feature",
  "properties": {
    "geom:area": 0,
    "geom:bbox": "-123.499060,37.553770,-122.396670,37.690490",
    "geom:latitude": 37.64298023182476,
    "geom:longitude": -122.94636908889173,
    "src:alt_label": "swim-takeoff",
    "src:geom": "swim",
    "swim:elevations": [
      183,
      378,
      651,
      908,
      1163,
      1373,
      1636,
      1728,
      2368,
      2707,
      3082,
      3168,
      3334,
      3552,
      3833,
      4172,
      4418,
      4611,
      4878,
      5343,
      5435,
      5534
    ],
    "swim:geom": "takeoff",
    "swim:timestamps": [
      1766885906,
      1766885919,
      1766885943,
      1766885973,
      1766886024,
      1766886051,
      1766886084,
      1766886093,
      1766886147,
      1766886177,
      1766886204,
      1766886222,
      1766886267,
      1766886294,
      1766886325,
      1766886358,
      1766886382,
      1766886401,
      1766886428,
      1766886476,
      1766886488,
      1766886512
    ],
    "wof:geomhash": "0e23f69ad264380bbea6120eb0d00271",
    "wof:id": 2014414127,
    "wof:repo": "sfomuseum-data-flights-2025-12"
  },
  "bbox": [
    -123.49906,
    37.55377,
    -122.39667,
    37.69049
  ],
  "geometry": {"coordinates":[[-122.39667,37.62764],[-122.40931,37.63293],[-122.43256,37.64323],[-122.46273,37.65645],[-122.52114,37.67615],[-122.56117,37.67842],[-122.61416,37.68116],[-122.62922,37.6821],[-122.72092,37.68746],[-122.77354,37.69049],[-122.82109,37.69034],[-122.85295,37.68532],[-122.94195,37.66731],[-122.99934,37.65563],[-123.06698,37.64215],[-123.14083,37.62726],[-123.19491,37.61634],[-123.23849,37.60745],[-123.30077,37.59469],[-123.41308,37.57152],[-123.44158,37.56559],[-123.49906,37.55377]],"type":"LineString"}
}
