{
  "id": 2014435699,
  "type": "Feature",
  "properties": {
    "geom:area": 0,
    "geom:bbox": "-123.507110,37.262720,-122.143570,37.610990",
    "geom:latitude": 37.371891508687256,
    "geom:longitude": -122.70899102515088,
    "src:alt_label": "swim-approach",
    "src:geom": "swim",
    "swim:elevations": [
      5839,
      5772,
      5596,
      5369,
      5172,
      4857,
      4736,
      4400,
      4316,
      4196,
      4133,
      3816,
      3574,
      3388,
      3168,
      3111,
      3048,
      3048,
      3031,
      2771,
      2476,
      2438,
      2438,
      2438,
      2438,
      2438,
      2251,
      2143,
      1965,
      1832,
      1829,
      1829,
      1829,
      1829,
      1829,
      1829,
      1792,
      1636,
      1339,
      1143,
      1040,
      1019,
      915,
      914,
      914,
      870,
      703,
      493,
      433,
      344,
      210,
      122,
      3
    ],
    "swim:geom": "approach",
    "swim:timestamps": [
      1767084778,
      1767084784,
      1767084806,
      1767084838,
      1767084856,
      1767084892,
      1767084905,
      1767084945,
      1767084956,
      1767084969,
      1767084978,
      1767085014,
      1767085042,
      1767085066,
      1767085102,
      1767085117,
      1767085162,
      1767085173,
      1767085194,
      1767085223,
      1767085252,
      1767085264,
      1767085318,
      1767085340,
      1767085352,
      1767085370,
      1767085408,
      1767085420,
      1767085446,
      1767085480,
      1767085506,
      1767085525,
      1767085530,
      1767085556,
      1767085568,
      1767085601,
      1767085626,
      1767085652,
      1767085690,
      1767085724,
      1767085738,
      1767085741,
      1767085765,
      1767085795,
      1767085826,
      1767085840,
      1767085874,
      1767085916,
      1767085925,
      1767085943,
      1767085977,
      1767086004,
      1767086025
    ],
    "wof:geomhash": "98a1d17f25a6b2b647be7020b4aaef57",
    "wof:id": 2014435699,
    "wof:repo": "sfomuseum-data-flights-2025-12"
  },
  "bbox": [
    -123.50711,
    37.26272,
    -122.14357,
    37.61099
  ],
  "geometry": {"coordinates":[[-123.50711,37.45806],[-123.49576,37.45457],[-123.45445,37.44181],[-123.39547,37.42356],[-123.3619,37.41314],[-123.29566,37.39257],[-123.2737,37.38587],[-123.20418,37.36438],[-123.18501,37.35844],[-123.16265,37.35133],[-123.14719,37.34644],[-123.08457,37.32706],[-123.03673,37.31213],[-122.99771,37.29987],[-122.93897,37.28145],[-122.91472,37.27379],[-122.84361,37.26272],[-122.82683,37.26635],[-122.79358,37.27385],[-122.74869,37.28454],[-122.70431,37.29486],[-122.6848,37.29939],[-122.60153,37.31875],[-122.56931,37.32619],[-122.55139,37.32815],[-122.52708,37.32305],[-122.48047,37.30735],[-122.46578,37.30243],[-122.43401,37.2915],[-122.39011,37.2874],[-122.3596,37.29921],[-122.33666,37.3087],[-122.33094,37.31105],[-122.29995,37.3238],[-122.28548,37.32987],[-122.24666,37.34613],[-122.21613,37.35897],[-122.186,37.37157],[-122.16086,37.40448],[-122.15133,37.43948],[-122.14688,37.4551],[-122.14596,37.4583],[-122.14357,37.48299],[-122.15796,37.50906],[-122.17622,37.53376],[-122.18991,37.54073],[-122.22423,37.55511],[-122.26694,37.57346],[-122.27582,37.57688],[-122.29234,37.58379],[-122.31985,37.59551],[-122.34051,37.60419],[-122.35683,37.61099]],"type":"LineString"}
}
