{
  "id": 2014426047,
  "type": "Feature",
  "properties": {
    "geom:area": 0,
    "geom:bbox": "-122.336870,36.739790,-121.889320,37.605040",
    "geom:latitude": 37.21315826991018,
    "geom:longitude": -122.06761579555817,
    "src:alt_label": "swim-approach",
    "src:geom": "swim",
    "swim:elevations": [
      5499,
      5435,
      5233,
      4687,
      4524,
      3962,
      3812,
      3337,
      3165,
      3093,
      2975,
      2705,
      2476,
      2204,
      2193,
      2167,
      1977,
      1806,
      1688,
      1465,
      1222,
      1073,
      885,
      749,
      633,
      575,
      389,
      213,
      121
    ],
    "swim:geom": "approach",
    "swim:timestamps": [
      1767016253,
      1767016271,
      1767016293,
      1767016339,
      1767016351,
      1767016405,
      1767016419,
      1767016465,
      1767016485,
      1767016503,
      1767016541,
      1767016582,
      1767016611,
      1767016645,
      1767016649,
      1767016654,
      1767016701,
      1767016733,
      1767016766,
      1767016797,
      1767016828,
      1767016853,
      1767016885,
      1767016908,
      1767016929,
      1767016956,
      1767016991,
      1767017030,
      1767017048
    ],
    "wof:geomhash": "8703e97e685e9d67d06bed27fcd00e82",
    "wof:id": 2014426047,
    "wof:repo": "sfomuseum-data-flights-2025-12"
  },
  "bbox": [
    -122.33687,
    36.73979,
    -121.88932,
    37.60504
  ],
  "geometry": {"coordinates":[[-121.88932,36.73979],[-121.90118,36.76807],[-121.91126,36.80308],[-121.93171,36.87575],[-121.93713,36.89559],[-121.96468,36.9817],[-121.97308,37.00343],[-122.00101,37.07548],[-122.01244,37.10465],[-122.02324,37.13211],[-122.04398,37.18433],[-122.06468,37.23718],[-122.07876,37.27363],[-122.09539,37.31614],[-122.09741,37.3212],[-122.10013,37.328],[-122.12163,37.38245],[-122.13313,37.41623],[-122.14384,37.44809],[-122.15333,37.47606],[-122.16303,37.50373],[-122.17068,37.52498],[-122.18976,37.54612],[-122.2128,37.55516],[-122.23486,37.56229],[-122.26026,37.57233],[-122.28999,37.58518],[-122.32226,37.59886],[-122.33687,37.60504]],"type":"LineString"}
}
