{
  "id": 2014443479,
  "type": "Feature",
  "properties": {
    "geom:area": 0,
    "geom:bbox": "-122.593740,37.356790,-121.270140,37.674860",
    "geom:latitude": 37.523790195698886,
    "geom:longitude": -122.10276741769538,
    "src:alt_label": "swim-approach",
    "src:geom": "swim",
    "swim:elevations": [
      4387,
      4086,
      3841,
      3818,
      3322,
      3260,
      3199,
      3057,
      2906,
      2710,
      2437,
      2386,
      2141,
      2132,
      2129,
      2006,
      1804,
      1709,
      1655,
      1399,
      1249,
      1052,
      845,
      552,
      565,
      794,
      914,
      914,
      914,
      914,
      984,
      1278,
      1828,
      1830,
      1829,
      1829,
      1829,
      1829,
      1829,
      1829,
      1829,
      1829,
      1829,
      1829,
      1829,
      1829,
      1829,
      1829,
      1829,
      1802,
      1668,
      1597,
      1525,
      1427,
      1410,
      1304,
      1128,
      1043,
      913,
      872,
      702,
      594,
      369,
      241,
      174,
      0
    ],
    "swim:geom": "approach",
    "swim:timestamps": [
      1767215509,
      1767215546,
      1767215577,
      1767215580,
      1767215637,
      1767215642,
      1767215654,
      1767215696,
      1767215726,
      1767215750,
      1767215786,
      1767215815,
      1767215845,
      1767215848,
      1767215872,
      1767215901,
      1767215933,
      1767215963,
      1767215975,
      1767216028,
      1767216049,
      1767216079,
      1767216106,
      1767216145,
      1767216170,
      1767216206,
      1767216233,
      1767216245,
      1767216254,
      1767216293,
      1767216317,
      1767216340,
      1767216382,
      1767216397,
      1767216425,
      1767216455,
      1767216476,
      1767216481,
      1767216533,
      1767216560,
      1767216595,
      1767216622,
      1767216649,
      1767216658,
      1767216676,
      1767216692,
      1767216736,
      1767216754,
      1767216792,
      1767216811,
      1767216838,
      1767216853,
      1767216874,
      1767216927,
      1767216930,
      1767216969,
      1767217015,
      1767217039,
      1767217059,
      1767217068,
      1767217098,
      1767217119,
      1767217166,
      1767217193,
      1767217211,
      1767217249
    ],
    "wof:geomhash": "196dcfe279209555e9b3d64dce4694cb",
    "wof:id": 2014443479,
    "wof:repo": "sfomuseum-data-flights-2025-12"
  },
  "bbox": [
    -122.59374,
    37.35679,
    -121.27014,
    37.67486
  ],
  "geometry": {"coordinates":[[-121.27014,37.5915],[-121.3438,37.58336],[-121.40378,37.57677],[-121.40963,37.57609],[-121.51701,37.56347],[-121.52834,37.56215],[-121.55091,37.55948],[-121.62777,37.55004],[-121.6771,37.53827],[-121.7157,37.52917],[-121.77191,37.51589],[-121.81694,37.50485],[-121.86343,37.49377],[-121.86816,37.49303],[-121.90769,37.49277],[-121.95434,37.4952],[-122.0065,37.49819],[-122.0536,37.50125],[-122.0712,37.50244],[-122.14113,37.52268],[-122.16767,37.53375],[-122.20452,37.54945],[-122.23583,37.56247],[-122.27829,37.58041],[-122.30441,37.59127],[-122.34309,37.60754],[-122.37936,37.62234],[-122.39663,37.62921],[-122.4096,37.63435],[-122.46357,37.65693],[-122.4952,37.67116],[-122.52774,37.67486],[-122.55979,37.64249],[-122.56512,37.62683],[-122.57499,37.59746],[-122.58496,37.56817],[-122.59231,37.54656],[-122.59374,37.5416],[-122.55885,37.49936],[-122.53106,37.48071],[-122.4957,37.45694],[-122.46832,37.43853],[-122.44098,37.42008],[-122.43188,37.41395],[-122.41374,37.40163],[-122.39742,37.39051],[-122.35269,37.36097],[-122.32918,37.35679],[-122.27584,37.35812],[-122.25021,37.35886],[-122.21224,37.35977],[-122.19145,37.36264],[-122.16835,37.37901],[-122.1265,37.43579],[-122.12417,37.43898],[-122.11351,37.48158],[-122.14386,37.52003],[-122.16713,37.53375],[-122.18849,37.54249],[-122.19813,37.54651],[-122.22875,37.55958],[-122.24976,37.56838],[-122.29279,37.58641],[-122.31422,37.59553],[-122.32816,37.60139],[-122.35888,37.61422]],"type":"LineString"}
}
