{
  "id": 2014424985,
  "type": "Feature",
  "properties": {
    "geom:area": 0,
    "geom:bbox": "-122.360810,37.491410,-121.248750,37.614930",
    "geom:latitude": 37.54705035917963,
    "geom:longitude": -121.80975677681619,
    "src:alt_label": "swim-approach",
    "src:geom": "swim",
    "swim:elevations": [
      4388,
      4009,
      3737,
      3479,
      3244,
      3104,
      2946,
      2833,
      2584,
      2467,
      2420,
      2107,
      2015,
      1994,
      1772,
      1532,
      1345,
      1159,
      968,
      822,
      714,
      640,
      577,
      487,
      381,
      336,
      236,
      95,
      0
    ],
    "swim:geom": "approach",
    "swim:timestamps": [
      1767040053,
      1767040094,
      1767040127,
      1767040158,
      1767040183,
      1767040223,
      1767040256,
      1767040277,
      1767040316,
      1767040338,
      1767040354,
      1767040408,
      1767040434,
      1767040441,
      1767040490,
      1767040524,
      1767040546,
      1767040574,
      1767040607,
      1767040635,
      1767040661,
      1767040685,
      1767040700,
      1767040731,
      1767040765,
      1767040775,
      1767040806,
      1767040842,
      1767040863
    ],
    "wof:geomhash": "6a0cb1fb24e8cf16bdffb0212fbf1f0f",
    "wof:id": 2014424985,
    "wof:repo": "sfomuseum-data-flights-2025-12"
  },
  "bbox": [
    -122.36081,
    37.49141,
    -121.24875,
    37.61493
  ],
  "geometry": {"coordinates":[[-121.24875,37.59458],[-121.33706,37.58393],[-121.40432,37.57659],[-121.46837,37.56923],[-121.51879,37.56332],[-121.5942,37.5544],[-121.65223,37.54423],[-121.68771,37.53588],[-121.75191,37.52046],[-121.78695,37.512],[-121.809,37.50666],[-121.88503,37.49141],[-121.92123,37.49185],[-121.92985,37.49208],[-121.99347,37.4968],[-122.03443,37.50964],[-122.06171,37.51858],[-122.09423,37.52925],[-122.13382,37.54222],[-122.16568,37.55242],[-122.19367,37.56161],[-122.21846,37.56955],[-122.2327,37.57408],[-122.2584,37.58233],[-122.28517,37.59008],[-122.29284,37.59232],[-122.31746,37.59957],[-122.34544,37.60846],[-122.36081,37.61493]],"type":"LineString"}
}
