{
  "id": 2014436207,
  "type": "Feature",
  "properties": {
    "geom:area": 0,
    "geom:bbox": "-122.385690,37.632220,-121.256180,38.419020",
    "geom:latitude": 38.084969070133084,
    "geom:longitude": -121.92894226969297,
    "src:alt_label": "swim-takeoff",
    "src:geom": "swim",
    "swim:elevations": [
      183,
      419,
      686,
      1064,
      1133,
      1914,
      2244,
      2352,
      2471,
      2833,
      3222,
      3384,
      3878,
      4162,
      4456,
      4789,
      5288,
      5427,
      5812,
      6014,
      6310,
      6490,
      6668,
      6868,
      7051,
      7246,
      7341,
      7394,
      7456,
      7656
    ],
    "swim:geom": "takeoff",
    "swim:timestamps": [
      1767135058,
      1767135072,
      1767135109,
      1767135145,
      1767135150,
      1767135205,
      1767135226,
      1767135232,
      1767135240,
      1767135272,
      1767135314,
      1767135341,
      1767135385,
      1767135416,
      1767135437,
      1767135464,
      1767135507,
      1767135529,
      1767135565,
      1767135583,
      1767135612,
      1767135632,
      1767135654,
      1767135686,
      1767135717,
      1767135748,
      1767135766,
      1767135781,
      1767135790,
      1767135822
    ],
    "wof:geomhash": "da3351cdeda57dacadd9751a33624377",
    "wof:id": 2014436207,
    "wof:repo": "sfomuseum-data-flights-2025-12"
  },
  "bbox": [
    -122.38569,
    37.63222,
    -121.25618,
    38.41902
  ],
  "geometry": {"coordinates":[[-122.36408,37.63222],[-122.35731,37.64119],[-122.32969,37.66318],[-122.31245,37.69825],[-122.31396,37.70426],[-122.34789,37.76805],[-122.36045,37.79335],[-122.36411,37.80084],[-122.36978,37.81211],[-122.38569,37.85377],[-122.37776,37.91686],[-122.3453,37.9544],[-122.25809,37.9914],[-122.19335,38.01692],[-122.14826,38.03505],[-122.09064,38.05826],[-121.99818,38.0952],[-121.95058,38.11443],[-121.86791,38.14753],[-121.82708,38.16385],[-121.76247,38.18937],[-121.71525,38.20805],[-121.66346,38.22845],[-121.586,38.25903],[-121.50939,38.28924],[-121.43116,38.31987],[-121.38706,38.3399],[-121.35223,38.35932],[-121.33147,38.37228],[-121.25618,38.41902]],"type":"LineString"}
}
