{
  "id": 2014443931,
  "type": "Feature",
  "properties": {
    "geom:area": 0,
    "geom:bbox": "-122.900420,37.429260,-122.149420,38.433890",
    "geom:latitude": 37.8263474460995,
    "geom:longitude": -122.51666770648643,
    "src:alt_label": "swim-approach",
    "src:geom": "swim",
    "swim:elevations": [
      7529,
      7199,
      7002,
      6888,
      6785,
      6485,
      6271,
      6011,
      5852,
      5481,
      5303,
      5157,
      4903,
      4526,
      4364,
      4175,
      3885,
      3765,
      3554,
      3426,
      3354,
      3352,
      3352,
      3354,
      3353,
      3163,
      2892,
      2567,
      2510,
      2092,
      1801,
      1770,
      1306,
      1282,
      957,
      846,
      792,
      792,
      688,
      628,
      402,
      244,
      216,
      92
    ],
    "swim:geom": "approach",
    "swim:timestamps": [
      1767170564,
      1767170599,
      1767170622,
      1767170638,
      1767170648,
      1767170685,
      1767170711,
      1767170743,
      1767170761,
      1767170805,
      1767170835,
      1767170852,
      1767170888,
      1767170938,
      1767170958,
      1767170989,
      1767171029,
      1767171049,
      1767171081,
      1767171099,
      1767171125,
      1767171159,
      1767171208,
      1767171212,
      1767171227,
      1767171257,
      1767171291,
      1767171327,
      1767171335,
      1767171383,
      1767171418,
      1767171422,
      1767171477,
      1767171481,
      1767171538,
      1767171561,
      1767171597,
      1767171627,
      1767171654,
      1767171662,
      1767171711,
      1767171748,
      1767171760,
      1767171790
    ],
    "wof:geomhash": "a9a311c4a39df9249116b01c372e0186",
    "wof:id": 2014443931,
    "wof:repo": "sfomuseum-data-flights-2025-12"
  },
  "bbox": [
    -122.90042,
    37.42926,
    -122.14942,
    38.43389
  ],
  "geometry": {"coordinates":[[-122.90042,38.43389],[-122.8677,38.38267],[-122.84684,38.34982],[-122.83265,38.32746],[-122.82428,38.31422],[-122.79191,38.26309],[-122.77,38.22695],[-122.75467,38.17977],[-122.74717,38.1542],[-122.72836,38.08972],[-122.71618,38.04782],[-122.70919,38.02355],[-122.69531,37.97524],[-122.67577,37.90893],[-122.65944,37.88665],[-122.62533,37.85449],[-122.58343,37.81487],[-122.56172,37.79426],[-122.52835,37.76276],[-122.51013,37.74552],[-122.48297,37.71981],[-122.44699,37.68599],[-122.40078,37.64252],[-122.39655,37.63856],[-122.38394,37.62671],[-122.36401,37.59957],[-122.34446,37.56807],[-122.32379,37.53484],[-122.31964,37.52807],[-122.29174,37.48346],[-122.25638,37.46236],[-122.2525,37.46033],[-122.19594,37.43052],[-122.19205,37.42926],[-122.14942,37.46387],[-122.1592,37.48831],[-122.1777,37.52129],[-122.20102,37.54339],[-122.22835,37.5568],[-122.2363,37.56027],[-122.28401,37.5805],[-122.31291,37.59266],[-122.32176,37.59633],[-122.344,37.6057]],"type":"LineString"}
}
