{
  "id": 2014430549,
  "type": "Feature",
  "properties": {
    "geom:area": 0,
    "geom:bbox": "-122.542180,36.717950,-121.413660,37.667940",
    "geom:latitude": 37.22384948170523,
    "geom:longitude": -122.03289554224868,
    "src:alt_label": "swim-takeoff",
    "src:geom": "swim",
    "swim:elevations": [
      122,
      436,
      1101,
      1344,
      1522,
      2095,
      2688,
      3248,
      3520,
      3677,
      4233,
      4645,
      5022,
      5107,
      5575,
      5714,
      6351,
      6566,
      6928,
      7085,
      7636,
      7855,
      8149,
      8228,
      8230,
      8230,
      8230,
      8230,
      8204,
      8141
    ],
    "swim:geom": "takeoff",
    "swim:timestamps": [
      1767005952,
      1767005972,
      1767006020,
      1767006047,
      1767006063,
      1767006104,
      1767006145,
      1767006175,
      1767006207,
      1767006231,
      1767006264,
      1767006296,
      1767006327,
      1767006332,
      1767006380,
      1767006392,
      1767006440,
      1767006459,
      1767006495,
      1767006510,
      1767006564,
      1767006588,
      1767006627,
      1767006657,
      1767006687,
      1767006699,
      1767006737,
      1767006771,
      1767006803,
      1767006813
    ],
    "wof:geomhash": "59d7f7a4847358a005cefcf17265ae62",
    "wof:id": 2014430549,
    "wof:repo": "sfomuseum-data-flights-2025-12"
  },
  "bbox": [
    -122.54218,
    36.71795,
    -121.41366,
    37.66794
  ],
  "geometry": {"coordinates":[[-122.39431,37.62911],[-122.41428,37.63738],[-122.46272,37.65712],[-122.49549,37.66794],[-122.5188,37.66503],[-122.54218,37.62271],[-122.50066,37.58411],[-122.46403,37.55648],[-122.42286,37.52415],[-122.38939,37.49792],[-122.34146,37.46012],[-122.29379,37.42284],[-122.24583,37.38493],[-122.23748,37.37842],[-122.16118,37.31781],[-122.14328,37.30358],[-122.06343,37.24036],[-122.03253,37.21576],[-121.97151,37.16723],[-121.94656,37.14732],[-121.85337,37.07281],[-121.81171,37.03931],[-121.7434,36.98507],[-121.69023,36.94168],[-121.63703,36.89899],[-121.61429,36.88105],[-121.54708,36.82646],[-121.48668,36.7774],[-121.43164,36.73257],[-121.41366,36.71795]],"type":"LineString"}
}
