{
  "id": 2014430237,
  "type": "Feature",
  "properties": {
    "geom:area": 0,
    "geom:bbox": "-122.527630,37.625080,-121.431710,38.517190",
    "geom:latitude": 38.07985420700976,
    "geom:longitude": -122.05757974076288,
    "src:alt_label": "swim-takeoff",
    "src:geom": "swim",
    "swim:elevations": [
      122,
      305,
      578,
      637,
      1248,
      2066,
      2183,
      2707,
      3140,
      3359,
      3643,
      3908,
      4494,
      4758,
      5087,
      5483,
      5784,
      6143,
      6489,
      6697,
      7145,
      7321,
      7533,
      7831,
      7961,
      8131,
      8357,
      8513
    ],
    "swim:geom": "takeoff",
    "swim:timestamps": [
      1767015508,
      1767015522,
      1767015564,
      1767015572,
      1767015624,
      1767015683,
      1767015692,
      1767015728,
      1767015763,
      1767015805,
      1767015848,
      1767015870,
      1767015919,
      1767015942,
      1767015971,
      1767016017,
      1767016044,
      1767016077,
      1767016108,
      1767016127,
      1767016166,
      1767016186,
      1767016211,
      1767016253,
      1767016271,
      1767016299,
      1767016331,
      1767016351
    ],
    "wof:geomhash": "13eba6bc34a623659c1a54798be1e1d2",
    "wof:id": 2014430237,
    "wof:repo": "sfomuseum-data-flights-2025-12"
  },
  "bbox": [
    -122.52763,
    37.62508,
    -121.43171,
    38.51719
  ],
  "geometry": {"coordinates":[[-122.38994,37.62508],[-122.40297,37.63064],[-122.44692,37.64929],[-122.45718,37.65371],[-122.51725,37.68606],[-122.52722,37.76051],[-122.52763,37.77186],[-122.50415,37.8117],[-122.45337,37.831],[-122.39554,37.86518],[-122.32985,37.91016],[-122.29463,37.93445],[-122.21651,37.98862],[-122.17981,38.01404],[-122.13032,38.04822],[-122.05201,38.10219],[-122.00349,38.13567],[-121.94611,38.17513],[-121.88854,38.21446],[-121.85422,38.23782],[-121.78351,38.28608],[-121.74724,38.31092],[-121.70175,38.34205],[-121.62351,38.39526],[-121.59024,38.41825],[-121.53773,38.45306],[-121.47216,38.49235],[-121.43171,38.51719]],"type":"LineString"}
}
