{
  "id": 2014431991,
  "type": "Feature",
  "properties": {
    "geom:area": 0,
    "geom:bbox": "-122.359560,37.491910,-121.278850,37.614520",
    "geom:latitude": 37.54566636305811,
    "geom:longitude": -121.82401067013491,
    "src:alt_label": "swim-approach",
    "src:geom": "swim",
    "swim:elevations": [
      4226,
      4062,
      3929,
      3597,
      3567,
      3214,
      3143,
      2895,
      2680,
      2617,
      2443,
      2378,
      2323,
      2140,
      1955,
      1863,
      1534,
      1494,
      1156,
      1005,
      926,
      737,
      698,
      556,
      508,
      337,
      315,
      94,
      20
    ],
    "swim:geom": "approach",
    "swim:timestamps": [
      1767091911,
      1767091938,
      1767091956,
      1767092008,
      1767092015,
      1767092067,
      1767092078,
      1767092121,
      1767092158,
      1767092168,
      1767092198,
      1767092210,
      1767092222,
      1767092259,
      1767092294,
      1767092319,
      1767092366,
      1767092372,
      1767092425,
      1767092457,
      1767092475,
      1767092518,
      1767092529,
      1767092577,
      1767092589,
      1767092628,
      1767092640,
      1767092689,
      1767092713
    ],
    "wof:geomhash": "773262be84dc55a9bac5b7016f7ab838",
    "wof:id": 2014431991,
    "wof:repo": "sfomuseum-data-flights-2025-12"
  },
  "bbox": [
    -122.35956,
    37.49191,
    -121.27885,
    37.61452
  ],
  "geometry": {"coordinates":[[-121.27885,37.59059],[-121.33329,37.58452],[-121.36988,37.58037],[-121.46945,37.56889],[-121.48093,37.56756],[-121.57425,37.55673],[-121.59395,37.55439],[-121.66764,37.54057],[-121.72842,37.52617],[-121.74385,37.52244],[-121.79033,37.51124],[-121.80856,37.50671],[-121.8258,37.50257],[-121.87867,37.49191],[-121.93335,37.49241],[-121.96978,37.49348],[-122.03165,37.50902],[-122.03812,37.51111],[-122.09688,37.52995],[-122.12835,37.5402],[-122.14513,37.54562],[-122.18689,37.55916],[-122.19874,37.563],[-122.24726,37.5787],[-122.2592,37.58255],[-122.29303,37.59249],[-122.30299,37.59535],[-122.3418,37.60716],[-122.35956,37.61452]],"type":"LineString"}
}
