{
  "id": 2014426407,
  "type": "Feature",
  "properties": {
    "geom:area": 0,
    "geom:bbox": "-122.358880,37.491940,-121.251960,37.614130",
    "geom:latitude": 37.5467579431544,
    "geom:longitude": -121.81029007146762,
    "src:alt_label": "swim-approach",
    "src:geom": "swim",
    "swim:elevations": [
      4481,
      4193,
      4048,
      3884,
      3689,
      3386,
      3163,
      3049,
      2983,
      2927,
      2493,
      2437,
      2310,
      2182,
      1980,
      1908,
      1739,
      1583,
      1409,
      1179,
      1046,
      907,
      775,
      640,
      517,
      419,
      319,
      208,
      0
    ],
    "swim:geom": "approach",
    "swim:timestamps": [
      1767042445,
      1767042475,
      1767042489,
      1767042508,
      1767042529,
      1767042562,
      1767042589,
      1767042619,
      1767042652,
      1767042661,
      1767042718,
      1767042728,
      1767042768,
      1767042792,
      1767042833,
      1767042849,
      1767042886,
      1767042913,
      1767042937,
      1767042987,
      1767043014,
      1767043046,
      1767043077,
      1767043105,
      1767043133,
      1767043157,
      1767043181,
      1767043204,
      1767043249
    ],
    "wof:geomhash": "1ad72a1d3cd925bbe0ef91d12c73b93b",
    "wof:id": 2014426407,
    "wof:repo": "sfomuseum-data-flights-2025-12"
  },
  "bbox": [
    -122.35888,
    37.49194,
    -121.25196,
    37.61413
  ],
  "geometry": {"coordinates":[[-121.25196,37.59423],[-121.31542,37.58643],[-121.3471,37.58314],[-121.38646,37.57895],[-121.42993,37.57386],[-121.49886,37.56548],[-121.55268,37.55902],[-121.6109,37.55225],[-121.66619,37.54073],[-121.68109,37.53721],[-121.76816,37.51686],[-121.78452,37.51284],[-121.84153,37.49867],[-121.87636,37.49194],[-121.93743,37.49261],[-121.95822,37.49326],[-122.00686,37.50044],[-122.03895,37.51101],[-122.06764,37.52039],[-122.12136,37.53771],[-122.14763,37.5465],[-122.17653,37.55608],[-122.20457,37.56482],[-122.22986,37.57325],[-122.25596,37.58144],[-122.27846,37.58825],[-122.30078,37.59465],[-122.32063,37.60071],[-122.35888,37.61413]],"type":"LineString"}
}
