{
  "id": 2014433797,
  "type": "Feature",
  "properties": {
    "geom:area": 0,
    "geom:bbox": "-122.752670,37.559410,-122.134450,38.417970",
    "geom:latitude": 37.91344904019101,
    "geom:longitude": -122.51847566986216,
    "src:alt_label": "swim-approach",
    "src:geom": "swim",
    "swim:elevations": [
      7620,
      7473,
      7389,
      7248,
      7097,
      6988,
      6773,
      6290,
      6066,
      5781,
      5511,
      5085,
      4705,
      4492,
      4104,
      3941,
      3849,
      3653,
      3422,
      3355,
      3352,
      3229,
      2989,
      2814,
      2656,
      2413,
      2330,
      2071,
      1961,
      1779,
      1590,
      1493,
      1324,
      1127,
      913,
      820
    ],
    "swim:geom": "approach",
    "swim:timestamps": [
      1767124706,
      1767124736,
      1767124757,
      1767124786,
      1767124820,
      1767124835,
      1767124865,
      1767124906,
      1767124922,
      1767124943,
      1767124961,
      1767124993,
      1767125023,
      1767125048,
      1767125098,
      1767125112,
      1767125126,
      1767125154,
      1767125186,
      1767125206,
      1767125243,
      1767125267,
      1767125306,
      1767125333,
      1767125357,
      1767125396,
      1767125411,
      1767125452,
      1767125471,
      1767125497,
      1767125523,
      1767125541,
      1767125567,
      1767125597,
      1767125630,
      1767125653
    ],
    "wof:geomhash": "8b64b603e413d06d3ad21eb3fb834709",
    "wof:id": 2014433797,
    "wof:repo": "sfomuseum-data-flights-2025-12"
  },
  "bbox": [
    -122.75267,
    37.55941,
    -122.13445,
    38.41797
  ],
  "geometry": {"coordinates":[[-122.56939,38.41797],[-122.61625,38.37193],[-122.64872,38.34016],[-122.694,38.29597],[-122.74215,38.24431],[-122.75267,38.21799],[-122.75005,38.16583],[-122.73071,38.09655],[-122.72292,38.07064],[-122.7125,38.03578],[-122.70422,38.00755],[-122.68952,37.95713],[-122.67524,37.91192],[-122.65173,37.87979],[-122.59042,37.82112],[-122.57261,37.80437],[-122.55675,37.78956],[-122.52467,37.75954],[-122.49093,37.72755],[-122.46773,37.71284],[-122.4223,37.70303],[-122.39502,37.6971],[-122.35128,37.68782],[-122.3215,37.68182],[-122.29622,37.674],[-122.25684,37.65917],[-122.24188,37.65359],[-122.20339,37.63851],[-122.18545,37.63155],[-122.16079,37.62189],[-122.1388,37.61014],[-122.13445,37.59512],[-122.14535,37.57485],[-122.17048,37.55941],[-122.20753,37.56547],[-122.23129,37.57306]],"type":"LineString"}
}
