{
  "id": 2014415131,
  "type": "Feature",
  "properties": {
    "geom:area": 0,
    "geom:bbox": "-122.614140,37.416620,-122.133430,37.843540",
    "geom:latitude": 37.58602723623592,
    "geom:longitude": -122.33061295970036,
    "src:alt_label": "swim-approach",
    "src:geom": "swim",
    "swim:elevations": [
      4097,
      3883,
      3698,
      3404,
      3353,
      3353,
      3353,
      3308,
      2898,
      2691,
      2307,
      1995,
      1811,
      1388,
      1296,
      1221,
      1162,
      925,
      751,
      635,
      424,
      354,
      161,
      56,
      0
    ],
    "swim:geom": "approach",
    "swim:timestamps": [
      1766937256,
      1766937282,
      1766937304,
      1766937341,
      1766937383,
      1766937396,
      1766937433,
      1766937483,
      1766937541,
      1766937573,
      1766937618,
      1766937650,
      1766937675,
      1766937738,
      1766937757,
      1766937782,
      1766937810,
      1766937855,
      1766937914,
      1766937934,
      1766937977,
      1766937998,
      1766938047,
      1766938078,
      1766938098
    ],
    "wof:geomhash": "dd5d9184ca6a32bb0a2ddca5f69669b3",
    "wof:id": 2014415131,
    "wof:repo": "sfomuseum-data-flights-2025-12"
  },
  "bbox": [
    -122.61414,
    37.41662,
    -122.13343,
    37.84354
  ],
  "geometry": {"coordinates":[[-122.61414,37.84354],[-122.58105,37.81219],[-122.55246,37.78523],[-122.50759,37.74294],[-122.45957,37.69763],[-122.44598,37.68484],[-122.40797,37.64918],[-122.36062,37.60131],[-122.32273,37.53556],[-122.30136,37.4997],[-122.27193,37.45163],[-122.23705,37.43019],[-122.20636,37.41662],[-122.14242,37.42328],[-122.13343,37.44041],[-122.13359,37.46451],[-122.14467,37.48955],[-122.16598,37.5268],[-122.22009,37.55428],[-122.24008,37.56224],[-122.27746,37.57766],[-122.29273,37.58411],[-122.32955,37.59956],[-122.35176,37.60886],[-122.36541,37.615]],"type":"LineString"}
}
