{
  "id": 2014443649,
  "type": "Feature",
  "properties": {
    "geom:area": 0,
    "geom:bbox": "-122.355930,37.491520,-121.263180,37.612950",
    "geom:latitude": 37.54190646139507,
    "geom:longitude": -121.81653273194688,
    "src:alt_label": "swim-approach",
    "src:geom": "swim",
    "swim:elevations": [
      4607,
      4366,
      4079,
      3845,
      3643,
      3455,
      3332,
      3167,
      2852,
      2720,
      2540,
      2390,
      2132,
      1942,
      1896,
      1794,
      1598,
      1305,
      1156,
      1037,
      788,
      577,
      502,
      423,
      199,
      181,
      98,
      18
    ],
    "swim:geom": "approach",
    "swim:timestamps": [
      1767186232,
      1767186259,
      1767186291,
      1767186320,
      1767186345,
      1767186375,
      1767186401,
      1767186443,
      1767186478,
      1767186490,
      1767186517,
      1767186547,
      1767186592,
      1767186623,
      1767186630,
      1767186666,
      1767186703,
      1767186737,
      1767186773,
      1767186794,
      1767186832,
      1767186867,
      1767186882,
      1767186900,
      1767186947,
      1767186954,
      1767186973,
      1767186990
    ],
    "wof:geomhash": "f3953073d068a80372dc2c5493f20b0a",
    "wof:id": 2014443649,
    "wof:repo": "sfomuseum-data-flights-2025-12"
  },
  "bbox": [
    -122.35593,
    37.49152,
    -121.26318,
    37.61295
  ],
  "geometry": {"coordinates":[[-121.26318,37.59237],[-121.31922,37.58552],[-121.38312,37.5785],[-121.44111,37.57186],[-121.48936,37.56621],[-121.54689,37.55951],[-121.59408,37.55407],[-121.66117,37.54165],[-121.71262,37.52946],[-121.73054,37.52518],[-121.76964,37.51577],[-121.81249,37.50544],[-121.88006,37.49152],[-121.9298,37.4937],[-121.94037,37.49436],[-121.99612,37.49754],[-122.05118,37.50082],[-122.09981,37.50556],[-122.14443,37.52398],[-122.16952,37.5346],[-122.21403,37.55331],[-122.25128,37.56895],[-122.26731,37.57581],[-122.28481,37.58316],[-122.32511,37.60006],[-122.33034,37.60222],[-122.34409,37.6081],[-122.35593,37.61295]],"type":"LineString"}
}
