{
  "id": 2014431151,
  "type": "Feature",
  "properties": {
    "geom:area": 0,
    "geom:bbox": "-122.528070,36.725000,-121.563440,37.663140",
    "geom:latitude": 37.20661924379763,
    "geom:longitude": -122.11315820295913,
    "src:alt_label": "swim-takeoff",
    "src:geom": "swim",
    "swim:elevations": [
      436,
      620,
      821,
      1055,
      1128,
      1403,
      1652,
      2265,
      2726,
      3144,
      3232,
      3536,
      3871,
      4229,
      4514,
      4751,
      5159,
      5270,
      5605,
      5854,
      5971,
      6412,
      6539,
      6774,
      7037,
      7184,
      7443,
      7615,
      7770,
      7891
    ],
    "swim:geom": "takeoff",
    "swim:timestamps": [
      1767011338,
      1767011351,
      1767011376,
      1767011415,
      1767011431,
      1767011479,
      1767011498,
      1767011539,
      1767011574,
      1767011604,
      1767011615,
      1767011668,
      1767011691,
      1767011715,
      1767011751,
      1767011776,
      1767011816,
      1767011827,
      1767011876,
      1767011903,
      1767011916,
      1767011964,
      1767011982,
      1767012016,
      1767012054,
      1767012071,
      1767012117,
      1767012147,
      1767012171,
      1767012190
    ],
    "wof:geomhash": "f2a5191d55bec09b639a9f0b61667447",
    "wof:id": 2014431151,
    "wof:repo": "sfomuseum-data-flights-2025-12"
  },
  "bbox": [
    -122.52807,
    36.725,
    -121.56344,
    37.66314
  ],
  "geometry": {"coordinates":[[-122.3976,37.63039],[-122.40789,37.63454],[-122.42812,37.64278],[-122.46165,37.6566],[-122.47742,37.66314],[-122.52807,37.64401],[-122.5266,37.62144],[-122.4995,37.57497],[-122.47617,37.53459],[-122.45471,37.49613],[-122.44679,37.48196],[-122.39452,37.4125],[-122.36131,37.38537],[-122.32789,37.35765],[-122.27617,37.31539],[-122.23906,37.285],[-122.1769,37.23394],[-122.16136,37.22109],[-122.08347,37.15678],[-122.04086,37.12146],[-122.02007,37.10431],[-121.9428,37.04013],[-121.91366,37.01594],[-121.85733,36.96908],[-121.79501,36.91711],[-121.7669,36.89365],[-121.69002,36.82946],[-121.63847,36.78622],[-121.59523,36.7523],[-121.56344,36.725]],"type":"LineString"}
}
