{
  "id": 2014439893,
  "type": "Feature",
  "properties": {
    "geom:area": 0,
    "geom:bbox": "-122.529290,37.628580,-121.881450,38.513260",
    "geom:latitude": 38.06436394315625,
    "geom:longitude": -122.26525809776669,
    "src:alt_label": "swim-takeoff",
    "src:geom": "swim",
    "swim:elevations": [
      183,
      503,
      685,
      1214,
      1451,
      1891,
      2273,
      2743,
      3053,
      3207,
      3553,
      3696,
      3736,
      4227,
      4587,
      4708,
      5112,
      5407,
      5460,
      5957,
      6176,
      6331,
      6765,
      6913,
      7038
    ],
    "swim:geom": "takeoff",
    "swim:timestamps": [
      1767139855,
      1767139882,
      1767139897,
      1767139942,
      1767139966,
      1767140008,
      1767140032,
      1767140065,
      1767140095,
      1767140110,
      1767140158,
      1767140185,
      1767140191,
      1767140232,
      1767140263,
      1767140272,
      1767140308,
      1767140336,
      1767140347,
      1767140397,
      1767140418,
      1767140437,
      1767140488,
      1767140506,
      1767140521
    ],
    "wof:geomhash": "a6a6dd99b05e89a1182cb8287f21ac06",
    "wof:id": 2014439893,
    "wof:repo": "sfomuseum-data-flights-2025-12"
  },
  "bbox": [
    -122.52929,
    37.62858,
    -121.88145,
    38.51326
  ],
  "geometry": {"coordinates":[[-122.39808,37.62858],[-122.42475,37.63979],[-122.4404,37.64645],[-122.49033,37.66809],[-122.51776,37.68225],[-122.52929,37.73328],[-122.52779,37.76609],[-122.51079,37.80775],[-122.46665,37.83117],[-122.44768,37.8467],[-122.39933,37.91201],[-122.37164,37.9545],[-122.36517,37.96428],[-122.31987,38.03227],[-122.28384,38.08465],[-122.27324,38.10012],[-122.23046,38.16268],[-122.19057,38.20951],[-122.17346,38.22651],[-122.09217,38.30518],[-122.05753,38.33918],[-122.02522,38.37104],[-121.93868,38.45674],[-121.90773,38.48738],[-121.88145,38.51326]],"type":"LineString"}
}
