{
  "id": 2014444031,
  "type": "Feature",
  "properties": {
    "geom:area": 0,
    "geom:bbox": "-123.037750,37.419730,-122.109520,38.439970",
    "geom:latitude": 37.873281648480706,
    "geom:longitude": -122.59958528497731,
    "src:alt_label": "swim-approach",
    "src:geom": "swim",
    "swim:elevations": [
      7590,
      7400,
      7225,
      7178,
      6870,
      6607,
      6401,
      6347,
      5921,
      5831,
      5447,
      5367,
      5186,
      5009,
      4837,
      4722,
      4662,
      4663,
      4628,
      4569,
      4572,
      4572,
      4572,
      4572,
      4572,
      4572,
      4572,
      4572,
      4572,
      4566,
      4551,
      4572,
      4572,
      4498,
      4452,
      4088,
      3887,
      3563,
      3516,
      3353,
      3353,
      3353,
      3353,
      3344,
      3154,
      2982,
      2893,
      2588,
      2535,
      2161,
      2083,
      1970,
      1829,
      1829,
      1635,
      1552,
      1512,
      1166,
      966,
      709,
      665,
      543,
      381,
      243,
      141,
      68
    ],
    "swim:geom": "approach",
    "swim:timestamps": [
      1767179439,
      1767179466,
      1767179486,
      1767179494,
      1767179534,
      1767179576,
      1767179602,
      1767179610,
      1767179662,
      1767179673,
      1767179714,
      1767179754,
      1767179787,
      1767179809,
      1767179831,
      1767179848,
      1767179858,
      1767179893,
      1767179935,
      1767179964,
      1767179998,
      1767180020,
      1767180037,
      1767180073,
      1767180096,
      1767180139,
      1767180166,
      1767180199,
      1767180211,
      1767180238,
      1767180255,
      1767180286,
      1767180304,
      1767180357,
      1767180364,
      1767180410,
      1767180434,
      1767180478,
      1767180485,
      1767180538,
      1767180561,
      1767180587,
      1767180608,
      1767180643,
      1767180684,
      1767180718,
      1767180735,
      1767180778,
      1767180786,
      1767180836,
      1767180858,
      1767180875,
      1767180907,
      1767180949,
      1767180982,
      1767180994,
      1767181020,
      1767181062,
      1767181086,
      1767181137,
      1767181147,
      1767181168,
      1767181197,
      1767181227,
      1767181252,
      1767181268
    ],
    "wof:geomhash": "7ccc937f7f473daf0e4a58d6d4f1c317",
    "wof:id": 2014444031,
    "wof:repo": "sfomuseum-data-flights-2025-12"
  },
  "bbox": [
    -123.03775,
    37.41973,
    -122.10952,
    38.43997
  ],
  "geometry": {"coordinates":[[-123.03775,38.43997],[-122.99439,38.4058],[-122.96274,38.3804],[-122.95114,38.37111],[-122.89043,38.32278],[-122.82763,38.27254],[-122.79377,38.23784],[-122.78664,38.22629],[-122.75659,38.14402],[-122.75048,38.12639],[-122.72886,38.06286],[-122.70945,38.00565],[-122.69479,37.96307],[-122.68519,37.93479],[-122.67584,37.90736],[-122.67076,37.88548],[-122.67251,37.87247],[-122.70541,37.83482],[-122.77773,37.83095],[-122.81548,37.86284],[-122.83102,37.91353],[-122.84087,37.94656],[-122.8483,37.97199],[-122.86372,38.02545],[-122.86728,38.05961],[-122.81849,38.10457],[-122.77452,38.10668],[-122.73031,38.08426],[-122.72078,38.07166],[-122.71013,38.03761],[-122.70442,38.01661],[-122.69414,37.97718],[-122.68821,37.9551],[-122.66282,37.89114],[-122.65651,37.88372],[-122.60805,37.83782],[-122.5817,37.81323],[-122.53312,37.76722],[-122.52548,37.76001],[-122.47186,37.70936],[-122.45151,37.69037],[-122.4296,37.66977],[-122.41163,37.65285],[-122.38121,37.62412],[-122.35253,37.58897],[-122.33371,37.55655],[-122.32469,37.54107],[-122.30115,37.50087],[-122.29691,37.49365],[-122.27023,37.448],[-122.25567,37.42978],[-122.23683,37.42352],[-122.19841,37.41973],[-122.15121,37.43982],[-122.11758,37.45959],[-122.10991,37.471],[-122.10952,37.4979],[-122.15032,37.52653],[-122.17733,37.53777],[-122.2291,37.55968],[-122.23949,37.56403],[-122.26107,37.57309],[-122.2887,37.58469],[-122.31446,37.59567],[-122.33579,37.6045],[-122.34887,37.61003]],"type":"LineString"}
}
