{
  "id": 2014430825,
  "type": "Feature",
  "properties": {
    "geom:area": 0,
    "geom:bbox": "-122.363770,37.632090,-122.112880,38.518550",
    "geom:latitude": 38.0413770841014,
    "geom:longitude": -122.17692662582141,
    "src:alt_label": "swim-takeoff",
    "src:geom": "swim",
    "swim:elevations": [
      270,
      760,
      946,
      1120,
      1234,
      1288,
      1474,
      1977,
      2258,
      2777,
      3109,
      3155,
      3365,
      3774,
      4074,
      4391,
      4781,
      5259,
      5515,
      5755,
      6074,
      6186,
      6625,
      6688,
      6942
    ],
    "swim:geom": "takeoff",
    "swim:timestamps": [
      1767035361,
      1767035394,
      1767035415,
      1767035453,
      1767035474,
      1767035486,
      1767035503,
      1767035538,
      1767035556,
      1767035587,
      1767035615,
      1767035624,
      1767035653,
      1767035695,
      1767035716,
      1767035737,
      1767035772,
      1767035816,
      1767035845,
      1767035864,
      1767035904,
      1767035921,
      1767035965,
      1767035974,
      1767036014
    ],
    "wof:geomhash": "226c57e64ff5c3d401b915686803b336",
    "wof:id": 2014430825,
    "wof:repo": "sfomuseum-data-flights-2025-12"
  },
  "bbox": [
    -122.36377,
    37.63209,
    -122.11288,
    38.51855
  ],
  "geometry": {"coordinates":[[-122.36377,37.63209],[-122.34173,37.64676],[-122.32747,37.65479],[-122.29742,37.67252],[-122.27708,37.68443],[-122.26359,37.69215],[-122.24101,37.70376],[-122.20967,37.7369],[-122.20575,37.76008],[-122.20033,37.8003],[-122.19447,37.83738],[-122.19222,37.84988],[-122.18504,37.89307],[-122.17344,37.96068],[-122.1677,37.99656],[-122.16279,38.03146],[-122.15349,38.08909],[-122.13988,38.16384],[-122.13216,38.21379],[-122.12695,38.24596],[-122.1151,38.31583],[-122.11288,38.34678],[-122.11834,38.42708],[-122.11962,38.4439],[-122.12481,38.51855]],"type":"LineString"}
}
