{
  "id": 2014409377,
  "type": "Feature",
  "properties": {
    "geom:area": 0,
    "geom:bbox": "-122.358580,37.461050,-121.258510,37.611500",
    "geom:latitude": 37.53727852291803,
    "geom:longitude": -121.81748955425007,
    "src:alt_label": "swim-approach",
    "src:geom": "swim",
    "swim:elevations": [
      4677,
      4591,
      4480,
      4397,
      4020,
      3860,
      3747,
      3518,
      3284,
      3158,
      3023,
      2621,
      2508,
      2440,
      2301,
      2163,
      2073,
      1973,
      1829,
      1829,
      1729,
      1547,
      1351,
      1162,
      1055,
      913,
      794,
      728,
      510,
      403,
      251,
      183,
      40,
      0
    ],
    "swim:geom": "approach",
    "swim:timestamps": [
      1766830048,
      1766830065,
      1766830093,
      1766830113,
      1766830159,
      1766830190,
      1766830206,
      1766830246,
      1766830276,
      1766830296,
      1766830320,
      1766830377,
      1766830393,
      1766830417,
      1766830443,
      1766830470,
      1766830485,
      1766830508,
      1766830556,
      1766830566,
      1766830613,
      1766830641,
      1766830670,
      1766830706,
      1766830728,
      1766830765,
      1766830795,
      1766830808,
      1766830854,
      1766830881,
      1766830916,
      1766830938,
      1766830975,
      1766830980
    ],
    "wof:geomhash": "26afb070c0b6e613e33b490f125d24ba",
    "wof:id": 2014409377,
    "wof:repo": "sfomuseum-data-flights-2025-12"
  },
  "bbox": [
    -122.35858,
    37.46105,
    -121.25851,
    37.6115
  ],
  "geometry": {"coordinates":[[-121.25851,37.59293],[-121.28717,37.58917],[-121.33191,37.58425],[-121.36333,37.58071],[-121.43382,37.57289],[-121.48013,37.56744],[-121.50487,37.56448],[-121.56324,37.5575],[-121.60598,37.55258],[-121.63554,37.54786],[-121.66897,37.53968],[-121.74605,37.52153],[-121.76686,37.51649],[-121.79919,37.5086],[-121.83405,37.50025],[-121.86926,37.49196],[-121.88893,37.48714],[-121.91767,37.47938],[-121.97737,37.46347],[-121.98973,37.46105],[-122.0378,37.47684],[-122.06562,37.48855],[-122.09362,37.50012],[-122.12729,37.51433],[-122.14789,37.52289],[-122.18292,37.53781],[-122.21046,37.54945],[-122.22257,37.55465],[-122.26579,37.57282],[-122.288,37.58215],[-122.31362,37.5929],[-122.32898,37.59935],[-122.35502,37.61028],[-122.35858,37.6115]],"type":"LineString"}
}
