{
  "id": 2014443473,
  "type": "Feature",
  "properties": {
    "geom:area": 0,
    "geom:bbox": "-122.354420,37.492810,-121.260070,37.612400",
    "geom:latitude": 37.542277584963884,
    "geom:longitude": -121.81416866746507,
    "src:alt_label": "swim-approach",
    "src:geom": "swim",
    "swim:elevations": [
      4726,
      4553,
      4288,
      4077,
      3957,
      3564,
      3347,
      3200,
      3078,
      2801,
      2559,
      2530,
      2304,
      2201,
      2006,
      1786,
      1644,
      1498,
      1373,
      1214,
      1050,
      958,
      880,
      760,
      631,
      521,
      325,
      251,
      129,
      38
    ],
    "swim:geom": "approach",
    "swim:timestamps": [
      1767223519,
      1767223539,
      1767223566,
      1767223587,
      1767223599,
      1767223640,
      1767223663,
      1767223702,
      1767223726,
      1767223759,
      1767223795,
      1767223810,
      1767223855,
      1767223870,
      1767223906,
      1767223947,
      1767223969,
      1767223990,
      1767224013,
      1767224043,
      1767224082,
      1767224118,
      1767224130,
      1767224157,
      1767224185,
      1767224206,
      1767224248,
      1767224269,
      1767224301,
      1767224321
    ],
    "wof:geomhash": "30eadedf8e338fb138ff013a1b3cedba",
    "wof:id": 2014443473,
    "wof:repo": "sfomuseum-data-flights-2025-12"
  },
  "bbox": [
    -122.35442,
    37.49281,
    -121.26007,
    37.6124
  ],
  "geometry": {"coordinates":[[-121.26007,37.59307],[-121.29961,37.58798],[-121.35408,37.58208],[-121.39632,37.57745],[-121.42003,37.57477],[-121.50058,37.56549],[-121.54441,37.56026],[-121.61316,37.55196],[-121.65041,37.5447],[-121.70153,37.53246],[-121.75767,37.51909],[-121.77968,37.51376],[-121.84246,37.49869],[-121.86329,37.49374],[-121.91629,37.49281],[-121.97491,37.49656],[-122.00512,37.49839],[-122.03579,37.5002],[-122.06631,37.5019],[-122.10218,37.50659],[-122.14268,37.52401],[-122.17939,37.53973],[-122.19237,37.54443],[-122.21961,37.55571],[-122.24655,37.56703],[-122.26683,37.57553],[-122.30217,37.59046],[-122.31746,37.59687],[-122.33976,37.60618],[-122.35442,37.6124]],"type":"LineString"}
}
