{
  "id": 2014409629,
  "type": "Feature",
  "properties": {
    "geom:area": 0,
    "geom:bbox": "-122.354290,37.491160,-121.248340,37.612360",
    "geom:latitude": 37.54663734118426,
    "geom:longitude": -121.8060940853749,
    "src:alt_label": "swim-approach",
    "src:geom": "swim",
    "swim:elevations": [
      4634,
      4511,
      4114,
      3850,
      3714,
      3420,
      3181,
      3066,
      2836,
      2740,
      2587,
      2441,
      2315,
      2102,
      1972,
      1861,
      1602,
      1462,
      1465,
      1219,
      1219,
      1114,
      762,
      528,
      426,
      302,
      213,
      119,
      35
    ],
    "swim:geom": "approach",
    "swim:timestamps": [
      1766859474,
      1766859487,
      1766859531,
      1766859557,
      1766859572,
      1766859603,
      1766859632,
      1766859678,
      1766859717,
      1766859732,
      1766859767,
      1766859808,
      1766859836,
      1766859860,
      1766859883,
      1766859904,
      1766859953,
      1766859987,
      1766859990,
      1766860048,
      1766860068,
      1766860084,
      1766860114,
      1766860161,
      1766860185,
      1766860227,
      1766860252,
      1766860282,
      1766860303
    ],
    "wof:geomhash": "de26b2ae9adc4fd11cee5956ed69a63f",
    "wof:id": 2014409629,
    "wof:repo": "sfomuseum-data-flights-2025-12"
  },
  "bbox": [
    -122.35429,
    37.49116,
    -121.24834,
    37.61236
  ],
  "geometry": {"coordinates":[[-121.24834,37.59465],[-121.27245,37.59136],[-121.35929,37.58165],[-121.41005,37.57605],[-121.4379,37.57284],[-121.49882,37.56559],[-121.55421,37.55912],[-121.63264,37.54852],[-121.69231,37.53473],[-121.71505,37.52935],[-121.76766,37.51677],[-121.82495,37.50284],[-121.86304,37.49375],[-121.89498,37.49116],[-121.92754,37.49226],[-121.95577,37.493],[-122.01955,37.50472],[-122.06136,37.51849],[-122.06493,37.51962],[-122.13258,37.5417],[-122.1527,37.54818],[-122.16818,37.55313],[-122.19703,37.56247],[-122.24401,37.5776],[-122.26771,37.58504],[-122.30197,37.59498],[-122.31895,37.60013],[-122.34,37.60664],[-122.35429,37.61236]],"type":"LineString"}
}
