{
  "id": 2014409553,
  "type": "Feature",
  "properties": {
    "geom:area": 0,
    "geom:bbox": "-122.362690,37.491860,-121.250730,37.616260",
    "geom:latitude": 37.54310621540933,
    "geom:longitude": -121.81391116128881,
    "src:alt_label": "swim-approach",
    "src:geom": "swim",
    "swim:elevations": [
      4658,
      4347,
      4253,
      3931,
      3900,
      3782,
      3336,
      3259,
      3123,
      2872,
      2631,
      2532,
      2422,
      2286,
      2101,
      1905,
      1825,
      1676,
      1443,
      1334,
      1249,
      1212,
      1004,
      850,
      635,
      457,
      425,
      238,
      97,
      139
    ],
    "swim:geom": "approach",
    "swim:timestamps": [
      1766827158,
      1766827191,
      1766827201,
      1766827258,
      1766827266,
      1766827293,
      1766827346,
      1766827359,
      1766827395,
      1766827431,
      1766827460,
      1766827475,
      1766827497,
      1766827518,
      1766827555,
      1766827588,
      1766827616,
      1766827637,
      1766827675,
      1766827695,
      1766827713,
      1766827748,
      1766827782,
      1766827809,
      1766827854,
      1766827888,
      1766827897,
      1766827942,
      1766827975,
      1766828001
    ],
    "wof:geomhash": "b6e6849d65a6dee13d20d725504a3686",
    "wof:id": 2014409553,
    "wof:repo": "sfomuseum-data-flights-2025-12"
  },
  "bbox": [
    -122.36269,
    37.49186,
    -121.25073,
    37.61626
  ],
  "geometry": {"coordinates":[[-121.25073,37.59434],[-121.31647,37.58605],[-121.33609,37.58396],[-121.44462,37.57153],[-121.45927,37.56977],[-121.50552,37.56436],[-121.59278,37.55428],[-121.61376,37.55181],[-121.66838,37.53999],[-121.72012,37.528],[-121.76065,37.5183],[-121.78157,37.51312],[-121.81277,37.50554],[-121.8413,37.49878],[-121.89188,37.49186],[-121.93808,37.49452],[-121.97574,37.49662],[-122.00261,37.49811],[-122.05334,37.5009],[-122.07811,37.50241],[-122.09961,37.50608],[-122.13948,37.5218],[-122.17656,37.53758],[-122.20505,37.54957],[-122.24649,37.56701],[-122.27682,37.57973],[-122.28407,37.58282],[-122.31817,37.59716],[-122.3431,37.60758],[-122.36269,37.61626]],"type":"LineString"}
}
