{
  "id": 2014408267,
  "type": "Feature",
  "properties": {
    "geom:area": 0,
    "geom:bbox": "-122.362600,36.720620,-121.877920,37.613120",
    "geom:latitude": 37.208514838397015,
    "geom:longitude": -122.07092506230677,
    "src:alt_label": "swim-approach",
    "src:geom": "swim",
    "swim:elevations": [
      4906,
      4651,
      4590,
      4486,
      4203,
      4067,
      3926,
      3751,
      3431,
      3238,
      3105,
      3046,
      2652,
      2605,
      2471,
      2436,
      2438,
      2438,
      2307,
      2095,
      1941,
      1707,
      1566,
      1525,
      1284,
      1194,
      1128,
      1012,
      961,
      904,
      814,
      619,
      502,
      248,
      149,
      96,
      0
    ],
    "swim:geom": "approach",
    "swim:timestamps": [
      1766870546,
      1766870575,
      1766870583,
      1766870594,
      1766870628,
      1766870643,
      1766870659,
      1766870680,
      1766870714,
      1766870738,
      1766870771,
      1766870790,
      1766870844,
      1766870850,
      1766870871,
      1766870886,
      1766870932,
      1766870959,
      1766870990,
      1766871017,
      1766871041,
      1766871078,
      1766871101,
      1766871122,
      1766871164,
      1766871178,
      1766871192,
      1766871222,
      1766871237,
      1766871246,
      1766871261,
      1766871285,
      1766871306,
      1766871351,
      1766871383,
      1766871405,
      1766871432
    ],
    "wof:geomhash": "0babe069e11b01da537ac2fed05de4cf",
    "wof:id": 2014408267,
    "wof:repo": "sfomuseum-data-flights-2025-12"
  },
  "bbox": [
    -122.3626,
    36.72062,
    -121.87792,
    37.61312
  ],
  "geometry": {"coordinates":[[-121.87792,36.72062],[-121.90035,36.76005],[-121.90384,36.77349],[-121.90794,36.7893],[-121.92169,36.83964],[-121.92781,36.86124],[-121.93435,36.88459],[-121.94264,36.91383],[-121.95737,36.9625],[-121.97048,36.99583],[-121.98732,37.03843],[-121.99674,37.06266],[-122.02187,37.12719],[-122.02459,37.1342],[-122.03419,37.15893],[-122.04104,37.17647],[-122.06171,37.22914],[-122.07386,37.26018],[-122.08746,37.29496],[-122.09991,37.32663],[-122.11064,37.35411],[-122.12655,37.39447],[-122.13536,37.42017],[-122.1427,37.44226],[-122.15934,37.48311],[-122.16618,37.4956],[-122.17723,37.50727],[-122.20124,37.53015],[-122.21223,37.54023],[-122.21849,37.54597],[-122.2289,37.55536],[-122.24971,37.56645],[-122.2681,37.57359],[-122.30385,37.58766],[-122.32662,37.59839],[-122.34326,37.60536],[-122.3626,37.61312]],"type":"LineString"}
}
