{
  "id": 2014418111,
  "type": "Feature",
  "properties": {
    "date:inception_lower": "2025-12-28",
    "date:inception_upper": "2025-12-28",
    "edtf:cessation": "",
    "edtf:inception": "2025-12-28",
    "flysfo:actual_timestamp": -1,
    "flysfo:airline": "UA",
    "flysfo:date": "2025-12-28",
    "flysfo:estimated_timestamp": 1766989440,
    "flysfo:event": "A",
    "flysfo:flight_number": "UA3769",
    "flysfo:gate": "G2",
    "flysfo:journey": "AFW-SFO",
    "flysfo:scheduled_timestamp": 1766987100,
    "flysfo:timestamp": 1766989440,
    "geom:area": 0,
    "geom:bbox": "-122.370943,32.986694,-97.316095,37.617990",
    "geom:latitude": 35.302341999999996,
    "geom:longitude": -109.843519,
    "iata:airline": "UA",
    "icao:airline": "UAL",
    "lbl:latitude": 37.617615,
    "lbl:longitude": -122.390247,
    "sfomuseum:airline_id": 1159285413,
    "sfomuseum:arrival_id": 102527513,
    "sfomuseum:departure_id": 102528591,
    "sfomuseum:flight_id": "20251228-A-UAL-3769",
    "sfomuseum:flight_number": [
      "UAL3769",
      "UA3769"
    ],
    "sfomuseum:placetype": "flight",
    "src:geom": "flysfo",
    "wof:belongsto": [
      1947304067,
      102527513,
      1947304129,
      102191575,
      85633793,
      102087579,
      85922583,
      554784711,
      85688637,
      1947304141,
      1947304069,
      102085387
    ],
    "wof:country": "US",
    "wof:created": 1767024523,
    "wof:geomhash": "107e6589f8c1d0883959ee6339b5af3a",
    "wof:hierarchy": [
      {
        "building_id": 1947304067,
        "campus_id": 102527513,
        "concourse_id": 1947304129,
        "continent_id": 102191575,
        "country_id": 85633793,
        "county_id": 102087579,
        "custom_id": 2014418111,
        "flight_id": 2014418111,
        "locality_id": 85922583,
        "postalcode_id": 554784711,
        "region_id": 85688637,
        "venue_id": 1947304141,
        "wing_id": 1947304069
      },
      {
        "building_id": 1947304067,
        "campus_id": 102527513,
        "concourse_id": 1947304129,
        "continent_id": 102191575,
        "country_id": 85633793,
        "county_id": 102085387,
        "custom_id": 2014418111,
        "flight_id": 2014418111,
        "region_id": 85688637,
        "venue_id": 1947304141,
        "wing_id": 1947304069
      }
    ],
    "wof:id": 2014418111,
    "wof:involves": [
      102527513,
      102528591,
      1159285413,
      1947304141
    ],
    "wof:lastmodified": 1767024523,
    "wof:name": "UA3769 (AFW-SFO)",
    "wof:parent_id": 1947304141,
    "wof:placetype": "custom",
    "wof:placetype_alt": [
      "flight"
    ],
    "wof:repo": "sfomuseum-data-flights-2025-12",
    "wof:superseded_by": [],
    "wof:supersedes": []
  },
  "bbox": [
    -122.370943,
    32.986694,
    -97.316095,
    37.61799
  ],
  "geometry": {"coordinates":[[-97.316095,32.986694],[-122.370943,37.61799]],"type":"MultiPoint"}
}
