{
  "id": 2014418111,
  "type": "Feature",
  "properties": {
    "geom:area": 0,
    "geom:bbox": "-122.359890,37.491430,-121.282750,37.614380",
    "geom:latitude": 37.54555803805987,
    "geom:longitude": -121.82610607812678,
    "src:alt_label": "swim-approach",
    "src:geom": "swim",
    "swim:elevations": [
      4215,
      4073,
      3922,
      3754,
      3418,
      3210,
      2977,
      2822,
      2642,
      2437,
      2356,
      2104,
      1995,
      1867,
      1566,
      1534,
      1182,
      959,
      871,
      674,
      613,
      465,
      425,
      323,
      199,
      92,
      188
    ],
    "swim:geom": "approach",
    "swim:timestamps": [
      1766959495,
      1766959515,
      1766959536,
      1766959561,
      1766959613,
      1766959638,
      1766959674,
      1766959705,
      1766959735,
      1766959768,
      1766959780,
      1766959826,
      1766959850,
      1766959877,
      1766959916,
      1766959920,
      1766959964,
      1766960004,
      1766960016,
      1766960060,
      1766960072,
      1766960118,
      1766960133,
      1766960169,
      1766960199,
      1766960228,
      1766960250
    ],
    "wof:geomhash": "4cd87c591e49cc7e469b841d0f2bdc34",
    "wof:id": 2014418111,
    "wof:repo": "sfomuseum-data-flights-2025-12"
  },
  "bbox": [
    -122.35989,
    37.49143,
    -121.28275,
    37.61438
  ],
  "geometry": {"coordinates":[[-121.28275,37.58999],[-121.32784,37.58475],[-121.37338,37.57981],[-121.42511,37.57409],[-121.52984,37.56205],[-121.57754,37.55648],[-121.64267,37.5465],[-121.69376,37.53441],[-121.74357,37.52248],[-121.79723,37.5096],[-121.81635,37.50503],[-121.88893,37.49143],[-121.92655,37.49214],[-121.96792,37.49324],[-122.0261,37.50694],[-122.03171,37.50871],[-122.09014,37.52769],[-122.14091,37.54426],[-122.15545,37.54898],[-122.20397,37.56497],[-122.21634,37.56894],[-122.25855,37.58231],[-122.27011,37.58566],[-122.29769,37.59377],[-122.3216,37.60023],[-122.34365,37.60789],[-122.35989,37.61438]],"type":"LineString"}
}
