{
  "id": 2014413745,
  "type": "Feature",
  "properties": {
    "geom:area": 0,
    "geom:bbox": "-122.385860,37.634280,-122.235340,38.492360",
    "geom:latitude": 38.050987730304286,
    "geom:longitude": -122.31491802332746,
    "src:alt_label": "swim-takeoff",
    "src:geom": "swim",
    "swim:elevations": [
      244,
      306,
      1049,
      1296,
      1336,
      1921,
      2522,
      2960,
      3655,
      3946,
      4148,
      4387,
      4489,
      4522,
      5013,
      5249,
      5544,
      5847,
      6092,
      6659,
      6970,
      7220,
      7299
    ],
    "swim:geom": "takeoff",
    "swim:timestamps": [
      1766875105,
      1766875110,
      1766875160,
      1766875196,
      1766875201,
      1766875239,
      1766875276,
      1766875302,
      1766875346,
      1766875364,
      1766875382,
      1766875433,
      1766875453,
      1766875460,
      1766875495,
      1766875516,
      1766875550,
      1766875577,
      1766875598,
      1766875646,
      1766875676,
      1766875703,
      1766875713
    ],
    "wof:geomhash": "995ca4c2f036f1a8b81a8d9877854da3",
    "wof:id": 2014413745,
    "wof:repo": "sfomuseum-data-flights-2025-12"
  },
  "bbox": [
    -122.38586,
    37.63428,
    -122.23534,
    38.49236
  ],
  "geometry": {"coordinates":[[-122.36267,37.63428],[-122.36008,37.63749],[-122.32854,37.66412],[-122.31058,37.69226],[-122.31105,37.69751],[-122.33223,37.73832],[-122.35425,37.77893],[-122.36918,37.81],[-122.38586,37.86365],[-122.38502,37.88703],[-122.38444,37.91093],[-122.36585,37.9886],[-122.3538,38.02111],[-122.34912,38.0334],[-122.32712,38.09312],[-122.31394,38.12949],[-122.29205,38.189],[-122.27435,38.23708],[-122.26032,38.27491],[-122.23534,38.36418],[-122.23893,38.42126],[-122.24408,38.47321],[-122.24596,38.49236]],"type":"LineString"}
}
