{
  "id": 2014420559,
  "type": "Feature",
  "properties": {
    "geom:area": 0,
    "geom:bbox": "-122.466570,36.719070,-121.439090,37.712810",
    "geom:latitude": 37.2248019683301,
    "geom:longitude": -122.0614160199935,
    "src:alt_label": "swim-takeoff",
    "src:geom": "swim",
    "swim:elevations": [
      152,
      411,
      596,
      792,
      938,
      1161,
      1691,
      2367,
      2638,
      2844,
      3061,
      3309,
      3883,
      4039,
      4571,
      4704,
      5195,
      5327,
      5549,
      5988,
      6460,
      6853,
      7190,
      7375,
      7500,
      7526,
      7751,
      7928,
      8232,
      8230,
      8230,
      8230,
      8230,
      8230,
      8230,
      8230,
      8230,
      8230
    ],
    "swim:geom": "takeoff",
    "swim:timestamps": [
      1766956944,
      1766956958,
      1766956970,
      1766956999,
      1766957020,
      1766957041,
      1766957085,
      1766957127,
      1766957145,
      1766957160,
      1766957175,
      1766957204,
      1766957247,
      1766957265,
      1766957304,
      1766957313,
      1766957349,
      1766957358,
      1766957379,
      1766957409,
      1766957445,
      1766957477,
      1766957509,
      1766957531,
      1766957546,
      1766957555,
      1766957598,
      1766957628,
      1766957667,
      1766957684,
      1766957726,
      1766957732,
      1766957758,
      1766957770,
      1766957795,
      1766957838,
      1766957855,
      1766957888
    ],
    "wof:geomhash": "782e83bab2036917794c420b6676c59d",
    "wof:id": 2014420559,
    "wof:repo": "sfomuseum-data-flights-2025-12"
  },
  "bbox": [
    -122.46657,
    36.71907,
    -121.43909,
    37.71281
  ],
  "geometry": {"coordinates":[[-122.36656,37.63283],[-122.36148,37.64325],[-122.36087,37.6522],[-122.36184,37.67442],[-122.36448,37.6943],[-122.38268,37.71281],[-122.44704,37.71007],[-122.46124,37.65589],[-122.45831,37.63179],[-122.45925,37.61136],[-122.46123,37.59074],[-122.46657,37.5499],[-122.46496,37.48619],[-122.44537,37.46539],[-122.38997,37.4291],[-122.37754,37.41981],[-122.32812,37.38244],[-122.31519,37.37274],[-122.28456,37.35007],[-122.24081,37.31779],[-122.18793,37.27893],[-122.13954,37.2434],[-122.09254,37.20835],[-122.0584,37.18349],[-122.03481,37.16609],[-122.02048,37.15542],[-121.9481,37.10148],[-121.89667,37.06304],[-121.8273,37.01093],[-121.79753,36.98827],[-121.72221,36.93277],[-121.71181,36.92474],[-121.66692,36.89138],[-121.64574,36.87536],[-121.60147,36.84166],[-121.52766,36.78592],[-121.49642,36.76242],[-121.43909,36.71907]],"type":"LineString"}
}
