{
  "id": 2014418397,
  "type": "Feature",
  "properties": {
    "geom:area": 0,
    "geom:bbox": "-122.343720,37.491490,-121.251080,37.608010",
    "geom:latitude": 37.54583467143531,
    "geom:longitude": -121.80197603400924,
    "src:alt_label": "swim-approach",
    "src:geom": "swim",
    "swim:elevations": [
      4563,
      4243,
      4093,
      3704,
      3681,
      3412,
      3277,
      3193,
      3048,
      2860,
      2742,
      2665,
      2550,
      2420,
      2298,
      2089,
      1950,
      1882,
      1766,
      1488,
      1327,
      1226,
      1038,
      860,
      757,
      552,
      428,
      242,
      118,
      81
    ],
    "swim:geom": "approach",
    "swim:timestamps": [
      1766911855,
      1766911888,
      1766911906,
      1766911948,
      1766911952,
      1766911981,
      1766911997,
      1766912010,
      1766912048,
      1766912093,
      1766912113,
      1766912125,
      1766912145,
      1766912177,
      1766912198,
      1766912240,
      1766912277,
      1766912295,
      1766912320,
      1766912367,
      1766912398,
      1766912414,
      1766912446,
      1766912479,
      1766912497,
      1766912537,
      1766912565,
      1766912607,
      1766912632,
      1766912640
    ],
    "wof:geomhash": "dee6bbd45bf6fdb1f4910853ea578752",
    "wof:id": 2014418397,
    "wof:repo": "sfomuseum-data-flights-2025-12"
  },
  "bbox": [
    -122.34372,
    37.49149,
    -121.25108,
    37.60801
  ],
  "geometry": {"coordinates":[[-121.25108,37.59438],[-121.31516,37.58644],[-121.34997,37.58266],[-121.43115,37.5734],[-121.4385,37.57254],[-121.49384,37.56607],[-121.52337,37.56259],[-121.54704,37.55998],[-121.61288,37.5521],[-121.68359,37.53648],[-121.71365,37.52938],[-121.73143,37.52522],[-121.76122,37.51815],[-121.8075,37.50716],[-121.83605,37.50034],[-121.89376,37.49149],[-121.9442,37.49264],[-121.96892,37.49341],[-122.00111,37.49887],[-122.0574,37.51724],[-122.09468,37.52928],[-122.11337,37.53528],[-122.15108,37.54765],[-122.18937,37.55991],[-122.20932,37.56702],[-122.25042,37.58001],[-122.2777,37.58805],[-122.31544,37.59888],[-122.33627,37.60535],[-122.34372,37.60801]],"type":"LineString"}
}
