{
  "id": 2014426975,
  "type": "Feature",
  "properties": {
    "geom:area": 0,
    "geom:bbox": "-122.752430,37.427720,-122.134710,38.363150",
    "geom:latitude": 37.800866387914496,
    "geom:longitude": -122.47740820923896,
    "src:alt_label": "swim-approach",
    "src:geom": "swim",
    "swim:elevations": [
      7592,
      7374,
      6736,
      6163,
      5880,
      5477,
      5445,
      5081,
      4738,
      4440,
      4317,
      3949,
      3692,
      3389,
      3353,
      3353,
      3353,
      3353,
      3353,
      3265,
      2923,
      2745,
      2498,
      2434,
      2086,
      1830,
      1766,
      1527,
      1377,
      1220,
      1219,
      1099,
      939,
      694,
      678,
      622,
      441,
      307,
      181,
      58,
      14
    ],
    "swim:geom": "approach",
    "swim:timestamps": [
      1767010974,
      1767010988,
      1767011025,
      1767011060,
      1767011084,
      1767011120,
      1767011130,
      1767011165,
      1767011205,
      1767011241,
      1767011254,
      1767011300,
      1767011324,
      1767011364,
      1767011392,
      1767011411,
      1767011457,
      1767011483,
      1767011498,
      1767011529,
      1767011578,
      1767011597,
      1767011632,
      1767011641,
      1767011682,
      1767011724,
      1767011754,
      1767011788,
      1767011813,
      1767011843,
      1767011866,
      1767011890,
      1767011916,
      1767011968,
      1767011971,
      1767011982,
      1767012020,
      1767012054,
      1767012085,
      1767012117,
      1767012125
    ],
    "wof:geomhash": "349b7c905058eb9739930a136e7044c5",
    "wof:id": 2014426975,
    "wof:repo": "sfomuseum-data-flights-2025-12"
  },
  "bbox": [
    -122.75243,
    37.42772,
    -122.13471,
    38.36315
  ],
  "geometry": {"coordinates":[[-122.58778,38.36315],[-122.61533,38.34204],[-122.68689,38.28691],[-122.74064,38.23158],[-122.75243,38.18896],[-122.74,38.12771],[-122.73515,38.11045],[-122.71765,38.05149],[-122.69861,37.98757],[-122.68193,37.93013],[-122.67349,37.90938],[-122.62164,37.85067],[-122.59195,37.82268],[-122.5456,37.77918],[-122.51713,37.7522],[-122.49922,37.73521],[-122.4577,37.69633],[-122.43449,37.67444],[-122.42079,37.66159],[-122.39315,37.63549],[-122.35519,37.59082],[-122.34491,37.56985],[-122.32445,37.53375],[-122.3188,37.52442],[-122.29065,37.48774],[-122.24552,37.46294],[-122.21251,37.44506],[-122.17383,37.42772],[-122.14335,37.43493],[-122.13471,37.46457],[-122.14954,37.48296],[-122.16692,37.50127],[-122.18543,37.51955],[-122.22498,37.55482],[-122.22791,37.55642],[-122.23924,37.56164],[-122.27588,37.57708],[-122.30323,37.58854],[-122.32693,37.59851],[-122.35111,37.60872],[-122.35713,37.6112]],"type":"LineString"}
}
