{
  "id": 2014425645,
  "type": "Feature",
  "properties": {
    "geom:area": 0,
    "geom:bbox": "-122.359990,37.491180,-121.252670,37.614560",
    "geom:latitude": 37.54619958354944,
    "geom:longitude": -121.81141791745786,
    "src:alt_label": "swim-approach",
    "src:geom": "swim",
    "swim:elevations": [
      4757,
      4458,
      4319,
      4059,
      3779,
      3638,
      3416,
      3122,
      2873,
      2749,
      2651,
      2374,
      2289,
      2038,
      1916,
      1829,
      1602,
      1537,
      1204,
      959,
      791,
      792,
      792,
      731,
      542,
      469,
      335,
      236,
      76,
      30
    ],
    "swim:geom": "approach",
    "swim:timestamps": [
      1767004519,
      1767004553,
      1767004566,
      1767004600,
      1767004635,
      1767004654,
      1767004684,
      1767004725,
      1767004765,
      1767004787,
      1767004803,
      1767004851,
      1767004868,
      1767004915,
      1767004943,
      1767004967,
      1767005005,
      1767005012,
      1767005057,
      1767005094,
      1767005125,
      1767005152,
      1767005168,
      1767005204,
      1767005240,
      1767005250,
      1767005274,
      1767005296,
      1767005337,
      1767005352
    ],
    "wof:geomhash": "d9417900294df0f0d5e43c9e283487ba",
    "wof:id": 2014425645,
    "wof:repo": "sfomuseum-data-flights-2025-12"
  },
  "bbox": [
    -122.35999,
    37.49118,
    -121.25267,
    37.61456
  ],
  "geometry": {"coordinates":[[-121.25267,37.59356],[-121.32269,37.58445],[-121.35099,37.58138],[-121.41764,37.57428],[-121.48716,37.56648],[-121.52232,37.56217],[-121.57579,37.55575],[-121.64124,37.54636],[-121.69852,37.53243],[-121.72959,37.52523],[-121.75264,37.51988],[-121.81754,37.50432],[-121.84045,37.49868],[-121.90424,37.49118],[-121.94213,37.49249],[-121.97517,37.49344],[-122.02426,37.50586],[-122.03344,37.50892],[-122.08878,37.52726],[-122.12977,37.5403],[-122.16086,37.55044],[-122.1884,37.55948],[-122.20419,37.56473],[-122.24073,37.57645],[-122.2737,37.58398],[-122.28238,37.586],[-122.30154,37.59183],[-122.31883,37.59777],[-122.34933,37.6103],[-122.35999,37.61456]],"type":"LineString"}
}
