{
  "id": 2014446857,
  "type": "Feature",
  "properties": {
    "geom:area": 0,
    "geom:bbox": "-123.506880,37.629420,-122.401780,37.766620",
    "geom:latitude": 37.70149043537097,
    "geom:longitude": -122.95264975894253,
    "src:alt_label": "swim-takeoff",
    "src:geom": "swim",
    "swim:elevations": [
      213,
      522,
      834,
      1031,
      1147,
      1387,
      1649,
      1726,
      2277,
      2618,
      2944,
      3192,
      3424,
      3797,
      4081,
      4296,
      4579,
      4904,
      5219,
      5498,
      5704,
      5784
    ],
    "swim:geom": "takeoff",
    "swim:timestamps": [
      1767230518,
      1767230538,
      1767230577,
      1767230607,
      1767230634,
      1767230669,
      1767230699,
      1767230708,
      1767230753,
      1767230786,
      1767230816,
      1767230846,
      1767230870,
      1767230906,
      1767230936,
      1767230956,
      1767230983,
      1767231017,
      1767231055,
      1767231088,
      1767231109,
      1767231121
    ],
    "wof:geomhash": "e9c3f68b879d523c2b42c398e585a829",
    "wof:id": 2014446857,
    "wof:repo": "sfomuseum-data-flights-2025-12"
  },
  "bbox": [
    -123.50688,
    37.62942,
    -122.40178,
    37.76662
  ],
  "geometry": {"coordinates":[[-122.40178,37.62942],[-122.42241,37.63845],[-122.4634,37.65701],[-122.4974,37.67172],[-122.53306,37.67655],[-122.58382,37.67959],[-122.63269,37.68251],[-122.648,37.6833],[-122.72701,37.68835],[-122.78673,37.69201],[-122.84261,37.69522],[-122.90113,37.69878],[-122.95,37.70157],[-123.02465,37.7059],[-123.08939,37.7094],[-123.13306,37.71196],[-123.19404,37.71541],[-123.26877,37.71956],[-123.35659,37.72491],[-123.4318,37.74319],[-123.47936,37.75816],[-123.50688,37.76662]],"type":"LineString"}
}
