{
  "id": 2014412129,
  "type": "Feature",
  "properties": {
    "geom:area": 0,
    "geom:bbox": "-123.480650,37.631060,-122.404940,37.731050",
    "geom:latitude": 37.698518679333034,
    "geom:longitude": -122.93884372794047,
    "src:alt_label": "swim-takeoff",
    "src:geom": "swim",
    "swim:elevations": [
      274,
      776,
      914,
      984,
      1507,
      1850,
      2114,
      2399,
      2504,
      2689,
      3070,
      3272,
      3505,
      3656,
      3940,
      4278,
      4714,
      5057,
      5381,
      5467,
      5703,
      5858
    ],
    "swim:geom": "takeoff",
    "swim:timestamps": [
      1766878846,
      1766878882,
      1766878916,
      1766878934,
      1766878974,
      1766879001,
      1766879022,
      1766879046,
      1766879055,
      1766879070,
      1766879105,
      1766879143,
      1766879184,
      1766879202,
      1766879225,
      1766879255,
      1766879299,
      1766879331,
      1766879363,
      1766879377,
      1766879408,
      1766879435
    ],
    "wof:geomhash": "d2f26fef99db88bc535ad0cbc7013b76",
    "wof:id": 2014412129,
    "wof:repo": "sfomuseum-data-flights-2025-12"
  },
  "bbox": [
    -123.48065,
    37.63106,
    -122.40494,
    37.73105
  ],
  "geometry": {"coordinates":[[-122.40494,37.63106],[-122.44107,37.64694],[-122.47911,37.66426],[-122.50264,37.67317],[-122.56206,37.67843],[-122.60304,37.68102],[-122.63509,37.68295],[-122.67215,37.68489],[-122.68606,37.68581],[-122.70947,37.68724],[-122.765,37.69064],[-122.83025,37.69447],[-122.91001,37.69917],[-122.94765,37.70135],[-122.99621,37.70414],[-123.06155,37.7079],[-123.15909,37.71347],[-123.2313,37.71748],[-123.30631,37.72163],[-123.33935,37.72345],[-123.41434,37.72745],[-123.48065,37.73105]],"type":"LineString"}
}
