{
  "id": 2014408029,
  "type": "Feature",
  "properties": {
    "geom:area": 0,
    "geom:bbox": "-122.351690,37.491100,-121.245120,37.611210",
    "geom:latitude": 37.54650837301038,
    "geom:longitude": -121.80319255022641,
    "src:alt_label": "swim-approach",
    "src:geom": "swim",
    "swim:elevations": [
      4657,
      4601,
      4334,
      4050,
      3735,
      3575,
      3417,
      3273,
      3125,
      2985,
      2791,
      2668,
      2467,
      2375,
      2248,
      2101,
      2010,
      1885,
      1831,
      1553,
      1220,
      1097,
      1031,
      882,
      824,
      700,
      636,
      539,
      385,
      303,
      243,
      126,
      62
    ],
    "swim:geom": "approach",
    "swim:timestamps": [
      1766856235,
      1766856244,
      1766856277,
      1766856314,
      1766856356,
      1766856384,
      1766856414,
      1766856429,
      1766856451,
      1766856484,
      1766856519,
      1766856540,
      1766856585,
      1766856602,
      1766856624,
      1766856654,
      1766856679,
      1766856714,
      1766856724,
      1766856763,
      1766856808,
      1766856829,
      1766856841,
      1766856868,
      1766856883,
      1766856921,
      1766856936,
      1766856972,
      1766857011,
      1766857029,
      1766857047,
      1766857074,
      1766857095
    ],
    "wof:geomhash": "865b6c5a7a9742bd9c21f5ebf8107f8c",
    "wof:id": 2014408029,
    "wof:repo": "sfomuseum-data-flights-2025-12"
  },
  "bbox": [
    -122.35169,
    37.4911,
    -121.24512,
    37.61121
  ],
  "geometry": {"coordinates":[[-121.24512,37.59514],[-121.26078,37.59303],[-121.3208,37.58579],[-121.38722,37.57847],[-121.46011,37.57012],[-121.5092,37.56438],[-121.55471,37.55891],[-121.57725,37.55625],[-121.60886,37.55268],[-121.65568,37.54333],[-121.70491,37.53168],[-121.73378,37.52478],[-121.79451,37.51007],[-121.81697,37.50481],[-121.84717,37.49768],[-121.88774,37.4911],[-121.92105,37.49184],[-121.96918,37.49323],[-121.98156,37.49413],[-122.0301,37.50851],[-122.08431,37.52577],[-122.10774,37.5335],[-122.12157,37.53814],[-122.15288,37.54845],[-122.16995,37.55393],[-122.20914,37.56623],[-122.22387,37.57096],[-122.25632,37.58154],[-122.287,37.5906],[-122.30096,37.5948],[-122.31505,37.59897],[-122.33606,37.60524],[-122.35169,37.61121]],"type":"LineString"}
}
