{
  "id": 2014439755,
  "type": "Feature",
  "properties": {
    "geom:area": 0,
    "geom:bbox": "-122.532460,36.748160,-122.156410,37.712690",
    "geom:latitude": 37.245962470000364,
    "geom:longitude": -122.41377107478527,
    "src:alt_label": "swim-takeoff",
    "src:geom": "swim",
    "swim:elevations": [
      264,
      972,
      1082,
      1215,
      1396,
      1768,
      2052,
      3010,
      3415,
      3606,
      3880,
      4248,
      4538,
      5059,
      5295,
      5723,
      5911,
      6127,
      6352,
      6674,
      6992,
      7082,
      7333,
      7600,
      8056,
      8121,
      8768,
      9001
    ],
    "swim:geom": "takeoff",
    "swim:timestamps": [
      1767124449,
      1767124497,
      1767124508,
      1767124532,
      1767124552,
      1767124580,
      1767124592,
      1767124647,
      1767124676,
      1767124697,
      1767124736,
      1767124766,
      1767124786,
      1767124826,
      1767124845,
      1767124886,
      1767124902,
      1767124922,
      1767124943,
      1767124973,
      1767125005,
      1767125015,
      1767125040,
      1767125076,
      1767125120,
      1767125126,
      1767125157,
      1767125174
    ],
    "wof:geomhash": "ef98ff4fc6fe1e6dac84901a020e54f8",
    "wof:id": 2014439755,
    "wof:repo": "sfomuseum-data-flights-2025-12"
  },
  "bbox": [
    -122.53246,
    36.74816,
    -122.15641,
    37.71269
  ],
  "geometry": {"coordinates":[[-122.36561,37.63474],[-122.36217,37.67277],[-122.36145,37.6815],[-122.37191,37.70268],[-122.39701,37.71269],[-122.43639,37.69888],[-122.44536,37.68584],[-122.45804,37.61982],[-122.46494,37.58285],[-122.47055,37.55359],[-122.48143,37.49301],[-122.49012,37.44195],[-122.4959,37.40646],[-122.50776,37.33598],[-122.51355,37.30271],[-122.52696,37.22683],[-122.53246,37.19738],[-122.52802,37.15908],[-122.50322,37.12258],[-122.45812,37.07623],[-122.41207,37.02556],[-122.39698,37.0087],[-122.35964,36.96764],[-122.30532,36.90884],[-122.23761,36.83458],[-122.22814,36.82449],[-122.18226,36.77455],[-122.15641,36.74816]],"type":"LineString"}
}
