{
  "id": 2014409395,
  "type": "Feature",
  "properties": {
    "geom:area": 0,
    "geom:bbox": "-122.350930,37.492520,-121.265150,37.610870",
    "geom:latitude": 37.54578654188711,
    "geom:longitude": -121.81267213072104,
    "src:alt_label": "swim-approach",
    "src:geom": "swim",
    "swim:elevations": [
      4549,
      4367,
      4161,
      3964,
      3841,
      3552,
      3334,
      3261,
      3063,
      2853,
      2770,
      2584,
      2512,
      2437,
      2262,
      2008,
      1920,
      1829,
      1706,
      1538,
      1334,
      1184,
      1030,
      980,
      808,
      608,
      480,
      371,
      303,
      105,
      64
    ],
    "swim:geom": "approach",
    "swim:timestamps": [
      1766856036,
      1766856057,
      1766856079,
      1766856100,
      1766856114,
      1766856147,
      1766856170,
      1766856189,
      1766856235,
      1766856261,
      1766856272,
      1766856301,
      1766856327,
      1766856340,
      1766856367,
      1766856414,
      1766856432,
      1766856457,
      1766856507,
      1766856531,
      1766856564,
      1766856585,
      1766856609,
      1766856615,
      1766856642,
      1766856682,
      1766856711,
      1766856733,
      1766856753,
      1766856805,
      1766856816
    ],
    "wof:geomhash": "ca592a24f4628ed2e05a16931e740180",
    "wof:id": 2014409395,
    "wof:repo": "sfomuseum-data-flights-2025-12"
  },
  "bbox": [
    -122.35093,
    37.49252,
    -121.26515,
    37.61087
  ],
  "geometry": {"coordinates":[[-121.26515,37.59252],[-121.30659,37.58737],[-121.3501,37.58272],[-121.39091,37.57811],[-121.41952,37.57474],[-121.48265,37.56736],[-121.52666,37.56233],[-121.56133,37.55834],[-121.6426,37.54661],[-121.68626,37.53597],[-121.70423,37.53166],[-121.75124,37.52042],[-121.79278,37.51049],[-121.81256,37.50573],[-121.851,37.49657],[-121.92079,37.49252],[-121.94873,37.49315],[-121.98508,37.49504],[-122.05168,37.51567],[-122.08098,37.52514],[-122.11978,37.53764],[-122.14336,37.54527],[-122.16766,37.55295],[-122.1741,37.55509],[-122.20006,37.56367],[-122.24013,37.57645],[-122.26811,37.5855],[-122.28544,37.59054],[-122.30174,37.59507],[-122.34255,37.60763],[-122.35093,37.61087]],"type":"LineString"}
}
