{
  "id": 2014426903,
  "type": "Feature",
  "properties": {
    "geom:area": 0,
    "geom:bbox": "-122.353960,36.718750,-121.875980,37.609840",
    "geom:latitude": 37.20501575300042,
    "geom:longitude": -122.06772427772287,
    "src:alt_label": "swim-approach",
    "src:geom": "swim",
    "swim:elevations": [
      5685,
      5471,
      5334,
      5211,
      4829,
      4765,
      4583,
      4109,
      3963,
      3885,
      3560,
      3268,
      3214,
      3109,
      2939,
      2866,
      2609,
      2342,
      2259,
      2036,
      1938,
      1830,
      1583,
      1524,
      1524,
      1454,
      1351,
      1275,
      1156,
      946,
      836,
      746,
      517,
      416,
      245,
      142,
      36
    ],
    "swim:geom": "approach",
    "swim:timestamps": [
      1767036637,
      1767036670,
      1767036694,
      1767036705,
      1767036745,
      1767036751,
      1767036768,
      1767036804,
      1767036828,
      1767036843,
      1767036885,
      1767036921,
      1767036931,
      1767036955,
      1767036984,
      1767036995,
      1767037031,
      1767037066,
      1767037081,
      1767037115,
      1767037130,
      1767037146,
      1767037186,
      1767037224,
      1767037232,
      1767037262,
      1767037277,
      1767037291,
      1767037310,
      1767037345,
      1767037366,
      1767037387,
      1767037425,
      1767037450,
      1767037490,
      1767037515,
      1767037539
    ],
    "wof:geomhash": "ee9f21d5d97ec0fa9fbc2294305d38d7",
    "wof:id": 2014426903,
    "wof:repo": "sfomuseum-data-flights-2025-12"
  },
  "bbox": [
    -122.35396,
    36.71875,
    -121.87598,
    37.60984
  ],
  "geometry": {"coordinates":[[-121.87598,36.71875],[-121.90089,36.7663],[-121.91076,36.80109],[-121.91543,36.81764],[-121.93116,36.87419],[-121.93348,36.88233],[-121.94024,36.90623],[-121.95474,36.95647],[-121.96791,36.98989],[-121.97574,37.01012],[-121.99664,37.06368],[-122.01486,37.11025],[-122.01941,37.12189],[-122.03092,37.15147],[-122.04349,37.18363],[-122.04773,37.19467],[-122.06327,37.2341],[-122.07766,37.27041],[-122.08387,37.28636],[-122.0977,37.32148],[-122.10369,37.3368],[-122.10997,37.35221],[-122.12474,37.39195],[-122.13667,37.4271],[-122.13937,37.43518],[-122.15034,37.46336],[-122.15657,37.47704],[-122.1638,37.48882],[-122.17441,37.50388],[-122.19263,37.52985],[-122.20357,37.5441],[-122.22303,37.5543],[-122.25851,37.56976],[-122.28137,37.57929],[-122.31431,37.5932],[-122.33451,37.60168],[-122.35396,37.60984]],"type":"LineString"}
}
