{
  "id": 2014430905,
  "type": "Feature",
  "properties": {
    "geom:area": 0,
    "geom:bbox": "-122.442140,36.727590,-121.272490,37.704170",
    "geom:latitude": 37.221412914874364,
    "geom:longitude": -121.93078451794626,
    "src:alt_label": "swim-takeoff",
    "src:geom": "swim",
    "swim:elevations": [
      391,
      650,
      886,
      1057,
      1222,
      1765,
      2272,
      2404,
      3009,
      3181,
      3442,
      3508,
      3626,
      3849,
      4231,
      4564,
      4889,
      5194,
      5316,
      5730,
      5908,
      6221,
      6340,
      6669,
      6781,
      6915,
      7104,
      7337,
      7519,
      7583,
      7760,
      7912,
      8128,
      8272,
      8353
    ],
    "swim:geom": "takeoff",
    "swim:timestamps": [
      1767034044,
      1767034059,
      1767034080,
      1767034118,
      1767034156,
      1767034198,
      1767034225,
      1767034237,
      1767034285,
      1767034297,
      1767034334,
      1767034346,
      1767034367,
      1767034392,
      1767034433,
      1767034468,
      1767034497,
      1767034527,
      1767034539,
      1767034586,
      1767034603,
      1767034636,
      1767034651,
      1767034705,
      1767034719,
      1767034735,
      1767034757,
      1767034791,
      1767034825,
      1767034838,
      1767034866,
      1767034894,
      1767034918,
      1767034943,
      1767034958
    ],
    "wof:geomhash": "c9aa758ad84d89d7761b316de50ee875",
    "wof:id": 2014430905,
    "wof:repo": "sfomuseum-data-flights-2025-12"
  },
  "bbox": [
    -122.44214,
    36.72759,
    -121.27249,
    37.70417
  ],
  "geometry": {"coordinates":[[-122.36499,37.63827],[-122.36333,37.64873],[-122.36233,37.6621],[-122.36258,37.68909],[-122.40046,37.70417],[-122.43336,37.66387],[-122.43889,37.62948],[-122.44214,37.61412],[-122.41982,37.55812],[-122.40495,37.54741],[-122.35544,37.51241],[-122.33827,37.50025],[-122.30683,37.47779],[-122.26682,37.44917],[-122.20091,37.40179],[-122.14351,37.36085],[-122.09338,37.32461],[-122.04388,37.28812],[-122.0229,37.27284],[-121.94319,37.21623],[-121.91343,37.19471],[-121.85665,37.15383],[-121.83021,37.13477],[-121.73466,37.06566],[-121.70933,37.04733],[-121.68145,37.02703],[-121.64116,36.99765],[-121.58109,36.95403],[-121.51774,36.90775],[-121.49376,36.89018],[-121.44335,36.85369],[-121.38989,36.81433],[-121.34501,36.78121],[-121.29874,36.74684],[-121.27249,36.72759]],"type":"LineString"}
}
