{
  "id": 2014439903,
  "type": "Feature",
  "properties": {
    "geom:area": 0,
    "geom:bbox": "-122.538460,37.624890,-121.429350,38.516050",
    "geom:latitude": 38.07945613552218,
    "geom:longitude": -122.06094903466057,
    "src:alt_label": "swim-takeoff",
    "src:geom": "swim",
    "swim:elevations": [
      122,
      183,
      667,
      966,
      1028,
      1358,
      1518,
      1961,
      2531,
      2756,
      3390,
      3707,
      4227,
      4550,
      4741,
      5073,
      5307,
      5599,
      5893,
      6101,
      6309,
      6434,
      6559,
      6607,
      6790,
      6892,
      7164,
      7369,
      7586
    ],
    "swim:geom": "takeoff",
    "swim:timestamps": [
      1767104125,
      1767104131,
      1767104173,
      1767104217,
      1767104226,
      1767104265,
      1767104287,
      1767104318,
      1767104363,
      1767104382,
      1767104435,
      1767104462,
      1767104508,
      1767104540,
      1767104563,
      1767104593,
      1767104625,
      1767104664,
      1767104697,
      1767104726,
      1767104756,
      1767104783,
      1767104815,
      1767104827,
      1767104878,
      1767104897,
      1767104934,
      1767104965,
      1767104991
    ],
    "wof:geomhash": "235546ded174ccf97631010736a443a5",
    "wof:id": 2014439903,
    "wof:repo": "sfomuseum-data-flights-2025-12"
  },
  "bbox": [
    -122.53846,
    37.62489,
    -121.42935,
    38.51605
  ],
  "geometry": {"coordinates":[[-122.38953,37.62489],[-122.395,37.62719],[-122.43507,37.64443],[-122.47987,37.66366],[-122.49144,37.66869],[-122.53303,37.69896],[-122.53846,37.72678],[-122.53053,37.76727],[-122.49479,37.81894],[-122.46696,37.83075],[-122.39425,37.87184],[-122.35628,37.8973],[-122.29347,37.94062],[-122.24842,37.97172],[-122.21469,37.99497],[-122.16886,38.02495],[-122.12061,38.05894],[-122.05947,38.10044],[-122.00521,38.13713],[-121.95652,38.17028],[-121.90556,38.20511],[-121.85789,38.23738],[-121.7993,38.27697],[-121.77682,38.29215],[-121.67478,38.36099],[-121.63531,38.38746],[-121.55603,38.4398],[-121.48857,38.48094],[-121.42935,38.51605]],"type":"LineString"}
}
