{
  "id": 2014420623,
  "type": "Feature",
  "properties": {
    "geom:area": 0,
    "geom:bbox": "-122.484360,37.214920,-121.249100,37.687380",
    "geom:latitude": 37.39114225941716,
    "geom:longitude": -121.98192101087247,
    "src:alt_label": "swim-takeoff",
    "src:geom": "swim",
    "swim:elevations": [
      563,
      708,
      852,
      1086,
      1642,
      2023,
      2254,
      2884,
      3065,
      3259,
      3353,
      3788,
      3975,
      4535,
      5065,
      5351,
      5606,
      5695,
      5962,
      6391,
      6652,
      6888,
      7069,
      7363,
      7609,
      7810,
      7937,
      8224,
      8389
    ],
    "swim:geom": "takeoff",
    "swim:timestamps": [
      1766987903,
      1766987924,
      1766987945,
      1766987993,
      1766988024,
      1766988057,
      1766988076,
      1766988116,
      1766988137,
      1766988167,
      1766988182,
      1766988222,
      1766988240,
      1766988282,
      1766988327,
      1766988351,
      1766988387,
      1766988396,
      1766988425,
      1766988471,
      1766988502,
      1766988530,
      1766988551,
      1766988587,
      1766988622,
      1766988652,
      1766988671,
      1766988713,
      1766988743
    ],
    "wof:geomhash": "399a801cf95334153d66d13a8b9d9b22",
    "wof:id": 2014420623,
    "wof:repo": "sfomuseum-data-flights-2025-12"
  },
  "bbox": [
    -122.48436,
    37.21492,
    -121.2491,
    37.68738
  ],
  "geometry": {"coordinates":[[-122.36359,37.64537],[-122.36289,37.6605],[-122.3688,37.6769],[-122.42885,37.68738],[-122.46848,37.6681],[-122.47949,37.62774],[-122.48258,37.6042],[-122.48436,37.55101],[-122.47183,37.52513],[-122.44974,37.4852],[-122.43678,37.46592],[-122.37523,37.43128],[-122.34066,37.42714],[-122.25695,37.41336],[-122.16626,37.39419],[-122.11792,37.38402],[-122.0444,37.36858],[-122.0257,37.36473],[-121.96475,37.35236],[-121.86647,37.3321],[-121.80013,37.31828],[-121.73741,37.30503],[-121.69078,37.29513],[-121.61006,37.27809],[-121.53205,37.26163],[-121.4635,37.24705],[-121.41835,37.23751],[-121.32001,37.22263],[-121.2491,37.21492]],"type":"LineString"}
}
