{
  "id": 2014443971,
  "type": "Feature",
  "properties": {
    "geom:area": 0,
    "geom:bbox": "-122.352380,37.460530,-121.291440,37.611520",
    "geom:latitude": 37.537535623705445,
    "geom:longitude": -121.82883708978017,
    "src:alt_label": "swim-approach",
    "src:geom": "swim",
    "swim:elevations": [
      4403,
      4245,
      3942,
      3622,
      3493,
      3353,
      3353,
      3352,
      3280,
      3081,
      3019,
      2970,
      2956,
      2809,
      2744,
      2639,
      2417,
      2170,
      1889,
      1859,
      1721,
      1621,
      1386,
      1218,
      1086,
      1045,
      751,
      618,
      391,
      271,
      188,
      42
    ],
    "swim:geom": "approach",
    "swim:timestamps": [
      1767179127,
      1767179146,
      1767179180,
      1767179213,
      1767179227,
      1767179278,
      1767179292,
      1767179322,
      1767179341,
      1767179388,
      1767179418,
      1767179428,
      1767179434,
      1767179466,
      1767179487,
      1767179506,
      1767179534,
      1767179563,
      1767179606,
      1767179610,
      1767179662,
      1767179676,
      1767179714,
      1767179754,
      1767179787,
      1767179790,
      1767179840,
      1767179858,
      1767179903,
      1767179926,
      1767179946,
      1767179978
    ],
    "wof:geomhash": "bea0207eb7bec005ca461218228762d7",
    "wof:id": 2014443971,
    "wof:repo": "sfomuseum-data-flights-2025-12"
  },
  "bbox": [
    -122.35238,
    37.46053,
    -121.29144,
    37.61152
  ],
  "geometry": {"coordinates":[[-121.29144,37.58911],[-121.3295,37.58492],[-121.39618,37.57761],[-121.46089,37.57003],[-121.48814,37.56673],[-121.58189,37.55592],[-121.60452,37.55337],[-121.64855,37.5453],[-121.67626,37.54746],[-121.74012,37.57279],[-121.7854,37.57808],[-121.79817,37.57301],[-121.80423,37.56878],[-121.81386,37.53706],[-121.81239,37.51655],[-121.81087,37.49699],[-121.81962,37.47078],[-121.85824,37.46083],[-121.92018,37.46053],[-121.92662,37.46057],[-122.00156,37.46422],[-122.02077,37.4711],[-122.06864,37.49219],[-122.11939,37.51341],[-122.15913,37.53019],[-122.16272,37.53169],[-122.22187,37.55671],[-122.2426,37.56533],[-122.28993,37.58527],[-122.31053,37.594],[-122.32675,37.60083],[-122.35238,37.61152]],"type":"LineString"}
}
