{
  "id": 2014422279,
  "type": "Feature",
  "properties": {
    "geom:area": 0,
    "geom:bbox": "-122.355890,37.644750,-121.443050,38.510650",
    "geom:latitude": 38.07116349853146,
    "geom:longitude": -121.89557352782398,
    "src:alt_label": "swim-takeoff",
    "src:geom": "swim",
    "swim:elevations": [
      457,
      837,
      1153,
      1370,
      1968,
      2212,
      2708,
      3025,
      3380,
      3606,
      4009,
      4325,
      4493,
      5041,
      5395,
      5784,
      5878,
      6155,
      6191,
      6600,
      6743,
      7028,
      7157,
      7424,
      7820,
      8121,
      8354,
      8370,
      8524,
      8685,
      8841,
      8839
    ],
    "swim:geom": "takeoff",
    "swim:timestamps": [
      1766948271,
      1766948291,
      1766948326,
      1766948349,
      1766948398,
      1766948417,
      1766948450,
      1766948471,
      1766948504,
      1766948537,
      1766948564,
      1766948582,
      1766948594,
      1766948635,
      1766948663,
      1766948698,
      1766948707,
      1766948728,
      1766948731,
      1766948762,
      1766948780,
      1766948805,
      1766948823,
      1766948853,
      1766948900,
      1766948933,
      1766948966,
      1766948972,
      1766948990,
      1766949014,
      1766949051,
      1766949063
    ],
    "wof:geomhash": "e840adfcc1e67c19c59939fa1867a262",
    "wof:id": 2014422279,
    "wof:repo": "sfomuseum-data-flights-2025-12"
  },
  "bbox": [
    -122.35589,
    37.64475,
    -121.44305,
    38.51065
  ],
  "geometry": {"coordinates":[[-122.35589,37.64475],[-122.34187,37.65442],[-122.31181,37.66894],[-122.28774,37.68037],[-122.22906,37.70977],[-122.20706,37.7246],[-122.17893,37.75732],[-122.16012,37.7784],[-122.12923,37.81281],[-122.09403,37.85139],[-122.06397,37.88445],[-122.04413,37.90651],[-122.03099,37.92101],[-121.98468,37.97205],[-121.95258,38.00718],[-121.91371,38.04981],[-121.90348,38.061],[-121.87963,38.08734],[-121.8763,38.09109],[-121.84006,38.13009],[-121.82057,38.15151],[-121.79076,38.18407],[-121.76982,38.20718],[-121.73491,38.24543],[-121.67775,38.30785],[-121.63665,38.35235],[-121.59603,38.39606],[-121.58822,38.40404],[-121.56601,38.42857],[-121.53066,38.45791],[-121.46585,38.4968],[-121.44305,38.51065]],"type":"LineString"}
}
