{
  "id": 2014430321,
  "type": "Feature",
  "properties": {
    "geom:area": 0,
    "geom:bbox": "-122.463460,37.195280,-121.270210,37.713790",
    "geom:latitude": 37.388661559423795,
    "geom:longitude": -121.99379464158815,
    "src:alt_label": "swim-takeoff",
    "src:geom": "swim",
    "swim:elevations": [
      304,
      535,
      1095,
      1175,
      1876,
      2282,
      2751,
      2994,
      3201,
      3409,
      3723,
      3812,
      4289,
      4497,
      4743,
      4983,
      5132,
      5397,
      5729,
      6054,
      6348,
      6519,
      6750,
      7043,
      7259,
      7408,
      7559,
      7730,
      7804,
      7956,
      8076
    ],
    "swim:geom": "takeoff",
    "swim:timestamps": [
      1767044831,
      1767044856,
      1767044906,
      1767044921,
      1767044967,
      1767044996,
      1767045026,
      1767045046,
      1767045064,
      1767045102,
      1767045145,
      1767045154,
      1767045193,
      1767045211,
      1767045235,
      1767045260,
      1767045277,
      1767045304,
      1767045347,
      1767045383,
      1767045417,
      1767045437,
      1767045464,
      1767045507,
      1767045534,
      1767045551,
      1767045576,
      1767045605,
      1767045619,
      1767045643,
      1767045665
    ],
    "wof:geomhash": "5fe635a6e2ea0942731dbce9bdfe8aa5",
    "wof:id": 2014430321,
    "wof:repo": "sfomuseum-data-flights-2025-12"
  },
  "bbox": [
    -122.46346,
    37.19528,
    -121.27021,
    37.71379
  ],
  "geometry": {"coordinates":[[-122.36471,37.63767],[-122.36297,37.65888],[-122.37397,37.70578],[-122.39429,37.71379],[-122.44346,37.68171],[-122.44938,37.64461],[-122.45453,37.60485],[-122.45897,37.57855],[-122.46317,37.55429],[-122.46346,37.49951],[-122.40448,37.45002],[-122.39037,37.44174],[-122.32044,37.40884],[-122.28411,37.40068],[-122.23484,37.3909],[-122.18228,37.38043],[-122.14575,37.37317],[-122.08904,37.3619],[-121.99514,37.34314],[-121.91619,37.32737],[-121.84209,37.31237],[-121.79658,37.30321],[-121.73622,37.29094],[-121.63891,37.27114],[-121.57567,37.25826],[-121.53749,37.25053],[-121.47981,37.23869],[-121.41292,37.22492],[-121.37944,37.21791],[-121.32247,37.20602],[-121.27021,37.19528]],"type":"LineString"}
}
