{
  "id": 2014432661,
  "type": "Feature",
  "properties": {
    "geom:area": 0,
    "geom:bbox": "-123.127940,37.566290,-122.121190,38.511580",
    "geom:latitude": 37.94245501632794,
    "geom:longitude": -122.58807946640455,
    "src:alt_label": "swim-approach",
    "src:geom": "swim",
    "swim:elevations": [
      7590,
      7473,
      7278,
      7173,
      7004,
      6944,
      6730,
      6335,
      6079,
      5998,
      5570,
      5242,
      5003,
      4854,
      4694,
      4634,
      4193,
      3959,
      3802,
      3615,
      3350,
      3355,
      3214,
      3098,
      2876,
      2688,
      2575,
      2335,
      1971,
      1872,
      1775,
      1587,
      1435,
      1384,
      1178,
      1118,
      837,
      488,
      278,
      182,
      119,
      0,
      0
    ],
    "swim:geom": "approach",
    "swim:timestamps": [
      1767089125,
      1767089149,
      1767089188,
      1767089208,
      1767089241,
      1767089254,
      1767089289,
      1767089333,
      1767089363,
      1767089371,
      1767089418,
      1767089457,
      1767089482,
      1767089497,
      1767089517,
      1767089522,
      1767089574,
      1767089600,
      1767089618,
      1767089641,
      1767089697,
      1767089700,
      1767089750,
      1767089770,
      1767089807,
      1767089835,
      1767089850,
      1767089883,
      1767089935,
      1767089951,
      1767089971,
      1767090003,
      1767090026,
      1767090036,
      1767090082,
      1767090090,
      1767090124,
      1767090163,
      1767090206,
      1767090232,
      1767090245,
      1767090267,
      1767090270
    ],
    "wof:geomhash": "59338b98ce2b46224e811a075d3baa10",
    "wof:id": 2014432661,
    "wof:repo": "sfomuseum-data-flights-2025-12"
  },
  "bbox": [
    -123.12794,
    37.56629,
    -122.12119,
    38.51158
  ],
  "geometry": {"coordinates":[[-123.12794,38.51158],[-123.09065,38.48183],[-123.02817,38.43257],[-122.99708,38.40775],[-122.94689,38.36772],[-122.92705,38.35196],[-122.87364,38.30938],[-122.8084,38.25734],[-122.77,38.21797],[-122.76277,38.20453],[-122.73883,38.12722],[-122.72105,38.06385],[-122.71011,38.02612],[-122.70299,38.00166],[-122.69394,37.97072],[-122.69157,37.96267],[-122.6586,37.8867],[-122.62641,37.85501],[-122.60468,37.83452],[-122.57568,37.80749],[-122.5123,37.74766],[-122.50931,37.74479],[-122.45488,37.70949],[-122.42772,37.70233],[-122.37817,37.69013],[-122.34141,37.68136],[-122.32173,37.67674],[-122.2774,37.66699],[-122.20731,37.65029],[-122.18636,37.64331],[-122.16094,37.63475],[-122.12616,37.61469],[-122.12119,37.59045],[-122.12608,37.58082],[-122.17954,37.56629],[-122.19027,37.56737],[-122.2321,37.57141],[-122.27262,37.57787],[-122.3093,37.59345],[-122.32991,37.60207],[-122.34025,37.60644],[-122.3581,37.61397],[-122.36038,37.61504]],"type":"LineString"}
}
