{
  "id": 2014446131,
  "type": "Feature",
  "properties": {
    "geom:area": 0,
    "geom:bbox": "-122.366780,37.628610,-121.251920,37.964050",
    "geom:latitude": 37.83734251337377,
    "geom:longitude": -121.82396482212903,
    "src:alt_label": "swim-takeoff",
    "src:geom": "swim",
    "swim:elevations": [
      396,
      1005,
      1268,
      1455,
      1705,
      2146,
      2474,
      2890,
      3426,
      3813,
      4112,
      4748,
      5020,
      5432,
      5575,
      5939,
      6151,
      6380,
      6810,
      7404,
      7761,
      7818,
      7965,
      8461
    ],
    "swim:geom": "takeoff",
    "swim:timestamps": [
      1767217329,
      1767217370,
      1767217390,
      1767217405,
      1767217420,
      1767217442,
      1767217460,
      1767217478,
      1767217508,
      1767217550,
      1767217568,
      1767217607,
      1767217631,
      1767217666,
      1767217678,
      1767217708,
      1767217723,
      1767217741,
      1767217775,
      1767217828,
      1767217855,
      1767217864,
      1767217879,
      1767217903
    ],
    "wof:geomhash": "9bf88430f3417aeb9aa861b15863bea6",
    "wof:id": 2014446131,
    "wof:repo": "sfomuseum-data-flights-2025-12"
  },
  "bbox": [
    -122.36678,
    37.62861,
    -121.25192,
    37.96405
  ],
  "geometry": {"coordinates":[[-122.36678,37.62861],[-122.33863,37.64791],[-122.31925,37.65944],[-122.30301,37.66867],[-122.28533,37.67876],[-122.25817,37.69431],[-122.23382,37.70717],[-122.20854,37.72008],[-122.16548,37.74255],[-122.09386,37.77927],[-122.06061,37.79663],[-121.98266,37.82918],[-121.9288,37.84037],[-121.84798,37.85531],[-121.8194,37.86056],[-121.74706,37.87386],[-121.71032,37.88059],[-121.66587,37.88877],[-121.57942,37.90464],[-121.4458,37.92916],[-121.37614,37.94178],[-121.35302,37.94608],[-121.31391,37.95309],[-121.25192,37.96405]],"type":"LineString"}
}
