{
  "id": 2014435285,
  "type": "Feature",
  "properties": {
    "geom:area": 0,
    "geom:bbox": "-122.172140,36.756040,-121.896900,37.204500",
    "geom:latitude": 37.01684712156935,
    "geom:longitude": -121.99711659667125,
    "src:alt_label": "swim-approach",
    "src:geom": "swim",
    "swim:elevations": [
      5224,
      5047,
      4668,
      4206,
      3966,
      3881,
      3694,
      3621,
      3350,
      3141,
      2871,
      2838,
      2619,
      2558
    ],
    "swim:geom": "approach",
    "swim:timestamps": [
      1767105323,
      1767105339,
      1767105374,
      1767105414,
      1767105447,
      1767105464,
      1767105498,
      1767105517,
      1767105552,
      1767105579,
      1767105627,
      1767105631,
      1767105680,
      1767105695
    ],
    "wof:geomhash": "6f53c825ae76e5e5e82beff9e6246fde",
    "wof:id": 2014435285,
    "wof:repo": "sfomuseum-data-flights-2025-12"
  },
  "bbox": [
    -122.17214,
    36.75604,
    -121.8969,
    37.2045
  ],
  "geometry": {"coordinates":[[-121.8969,36.75604],[-121.90553,36.78274],[-121.92293,36.84423],[-121.9427,36.91478],[-121.95966,36.96831],[-121.97005,36.99514],[-121.98897,37.04404],[-121.99884,37.06955],[-122.01608,37.11303],[-122.02862,37.14567],[-122.07439,37.18433],[-122.08157,37.18575],[-122.15122,37.2],[-122.17214,37.2045]],"type":"LineString"}
}
