{
  "id": 2014418451,
  "type": "Feature",
  "properties": {
    "geom:area": 0,
    "geom:bbox": "-123.306000,37.428130,-122.128150,38.387890",
    "geom:latitude": 37.8409152503025,
    "geom:longitude": -122.62853467403168,
    "src:alt_label": "swim-approach",
    "src:geom": "swim",
    "swim:elevations": [
      7620,
      7315,
      7014,
      6711,
      6496,
      5934,
      5821,
      5446,
      5450,
      4855,
      4601,
      4386,
      4291,
      4130,
      3837,
      3600,
      3441,
      3354,
      3353,
      3353,
      3353,
      3353,
      3221,
      2850,
      2630,
      2341,
      2163,
      2017,
      1795,
      1613,
      1282,
      1220,
      1218,
      1219,
      1219,
      1097,
      889,
      648,
      424,
      304,
      156,
      30,
      87
    ],
    "swim:geom": "approach",
    "swim:timestamps": [
      1766986884,
      1766986913,
      1766986944,
      1766986971,
      1766986983,
      1766987034,
      1766987055,
      1766987097,
      1766987103,
      1766987157,
      1766987178,
      1766987201,
      1766987240,
      1766987261,
      1766987291,
      1766987320,
      1766987344,
      1766987386,
      1766987410,
      1766987457,
      1766987469,
      1766987515,
      1766987543,
      1766987578,
      1766987600,
      1766987630,
      1766987648,
      1766987663,
      1766987687,
      1766987705,
      1766987750,
      1766987775,
      1766987814,
      1766987832,
      1766987875,
      1766987903,
      1766987927,
      1766987951,
      1766987993,
      1766988021,
      1766988057,
      1766988087,
      1766988092
    ],
    "wof:geomhash": "bac071bc1ccbbd3b12e20fbd570bb514",
    "wof:id": 2014418451,
    "wof:repo": "sfomuseum-data-flights-2025-12"
  },
  "bbox": [
    -123.306,
    37.42813,
    -122.12815,
    38.38789
  ],
  "geometry": {"coordinates":[[-123.306,38.38789],[-123.25194,38.34636],[-123.19285,38.30115],[-123.14341,38.26326],[-123.12143,38.24644],[-123.0288,38.17498],[-122.99137,38.14612],[-122.91905,38.09023],[-122.90876,38.08228],[-122.8165,38.01081],[-122.7812,37.98333],[-122.74271,37.9534],[-122.68195,37.90541],[-122.65237,37.87965],[-122.61175,37.84157],[-122.57459,37.80671],[-122.5446,37.77838],[-122.49523,37.73128],[-122.46879,37.70632],[-122.41892,37.65972],[-122.40738,37.64881],[-122.36476,37.60839],[-122.34955,37.57952],[-122.32993,37.54277],[-122.31684,37.52103],[-122.30168,37.49126],[-122.293,37.47321],[-122.2804,37.46127],[-122.25279,37.45074],[-122.23164,37.44394],[-122.18039,37.42813],[-122.15072,37.43273],[-122.12815,37.46888],[-122.12834,37.48731],[-122.15772,37.52048],[-122.18276,37.53771],[-122.20908,37.54869],[-122.23532,37.55994],[-122.27757,37.57763],[-122.30096,37.58764],[-122.33136,37.60035],[-122.35549,37.61051],[-122.35998,37.61258]],"type":"LineString"}
}
