{
  "id": 2014430827,
  "type": "Feature",
  "properties": {
    "geom:area": 0,
    "geom:bbox": "-122.467300,36.742190,-121.327490,37.697790",
    "geom:latitude": 37.21119262949303,
    "geom:longitude": -121.99380045604791,
    "src:alt_label": "swim-takeoff",
    "src:geom": "swim",
    "swim:elevations": [
      152,
      274,
      886,
      1154,
      1171,
      1594,
      2025,
      2501,
      2787,
      3121,
      3280,
      3338,
      3606,
      3970,
      4293,
      4768,
      5079,
      5412,
      5413,
      5856,
      6064,
      6363,
      6605,
      6735,
      6978,
      7134,
      7316,
      7528,
      7852,
      8062,
      8266,
      8284
    ],
    "swim:geom": "takeoff",
    "swim:timestamps": [
      1767017038,
      1767017047,
      1767017093,
      1767017128,
      1767017139,
      1767017185,
      1767017216,
      1767017248,
      1767017273,
      1767017303,
      1767017331,
      1767017343,
      1767017376,
      1767017402,
      1767017435,
      1767017485,
      1767017516,
      1767017548,
      1767017557,
      1767017604,
      1767017627,
      1767017665,
      1767017696,
      1767017712,
      1767017747,
      1767017776,
      1767017805,
      1767017835,
      1767017876,
      1767017908,
      1767017938,
      1767017941
    ],
    "wof:geomhash": "a072a90a81a88e29abc5440707ac5014",
    "wof:id": 2014430827,
    "wof:repo": "sfomuseum-data-flights-2025-12"
  },
  "bbox": [
    -122.4673,
    36.74219,
    -121.32749,
    37.69779
  ],
  "geometry": {"coordinates":[[-122.36883,37.62947],[-122.36525,37.63572],[-122.36259,37.66985],[-122.37534,37.69481],[-122.38743,37.69779],[-122.43261,37.66732],[-122.44416,37.62865],[-122.4564,37.58789],[-122.4673,37.555],[-122.46523,37.51451],[-122.43857,37.48084],[-122.42438,37.46601],[-122.37281,37.43242],[-122.33208,37.40429],[-122.27853,37.36731],[-122.19371,37.31161],[-122.13877,37.27606],[-122.08086,37.23824],[-122.06549,37.22799],[-121.97943,37.17218],[-121.93712,37.14452],[-121.86665,37.09835],[-121.80943,37.06074],[-121.77867,37.04045],[-121.71103,36.99606],[-121.65623,36.96005],[-121.5976,36.92129],[-121.53925,36.8825],[-121.45709,36.82837],[-121.39317,36.78593],[-121.33338,36.74618],[-121.32749,36.74219]],"type":"LineString"}
}
