{
  "id": 2014434847,
  "type": "Feature",
  "properties": {
    "geom:area": 0,
    "geom:bbox": "-122.347410,37.491680,-121.270410,37.609440",
    "geom:latitude": 37.54530239759141,
    "geom:longitude": -121.8134891591877,
    "src:alt_label": "swim-approach",
    "src:geom": "swim",
    "swim:elevations": [
      4558,
      4344,
      4011,
      3869,
      3639,
      3199,
      3158,
      3018,
      2817,
      2597,
      2454,
      2349,
      2062,
      2000,
      1819,
      1796,
      1557,
      1491,
      1186,
      1099,
      932,
      702,
      661,
      513,
      270,
      243,
      167,
      80
    ],
    "swim:geom": "approach",
    "swim:timestamps": [
      1767118014,
      1767118035,
      1767118070,
      1767118086,
      1767118110,
      1767118165,
      1767118176,
      1767118220,
      1767118251,
      1767118281,
      1767118310,
      1767118324,
      1767118374,
      1767118387,
      1767118432,
      1767118441,
      1767118488,
      1767118502,
      1767118546,
      1767118570,
      1767118594,
      1767118640,
      1767118653,
      1767118685,
      1767118738,
      1767118746,
      1767118763,
      1767118784
    ],
    "wof:geomhash": "f9478242943b7630239fcb35599584a8",
    "wof:id": 2014434847,
    "wof:repo": "sfomuseum-data-flights-2025-12"
  },
  "bbox": [
    -122.34741,
    37.49168,
    -121.27041,
    37.60944
  ],
  "geometry": {"coordinates":[[-121.27041,37.59187],[-121.31106,37.58689],[-121.38142,37.57907],[-121.41272,37.57548],[-121.45983,37.57018],[-121.56466,37.55803],[-121.58593,37.5555],[-121.66048,37.54211],[-121.71013,37.5303],[-121.75669,37.51924],[-121.80199,37.50845],[-121.82427,37.50305],[-121.90243,37.49168],[-121.92327,37.49234],[-121.99075,37.49621],[-122.00361,37.49967],[-122.06339,37.5188],[-122.07882,37.52392],[-122.12863,37.54032],[-122.15308,37.54824],[-122.17584,37.55551],[-122.21856,37.56945],[-122.23078,37.57337],[-122.26144,37.58336],[-122.30836,37.59687],[-122.31541,37.59908],[-122.32996,37.60351],[-122.34741,37.60944]],"type":"LineString"}
}
