{
  "id": 2014428743,
  "type": "Feature",
  "properties": {
    "geom:area": 0,
    "geom:bbox": "-122.558510,36.735160,-122.363070,37.717870",
    "geom:latitude": 37.26259868512346,
    "geom:longitude": -122.47941885567407,
    "src:alt_label": "swim-takeoff",
    "src:geom": "swim",
    "swim:elevations": [
      183,
      581,
      858,
      914,
      1305,
      2047,
      2145,
      2787,
      3015,
      3359,
      3688,
      4024,
      4312,
      4775,
      5056,
      5429,
      5586,
      6115,
      6284,
      6726,
      6854,
      7251,
      7463,
      7755,
      8011,
      8157,
      8272
    ],
    "swim:geom": "takeoff",
    "swim:timestamps": [
      1767018286,
      1767018325,
      1767018358,
      1767018363,
      1767018391,
      1767018446,
      1767018453,
      1767018506,
      1767018522,
      1767018567,
      1767018585,
      1767018609,
      1767018635,
      1767018676,
      1767018700,
      1767018730,
      1767018751,
      1767018802,
      1767018818,
      1767018861,
      1767018879,
      1767018923,
      1767018947,
      1767018984,
      1767019017,
      1767019035,
      1767019053
    ],
    "wof:geomhash": "caad03262b4458d5cc902651f2113072",
    "wof:id": 2014428743,
    "wof:repo": "sfomuseum-data-flights-2025-12"
  },
  "bbox": [
    -122.55851,
    36.73516,
    -122.36307,
    37.71787
  ],
  "geometry": {"coordinates":[[-122.36781,37.63106],[-122.36307,37.66139],[-122.36366,37.69247],[-122.36611,37.69728],[-122.39388,37.71787],[-122.45375,37.68791],[-122.4554,37.67962],[-122.46627,37.6133],[-122.46967,37.59241],[-122.48024,37.52673],[-122.48488,37.50009],[-122.49054,37.46449],[-122.4966,37.42538],[-122.50721,37.35963],[-122.51382,37.31936],[-122.52197,37.26926],[-122.52754,37.23463],[-122.54148,37.14672],[-122.54604,37.11842],[-122.55851,37.04082],[-122.55673,37.00924],[-122.51519,36.93998],[-122.48787,36.90279],[-122.44598,36.84494],[-122.4081,36.79297],[-122.38706,36.76431],[-122.36556,36.73516]],"type":"LineString"}
}
