{
  "id": 2014418119,
  "type": "Feature",
  "properties": {
    "geom:area": 0,
    "geom:bbox": "-122.361690,37.491970,-121.282240,37.615400",
    "geom:latitude": 37.54558060971864,
    "geom:longitude": -121.82684668578804,
    "src:alt_label": "swim-approach",
    "src:geom": "swim",
    "swim:elevations": [
      4669,
      4476,
      4227,
      3880,
      3774,
      3533,
      3393,
      3238,
      2925,
      2769,
      2604,
      2522,
      2469,
      2384,
      2163,
      2015,
      1953,
      1828,
      1592,
      1490,
      1310,
      1075,
      968,
      794,
      650,
      531,
      399,
      233,
      172,
      109,
      0
    ],
    "swim:geom": "approach",
    "swim:timestamps": [
      1766958866,
      1766958881,
      1766958902,
      1766958930,
      1766958942,
      1766958988,
      1766959010,
      1766959028,
      1766959073,
      1766959091,
      1766959117,
      1766959132,
      1766959156,
      1766959174,
      1766959213,
      1766959250,
      1766959273,
      1766959296,
      1766959340,
      1766959357,
      1766959387,
      1766959429,
      1766959450,
      1766959480,
      1766959518,
      1766959545,
      1766959574,
      1766959617,
      1766959638,
      1766959651,
      1766959683
    ],
    "wof:geomhash": "c9cf3aad3b9fe739cc1f000995a99b5a",
    "wof:id": 2014418119,
    "wof:repo": "sfomuseum-data-flights-2025-12"
  },
  "bbox": [
    -122.36169,
    37.49197,
    -121.28224,
    37.6154
  ],
  "geometry": {"coordinates":[[-121.28224,37.59029],[-121.31539,37.58648],[-121.36094,37.5815],[-121.41814,37.57489],[-121.44253,37.57201],[-121.52939,37.56195],[-121.56767,37.55746],[-121.59746,37.55395],[-121.66792,37.54034],[-121.69453,37.53406],[-121.73195,37.52519],[-121.7534,37.52009],[-121.78708,37.51199],[-121.81184,37.50596],[-121.8652,37.49335],[-121.91705,37.49197],[-121.94903,37.49284],[-121.98057,37.49404],[-122.03743,37.51075],[-122.05836,37.51743],[-122.09439,37.52917],[-122.14385,37.54525],[-122.1672,37.5528],[-122.19807,37.56277],[-122.23306,37.57408],[-122.25732,37.58198],[-122.2817,37.58898],[-122.3142,37.59865],[-122.32913,37.603],[-122.33959,37.60633],[-122.36169,37.6154]],"type":"LineString"}
}
