{
  "id": 2014420873,
  "type": "Feature",
  "properties": {
    "geom:area": 0,
    "geom:bbox": "-122.439960,37.242060,-121.262720,37.724720",
    "geom:latitude": 37.44190314993245,
    "geom:longitude": -121.94583436601205,
    "src:alt_label": "swim-takeoff",
    "src:geom": "swim",
    "swim:elevations": [
      508,
      548,
      938,
      1224,
      1823,
      2066,
      3262,
      3452,
      3935,
      5059,
      5480,
      5467,
      6187,
      6522,
      6878,
      7005,
      7227,
      7744,
      8111,
      8388,
      8505,
      8775,
      9017,
      9130,
      9329
    ],
    "swim:geom": "takeoff",
    "swim:timestamps": [
      1766931358,
      1766931362,
      1766931400,
      1766931424,
      1766931470,
      1766931484,
      1766931565,
      1766931581,
      1766931609,
      1766931686,
      1766931717,
      1766931720,
      1766931775,
      1766931802,
      1766931835,
      1766931849,
      1766931872,
      1766931922,
      1766931950,
      1766931980,
      1766932000,
      1766932041,
      1766932071,
      1766932084,
      1766932119
    ],
    "wof:geomhash": "553265ecf945511df45f159ae6564458",
    "wof:id": 2014420873,
    "wof:repo": "sfomuseum-data-flights-2025-12"
  },
  "bbox": [
    -122.43996,
    37.24206,
    -121.26272,
    37.72472
  ],
  "geometry": {"coordinates":[[-122.36474,37.64572],[-122.36451,37.64862],[-122.3621,37.68036],[-122.36295,37.70421],[-122.42088,37.72472],[-122.43996,37.7163],[-122.41254,37.61852],[-122.38947,37.60031],[-122.34975,37.5676],[-122.23626,37.47596],[-122.17481,37.45944],[-122.16751,37.45781],[-122.05443,37.43164],[-121.9983,37.41845],[-121.92632,37.40152],[-121.89729,37.39468],[-121.84486,37.38222],[-121.73083,37.35481],[-121.66413,37.33886],[-121.59481,37.32203],[-121.55031,37.31152],[-121.45062,37.2878],[-121.37926,37.27043],[-121.34601,37.26272],[-121.26272,37.24206]],"type":"LineString"}
}
