{
  "id": 2014422573,
  "type": "Feature",
  "properties": {
    "geom:area": 0,
    "geom:bbox": "-122.433910,36.718340,-121.283650,37.698160",
    "geom:latitude": 37.19897899047476,
    "geom:longitude": -121.9552222540656,
    "src:alt_label": "swim-takeoff",
    "src:geom": "swim",
    "swim:elevations": [
      183,
      244,
      725,
      972,
      1172,
      1521,
      1880,
      2460,
      3244,
      3559,
      3679,
      4241,
      4545,
      4885,
      4965,
      5414,
      5683,
      5726,
      5981,
      6248,
      6448,
      6619,
      6839,
      7021,
      7246,
      7657,
      7876,
      8089,
      8283,
      8365,
      8639,
      8852
    ],
    "swim:geom": "takeoff",
    "swim:timestamps": [
      1766918908,
      1766918914,
      1766918948,
      1766918971,
      1766919008,
      1766919045,
      1766919069,
      1766919110,
      1766919177,
      1766919209,
      1766919218,
      1766919263,
      1766919290,
      1766919324,
      1766919333,
      1766919369,
      1766919415,
      1766919421,
      1766919448,
      1766919475,
      1766919498,
      1766919518,
      1766919547,
      1766919573,
      1766919602,
      1766919655,
      1766919684,
      1766919716,
      1766919746,
      1766919758,
      1766919795,
      1766919824
    ],
    "wof:geomhash": "8269693bfaa02b84aeda33f3f5fe2146",
    "wof:id": 2014422573,
    "wof:repo": "sfomuseum-data-flights-2025-12"
  },
  "bbox": [
    -122.43391,
    36.71834,
    -121.28365,
    37.69816
  ],
  "geometry": {"coordinates":[[-122.36772,37.63086],[-122.36514,37.63508],[-122.36293,37.66187],[-122.36207,37.67778],[-122.38899,37.69816],[-122.43185,37.67299],[-122.43391,37.64249],[-122.42735,37.5866],[-122.41395,37.49178],[-122.37974,37.45402],[-122.36553,37.4454],[-122.2971,37.40122],[-122.25422,37.37303],[-122.20016,37.33637],[-122.18518,37.32639],[-122.12638,37.28746],[-122.04954,37.23623],[-122.03946,37.22943],[-121.99331,37.19837],[-121.94532,37.16612],[-121.90647,37.14015],[-121.87084,37.11623],[-121.817,37.08005],[-121.76954,37.0481],[-121.71558,37.01165],[-121.61436,36.94321],[-121.55789,36.90531],[-121.49653,36.86311],[-121.43755,36.82321],[-121.41325,36.80691],[-121.34204,36.75821],[-121.28365,36.71834]],"type":"LineString"}
}
