{
  "id": 2014414645,
  "type": "Feature",
  "properties": {
    "geom:area": 0,
    "geom:bbox": "-122.363410,36.751630,-121.895910,37.614600",
    "geom:latitude": 37.22981593718363,
    "geom:longitude": -122.0762209059783,
    "src:alt_label": "swim-approach",
    "src:geom": "swim",
    "swim:elevations": [
      5720,
      5455,
      5418,
      5067,
      4669,
      4504,
      4293,
      3967,
      3804,
      3658,
      3454,
      3232,
      2899,
      2831,
      2438,
      2351,
      2166,
      1789,
      1674,
      1612,
      1524,
      1483,
      1199,
      922,
      822,
      722,
      556,
      472,
      270,
      133,
      17,
      74
    ],
    "swim:geom": "approach",
    "swim:timestamps": [
      1766923468,
      1766923497,
      1766923508,
      1766923541,
      1766923580,
      1766923599,
      1766923628,
      1766923667,
      1766923688,
      1766923716,
      1766923753,
      1766923775,
      1766923825,
      1766923839,
      1766923914,
      1766923930,
      1766923966,
      1766924033,
      1766924067,
      1766924078,
      1766924125,
      1766924134,
      1766924168,
      1766924217,
      1766924245,
      1766924257,
      1766924297,
      1766924318,
      1766924365,
      1766924397,
      1766924423,
      1766924431
    ],
    "wof:geomhash": "a9976a1e6cb20122b892ec1703b540f9",
    "wof:id": 2014414645,
    "wof:repo": "sfomuseum-data-flights-2025-12"
  },
  "bbox": [
    -122.36341,
    36.75163,
    -121.89591,
    37.6146
  ],
  "geometry": {"coordinates":[[-121.89591,36.75163],[-121.90744,36.7907],[-121.9119,36.8061],[-121.92476,36.85079],[-121.9392,36.90261],[-121.94584,36.92672],[-121.95754,36.96286],[-121.97709,37.01254],[-121.98672,37.03788],[-122.00035,37.07317],[-122.01657,37.11429],[-122.02525,37.13637],[-122.04382,37.18458],[-122.04886,37.19767],[-122.07869,37.27266],[-122.08477,37.28841],[-122.09811,37.32235],[-122.12092,37.38707],[-122.11823,37.41933],[-122.11742,37.42955],[-122.1281,37.47228],[-122.13457,37.47828],[-122.15762,37.49992],[-122.19356,37.53088],[-122.21374,37.54607],[-122.22234,37.55145],[-122.25245,37.56745],[-122.26989,37.57437],[-122.30984,37.59136],[-122.3361,37.60243],[-122.35717,37.61124],[-122.36341,37.6146]],"type":"LineString"}
}
