{
  "id": 2014443705,
  "type": "Feature",
  "properties": {
    "geom:area": 0,
    "geom:bbox": "-122.347520,37.465830,-121.259080,37.609460",
    "geom:latitude": 37.534922275269395,
    "geom:longitude": -121.81173460093349,
    "src:alt_label": "swim-approach",
    "src:geom": "swim",
    "swim:elevations": [
      4300,
      4221,
      3824,
      3608,
      3356,
      3167,
      3138,
      3022,
      2985,
      2740,
      2597,
      2376,
      2132,
      2134,
      2112,
      1843,
      1829,
      1800,
      1580,
      1462,
      1360,
      955,
      791,
      609,
      458,
      312,
      220,
      67
    ],
    "swim:geom": "approach",
    "swim:timestamps": [
      1767181855,
      1767181866,
      1767181918,
      1767181944,
      1767181976,
      1767182006,
      1767182018,
      1767182046,
      1767182075,
      1767182124,
      1767182143,
      1767182173,
      1767182210,
      1767182233,
      1767182254,
      1767182305,
      1767182338,
      1767182350,
      1767182392,
      1767182416,
      1767182436,
      1767182487,
      1767182508,
      1767182539,
      1767182566,
      1767182597,
      1767182614,
      1767182650
    ],
    "wof:geomhash": "31353174db8ecfa06b6de70843b61eae",
    "wof:id": 2014443705,
    "wof:repo": "sfomuseum-data-flights-2025-12"
  },
  "bbox": [
    -122.34752,
    37.46583,
    -121.25908,
    37.60946
  ],
  "geometry": {"coordinates":[[-121.25908,37.59335],[-121.28122,37.59038],[-121.38417,37.57914],[-121.4349,37.57301],[-121.49771,37.56556],[-121.55528,37.55897],[-121.57526,37.5567],[-121.62536,37.55062],[-121.66992,37.5402],[-121.73917,37.52393],[-121.76525,37.51749],[-121.80342,37.50407],[-121.8346,37.47459],[-121.86386,37.46643],[-121.89396,37.46625],[-121.96875,37.46583],[-122.01637,37.46986],[-122.03261,37.47585],[-122.08554,37.49939],[-122.11479,37.5115],[-122.13712,37.52085],[-122.1925,37.54427],[-122.21443,37.5535],[-122.24722,37.56737],[-122.27561,37.57923],[-122.30374,37.59116],[-122.31827,37.59722],[-122.34752,37.60946]],"type":"LineString"}
}
