{
  "id": 2014427425,
  "type": "Feature",
  "properties": {
    "geom:area": 0,
    "geom:bbox": "-122.364470,37.631530,-121.249980,38.123180",
    "geom:latitude": 37.89345810253311,
    "geom:longitude": -121.81490350394002,
    "src:alt_label": "swim-takeoff",
    "src:geom": "swim",
    "swim:elevations": [
      241,
      587,
      658,
      975,
      1195,
      1777,
      1972,
      2487,
      2854,
      3075,
      3345,
      3470,
      3707,
      4038,
      4434,
      4756,
      5045,
      5260,
      5430,
      5595,
      5878,
      6205,
      6397,
      6645
    ],
    "swim:geom": "takeoff",
    "swim:timestamps": [
      1767045414,
      1767045446,
      1767045455,
      1767045501,
      1767045522,
      1767045563,
      1767045576,
      1767045605,
      1767045625,
      1767045640,
      1767045668,
      1767045693,
      1767045740,
      1767045776,
      1767045806,
      1767045838,
      1767045867,
      1767045889,
      1767045914,
      1767045936,
      1767045974,
      1767046013,
      1767046034,
      1767046062
    ],
    "wof:geomhash": "8ce15d2f68002beca589e6ba31a26767",
    "wof:id": 2014427425,
    "wof:repo": "sfomuseum-data-flights-2025-12"
  },
  "bbox": [
    -122.36447,
    37.63153,
    -121.24998,
    38.12318
  ],
  "geometry": {"coordinates":[[-122.36447,37.63153],[-122.34208,37.64781],[-122.33456,37.65209],[-122.28844,37.67827],[-122.26259,37.69297],[-122.20763,37.72131],[-122.18961,37.73069],[-122.14994,37.75125],[-122.12283,37.7652],[-122.10285,37.77548],[-122.06397,37.79577],[-122.02528,37.81557],[-121.93945,37.85208],[-121.86701,37.8811],[-121.80604,37.90522],[-121.74061,37.93111],[-121.68017,37.95489],[-121.63306,37.97343],[-121.58145,37.99368],[-121.53328,38.01252],[-121.44928,38.04543],[-121.36097,38.08001],[-121.31351,38.09849],[-121.24998,38.12318]],"type":"LineString"}
}
