{
  "id": 2014417871,
  "type": "Feature",
  "properties": {
    "geom:area": 0,
    "geom:bbox": "-122.358820,36.738920,-121.889100,37.613740",
    "geom:latitude": 37.22530127027994,
    "geom:longitude": -122.0740264163746,
    "src:alt_label": "swim-approach",
    "src:geom": "swim",
    "swim:elevations": [
      5649,
      5386,
      5089,
      4623,
      4441,
      4000,
      3614,
      3428,
      3309,
      3203,
      3006,
      2812,
      2630,
      2490,
      2308,
      2203,
      2020,
      1756,
      1642,
      1504,
      1386,
      1308,
      1058,
      877,
      718,
      597,
      531,
      342,
      184,
      88,
      0
    ],
    "swim:geom": "approach",
    "swim:timestamps": [
      1766966206,
      1766966237,
      1766966262,
      1766966300,
      1766966315,
      1766966354,
      1766966396,
      1766966426,
      1766966447,
      1766966471,
      1766966515,
      1766966546,
      1766966576,
      1766966600,
      1766966630,
      1766966645,
      1766966678,
      1766966725,
      1766966753,
      1766966786,
      1766966808,
      1766966823,
      1766966871,
      1766966908,
      1766966935,
      1766966962,
      1766966979,
      1766967016,
      1766967055,
      1766967076,
      1766967095
    ],
    "wof:geomhash": "01d18ba88781c3ec9c67cbe0f9b20435",
    "wof:id": 2014417871,
    "wof:repo": "sfomuseum-data-flights-2025-12"
  },
  "bbox": [
    -122.35882,
    36.73892,
    -121.8891,
    37.61374
  ],
  "geometry": {"coordinates":[[-121.8891,36.73892],[-121.90623,36.78551],[-121.91664,36.82274],[-121.93375,36.88263],[-121.94022,36.90607],[-121.95878,36.96662],[-121.98368,37.03011],[-122.00012,37.07203],[-122.0106,37.09967],[-122.02248,37.1293],[-122.04077,37.17735],[-122.05363,37.20958],[-122.06606,37.24097],[-122.07577,37.26599],[-122.08803,37.29684],[-122.09407,37.31227],[-122.10733,37.34582],[-122.1253,37.39389],[-122.13507,37.42253],[-122.14632,37.45467],[-122.15272,37.4754],[-122.15725,37.48874],[-122.17086,37.53017],[-122.18711,37.55874],[-122.21568,37.56836],[-122.24376,37.57768],[-122.25979,37.58203],[-122.29327,37.5897],[-122.32609,37.60039],[-122.34334,37.60775],[-122.35882,37.61374]],"type":"LineString"}
}
