{
  "id": 2014417993,
  "type": "Feature",
  "properties": {
    "geom:area": 0,
    "geom:bbox": "-122.752870,37.538760,-122.066480,38.490580",
    "geom:latitude": 37.888724593448686,
    "geom:longitude": -122.46556786114638,
    "src:alt_label": "swim-approach",
    "src:geom": "swim",
    "swim:elevations": [
      7529,
      7377,
      7312,
      7130,
      6768,
      6495,
      6209,
      6165,
      5779,
      5454,
      5439,
      4898,
      4805,
      4599,
      4516,
      4359,
      4203,
      3929,
      3805,
      3402,
      3314,
      3273,
      3057,
      2981,
      2475,
      2314,
      1950,
      1829,
      1707,
      1561,
      1524,
      1524,
      1386,
      1327,
      1206,
      952,
      882,
      732,
      599,
      403,
      312,
      251,
      144,
      28
    ],
    "swim:geom": "approach",
    "swim:timestamps": [
      1766914316,
      1766914330,
      1766914338,
      1766914359,
      1766914401,
      1766914433,
      1766914465,
      1766914470,
      1766914517,
      1766914559,
      1766914567,
      1766914615,
      1766914626,
      1766914670,
      1766914693,
      1766914731,
      1766914755,
      1766914789,
      1766914802,
      1766914848,
      1766914887,
      1766914893,
      1766914914,
      1766914923,
      1766914973,
      1766914988,
      1766915027,
      1766915060,
      1766915097,
      1766915125,
      1766915146,
      1766915174,
      1766915209,
      1766915223,
      1766915257,
      1766915305,
      1766915321,
      1766915351,
      1766915380,
      1766915425,
      1766915443,
      1766915461,
      1766915486,
      1766915510
    ],
    "wof:geomhash": "4600d8601a223cf89603bb484aedc72b",
    "wof:id": 2014417993,
    "wof:repo": "sfomuseum-data-flights-2025-12"
  },
  "bbox": [
    -122.75287,
    37.53876,
    -122.06648,
    38.49058
  ],
  "geometry": {"coordinates":[[-122.49375,38.49058],[-122.5169,38.46834],[-122.53076,38.45507],[-122.56447,38.42243],[-122.62869,38.36014],[-122.67839,38.31178],[-122.72568,38.26564],[-122.73251,38.25898],[-122.75287,38.1767],[-122.73145,38.10023],[-122.72726,38.08567],[-122.70249,37.99985],[-122.69673,37.97998],[-122.6723,37.90705],[-122.64894,37.87679],[-122.60491,37.83481],[-122.57924,37.8104],[-122.54434,37.7776],[-122.53027,37.76451],[-122.48422,37.72121],[-122.44009,37.69032],[-122.43178,37.68853],[-122.40304,37.68284],[-122.3905,37.68041],[-122.32197,37.66751],[-122.30278,37.6615],[-122.25389,37.64616],[-122.21193,37.63332],[-122.16539,37.61867],[-122.1305,37.60771],[-122.1053,37.59996],[-122.07297,37.58667],[-122.06648,37.55073],[-122.07895,37.53951],[-122.12112,37.53876],[-122.17347,37.55475],[-122.18851,37.55963],[-122.21697,37.5689],[-122.24276,37.57735],[-122.28339,37.58956],[-122.29892,37.5941],[-122.31442,37.59852],[-122.33551,37.60512],[-122.35494,37.6125]],"type":"LineString"}
}
