{
  "id": 2014435223,
  "type": "Feature",
  "properties": {
    "geom:area": 0,
    "geom:bbox": "-123.502580,37.259280,-122.157920,37.613450",
    "geom:latitude": 37.355034725435836,
    "geom:longitude": -122.72171978871476,
    "src:alt_label": "swim-approach",
    "src:geom": "swim",
    "swim:elevations": [
      5242,
      4952,
      4700,
      4424,
      4079,
      3806,
      3522,
      3328,
      3289,
      3234,
      3193,
      3143,
      3058,
      2818,
      2617,
      2297,
      2166,
      2037,
      1862,
      1830,
      1829,
      1829,
      1829,
      1829,
      1829,
      1829,
      1829,
      1826,
      1585,
      1436,
      1252,
      1208,
      1003,
      915,
      914,
      735,
      638,
      514,
      334,
      287,
      150,
      291
    ],
    "swim:geom": "approach",
    "swim:timestamps": [
      1767083543,
      1767083573,
      1767083599,
      1767083629,
      1767083664,
      1767083693,
      1767083722,
      1767083755,
      1767083775,
      1767083796,
      1767083818,
      1767083831,
      1767083860,
      1767083893,
      1767083922,
      1767083965,
      1767083986,
      1767084012,
      1767084055,
      1767084068,
      1767084111,
      1767084140,
      1767084178,
      1767084197,
      1767084206,
      1767084234,
      1767084262,
      1767084283,
      1767084327,
      1767084355,
      1767084379,
      1767084385,
      1767084414,
      1767084447,
      1767084460,
      1767084503,
      1767084524,
      1767084553,
      1767084595,
      1767084610,
      1767084646,
      1767084681
    ],
    "wof:geomhash": "bcc10d4d65a726c427ed6c5e5e55a26e",
    "wof:id": 2014435223,
    "wof:repo": "sfomuseum-data-flights-2025-12"
  },
  "bbox": [
    -123.50258,
    37.25928,
    -122.15792,
    37.61345
  ],
  "geometry": {"coordinates":[[-123.50258,37.30514],[-123.43602,37.30023],[-123.37998,37.29617],[-123.31619,37.29178],[-123.24406,37.28627],[-123.18428,37.28205],[-123.12605,37.27778],[-123.06107,37.27286],[-123.02414,37.26998],[-122.98812,37.2672],[-122.95002,37.26425],[-122.92907,37.26268],[-122.88482,37.25928],[-122.83512,37.26419],[-122.79178,37.27448],[-122.72682,37.28948],[-122.69489,37.29702],[-122.65465,37.30634],[-122.59185,37.32089],[-122.57358,37.32515],[-122.5105,37.33982],[-122.46923,37.34925],[-122.41345,37.36214],[-122.38576,37.36853],[-122.37257,37.37158],[-122.33286,37.38066],[-122.29279,37.38982],[-122.26296,37.39667],[-122.20323,37.41369],[-122.18358,37.44051],[-122.17219,37.46413],[-122.16954,37.46972],[-122.15792,37.49582],[-122.16542,37.52597],[-122.17561,37.53426],[-122.21675,37.55217],[-122.23519,37.55989],[-122.26128,37.57087],[-122.2949,37.58498],[-122.30642,37.58986],[-122.33467,37.60173],[-122.36197,37.61345]],"type":"LineString"}
}
