{
  "id": 2014434419,
  "type": "Feature",
  "properties": {
    "geom:area": 0,
    "geom:bbox": "-122.365770,36.752710,-121.894960,37.615330",
    "geom:latitude": 37.22920704332627,
    "geom:longitude": -122.12527114941297,
    "src:alt_label": "swim-approach",
    "src:geom": "swim",
    "swim:elevations": [
      4638,
      4489,
      4128,
      3998,
      3857,
      3726,
      3616,
      3486,
      3355,
      3315,
      3047,
      3048,
      3048,
      3048,
      2974,
      2772,
      2666,
      2497,
      2313,
      2101,
      2073,
      1857,
      1645,
      1602,
      1291,
      1215,
      1195,
      912,
      849,
      698,
      517,
      431,
      303,
      211,
      117,
      699
    ],
    "swim:geom": "approach",
    "swim:timestamps": [
      1767138742,
      1767138759,
      1767138805,
      1767138824,
      1767138842,
      1767138863,
      1767138896,
      1767138920,
      1767138953,
      1767138966,
      1767139016,
      1767139044,
      1767139073,
      1767139097,
      1767139122,
      1767139164,
      1767139184,
      1767139217,
      1767139252,
      1767139288,
      1767139295,
      1767139343,
      1767139374,
      1767139380,
      1767139431,
      1767139449,
      1767139475,
      1767139527,
      1767139545,
      1767139581,
      1767139618,
      1767139636,
      1767139668,
      1767139691,
      1767139715,
      1767139745
    ],
    "wof:geomhash": "18d93c6aeab8de211e97580ee4569258",
    "wof:id": 2014434419,
    "wof:repo": "sfomuseum-data-flights-2025-12"
  },
  "bbox": [
    -122.36577,
    36.75271,
    -121.89496,
    37.61533
  ],
  "geometry": {"coordinates":[[-121.89496,36.75271],[-121.90553,36.78116],[-121.92615,36.8561],[-121.93369,36.88378],[-121.94131,36.91126],[-121.94965,36.93991],[-121.96495,36.98306],[-121.97679,37.01306],[-121.9932,37.0547],[-121.99953,37.07081],[-122.04772,37.11713],[-122.08261,37.13728],[-122.11807,37.15804],[-122.1465,37.17443],[-122.17772,37.19208],[-122.22816,37.22111],[-122.25156,37.2348],[-122.28317,37.26308],[-122.27063,37.30165],[-122.24417,37.33647],[-122.23962,37.34254],[-122.20826,37.38342],[-122.18928,37.40884],[-122.1857,37.41388],[-122.15686,37.45556],[-122.14678,37.47057],[-122.14415,37.49421],[-122.18113,37.53387],[-122.19611,37.54552],[-122.23148,37.56057],[-122.26501,37.57477],[-122.27939,37.58087],[-122.30367,37.59108],[-122.32106,37.59836],[-122.3402,37.6064],[-122.36577,37.61533]],"type":"LineString"}
}
