{
  "id": 2014426309,
  "type": "Feature",
  "properties": {
    "geom:area": 0,
    "geom:bbox": "-122.357180,37.492550,-121.263850,37.613330",
    "geom:latitude": 37.54611927323166,
    "geom:longitude": -121.81534880408769,
    "src:alt_label": "swim-approach",
    "src:geom": "swim",
    "swim:elevations": [
      4515,
      4198,
      3902,
      3627,
      3544,
      3177,
      3075,
      3078,
      2841,
      2806,
      2536,
      2497,
      2382,
      2243,
      2163,
      1959,
      1928,
      1856,
      1828,
      1829,
      1767,
      1465,
      1443,
      1187,
      948,
      889,
      816,
      779,
      564,
      446,
      365,
      197,
      95,
      22
    ],
    "swim:geom": "approach",
    "swim:timestamps": [
      1767036828,
      1767036860,
      1767036897,
      1767036927,
      1767036935,
      1767036981,
      1767037011,
      1767037031,
      1767037074,
      1767037081,
      1767037125,
      1767037137,
      1767037163,
      1767037186,
      1767037200,
      1767037253,
      1767037262,
      1767037283,
      1767037291,
      1767037313,
      1767037337,
      1767037378,
      1767037381,
      1767037417,
      1767037466,
      1767037482,
      1767037497,
      1767037506,
      1767037553,
      1767037582,
      1767037596,
      1767037637,
      1767037656,
      1767037674
    ],
    "wof:geomhash": "e27c0c8a7ab9f80f049b1f3570c89322",
    "wof:id": 2014426309,
    "wof:repo": "sfomuseum-data-flights-2025-12"
  },
  "bbox": [
    -122.35718,
    37.49255,
    -121.26385,
    37.61333
  ],
  "geometry": {"coordinates":[[-121.26385,37.59263],[-121.32424,37.58572],[-121.39607,37.57762],[-121.45141,37.571],[-121.46626,37.56928],[-121.54956,37.55952],[-121.60096,37.55351],[-121.63161,37.5491],[-121.69234,37.53468],[-121.70286,37.53222],[-121.7651,37.51732],[-121.78199,37.51315],[-121.81819,37.50456],[-121.84955,37.49707],[-121.86726,37.49319],[-121.93887,37.49255],[-121.95054,37.4929],[-121.9769,37.4939],[-121.98741,37.49549],[-122.0135,37.50299],[-122.04048,37.51163],[-122.08274,37.52546],[-122.08583,37.52648],[-122.1215,37.53791],[-122.16848,37.55325],[-122.18495,37.55852],[-122.19802,37.56269],[-122.20676,37.56554],[-122.25015,37.57975],[-122.27657,37.58749],[-122.29015,37.59144],[-122.3263,37.60209],[-122.34227,37.60714],[-122.35718,37.61333]],"type":"LineString"}
}
