{
  "id": 2014406195,
  "type": "Feature",
  "properties": {
    "geom:area": 0,
    "geom:bbox": "-122.358620,37.492130,-121.252130,37.614030",
    "geom:latitude": 37.54677527161434,
    "geom:longitude": -121.81023555619211,
    "src:alt_label": "swim-approach",
    "src:geom": "swim",
    "swim:elevations": [
      4638,
      4488,
      4119,
      3955,
      3806,
      3484,
      3262,
      3166,
      2816,
      2614,
      2547,
      2461,
      2280,
      1927,
      1879,
      1829,
      1646,
      1456,
      1287,
      1128,
      1023,
      765,
      674,
      584,
      549,
      426,
      382,
      221,
      151,
      0
    ],
    "swim:geom": "approach",
    "swim:timestamps": [
      1766852995,
      1766853013,
      1766853053,
      1766853073,
      1766853098,
      1766853148,
      1766853170,
      1766853181,
      1766853238,
      1766853262,
      1766853284,
      1766853304,
      1766853330,
      1766853388,
      1766853400,
      1766853423,
      1766853459,
      1766853480,
      1766853497,
      1766853524,
      1766853542,
      1766853596,
      1766853618,
      1766853641,
      1766853673,
      1766853717,
      1766853730,
      1766853774,
      1766853794,
      1766853824
    ],
    "wof:geomhash": "b9c196a51868b2d8522aac6278b4d805",
    "wof:id": 2014406195,
    "wof:repo": "sfomuseum-data-flights-2025-12"
  },
  "bbox": [
    -122.35862,
    37.49213,
    -121.25213,
    37.61403
  ],
  "geometry": {"coordinates":[[-121.25213,37.59405],[-121.2891,37.58917],[-121.37226,37.57997],[-121.41253,37.57534],[-121.46061,37.56983],[-121.55097,37.55935],[-121.58787,37.55499],[-121.60803,37.5527],[-121.69908,37.5329],[-121.73758,37.52373],[-121.76952,37.51603],[-121.79985,37.50882],[-121.83771,37.49983],[-121.91992,37.49213],[-121.93648,37.49261],[-121.9687,37.49345],[-122.01771,37.50434],[-122.04505,37.5134],[-122.06692,37.52043],[-122.10022,37.53113],[-122.12056,37.5378],[-122.17624,37.55571],[-122.19648,37.56224],[-122.2151,37.56822],[-122.24007,37.57641],[-122.27571,37.58731],[-122.28589,37.59016],[-122.32006,37.60047],[-122.33578,37.60493],[-122.35862,37.61403]],"type":"LineString"}
}
