{
  "id": 2014417963,
  "type": "Feature",
  "properties": {
    "geom:area": 0,
    "geom:bbox": "-122.358100,37.492000,-121.293320,37.613830",
    "geom:latitude": 37.5450039864393,
    "geom:longitude": -121.83038901358063,
    "src:alt_label": "swim-approach",
    "src:geom": "swim",
    "swim:elevations": [
      4177,
      4091,
      3820,
      3703,
      3534,
      3356,
      3232,
      2976,
      2912,
      2592,
      2560,
      2276,
      2152,
      2134,
      2062,
      1964,
      1828,
      1676,
      1612,
      989,
      890,
      760,
      672,
      523,
      396,
      148,
      48,
      0
    ],
    "swim:geom": "approach",
    "swim:timestamps": [
      1766921217,
      1766921229,
      1766921276,
      1766921293,
      1766921324,
      1766921356,
      1766921379,
      1766921420,
      1766921432,
      1766921487,
      1766921493,
      1766921540,
      1766921563,
      1766921582,
      1766921630,
      1766921650,
      1766921699,
      1766921726,
      1766921733,
      1766921787,
      1766921800,
      1766921829,
      1766921857,
      1766921894,
      1766921931,
      1766921998,
      1766922028,
      1766922037
    ],
    "wof:geomhash": "004a2bcba914ca86cd9aeaaff8b79ed3",
    "wof:id": 2014417963,
    "wof:repo": "sfomuseum-data-flights-2025-12"
  },
  "bbox": [
    -122.3581,
    37.492,
    -121.29332,
    37.61383
  ],
  "geometry": {"coordinates":[[-121.29332,37.58891],[-121.31643,37.58634],[-121.40083,37.57681],[-121.4294,37.57349],[-121.48096,37.56763],[-121.53366,37.56153],[-121.57096,37.55715],[-121.63555,37.54817],[-121.65576,37.54361],[-121.73864,37.52363],[-121.74868,37.5212],[-121.8175,37.50463],[-121.85106,37.49666],[-121.87784,37.492],[-121.94218,37.49275],[-121.96796,37.49343],[-122.02805,37.50782],[-122.06062,37.51826],[-122.06912,37.52102],[-122.13082,37.54107],[-122.14614,37.5458],[-122.17756,37.55617],[-122.20479,37.56497],[-122.2403,37.57646],[-122.27267,37.58641],[-122.32826,37.60264],[-122.35152,37.61106],[-122.3581,37.61383]],"type":"LineString"}
}
