{
  "id": 2014407421,
  "type": "Feature",
  "properties": {
    "geom:area": 0,
    "geom:bbox": "-122.355670,37.491900,-121.261400,37.612900",
    "geom:latitude": 37.546095898648694,
    "geom:longitude": -121.81336170323031,
    "src:alt_label": "swim-approach",
    "src:geom": "swim",
    "swim:elevations": [
      4605,
      4378,
      4102,
      3929,
      3466,
      3390,
      3120,
      2968,
      2767,
      2701,
      2411,
      2266,
      2120,
      1950,
      1863,
      1855,
      1700,
      1581,
      1493,
      1270,
      1213,
      1025,
      917,
      754,
      536,
      454,
      348,
      244,
      148,
      0
    ],
    "swim:geom": "approach",
    "swim:timestamps": [
      1766858487,
      1766858510,
      1766858537,
      1766858556,
      1766858605,
      1766858614,
      1766858667,
      1766858692,
      1766858719,
      1766858730,
      1766858787,
      1766858811,
      1766858832,
      1766858872,
      1766858898,
      1766858901,
      1766858928,
      1766858945,
      1766858961,
      1766858998,
      1766859011,
      1766859036,
      1766859061,
      1766859091,
      1766859138,
      1766859152,
      1766859172,
      1766859199,
      1766859219,
      1766859246
    ],
    "wof:geomhash": "684c2c9b71aa192d522797d89240887c",
    "wof:id": 2014407421,
    "wof:repo": "sfomuseum-data-flights-2025-12"
  },
  "bbox": [
    -122.35567,
    37.4919,
    -121.2614,
    37.6129
  ],
  "geometry": {"coordinates":[[-121.2614,37.59275],[-121.30716,37.5871],[-121.36277,37.58134],[-121.4008,37.57716],[-121.4971,37.56572],[-121.51408,37.56374],[-121.61309,37.55217],[-121.65524,37.54362],[-121.70144,37.53264],[-121.7188,37.52854],[-121.81065,37.50614],[-121.8474,37.49736],[-121.87873,37.4919],[-121.939,37.49279],[-121.97659,37.49395],[-121.98076,37.49444],[-122.01595,37.50383],[-122.03792,37.51091],[-122.05844,37.51742],[-122.10502,37.5325],[-122.12032,37.53746],[-122.15085,37.54746],[-122.17801,37.55639],[-122.21052,37.56652],[-122.25816,37.58215],[-122.272,37.58626],[-122.29074,37.59142],[-122.31515,37.59895],[-122.33294,37.60436],[-122.35567,37.6129]],"type":"LineString"}
}
