{
  "id": 2014417975,
  "type": "Feature",
  "properties": {
    "geom:area": 0,
    "geom:bbox": "-123.455520,37.113880,-122.135720,37.614360",
    "geom:latitude": 37.32084515514652,
    "geom:longitude": -122.69806091137521,
    "src:alt_label": "swim-approach",
    "src:geom": "swim",
    "swim:elevations": [
      5771,
      5602,
      5354,
      5185,
      4940,
      4649,
      4555,
      4090,
      3865,
      3645,
      3400,
      3175,
      3161,
      3164,
      3107,
      2951,
      2735,
      2649,
      2639,
      2497,
      2440,
      2438,
      2438,
      2438,
      2423,
      2165,
      2024,
      1860,
      1830,
      1829,
      1753,
      1594,
      1463,
      1249,
      1219,
      1219,
      1131,
      1001,
      884,
      730,
      547,
      363,
      279,
      213,
      0
    ],
    "swim:geom": "approach",
    "swim:timestamps": [
      1766989405,
      1766989423,
      1766989461,
      1766989479,
      1766989497,
      1766989527,
      1766989537,
      1766989588,
      1766989614,
      1766989640,
      1766989670,
      1766989700,
      1766989718,
      1766989727,
      1766989752,
      1766989786,
      1766989824,
      1766989854,
      1766989860,
      1766989914,
      1766989948,
      1766989967,
      1766989982,
      1766990032,
      1766990042,
      1766990082,
      1766990101,
      1766990124,
      1766990142,
      1766990187,
      1766990213,
      1766990236,
      1766990254,
      1766990288,
      1766990331,
      1766990337,
      1766990363,
      1766990393,
      1766990415,
      1766990444,
      1766990479,
      1766990516,
      1766990537,
      1766990552,
      1766990600
    ],
    "wof:geomhash": "38d8510cbefc2d7ec8c1ef3403413dad",
    "wof:id": 2014417975,
    "wof:repo": "sfomuseum-data-flights-2025-12"
  },
  "bbox": [
    -123.45552,
    37.11388,
    -122.13572,
    37.61436
  ],
  "geometry": {"coordinates":[[-123.45552,37.11388],[-123.42247,37.12192],[-123.35405,37.13879],[-123.32184,37.14663],[-123.29047,37.15421],[-123.23748,37.16722],[-123.21949,37.17157],[-123.13039,37.19322],[-123.08541,37.2043],[-123.04054,37.21506],[-122.98992,37.22708],[-122.939,37.23939],[-122.90933,37.24648],[-122.89515,37.24994],[-122.85832,37.25884],[-122.8126,37.26973],[-122.76038,37.27629],[-122.71923,37.27969],[-122.71108,37.28045],[-122.63762,37.28695],[-122.59172,37.29122],[-122.56563,37.29495],[-122.54675,37.30172],[-122.48519,37.32748],[-122.47263,37.33264],[-122.42489,37.35278],[-122.40137,37.36277],[-122.37424,37.37441],[-122.35213,37.38397],[-122.29694,37.40793],[-122.26615,37.42132],[-122.23871,37.43337],[-122.21736,37.44321],[-122.17697,37.46184],[-122.13644,37.49104],[-122.13572,37.49694],[-122.14945,37.51938],[-122.17503,37.53676],[-122.19599,37.5455],[-122.2242,37.5576],[-122.25744,37.57163],[-122.29044,37.58553],[-122.30796,37.59276],[-122.32053,37.59808],[-122.35929,37.61436]],"type":"LineString"}
}
