{
  "id": 2014435313,
  "type": "Feature",
  "properties": {
    "geom:area": 0,
    "geom:bbox": "-122.758740,37.560150,-122.111210,38.498530",
    "geom:latitude": 37.91802453396413,
    "geom:longitude": -122.49026962551406,
    "src:alt_label": "swim-approach",
    "src:geom": "swim",
    "swim:elevations": [
      8230,
      8138,
      7693,
      7361,
      7043,
      6778,
      6460,
      6172,
      6020,
      5708,
      5434,
      5213,
      5056,
      4869,
      4664,
      4434,
      4097,
      3924,
      3821,
      3812,
      3656,
      3507,
      3354,
      3218,
      3072,
      2776,
      2665,
      2484,
      2263,
      2063,
      1960,
      1672,
      1541,
      1254,
      913,
      914,
      712,
      562,
      536,
      356,
      181,
      36,
      0
    ],
    "swim:geom": "approach",
    "swim:timestamps": [
      1767113245,
      1767113254,
      1767113296,
      1767113329,
      1767113363,
      1767113388,
      1767113422,
      1767113453,
      1767113469,
      1767113504,
      1767113537,
      1767113567,
      1767113585,
      1767113608,
      1767113633,
      1767113658,
      1767113697,
      1767113727,
      1767113755,
      1767113760,
      1767113782,
      1767113810,
      1767113842,
      1767113861,
      1767113889,
      1767113933,
      1767113949,
      1767113978,
      1767114014,
      1767114053,
      1767114070,
      1767114107,
      1767114138,
      1767114166,
      1767114204,
      1767114215,
      1767114266,
      1767114297,
      1767114300,
      1767114342,
      1767114382,
      1767114418,
      1767114428
    ],
    "wof:geomhash": "1f0c1fbf42aa05eef702a0ea625a4d4e",
    "wof:id": 2014435313,
    "wof:repo": "sfomuseum-data-flights-2025-12"
  },
  "bbox": [
    -122.75874,
    37.56015,
    -122.11121,
    38.49853
  ],
  "geometry": {"coordinates":[[-122.48675,38.49853],[-122.50031,38.48511],[-122.56168,38.42477],[-122.60885,38.37878],[-122.65807,38.33087],[-122.69324,38.29661],[-122.73937,38.25134],[-122.75874,38.20325],[-122.75313,38.1773],[-122.73694,38.12073],[-122.72211,38.06907],[-122.70868,38.02243],[-122.70062,37.99442],[-122.69046,37.9592],[-122.6797,37.92184],[-122.65898,37.88681],[-122.60954,37.83949],[-122.57427,37.80625],[-122.54455,37.77796],[-122.53933,37.7729],[-122.51784,37.75268],[-122.49254,37.72872],[-122.45608,37.71277],[-122.43161,37.7067],[-122.39586,37.69817],[-122.33902,37.6846],[-122.31906,37.67981],[-122.28144,37.67061],[-122.23595,37.65947],[-122.18657,37.64798],[-122.1684,37.63916],[-122.13441,37.6151],[-122.11121,37.59708],[-122.11645,37.57636],[-122.15451,37.56278],[-122.16605,37.56015],[-122.2206,37.57024],[-122.25038,37.57977],[-122.25358,37.58075],[-122.29404,37.59263],[-122.3262,37.60211],[-122.35382,37.61218],[-122.36178,37.6147]],"type":"LineString"}
}
