{
  "id": 2014416429,
  "type": "Feature",
  "properties": {
    "geom:area": 0,
    "geom:bbox": "-122.351240,37.491690,-121.254100,37.611080",
    "geom:latitude": 37.54588696661583,
    "geom:longitude": -121.80768427471237,
    "src:alt_label": "swim-approach",
    "src:geom": "swim",
    "swim:elevations": [
      4352,
      4104,
      3795,
      3534,
      3263,
      3112,
      3067,
      2871,
      2708,
      2531,
      2359,
      2194,
      2142,
      2044,
      1953,
      1881,
      1611,
      1327,
      1186,
      938,
      887,
      720,
      610,
      553,
      418,
      260,
      210,
      120,
      59
    ],
    "swim:geom": "approach",
    "swim:timestamps": [
      1766953668,
      1766953697,
      1766953735,
      1766953767,
      1766953796,
      1766953828,
      1766953845,
      1766953887,
      1766953914,
      1766953943,
      1766953975,
      1766954004,
      1766954015,
      1766954037,
      1766954055,
      1766954076,
      1766954117,
      1766954149,
      1766954167,
      1766954213,
      1766954228,
      1766954261,
      1766954298,
      1766954316,
      1766954355,
      1766954391,
      1766954406,
      1766954424,
      1766954442
    ],
    "wof:geomhash": "95fa4624cb4c28351989fc924f8784b9",
    "wof:id": 2014416429,
    "wof:repo": "sfomuseum-data-flights-2025-12"
  },
  "bbox": [
    -122.35124,
    37.49169,
    -121.2541,
    37.61108
  ],
  "geometry": {"coordinates":[[-121.2541,37.59377],[-121.31464,37.58617],[-121.39319,37.57782],[-121.45863,37.57044],[-121.51749,37.56351],[-121.57936,37.55607],[-121.61076,37.55217],[-121.68263,37.53697],[-121.72618,37.52669],[-121.7731,37.5154],[-121.82178,37.50358],[-121.86545,37.49348],[-121.88224,37.49175],[-121.91479,37.49169],[-121.94095,37.4924],[-121.97042,37.49326],[-122.025,37.50651],[-122.06731,37.52031],[-122.08991,37.52763],[-122.1438,37.54526],[-122.15973,37.55059],[-122.19312,37.5612],[-122.23035,37.57338],[-122.2462,37.57827],[-122.28168,37.5842],[-122.31122,37.59428],[-122.32284,37.59939],[-122.33712,37.60516],[-122.35124,37.61108]],"type":"LineString"}
}
