{
  "id": 2014443453,
  "type": "Feature",
  "properties": {
    "geom:area": 0,
    "geom:bbox": "-122.363230,37.491820,-121.248320,37.614630",
    "geom:latitude": 37.543331637618294,
    "geom:longitude": -121.81269958835249,
    "src:alt_label": "swim-approach",
    "src:geom": "swim",
    "swim:elevations": [
      4667,
      4630,
      4206,
      4026,
      3776,
      3272,
      3212,
      3114,
      3043,
      2854,
      2559,
      2425,
      2209,
      2110,
      2009,
      1858,
      1717,
      1556,
      1280,
      1157,
      1023,
      948,
      738,
      550,
      398,
      247,
      90,
      476
    ],
    "swim:geom": "approach",
    "swim:timestamps": [
      1767251097,
      1767251100,
      1767251146,
      1767251164,
      1767251191,
      1767251248,
      1767251272,
      1767251296,
      1767251317,
      1767251346,
      1767251396,
      1767251424,
      1767251458,
      1767251476,
      1767251495,
      1767251524,
      1767251567,
      1767251591,
      1767251622,
      1767251653,
      1767251692,
      1767251708,
      1767251745,
      1767251776,
      1767251806,
      1767251836,
      1767251878,
      1767251899
    ],
    "wof:geomhash": "b77aa422ced4bf23298eea015769ae5a",
    "wof:id": 2014443453,
    "wof:repo": "sfomuseum-data-flights-2025-12"
  },
  "bbox": [
    -122.36323,
    37.49182,
    -121.24832,
    37.61463
  ],
  "geometry": {"coordinates":[[-121.24832,37.5947],[-121.25441,37.59384],[-121.34747,37.58283],[-121.38419,37.5788],[-121.43896,37.57272],[-121.54997,37.55988],[-121.59338,37.55456],[-121.63289,37.54876],[-121.66443,37.54119],[-121.70675,37.53115],[-121.77554,37.51459],[-121.81489,37.5053],[-121.86113,37.49431],[-121.88643,37.49182],[-121.91316,37.49323],[-121.95428,37.49551],[-122.01102,37.49884],[-122.04236,37.50034],[-122.08432,37.50265],[-122.12149,37.5139],[-122.16645,37.53337],[-122.18344,37.54052],[-122.22399,37.55765],[-122.25613,37.57106],[-122.28582,37.58343],[-122.31225,37.59456],[-122.34564,37.6087],[-122.36323,37.61463]],"type":"LineString"}
}
