{
  "id": 2014447631,
  "type": "Feature",
  "properties": {
    "geom:area": 0,
    "geom:bbox": "-122.351030,37.639810,-122.064020,38.515630",
    "geom:latitude": 38.048622293983904,
    "geom:longitude": -122.16843460994299,
    "src:alt_label": "swim-takeoff",
    "src:geom": "swim",
    "swim:elevations": [
      593,
      819,
      1101,
      1178,
      1469,
      1891,
      2319,
      2796,
      2896,
      3298,
      3558,
      3622,
      4169,
      4447,
      4969,
      5340,
      5464,
      5779,
      6149,
      6600,
      6712,
      7006,
      7316,
      7368
    ],
    "swim:geom": "takeoff",
    "swim:timestamps": [
      1767170758,
      1767170781,
      1767170819,
      1767170831,
      1767170870,
      1767170907,
      1767170938,
      1767170967,
      1767170973,
      1767171006,
      1767171029,
      1767171034,
      1767171075,
      1767171099,
      1767171146,
      1767171176,
      1767171191,
      1767171217,
      1767171249,
      1767171298,
      1767171311,
      1767171344,
      1767171383,
      1767171391
    ],
    "wof:geomhash": "e6f9bbce23cb4a5a37cec7fea902941b",
    "wof:id": 2014447631,
    "wof:repo": "sfomuseum-data-flights-2025-12"
  },
  "bbox": [
    -122.35103,
    37.63981,
    -122.06402,
    38.51563
  ],
  "geometry": {"coordinates":[[-122.35103,37.63981],[-122.33609,37.64882],[-122.31006,37.66469],[-122.29998,37.67101],[-122.26225,37.69291],[-122.22061,37.71857],[-122.20695,37.75759],[-122.2009,37.79603],[-122.19946,37.80509],[-122.19252,37.85074],[-122.18692,37.88515],[-122.1856,37.89318],[-122.17466,37.95936],[-122.16852,37.99746],[-122.15565,38.07645],[-122.1469,38.12923],[-122.14257,38.15538],[-122.135,38.20112],[-122.12558,38.25796],[-122.10983,38.34553],[-122.10384,38.36813],[-122.08779,38.42757],[-122.06792,38.50101],[-122.06402,38.51563]],"type":"LineString"}
}
