{
  "id": 2014440947,
  "type": "Feature",
  "properties": {
    "geom:area": 0,
    "geom:bbox": "-122.351500,37.492030,-121.284250,37.611130",
    "geom:latitude": 37.541182789140805,
    "geom:longitude": -121.82440557360601,
    "src:alt_label": "swim-approach",
    "src:geom": "swim",
    "swim:elevations": [
      4629,
      4479,
      4279,
      4065,
      3968,
      3811,
      3674,
      3484,
      3242,
      3073,
      2896,
      2720,
      2608,
      2504,
      2394,
      2290,
      2101,
      1992,
      1830,
      1601,
      1460,
      1220,
      1142,
      909,
      807,
      594,
      395,
      243,
      183,
      61
    ],
    "swim:geom": "approach",
    "swim:timestamps": [
      1767201778,
      1767201799,
      1767201825,
      1767201852,
      1767201870,
      1767201902,
      1767201920,
      1767201946,
      1767201983,
      1767202014,
      1767202044,
      1767202076,
      1767202096,
      1767202111,
      1767202134,
      1767202149,
      1767202186,
      1767202208,
      1767202242,
      1767202272,
      1767202295,
      1767202346,
      1767202376,
      1767202405,
      1767202419,
      1767202454,
      1767202493,
      1767202527,
      1767202545,
      1767202575
    ],
    "wof:geomhash": "d696465d7ef935f25cc27c1e7e669c69",
    "wof:id": 2014440947,
    "wof:repo": "sfomuseum-data-flights-2025-12"
  },
  "bbox": [
    -122.3515,
    37.49203,
    -121.28425,
    37.61113
  ],
  "geometry": {"coordinates":[[-121.28425,37.59005],[-121.32316,37.58581],[-121.36968,37.58053],[-121.41696,37.57503],[-121.44804,37.57141],[-121.4978,37.56562],[-121.52522,37.56242],[-121.56262,37.55801],[-121.61604,37.55176],[-121.65829,37.54264],[-121.69783,37.53324],[-121.74158,37.52275],[-121.76697,37.51674],[-121.78688,37.51198],[-121.81738,37.50468],[-121.83682,37.50001],[-121.8872,37.49203],[-121.91909,37.49345],[-121.97097,37.49649],[-122.01714,37.49906],[-122.05087,37.501],[-122.12279,37.51627],[-122.16246,37.53094],[-122.1986,37.54636],[-122.21478,37.55353],[-122.25168,37.56936],[-122.28802,37.58444],[-122.31582,37.59614],[-122.32957,37.60193],[-122.3515,37.61113]],"type":"LineString"}
}
