{
  "id": 2014433755,
  "type": "Feature",
  "properties": {
    "geom:area": 0,
    "geom:bbox": "-122.357590,36.722080,-121.878220,37.611570",
    "geom:latitude": 37.22906821519855,
    "geom:longitude": -122.06582858830164,
    "src:alt_label": "swim-approach",
    "src:geom": "swim",
    "swim:elevations": [
      4653,
      4289,
      3903,
      3839,
      3699,
      3558,
      3129,
      2985,
      2837,
      2651,
      2525,
      2439,
      2438,
      2438,
      2284,
      2151,
      1780,
      1652,
      1523,
      1524,
      1524,
      1145,
      1049,
      697,
      569,
      500,
      345,
      276,
      151,
      0
    ],
    "swim:geom": "approach",
    "swim:timestamps": [
      1767094691,
      1767094727,
      1767094768,
      1767094780,
      1767094814,
      1767094837,
      1767094880,
      1767094912,
      1767094941,
      1767094977,
      1767094998,
      1767095015,
      1767095061,
      1767095091,
      1767095123,
      1767095149,
      1767095189,
      1767095206,
      1767095230,
      1767095274,
      1767095293,
      1767095351,
      1767095374,
      1767095423,
      1767095455,
      1767095469,
      1767095505,
      1767095535,
      1767095559,
      1767095598
    ],
    "wof:geomhash": "08dbd4c2d6f408d5d91fd31abd477fe6",
    "wof:id": 2014433755,
    "wof:repo": "sfomuseum-data-flights-2025-12"
  },
  "bbox": [
    -122.35759,
    36.72208,
    -121.87822,
    37.61157
  ],
  "geometry": {"coordinates":[[-121.87822,36.72208],[-121.90477,36.78145],[-121.92412,36.85072],[-121.92994,36.87125],[-121.94446,36.92291],[-121.95427,36.95576],[-121.97715,37.01416],[-121.99369,37.05687],[-122.00905,37.09621],[-122.0261,37.13948],[-122.03551,37.16322],[-122.04328,37.18313],[-122.0633,37.23542],[-122.07698,37.26963],[-122.09152,37.30653],[-122.10281,37.3349],[-122.11651,37.37885],[-122.10888,37.39787],[-122.09632,37.42283],[-122.07428,37.46854],[-122.07313,37.49038],[-122.13649,37.51983],[-122.16448,37.53023],[-122.22059,37.55383],[-122.25319,37.56746],[-122.26639,37.57311],[-122.29349,37.58447],[-122.31466,37.59335],[-122.33106,37.60026],[-122.35759,37.61157]],"type":"LineString"}
}
