{
  "id": 2014408811,
  "type": "Feature",
  "properties": {
    "geom:area": 0,
    "geom:bbox": "-122.732820,37.539830,-122.098090,38.108030",
    "geom:latitude": 37.72261829663986,
    "geom:longitude": -122.41264562118154,
    "src:alt_label": "swim-approach",
    "src:geom": "swim",
    "swim:elevations": [
      5353,
      5170,
      4863,
      4492,
      4263,
      4164,
      3623,
      3466,
      3443,
      3353,
      3353,
      3353,
      3262,
      3016,
      2842,
      2615,
      2228,
      1874,
      1790,
      1381,
      970,
      912,
      914,
      902,
      813,
      662,
      639,
      484,
      425,
      259,
      168,
      15
    ],
    "swim:geom": "approach",
    "swim:timestamps": [
      1766861121,
      1766861136,
      1766861175,
      1766861216,
      1766861243,
      1766861252,
      1766861306,
      1766861331,
      1766861342,
      1766861398,
      1766861401,
      1766861444,
      1766861472,
      1766861510,
      1766861540,
      1766861565,
      1766861603,
      1766861634,
      1766861643,
      1766861692,
      1766861728,
      1766861747,
      1766861783,
      1766861810,
      1766861828,
      1766861861,
      1766861867,
      1766861902,
      1766861918,
      1766861957,
      1766861982,
      1766862014
    ],
    "wof:geomhash": "17c7120841448a199b065bc2dabe42d8",
    "wof:id": 2014408811,
    "wof:repo": "sfomuseum-data-flights-2025-12"
  },
  "bbox": [
    -122.73282,
    37.53983,
    -122.09809,
    38.10803
  ],
  "geometry": {"coordinates":[[-122.73282,38.10803],[-122.72553,38.08166],[-122.70661,38.01434],[-122.68681,37.94483],[-122.66825,37.90041],[-122.65864,37.88717],[-122.58668,37.81738],[-122.55361,37.78651],[-122.53959,37.77346],[-122.47322,37.71086],[-122.46994,37.70777],[-122.42399,37.66459],[-122.3902,37.64342],[-122.33283,37.63249],[-122.29034,37.62537],[-122.25478,37.61955],[-122.20468,37.61152],[-122.16308,37.60508],[-122.15113,37.60315],[-122.09809,37.58084],[-122.10787,37.54821],[-122.12686,37.54087],[-122.16623,37.53983],[-122.1942,37.54505],[-122.21111,37.55237],[-122.24049,37.56445],[-122.24525,37.56651],[-122.27158,37.57758],[-122.28382,37.58269],[-122.31323,37.59505],[-122.33153,37.60278],[-122.35614,37.61308]],"type":"LineString"}
}
