{
  "id": 2014426553,
  "type": "Feature",
  "properties": {
    "geom:area": 0,
    "geom:bbox": "-122.337880,37.491860,-121.247490,37.605670",
    "geom:latitude": 37.545623163297535,
    "geom:longitude": -121.79718292117877,
    "src:alt_label": "swim-approach",
    "src:geom": "swim",
    "swim:elevations": [
      4469,
      4350,
      4132,
      3913,
      3812,
      3644,
      3573,
      3330,
      3200,
      3142,
      2957,
      2835,
      2652,
      2448,
      2364,
      2133,
      2010,
      1964,
      1819,
      1611,
      1436,
      1369,
      1252,
      1000,
      989,
      693,
      559,
      417,
      320,
      183,
      129
    ],
    "swim:geom": "approach",
    "swim:timestamps": [
      1767051895,
      1767051911,
      1767051945,
      1767051975,
      1767051991,
      1767052013,
      1767052025,
      1767052067,
      1767052100,
      1767052126,
      1767052151,
      1767052170,
      1767052197,
      1767052226,
      1767052241,
      1767052283,
      1767052315,
      1767052328,
      1767052367,
      1767052406,
      1767052435,
      1767052450,
      1767052471,
      1767052527,
      1767052530,
      1767052587,
      1767052611,
      1767052647,
      1767052668,
      1767052694,
      1767052710
    ],
    "wof:geomhash": "5a201735a807ea018dcc4b26dce5f6c8",
    "wof:id": 2014426553,
    "wof:repo": "sfomuseum-data-flights-2025-12"
  },
  "bbox": [
    -122.33788,
    37.49186,
    -121.24749,
    37.60567
  ],
  "geometry": {"coordinates":[[-121.24749,37.59468],[-121.27806,37.59066],[-121.34491,37.58348],[-121.40235,37.57686],[-121.43139,37.5734],[-121.47247,37.56844],[-121.49241,37.56603],[-121.5648,37.55788],[-121.62049,37.55111],[-121.6592,37.54248],[-121.69551,37.53389],[-121.7224,37.52748],[-121.76026,37.51841],[-121.79997,37.50893],[-121.82062,37.50398],[-121.87845,37.49186],[-121.92113,37.49204],[-121.938,37.49248],[-121.98806,37.49554],[-122.03573,37.50997],[-122.06746,37.52038],[-122.08303,37.52544],[-122.10432,37.53239],[-122.16041,37.55064],[-122.1635,37.55163],[-122.22355,37.57094],[-122.24886,37.57929],[-122.28192,37.58908],[-122.30067,37.5946],[-122.32449,37.60139],[-122.33788,37.60567]],"type":"LineString"}
}
