{
  "id": 2014441009,
  "type": "Feature",
  "properties": {
    "geom:area": 0,
    "geom:bbox": "-122.366020,36.727120,-121.881660,37.614790",
    "geom:latitude": 37.22660829340933,
    "geom:longitude": -122.07049378694441,
    "src:alt_label": "swim-approach",
    "src:geom": "swim",
    "swim:elevations": [
      5123,
      4925,
      4568,
      4251,
      4168,
      3752,
      3517,
      3463,
      3350,
      3228,
      3152,
      2840,
      2723,
      2617,
      2468,
      2227,
      2127,
      1862,
      1698,
      1623,
      1477,
      1244,
      1124,
      976,
      821,
      713,
      624,
      473,
      383,
      332,
      153,
      82,
      360
    ],
    "swim:geom": "approach",
    "swim:timestamps": [
      1767207507,
      1767207529,
      1767207568,
      1767207598,
      1767207609,
      1767207652,
      1767207688,
      1767207703,
      1767207747,
      1767207772,
      1767207791,
      1767207838,
      1767207853,
      1767207868,
      1767207889,
      1767207923,
      1767207938,
      1767207978,
      1767208011,
      1767208027,
      1767208059,
      1767208102,
      1767208132,
      1767208164,
      1767208192,
      1767208213,
      1767208230,
      1767208264,
      1767208285,
      1767208294,
      1767208335,
      1767208358,
      1767208382
    ],
    "wof:geomhash": "328979ff87e2e468e56485c2139ac5b2",
    "wof:id": 2014441009,
    "wof:repo": "sfomuseum-data-flights-2025-12"
  },
  "bbox": [
    -122.36602,
    36.72712,
    -121.88166,
    37.61479
  ],
  "geometry": {"coordinates":[[-121.88166,36.72712],[-121.89943,36.76274],[-121.91932,36.83144],[-121.93362,36.88263],[-121.93884,36.90099],[-121.96097,36.97174],[-121.98227,37.02675],[-121.99082,37.04883],[-122.01425,37.10856],[-122.026,37.1387],[-122.03457,37.16082],[-122.05559,37.2145],[-122.06241,37.23161],[-122.06914,37.24874],[-122.07863,37.27271],[-122.09354,37.31106],[-122.10017,37.32782],[-122.11269,37.37352],[-122.11031,37.41288],[-122.10807,37.43041],[-122.10003,37.4637],[-122.1128,37.5035],[-122.14205,37.52118],[-122.1752,37.53445],[-122.20236,37.54615],[-122.22205,37.55439],[-122.23956,37.56171],[-122.27044,37.5747],[-122.28822,37.58228],[-122.29562,37.58538],[-122.32904,37.59941],[-122.34675,37.60688],[-122.36602,37.61479]],"type":"LineString"}
}
