{
  "id": 2014447691,
  "type": "Feature",
  "properties": {
    "geom:area": 0,
    "geom:bbox": "-122.387260,37.637660,-121.245930,37.991460",
    "geom:latitude": 37.93767959826552,
    "geom:longitude": -121.9378004222434,
    "src:alt_label": "swim-takeoff",
    "src:geom": "swim",
    "swim:elevations": [
      365,
      894,
      1106,
      1398,
      1623,
      2156,
      2659,
      3271,
      3772,
      4246,
      4670,
      4827,
      5209,
      5504,
      5781,
      6468,
      6730,
      7107,
      7208,
      7681,
      7826,
      8242,
      8329,
      8680,
      8956,
      9293,
      9354
    ],
    "swim:geom": "takeoff",
    "swim:timestamps": [
      1767229008,
      1767229044,
      1767229069,
      1767229107,
      1767229122,
      1767229158,
      1767229185,
      1767229224,
      1767229257,
      1767229287,
      1767229317,
      1767229347,
      1767229374,
      1767229392,
      1767229413,
      1767229467,
      1767229488,
      1767229527,
      1767229542,
      1767229587,
      1767229602,
      1767229645,
      1767229653,
      1767229693,
      1767229724,
      1767229763,
      1767229772
    ],
    "wof:geomhash": "2686c9d68cb956f3e2e518df6eb715da",
    "wof:id": 2014447691,
    "wof:repo": "sfomuseum-data-flights-2025-12"
  },
  "bbox": [
    -122.38726,
    37.63766,
    -121.24593,
    37.99146
  ],
  "geometry": {"coordinates":[[-122.36018,37.63766],[-122.33559,37.65845],[-122.31618,37.67459],[-122.30894,37.7151],[-122.32203,37.73109],[-122.3512,37.77295],[-122.3682,37.80783],[-122.38726,37.86157],[-122.38373,37.91069],[-122.35581,37.94941],[-122.30445,37.96363],[-122.24523,37.96952],[-122.18953,37.97991],[-122.15195,37.98661],[-122.10775,37.98928],[-121.98918,37.98979],[-121.94282,37.99015],[-121.85479,37.99097],[-121.81959,37.9911],[-121.71235,37.991],[-121.67624,37.99098],[-121.56852,37.99115],[-121.54859,37.99117],[-121.45058,37.99123],[-121.37128,37.99146],[-121.26924,37.99087],[-121.24593,37.99114]],"type":"LineString"}
}
