{
  "id": 2014446093,
  "type": "Feature",
  "properties": {
    "geom:area": 0,
    "geom:bbox": "-122.356180,37.637320,-121.247410,37.960170",
    "geom:latitude": 37.831366034205125,
    "geom:longitude": -121.82739222101594,
    "src:alt_label": "swim-takeoff",
    "src:geom": "swim",
    "swim:elevations": [
      571,
      759,
      1089,
      1332,
      1738,
      2335,
      2655,
      3106,
      3337,
      3518,
      3732,
      4153,
      4812,
      5062,
      5479,
      5810,
      6110,
      6131,
      6456,
      6772,
      6877,
      7147,
      7213
    ],
    "swim:geom": "takeoff",
    "swim:timestamps": [
      1767189838,
      1767189858,
      1767189894,
      1767189921,
      1767189948,
      1767189988,
      1767190011,
      1767190041,
      1767190062,
      1767190090,
      1767190112,
      1767190144,
      1767190195,
      1767190219,
      1767190254,
      1767190284,
      1767190317,
      1767190320,
      1767190359,
      1767190401,
      1767190422,
      1767190464,
      1767190474
    ],
    "wof:geomhash": "29aa28cce0a442c7d91133a9fe1f5680",
    "wof:id": 2014446093,
    "wof:repo": "sfomuseum-data-flights-2025-12"
  },
  "bbox": [
    -122.35618,
    37.63732,
    -121.24741,
    37.96017
  ],
  "geometry": {"coordinates":[[-122.35618,37.63732],[-122.34078,37.64684],[-122.3054,37.66722],[-122.27428,37.68599],[-122.24081,37.70716],[-122.2212,37.75877],[-122.20618,37.78907],[-122.16035,37.80393],[-122.12618,37.79889],[-122.07571,37.79258],[-122.03089,37.79154],[-121.96641,37.80337],[-121.86254,37.82632],[-121.81274,37.83776],[-121.73867,37.85409],[-121.67598,37.86705],[-121.60533,37.88263],[-121.59813,37.88421],[-121.51265,37.90281],[-121.41728,37.92353],[-121.37039,37.93362],[-121.27087,37.95507],[-121.24741,37.96017]],"type":"LineString"}
}
