{
  "id": 2014429151,
  "type": "Feature",
  "properties": {
    "geom:area": 0,
    "geom:bbox": "-122.467350,36.742320,-121.524740,37.712030",
    "geom:latitude": 37.235442100879894,
    "geom:longitude": -122.08970962500116,
    "src:alt_label": "swim-takeoff",
    "src:geom": "swim",
    "swim:elevations": [
      213,
      691,
      833,
      1327,
      1920,
      2060,
      2563,
      2951,
      3352,
      3510,
      4219,
      4386,
      4901,
      5388,
      5748,
      6001,
      6101,
      6247,
      6588,
      6880,
      7238,
      7533,
      7821,
      8157,
      8400,
      8537,
      8576,
      8739,
      9007,
      9447,
      9442,
      9606
    ],
    "swim:geom": "takeoff",
    "swim:timestamps": [
      1767000638,
      1767000686,
      1767000710,
      1767000745,
      1767000777,
      1767000786,
      1767000823,
      1767000850,
      1767000884,
      1767000908,
      1767000955,
      1767000968,
      1767001004,
      1767001040,
      1767001071,
      1767001082,
      1767001088,
      1767001099,
      1767001126,
      1767001151,
      1767001184,
      1767001213,
      1767001242,
      1767001283,
      1767001311,
      1767001342,
      1767001370,
      1767001389,
      1767001420,
      1767001468,
      1767001471,
      1767001501
    ],
    "wof:geomhash": "c37a7bf1bbc84916167aaa345702f575",
    "wof:id": 2014429151,
    "wof:repo": "sfomuseum-data-flights-2025-12"
  },
  "bbox": [
    -122.46735,
    36.74232,
    -121.52474,
    37.71203
  ],
  "geometry": {"coordinates":[[-122.36603,37.63422],[-122.36204,37.67287],[-122.36673,37.6981],[-122.41423,37.71203],[-122.44432,37.68429],[-122.446,37.67357],[-122.45378,37.62618],[-122.45914,37.59066],[-122.46652,37.54207],[-122.46735,37.50341],[-122.41119,37.44358],[-122.39126,37.42863],[-122.33612,37.38786],[-122.27957,37.34638],[-122.23014,37.31002],[-122.21321,37.29748],[-122.20404,37.29066],[-122.18744,37.27832],[-122.1444,37.24657],[-122.1048,37.2174],[-122.05365,37.17681],[-122.00943,37.14056],[-121.96374,37.10265],[-121.89947,37.04997],[-121.85312,37.01192],[-121.80203,36.97063],[-121.75409,36.9306],[-121.71905,36.9033],[-121.6656,36.85939],[-121.58192,36.79041],[-121.57585,36.78545],[-121.52474,36.74232]],"type":"LineString"}
}
