{
  "id": 2014414771,
  "type": "Feature",
  "properties": {
    "geom:area": 0,
    "geom:bbox": "-122.328740,37.491560,-121.272470,37.602930",
    "geom:latitude": 37.54400003454222,
    "geom:longitude": -121.80496879325874,
    "src:alt_label": "swim-approach",
    "src:geom": "swim",
    "swim:elevations": [
      4705,
      4575,
      4358,
      3956,
      3894,
      3681,
      3590,
      3390,
      3147,
      3014,
      2777,
      2530,
      2391,
      2104,
      2043,
      1869,
      1770,
      1638,
      1417,
      1310,
      974,
      813,
      730,
      606,
      488,
      341,
      274,
      173
    ],
    "swim:geom": "approach",
    "swim:timestamps": [
      1766919290,
      1766919307,
      1766919333,
      1766919382,
      1766919391,
      1766919421,
      1766919435,
      1766919463,
      1766919498,
      1766919518,
      1766919547,
      1766919584,
      1766919607,
      1766919655,
      1766919672,
      1766919716,
      1766919746,
      1766919758,
      1766919795,
      1766919814,
      1766919867,
      1766919896,
      1766919910,
      1766919933,
      1766919977,
      1766920017,
      1766920027,
      1766920050
    ],
    "wof:geomhash": "e7b9973f2eab07530cfbb3d583a94890",
    "wof:id": 2014414771,
    "wof:repo": "sfomuseum-data-flights-2025-12"
  },
  "bbox": [
    -122.32874,
    37.49156,
    -121.27247,
    37.60293
  ],
  "geometry": {"coordinates":[[-121.27247,37.59157],[-121.30555,37.58755],[-121.3556,37.58195],[-121.44645,37.57165],[-121.46133,37.56993],[-121.51467,37.56358],[-121.53863,37.56077],[-121.58541,37.55551],[-121.64325,37.54642],[-121.67641,37.53865],[-121.72494,37.52724],[-121.78135,37.51312],[-121.81708,37.50457],[-121.88869,37.49156],[-121.91381,37.49225],[-121.97567,37.49351],[-122.01302,37.50283],[-122.02792,37.50772],[-122.07144,37.52137],[-122.09335,37.52869],[-122.15678,37.54918],[-122.18858,37.55976],[-122.20388,37.56459],[-122.22538,37.57156],[-122.26569,37.58447],[-122.2998,37.59407],[-122.30908,37.59683],[-122.32874,37.60293]],"type":"LineString"}
}
