{
  "id": 2014435099,
  "type": "Feature",
  "properties": {
    "geom:area": 0,
    "geom:bbox": "-122.357780,36.742580,-121.890710,37.611400",
    "geom:latitude": 37.21947212358288,
    "geom:longitude": -122.07388128394173,
    "src:alt_label": "swim-approach",
    "src:geom": "swim",
    "swim:elevations": [
      4818,
      4794,
      4430,
      4156,
      3931,
      3637,
      3457,
      3200,
      3200,
      3033,
      3003,
      2749,
      2569,
      2338,
      2243,
      2132,
      1939,
      1735,
      1620,
      1492,
      1199,
      1035,
      966,
      630,
      539,
      303,
      160,
      44
    ],
    "swim:geom": "approach",
    "swim:timestamps": [
      1767115288,
      1767115291,
      1767115336,
      1767115370,
      1767115397,
      1767115435,
      1767115459,
      1767115497,
      1767115500,
      1767115555,
      1767115564,
      1767115600,
      1767115627,
      1767115678,
      1767115704,
      1767115722,
      1767115759,
      1767115798,
      1767115827,
      1767115847,
      1767115886,
      1767115910,
      1767115923,
      1767115968,
      1767115982,
      1767116018,
      1767116053,
      1767116086
    ],
    "wof:geomhash": "fd5f1202c1d20210062b90517c00ce07",
    "wof:id": 2014435099,
    "wof:repo": "sfomuseum-data-flights-2025-12"
  },
  "bbox": [
    -122.35778,
    36.74258,
    -121.89071,
    37.6114
  ],
  "geometry": {"coordinates":[[-121.89071,36.74258],[-121.89354,36.74828],[-121.91606,36.82074],[-121.93186,36.87595],[-121.94388,36.9192],[-121.96356,36.97861],[-121.97735,37.01402],[-121.99944,37.07114],[-122.00122,37.07563],[-122.03219,37.15439],[-122.03659,37.16555],[-122.05495,37.21275],[-122.06843,37.24711],[-122.09343,37.31159],[-122.10545,37.34146],[-122.11383,37.36167],[-122.12849,37.40282],[-122.14277,37.4453],[-122.15544,37.47535],[-122.16642,37.49307],[-122.19025,37.52642],[-122.20599,37.54568],[-122.21845,37.55254],[-122.26282,37.57147],[-122.27503,37.57683],[-122.30505,37.58925],[-122.33193,37.6006],[-122.35778,37.6114]],"type":"LineString"}
}
