{
  "id": 2014443635,
  "type": "Feature",
  "properties": {
    "geom:area": 0,
    "geom:bbox": "-122.361780,37.492120,-121.250050,37.615530",
    "geom:latitude": 37.543288568378216,
    "geom:longitude": -121.8129607405995,
    "src:alt_label": "swim-approach",
    "src:geom": "swim",
    "swim:elevations": [
      4393,
      3998,
      3745,
      3550,
      3270,
      3116,
      3041,
      2867,
      2740,
      2646,
      2546,
      2320,
      2149,
      2134,
      2002,
      1833,
      1632,
      1165,
      1073,
      912,
      720,
      547,
      487,
      300,
      213,
      118,
      0
    ],
    "swim:geom": "approach",
    "swim:timestamps": [
      1767177943,
      1767177988,
      1767178018,
      1767178043,
      1767178073,
      1767178108,
      1767178135,
      1767178166,
      1767178188,
      1767178211,
      1767178232,
      1767178271,
      1767178298,
      1767178330,
      1767178364,
      1767178392,
      1767178415,
      1767178462,
      1767178490,
      1767178524,
      1767178556,
      1767178588,
      1767178598,
      1767178642,
      1767178661,
      1767178685,
      1767178711
    ],
    "wof:geomhash": "6d8f6244f4f006c67ff60bd9cb57df40",
    "wof:id": 2014443635,
    "wof:repo": "sfomuseum-data-flights-2025-12"
  },
  "bbox": [
    -122.36178,
    37.49212,
    -121.25005,
    37.61553
  ],
  "geometry": {"coordinates":[[-121.25005,37.59441],[-121.34311,37.58324],[-121.40331,37.57664],[-121.45291,37.57103],[-121.51284,37.56393],[-121.5785,37.55631],[-121.62571,37.54974],[-121.67586,37.53872],[-121.71119,37.53024],[-121.74749,37.52152],[-121.77932,37.51388],[-121.83759,37.49981],[-121.87914,37.49212],[-121.92825,37.49361],[-121.97861,37.49679],[-122.01935,37.49923],[-122.05034,37.50101],[-122.11566,37.51151],[-122.14973,37.52612],[-122.1903,37.54329],[-122.22592,37.55836],[-122.26028,37.57281],[-122.26972,37.57679],[-122.30762,37.59252],[-122.32237,37.59901],[-122.3413,37.60689],[-122.36178,37.61553]],"type":"LineString"}
}
