{
  "id": 2014442159,
  "type": "Feature",
  "properties": {
    "geom:area": 0,
    "geom:bbox": "-122.357860,36.747580,-121.894270,37.611570",
    "geom:latitude": 37.22468985193666,
    "geom:longitude": -122.07472834225176,
    "src:alt_label": "swim-approach",
    "src:geom": "swim",
    "swim:elevations": [
      4627,
      4424,
      4166,
      4067,
      3865,
      3554,
      2811,
      2569,
      2438,
      2438,
      2438,
      2438,
      2387,
      2143,
      1803,
      1620,
      1222,
      1108,
      953,
      912,
      759,
      573,
      366,
      276,
      147,
      58,
      0
    ],
    "swim:geom": "approach",
    "swim:timestamps": [
      1767198025,
      1767198054,
      1767198086,
      1767198099,
      1767198124,
      1767198167,
      1767198263,
      1767198295,
      1767198326,
      1767198356,
      1767198381,
      1767198390,
      1767198417,
      1767198439,
      1767198478,
      1767198496,
      1767198530,
      1767198550,
      1767198594,
      1767198615,
      1767198642,
      1767198676,
      1767198717,
      1767198741,
      1767198774,
      1767198801,
      1767198810
    ],
    "wof:geomhash": "c677c990ef13d1e287e654c9fe444258",
    "wof:id": 2014442159,
    "wof:repo": "sfomuseum-data-flights-2025-12"
  },
  "bbox": [
    -122.35786,
    36.74758,
    -121.89427,
    37.61157
  ],
  "geometry": {"coordinates":[[-121.89427,36.74758],[-121.907,36.79064],[-121.92012,36.83702],[-121.92568,36.85645],[-121.93591,36.89311],[-121.95426,36.95591],[-122.00646,37.0898],[-122.024,37.13451],[-122.04053,37.17696],[-122.05606,37.21647],[-122.06941,37.25047],[-122.07421,37.26263],[-122.08848,37.29915],[-122.10056,37.32955],[-122.12031,37.38044],[-122.12848,37.40429],[-122.14355,37.44806],[-122.15217,37.47389],[-122.17068,37.52457],[-122.18928,37.54036],[-122.21835,37.55275],[-122.2542,37.56798],[-122.29203,37.5838],[-122.31055,37.59166],[-122.33398,37.60151],[-122.35208,37.60908],[-122.35786,37.61157]],"type":"LineString"}
}
