{
  "id": 2014439889,
  "type": "Feature",
  "properties": {
    "geom:area": 0,
    "geom:bbox": "-122.527260,37.631580,-121.427170,38.517140",
    "geom:latitude": 38.08380060226312,
    "geom:longitude": -122.05389511516742,
    "src:alt_label": "swim-takeoff",
    "src:geom": "swim",
    "swim:elevations": [
      279,
      615,
      871,
      915,
      1222,
      1402,
      1991,
      2183,
      2530,
      3232,
      3244,
      3506,
      3720,
      4133,
      4473,
      4739,
      5069,
      5240,
      5826,
      6150,
      6288,
      6490,
      7043,
      7272,
      7455,
      7680,
      7861,
      8013
    ],
    "swim:geom": "takeoff",
    "swim:timestamps": [
      1767100076,
      1767100103,
      1767100134,
      1767100158,
      1767100197,
      1767100213,
      1767100254,
      1767100267,
      1767100296,
      1767100348,
      1767100352,
      1767100394,
      1767100428,
      1767100463,
      1767100494,
      1767100521,
      1767100547,
      1767100561,
      1767100612,
      1767100648,
      1767100669,
      1767100693,
      1767100765,
      1767100792,
      1767100812,
      1767100845,
      1767100865,
      1767100890
    ],
    "wof:geomhash": "b7e08f54e24c8b8c38e23f4f3c0ff78c",
    "wof:id": 2014439889,
    "wof:repo": "sfomuseum-data-flights-2025-12"
  },
  "bbox": [
    -122.52726,
    37.63158,
    -121.42717,
    38.51714
  ],
  "geometry": {"coordinates":[[-122.39977,37.63158],[-122.42438,37.64175],[-122.45572,37.65462],[-122.48384,37.66601],[-122.5244,37.69714],[-122.52715,37.71814],[-122.52726,37.77364],[-122.52319,37.79032],[-122.49042,37.81894],[-122.41524,37.8507],[-122.40991,37.85428],[-122.35049,37.89562],[-122.29612,37.93292],[-122.23826,37.97283],[-122.18446,38.01017],[-122.13665,38.04366],[-122.09095,38.07539],[-122.06487,38.09345],[-121.97234,38.15704],[-121.90745,38.20144],[-121.86766,38.22819],[-121.8222,38.25866],[-121.68483,38.3532],[-121.62996,38.39054],[-121.58976,38.41783],[-121.52175,38.46142],[-121.47865,38.48602],[-121.42717,38.51714]],"type":"LineString"}
}
