{
  "id": 2014439361,
  "type": "Feature",
  "properties": {
    "geom:area": 0,
    "geom:bbox": "-123.478530,37.630750,-122.404440,37.730940",
    "geom:latitude": 37.69843864615499,
    "geom:longitude": -122.93743625222208,
    "src:alt_label": "swim-takeoff",
    "src:geom": "swim",
    "swim:elevations": [
      244,
      608,
      829,
      1159,
      1252,
      1505,
      1776,
      1957,
      2568,
      2844,
      3208,
      3329,
      3468,
      3570,
      3790,
      4113,
      4356,
      4440,
      4976,
      5205,
      5407
    ],
    "swim:geom": "takeoff",
    "swim:timestamps": [
      1767144007,
      1767144036,
      1767144067,
      1767144103,
      1767144133,
      1767144163,
      1767144199,
      1767144214,
      1767144265,
      1767144292,
      1767144325,
      1767144343,
      1767144367,
      1767144385,
      1767144415,
      1767144445,
      1767144475,
      1767144484,
      1767144535,
      1767144559,
      1767144589
    ],
    "wof:geomhash": "6f9c209b7d053f5695816fac5de89884",
    "wof:id": 2014439361,
    "wof:repo": "sfomuseum-data-flights-2025-12"
  },
  "bbox": [
    -123.47853,
    37.63075,
    -122.40444,
    37.73094
  ],
  "geometry": {"coordinates":[[-122.40444,37.63075],[-122.43552,37.64392],[-122.46914,37.65914],[-122.50998,37.67562],[-122.55122,37.67813],[-122.59765,37.68042],[-122.65746,37.68434],[-122.68356,37.68573],[-122.7733,37.69112],[-122.82232,37.6939],[-122.88343,37.69784],[-122.91783,37.69985],[-122.96608,37.70246],[-123.00386,37.70463],[-123.06965,37.70833],[-123.13732,37.71222],[-123.20637,37.71607],[-123.2275,37.71719],[-123.34817,37.72394],[-123.40585,37.72708],[-123.47853,37.73094]],"type":"LineString"}
}
