{
  "id": 2014420577,
  "type": "Feature",
  "properties": {
    "geom:area": 0,
    "geom:bbox": "-122.465170,36.769190,-121.506480,37.711050",
    "geom:latitude": 37.240775980556435,
    "geom:longitude": -122.08457147720956,
    "src:alt_label": "swim-takeoff",
    "src:geom": "swim",
    "swim:elevations": [
      122,
      279,
      699,
      974,
      1501,
      1756,
      2394,
      2730,
      3419,
      3472,
      3566,
      4053,
      4225,
      4853,
      5090,
      5413,
      5824,
      6115,
      6410,
      6778,
      6850,
      7235,
      7622,
      7644,
      8062,
      8518,
      8842,
      8839,
      8839
    ],
    "swim:geom": "takeoff",
    "swim:timestamps": [
      1766925081,
      1766925094,
      1766925123,
      1766925152,
      1766925208,
      1766925222,
      1766925259,
      1766925277,
      1766925327,
      1766925333,
      1766925345,
      1766925386,
      1766925399,
      1766925440,
      1766925461,
      1766925491,
      1766925537,
      1766925565,
      1766925596,
      1766925626,
      1766925635,
      1766925677,
      1766925718,
      1766925722,
      1766925760,
      1766925794,
      1766925832,
      1766925854,
      1766925877
    ],
    "wof:geomhash": "c65f3854a0f2f5f5637f7b8abe58f377",
    "wof:id": 2014420577,
    "wof:repo": "sfomuseum-data-flights-2025-12"
  },
  "bbox": [
    -122.46517,
    36.76919,
    -121.50648,
    37.71105
  ],
  "geometry": {"coordinates":[[-122.37222,37.62428],[-122.36777,37.63177],[-122.36476,37.65146],[-122.36275,37.67208],[-122.40028,37.71105],[-122.42182,37.70602],[-122.44656,37.66247],[-122.44805,37.63731],[-122.45936,37.56542],[-122.46125,37.55586],[-122.46517,37.53661],[-122.44759,37.47083],[-122.4272,37.45468],[-122.35884,37.40478],[-122.32302,37.37865],[-122.27153,37.34073],[-122.18682,37.27826],[-122.13412,37.23919],[-122.07457,37.195],[-122.01654,37.15156],[-121.99949,37.13884],[-121.91352,37.07477],[-121.83026,37.01239],[-121.8223,37.00641],[-121.74326,36.94831],[-121.67231,36.89513],[-121.59634,36.83734],[-121.55325,36.80506],[-121.50648,36.76919]],"type":"LineString"}
}
