{
  "id": 2014413337,
  "type": "Feature",
  "properties": {
    "geom:area": 0,
    "geom:bbox": "-122.365470,37.629670,-121.286980,38.400280",
    "geom:latitude": 38.024725537065386,
    "geom:longitude": -121.83502373375204,
    "src:alt_label": "swim-takeoff",
    "src:geom": "swim",
    "swim:elevations": [
      152,
      679,
      1042,
      1073,
      1222,
      1721,
      2034,
      2340,
      2925,
      2984,
      3312,
      3632,
      3796,
      4279,
      4527,
      4842,
      5108,
      5454,
      5604,
      5882,
      6246,
      6481,
      6832,
      6965,
      7073,
      7314,
      7451,
      7499
    ],
    "swim:geom": "takeoff",
    "swim:timestamps": [
      1766854533,
      1766854581,
      1766854617,
      1766854624,
      1766854663,
      1766854708,
      1766854730,
      1766854755,
      1766854795,
      1766854801,
      1766854850,
      1766854888,
      1766854900,
      1766854943,
      1766854966,
      1766854996,
      1766855023,
      1766855068,
      1766855083,
      1766855109,
      1766855136,
      1766855165,
      1766855213,
      1766855237,
      1766855264,
      1766855301,
      1766855328,
      1766855344
    ],
    "wof:geomhash": "8351c8e9b1a83a344aca24280932eb50",
    "wof:id": 2014413337,
    "wof:repo": "sfomuseum-data-flights-2025-12"
  },
  "bbox": [
    -122.36547,
    37.62967,
    -121.28698,
    38.40028
  ],
  "geometry": {"coordinates":[[-122.36547,37.62967],[-122.3334,37.65365],[-122.30674,37.66837],[-122.30109,37.67156],[-122.26391,37.69231],[-122.2096,37.72343],[-122.18987,37.74397],[-122.16751,37.76948],[-122.13104,37.81012],[-122.12579,37.81592],[-122.07801,37.86871],[-122.02485,37.90963],[-122.007,37.92164],[-121.94206,37.96548],[-121.90651,37.98946],[-121.85975,38.02104],[-121.81648,38.05035],[-121.74323,38.09968],[-121.71843,38.11642],[-121.67493,38.14558],[-121.63073,38.17531],[-121.58479,38.20615],[-121.50581,38.2589],[-121.46675,38.28506],[-121.42279,38.31439],[-121.3615,38.35476],[-121.31442,38.38342],[-121.28698,38.40028]],"type":"LineString"}
}
