{
  "id": 2014411157,
  "type": "Feature",
  "properties": {
    "geom:area": 0,
    "geom:bbox": "-123.503470,37.374960,-122.401140,37.665860",
    "geom:latitude": 37.54503957679919,
    "geom:longitude": -122.95724853381971,
    "src:alt_label": "swim-takeoff",
    "src:geom": "swim",
    "swim:elevations": [
      152,
      461,
      594,
      1066,
      1232,
      1513,
      2017,
      2244,
      2448,
      2543,
      2711,
      2974,
      3232,
      3320,
      3376,
      3430,
      3572,
      3671,
      3953,
      4219,
      4445,
      4519,
      4680,
      4846,
      4844,
      4910,
      4919
    ],
    "swim:geom": "takeoff",
    "swim:timestamps": [
      1766869076,
      1766869100,
      1766869110,
      1766869160,
      1766869184,
      1766869208,
      1766869255,
      1766869279,
      1766869299,
      1766869311,
      1766869327,
      1766869356,
      1766869406,
      1766869426,
      1766869442,
      1766869459,
      1766869480,
      1766869493,
      1766869525,
      1766869557,
      1766869587,
      1766869603,
      1766869626,
      1766869672,
      1766869681,
      1766869708,
      1766869717
    ],
    "wof:geomhash": "7fdf59af11c303bdbc47047a6ecb1dfc",
    "wof:id": 2014411157,
    "wof:repo": "sfomuseum-data-flights-2025-12"
  },
  "bbox": [
    -123.50347,
    37.37496,
    -122.40114,
    37.66586
  ],
  "geometry": {"coordinates":[[-122.40114,37.62978],[-122.42529,37.64027],[-122.43528,37.64476],[-122.49156,37.66586],[-122.52636,37.65997],[-122.55712,37.64055],[-122.61868,37.60081],[-122.65384,37.58445],[-122.68736,37.57972],[-122.70732,37.57751],[-122.73449,37.57425],[-122.784,37.56809],[-122.8727,37.55691],[-122.91017,37.55227],[-122.94336,37.54819],[-122.97727,37.54404],[-123.02142,37.53862],[-123.04867,37.53533],[-123.1168,37.52696],[-123.18665,37.51826],[-123.25102,37.51011],[-123.28539,37.50447],[-123.33424,37.48813],[-123.41906,37.4344],[-123.43587,37.4226],[-123.48609,37.38715],[-123.50347,37.37496]],"type":"LineString"}
}
