{
  "id": 2014440429,
  "type": "Feature",
  "properties": {
    "geom:area": 0,
    "geom:bbox": "-122.347340,36.732110,-121.885440,37.607100",
    "geom:latitude": 37.2256149787481,
    "geom:longitude": -122.06492507203436,
    "src:alt_label": "swim-approach",
    "src:geom": "swim",
    "swim:elevations": [
      4914,
      4646,
      4383,
      4223,
      4006,
      3713,
      3638,
      3309,
      3179,
      2952,
      2833,
      2703,
      2493,
      2346,
      2126,
      1982,
      1855,
      1693,
      1470,
      1370,
      1127,
      955,
      913,
      844,
      613,
      578,
      426,
      239,
      145,
      73
    ],
    "swim:geom": "approach",
    "swim:timestamps": [
      1767181356,
      1767181392,
      1767181428,
      1767181452,
      1767181484,
      1767181526,
      1767181536,
      1767181586,
      1767181604,
      1767181641,
      1767181661,
      1767181689,
      1767181722,
      1767181743,
      1767181792,
      1767181827,
      1767181852,
      1767181880,
      1767181915,
      1767181930,
      1767181968,
      1767182002,
      1767182022,
      1767182050,
      1767182094,
      1767182103,
      1767182137,
      1767182185,
      1767182210,
      1767182227
    ],
    "wof:geomhash": "72cc3428b074589814d28f5b4e4533a0",
    "wof:id": 2014440429,
    "wof:repo": "sfomuseum-data-flights-2025-12"
  },
  "bbox": [
    -122.34734,
    36.73211,
    -121.88544,
    37.6071
  ],
  "geometry": {"coordinates":[[-121.88544,36.73211],[-121.90651,36.78711],[-121.92243,36.84335],[-121.93267,36.87984],[-121.94667,36.92925],[-121.96927,36.99313],[-121.97543,37.00908],[-122.00391,37.08217],[-122.01449,37.10889],[-122.03412,37.15991],[-122.04446,37.18727],[-122.05887,37.22266],[-122.07492,37.26328],[-122.08488,37.28877],[-122.10761,37.34637],[-122.10829,37.38372],[-122.09935,37.40711],[-122.08932,37.43379],[-122.08022,37.46596],[-122.08737,37.47913],[-122.11528,37.50736],[-122.14945,37.52382],[-122.16877,37.532],[-122.19679,37.54376],[-122.24005,37.562],[-122.24787,37.56527],[-122.27651,37.57728],[-122.31542,37.59353],[-122.33473,37.60172],[-122.34734,37.6071]],"type":"LineString"}
}
