{
  "id": 2014408691,
  "type": "Feature",
  "properties": {
    "geom:area": 0,
    "geom:bbox": "-122.347180,37.491150,-121.256490,37.609350",
    "geom:latitude": 37.54191391183719,
    "geom:longitude": -121.80850071311079,
    "src:alt_label": "swim-approach",
    "src:geom": "swim",
    "swim:elevations": [
      4504,
      4156,
      3920,
      3661,
      3587,
      3436,
      3189,
      3075,
      2867,
      2681,
      2441,
      2376,
      2315,
      2105,
      2019,
      1944,
      1848,
      1829,
      1738,
      1496,
      1221,
      1187,
      1089,
      870,
      670,
      626,
      384,
      314,
      174,
      79
    ],
    "swim:geom": "approach",
    "swim:timestamps": [
      1766824522,
      1766824558,
      1766824585,
      1766824618,
      1766824627,
      1766824658,
      1766824705,
      1766824731,
      1766824764,
      1766824786,
      1766824820,
      1766824832,
      1766824875,
      1766824919,
      1766824940,
      1766824955,
      1766824976,
      1766824998,
      1766825020,
      1766825046,
      1766825094,
      1766825119,
      1766825141,
      1766825174,
      1766825207,
      1766825221,
      1766825266,
      1766825284,
      1766825326,
      1766825349
    ],
    "wof:geomhash": "b57829af2992a29c9356bf50aa987aac",
    "wof:id": 2014408691,
    "wof:repo": "sfomuseum-data-flights-2025-12"
  },
  "bbox": [
    -122.34718,
    37.49115,
    -121.25649,
    37.60935
  ],
  "geometry": {"coordinates":[[-121.25649,37.59347],[-121.32906,37.58434],[-121.38017,37.57861],[-121.43751,37.57235],[-121.45306,37.57063],[-121.50368,37.56487],[-121.57691,37.55634],[-121.61605,37.55185],[-121.66517,37.541],[-121.69753,37.53324],[-121.74516,37.52195],[-121.76202,37.51797],[-121.82185,37.50362],[-121.88122,37.49115],[-121.91132,37.49302],[-121.93157,37.49417],[-121.96086,37.49583],[-121.98944,37.49742],[-122.0187,37.4991],[-122.0528,37.50104],[-122.11411,37.51166],[-122.14213,37.52308],[-122.16647,37.53324],[-122.20209,37.54825],[-122.23475,37.5621],[-122.24783,37.56756],[-122.28731,37.58417],[-122.3013,37.59007],[-122.33081,37.6025],[-122.34718,37.60935]],"type":"LineString"}
}
