{
  "id": 2014414629,
  "type": "Feature",
  "properties": {
    "geom:area": 0,
    "geom:bbox": "-122.355290,37.491470,-121.316320,37.612710",
    "geom:latitude": 37.54373934146377,
    "geom:longitude": -121.84034874602246,
    "src:alt_label": "swim-approach",
    "src:geom": "swim",
    "swim:elevations": [
      4382,
      4099,
      4035,
      3645,
      3410,
      3183,
      3126,
      2861,
      2699,
      2598,
      2404,
      2303,
      2194,
      2135,
      1860,
      1827,
      1533,
      1420,
      1200,
      915,
      847,
      703,
      624,
      549,
      468,
      335,
      134,
      28
    ],
    "swim:geom": "approach",
    "swim:timestamps": [
      1766919177,
      1766919209,
      1766919218,
      1766919263,
      1766919295,
      1766919324,
      1766919333,
      1766919387,
      1766919415,
      1766919430,
      1766919470,
      1766919498,
      1766919524,
      1766919547,
      1766919596,
      1766919602,
      1766919655,
      1766919684,
      1766919716,
      1766919746,
      1766919758,
      1766919795,
      1766919810,
      1766919855,
      1766919871,
      1766919900,
      1766919951,
      1766919977
    ],
    "wof:geomhash": "d5562c4958a2065abb684b89415aa1d2",
    "wof:id": 2014414629,
    "wof:repo": "sfomuseum-data-flights-2025-12"
  },
  "bbox": [
    -122.35529,
    37.49147,
    -121.31632,
    37.61271
  ],
  "geometry": {"coordinates":[[-121.31632,37.58614],[-121.37687,37.57951],[-121.39485,37.57742],[-121.48049,37.56743],[-121.53892,37.56063],[-121.58857,37.5549],[-121.60414,37.55313],[-121.68919,37.53528],[-121.73162,37.52514],[-121.75359,37.51989],[-121.81254,37.50587],[-121.85361,37.49599],[-121.89279,37.49147],[-121.92511,37.49231],[-121.98913,37.49585],[-121.99686,37.49816],[-122.06014,37.51824],[-122.09051,37.52811],[-122.12107,37.53776],[-122.14942,37.54685],[-122.16076,37.55074],[-122.19389,37.56145],[-122.20755,37.56584],[-122.25052,37.57976],[-122.26611,37.58463],[-122.29211,37.59204],[-122.33481,37.60468],[-122.35529,37.61271]],"type":"LineString"}
}
