{
  "id": 2014429999,
  "type": "Feature",
  "properties": {
    "geom:area": 0,
    "geom:bbox": "-122.526440,37.625500,-121.256120,38.009250",
    "geom:latitude": 37.86587824490545,
    "geom:longitude": -121.98591149745914,
    "src:alt_label": "swim-takeoff",
    "src:geom": "swim",
    "swim:elevations": [
      183,
      301,
      564,
      915,
      1186,
      1416,
      1888,
      2469,
      3160,
      3291,
      3434,
      3990,
      4283,
      4421,
      4788,
      4976,
      5288,
      5345,
      5473,
      5706,
      5808,
      6137,
      6284,
      6554,
      6616,
      6965,
      7071,
      7345,
      7399,
      7650
    ],
    "swim:geom": "takeoff",
    "swim:timestamps": [
      1767013373,
      1767013384,
      1767013419,
      1767013452,
      1767013484,
      1767013508,
      1767013543,
      1767013586,
      1767013642,
      1767013665,
      1767013685,
      1767013733,
      1767013763,
      1767013779,
      1767013822,
      1767013843,
      1767013881,
      1767013890,
      1767013906,
      1767013945,
      1767013956,
      1767014006,
      1767014021,
      1767014060,
      1767014071,
      1767014124,
      1767014144,
      1767014184,
      1767014194,
      1767014245
    ],
    "wof:geomhash": "f1b5cefe1fc21aa9c2198e0f545f28d2",
    "wof:id": 2014429999,
    "wof:repo": "sfomuseum-data-flights-2025-12"
  },
  "bbox": [
    -122.52644,
    37.6255,
    -121.25612,
    38.00925
  ],
  "geometry": {"coordinates":[[-122.39128,37.6255],[-122.40039,37.62927],[-122.43164,37.64253],[-122.468,37.65766],[-122.50733,37.67604],[-122.52381,37.70145],[-122.52644,37.74624],[-122.5177,37.80003],[-122.43997,37.83091],[-122.40183,37.83579],[-122.36721,37.84013],[-122.2792,37.85115],[-122.22605,37.85773],[-122.196,37.86148],[-122.11442,37.87147],[-122.07441,37.87641],[-122.00027,37.88544],[-121.98252,37.88761],[-121.95129,37.89141],[-121.87155,37.90103],[-121.84861,37.90381],[-121.7462,37.91608],[-121.71446,37.91987],[-121.63312,37.92948],[-121.60975,37.93229],[-121.49977,37.94523],[-121.4569,37.95024],[-121.37392,37.96619],[-121.35443,37.97314],[-121.25612,38.00925]],"type":"LineString"}
}
