{
  "id": 2014409609,
  "type": "Feature",
  "properties": {
    "geom:area": 0,
    "geom:bbox": "-122.341680,37.490320,-121.255990,37.606910",
    "geom:latitude": 37.54534851637004,
    "geom:longitude": -121.8033841808067,
    "src:alt_label": "swim-approach",
    "src:geom": "swim",
    "swim:elevations": [
      5065,
      4782,
      4666,
      4321,
      4062,
      3895,
      3535,
      3234,
      3136,
      3083,
      3055,
      2832,
      2705,
      2072,
      2011,
      1902,
      1774,
      1591,
      1436,
      1200,
      884,
      789,
      731,
      703,
      584,
      425,
      324,
      176,
      126
    ],
    "swim:geom": "approach",
    "swim:timestamps": [
      1766858916,
      1766858941,
      1766858952,
      1766858992,
      1766859020,
      1766859036,
      1766859079,
      1766859115,
      1766859138,
      1766859152,
      1766859168,
      1766859199,
      1766859216,
      1766859266,
      1766859284,
      1766859321,
      1766859356,
      1766859387,
      1766859408,
      1766859441,
      1766859477,
      1766859506,
      1766859524,
      1766859537,
      1766859564,
      1766859597,
      1766859612,
      1766859653,
      1766859666
    ],
    "wof:geomhash": "ab29ffb577d440ce71e07da62b2973a3",
    "wof:id": 2014409609,
    "wof:repo": "sfomuseum-data-flights-2025-12"
  },
  "bbox": [
    -122.34168,
    37.49032,
    -121.25599,
    37.60691
  ],
  "geometry": {"coordinates":[[-121.25599,37.59365],[-121.30677,37.58732],[-121.32915,37.58492],[-121.40908,37.57609],[-121.46369,37.56978],[-121.49581,37.56602],[-121.57817,37.55623],[-121.64751,37.5452],[-121.68783,37.5358],[-121.71193,37.53005],[-121.73798,37.52381],[-121.78653,37.51218],[-121.81319,37.50573],[-121.89138,37.49032],[-121.92061,37.4919],[-121.97612,37.49404],[-122.02269,37.50492],[-122.06068,37.51793],[-122.08587,37.52603],[-122.12411,37.53839],[-122.16512,37.55201],[-122.19531,37.56193],[-122.21433,37.56767],[-122.22721,37.57191],[-122.25529,37.58088],[-122.28602,37.58975],[-122.2985,37.59355],[-122.33205,37.60352],[-122.34168,37.60691]],"type":"LineString"}
}
