{
  "id": 2014413751,
  "type": "Feature",
  "properties": {
    "geom:area": 0,
    "geom:bbox": "-122.362190,37.634860,-121.250200,37.966910",
    "geom:latitude": 37.851770146751846,
    "geom:longitude": -121.83452796251044,
    "src:alt_label": "swim-takeoff",
    "src:geom": "swim",
    "swim:elevations": [
      305,
      732,
      820,
      1241,
      1400,
      1686,
      2235,
      2492,
      3198,
      3385,
      3566,
      3956,
      4432,
      4526,
      4751,
      5040,
      5307,
      5658,
      5973,
      6179,
      6335,
      6591,
      6618,
      7124,
      7165
    ],
    "swim:geom": "takeoff",
    "swim:timestamps": [
      1766826350,
      1766826381,
      1766826390,
      1766826438,
      1766826460,
      1766826483,
      1766826520,
      1766826540,
      1766826583,
      1766826614,
      1766826640,
      1766826682,
      1766826707,
      1766826711,
      1766826743,
      1766826772,
      1766826795,
      1766826835,
      1766826867,
      1766826886,
      1766826900,
      1766826925,
      1766826930,
      1766826988,
      1766826996
    ],
    "wof:geomhash": "6889e3461c65ee844960fefc2d3e39ae",
    "wof:id": 2014413751,
    "wof:repo": "sfomuseum-data-flights-2025-12"
  },
  "bbox": [
    -122.36219,
    37.63486,
    -121.2502,
    37.96691
  ],
  "geometry": {"coordinates":[[-122.36219,37.63486],[-122.33994,37.65111],[-122.33213,37.65516],[-122.28733,37.67959],[-122.26319,37.69475],[-122.24639,37.71797],[-122.22291,37.76089],[-122.2109,37.78364],[-122.16335,37.82244],[-122.10776,37.8268],[-122.05665,37.83071],[-121.97003,37.8448],[-121.91812,37.85394],[-121.9085,37.85559],[-121.84135,37.86656],[-121.7783,37.87854],[-121.72628,37.88823],[-121.63644,37.90364],[-121.56105,37.91597],[-121.51429,37.92359],[-121.48252,37.92877],[-121.4218,37.93865],[-121.4113,37.94039],[-121.26936,37.96372],[-121.2502,37.96691]],"type":"LineString"}
}
