{
  "id": 2014439307,
  "type": "Feature",
  "properties": {
    "geom:area": 0,
    "geom:bbox": "-122.351650,37.643480,-121.256140,37.955590",
    "geom:latitude": 37.81975573123736,
    "geom:longitude": -121.81145782771868,
    "src:alt_label": "swim-takeoff",
    "src:geom": "swim",
    "swim:elevations": [
      473,
      761,
      945,
      1055,
      1305,
      1793,
      2090,
      2746,
      3139,
      3296,
      3384,
      3651,
      3841,
      4118,
      4216,
      4303,
      4580,
      4833,
      4981,
      5234,
      5460,
      5717,
      5943
    ],
    "swim:geom": "takeoff",
    "swim:timestamps": [
      1767112705,
      1767112731,
      1767112751,
      1767112771,
      1767112813,
      1767112851,
      1767112870,
      1767112914,
      1767112943,
      1767112967,
      1767112981,
      1767113026,
      1767113052,
      1767113081,
      1767113096,
      1767113111,
      1767113146,
      1767113176,
      1767113193,
      1767113224,
      1767113256,
      1767113287,
      1767113310
    ],
    "wof:geomhash": "af1a40dec8780991c6f9538bd5e29083",
    "wof:id": 2014439307,
    "wof:repo": "sfomuseum-data-flights-2025-12"
  },
  "bbox": [
    -122.35165,
    37.64348,
    -121.25614,
    37.95559
  ],
  "geometry": {"coordinates":[[-122.35165,37.64348],[-122.33078,37.6541],[-122.31458,37.66339],[-122.29684,37.67353],[-122.24837,37.7],[-122.19875,37.72578],[-122.17125,37.73802],[-122.10504,37.75485],[-122.0604,37.76542],[-122.01981,37.77473],[-121.99672,37.78012],[-121.91116,37.80048],[-121.85646,37.81366],[-121.79585,37.82832],[-121.76354,37.83599],[-121.73007,37.84385],[-121.65122,37.86253],[-121.58147,37.879],[-121.54113,37.88854],[-121.46523,37.90651],[-121.39,37.92428],[-121.31221,37.94258],[-121.25614,37.95559]],"type":"LineString"}
}
