{
  "id": 2014443393,
  "type": "Feature",
  "properties": {
    "geom:area": 0,
    "geom:bbox": "-122.360980,37.462370,-121.243650,37.633500",
    "geom:latitude": 37.555824847158426,
    "geom:longitude": -121.82184691127901,
    "src:alt_label": "swim-approach",
    "src:geom": "swim",
    "swim:elevations": [
      4672,
      4430,
      4242,
      3979,
      3684,
      3450,
      3352,
      3353,
      3353,
      3353,
      3229,
      3117,
      3087,
      3047,
      3048,
      3049,
      2929,
      2826,
      2750,
      2410,
      2250,
      2138,
      2079,
      2072,
      1945,
      1831,
      1703,
      1491,
      1434,
      1292,
      1070,
      812,
      768,
      487,
      355,
      239,
      78,
      210
    ],
    "swim:geom": "approach",
    "swim:timestamps": [
      1767171945,
      1767171985,
      1767172008,
      1767172035,
      1767172069,
      1767172098,
      1767172136,
      1767172160,
      1767172171,
      1767172191,
      1767172228,
      1767172258,
      1767172274,
      1767172296,
      1767172343,
      1767172376,
      1767172400,
      1767172427,
      1767172446,
      1767172498,
      1767172520,
      1767172542,
      1767172556,
      1767172561,
      1767172585,
      1767172603,
      1767172639,
      1767172677,
      1767172692,
      1767172718,
      1767172752,
      1767172795,
      1767172801,
      1767172853,
      1767172881,
      1767172906,
      1767172945,
      1767172962
    ],
    "wof:geomhash": "91d18c327984679816e06d7cc5b2330c",
    "wof:id": 2014443393,
    "wof:repo": "sfomuseum-data-flights-2025-12"
  },
  "bbox": [
    -122.36098,
    37.46237,
    -121.24365,
    37.6335
  ],
  "geometry": {"coordinates":[[-121.24365,37.59527],[-121.32178,37.58565],[-121.36443,37.58104],[-121.41359,37.5755],[-121.47372,37.56854],[-121.52442,37.56261],[-121.58976,37.55488],[-121.62607,37.55002],[-121.64406,37.54952],[-121.67066,37.55963],[-121.71202,37.59262],[-121.74654,37.6181],[-121.77022,37.62404],[-121.80301,37.62744],[-121.87135,37.6335],[-121.90606,37.61225],[-121.91145,37.58635],[-121.91438,37.55809],[-121.90556,37.54061],[-121.85989,37.50362],[-121.86007,37.48136],[-121.88048,37.46676],[-121.90118,37.46424],[-121.90692,37.46406],[-121.94238,37.46323],[-121.96775,37.46237],[-122.01936,37.47069],[-122.07006,37.49237],[-122.0883,37.50012],[-122.12126,37.51408],[-122.16227,37.53143],[-122.21267,37.55274],[-122.21927,37.55553],[-122.27311,37.57826],[-122.29916,37.58919],[-122.31966,37.59766],[-122.34851,37.60984],[-122.36098,37.61569]],"type":"LineString"}
}
