{
  "id": 2014422369,
  "type": "Feature",
  "properties": {
    "geom:area": 0,
    "geom:bbox": "-122.439220,36.721970,-121.306260,37.684450",
    "geom:latitude": 37.18701275718786,
    "geom:longitude": -121.97713939526662,
    "src:alt_label": "swim-takeoff",
    "src:geom": "swim",
    "swim:elevations": [
      122,
      244,
      939,
      1111,
      1335,
      1506,
      1947,
      2342,
      2688,
      3016,
      3172,
      3380,
      3585,
      3662,
      4311,
      4536,
      4736,
      4936,
      5323,
      5455,
      5793,
      6027,
      6284,
      6306,
      6401,
      6401,
      6401,
      6401,
      6401,
      6401
    ],
    "swim:geom": "takeoff",
    "swim:timestamps": [
      1766916384,
      1766916393,
      1766916447,
      1766916470,
      1766916500,
      1766916533,
      1766916565,
      1766916594,
      1766916618,
      1766916644,
      1766916666,
      1766916702,
      1766916741,
      1766916750,
      1766916808,
      1766916836,
      1766916860,
      1766916883,
      1766916925,
      1766916947,
      1766916985,
      1766917016,
      1766917047,
      1766917050,
      1766917090,
      1766917135,
      1766917166,
      1766917193,
      1766917227,
      1766917257
    ],
    "wof:geomhash": "d13847341c7605b340c3bf222f607954",
    "wof:id": 2014422369,
    "wof:repo": "sfomuseum-data-flights-2025-12"
  },
  "bbox": [
    -122.43922,
    36.72197,
    -121.30626,
    37.68445
  ],
  "geometry": {"coordinates":[[-122.36986,37.62764],[-122.36633,37.63364],[-122.3679,37.67279],[-122.38648,37.68224],[-122.41828,37.68445],[-122.43922,37.65294],[-122.43469,37.6106],[-122.42982,37.57231],[-122.4258,37.54003],[-122.42133,37.5039],[-122.41806,37.473],[-122.39695,37.4187],[-122.33019,37.37765],[-122.31342,37.36746],[-122.20876,37.30101],[-122.15684,37.26791],[-122.11118,37.23893],[-122.06626,37.21049],[-121.98421,37.15824],[-121.94046,37.1304],[-121.86503,37.08228],[-121.80249,37.04221],[-121.73948,37.00186],[-121.73334,36.99791],[-121.65112,36.945],[-121.55841,36.88531],[-121.49413,36.84382],[-121.43813,36.80773],[-121.36952,36.76316],[-121.30626,36.72197]],"type":"LineString"}
}
