{
  "id": 2014413847,
  "type": "Feature",
  "properties": {
    "geom:area": 0,
    "geom:bbox": "-123.503750,37.596420,-122.394920,37.703010",
    "geom:latitude": 37.6425030810162,
    "geom:longitude": -122.93782285544505,
    "src:alt_label": "swim-takeoff",
    "src:geom": "swim",
    "swim:elevations": [
      183,
      538,
      676,
      979,
      1184,
      1281,
      1703,
      2051,
      2464,
      3110,
      3151,
      3335,
      3595,
      3819,
      4042,
      4557,
      4849,
      5174,
      5403,
      5491,
      5816,
      5952
    ],
    "swim:geom": "takeoff",
    "swim:timestamps": [
      1766837933,
      1766837960,
      1766837972,
      1766838014,
      1766838055,
      1766838069,
      1766838113,
      1766838138,
      1766838174,
      1766838234,
      1766838246,
      1766838276,
      1766838318,
      1766838344,
      1766838367,
      1766838415,
      1766838444,
      1766838478,
      1766838504,
      1766838520,
      1766838559,
      1766838573
    ],
    "wof:geomhash": "0498a2a8eb800074df56fbf79542540a",
    "wof:id": 2014413847,
    "wof:repo": "sfomuseum-data-flights-2025-12"
  },
  "bbox": [
    -123.50375,
    37.59642,
    -122.39492,
    37.70301
  ],
  "geometry": {"coordinates":[[-122.39492,37.62708],[-122.42015,37.63783],[-122.43096,37.64277],[-122.47076,37.65983],[-122.51946,37.65918],[-122.5323,37.646],[-122.56812,37.60148],[-122.60744,37.59642],[-122.66533,37.60177],[-122.76254,37.61091],[-122.78359,37.6127],[-122.83971,37.61725],[-122.92449,37.6242],[-122.98061,37.63042],[-123.03002,37.63691],[-123.1356,37.65129],[-123.20233,37.66086],[-123.27957,37.67172],[-123.3401,37.68025],[-123.37742,37.68551],[-123.46932,37.69824],[-123.50375,37.70301]],"type":"LineString"}
}
