{
  "id": 2014435747,
  "type": "Feature",
  "properties": {
    "geom:area": 0,
    "geom:bbox": "-123.492170,36.833730,-122.070710,37.609080",
    "geom:latitude": 37.26156905753589,
    "geom:longitude": -122.70386824024959,
    "src:alt_label": "swim-approach",
    "src:geom": "swim",
    "swim:elevations": [
      5974,
      5709,
      5300,
      5090,
      4757,
      4308,
      4003,
      3702,
      3415,
      3116,
      3047,
      3048,
      3048,
      2873,
      2774,
      2528,
      2437,
      2438,
      2438,
      2438,
      2438,
      2438,
      2438,
      2442,
      2438,
      2386,
      2230,
      2001,
      1760,
      1602,
      1368,
      1219,
      1219,
      1200,
      1077,
      876,
      688,
      623,
      435,
      218,
      169,
      86
    ],
    "swim:geom": "approach",
    "swim:timestamps": [
      1767159410,
      1767159433,
      1767159475,
      1767159497,
      1767159529,
      1767159568,
      1767159598,
      1767159628,
      1767159655,
      1767159685,
      1767159703,
      1767159725,
      1767159755,
      1767159806,
      1767159827,
      1767159864,
      1767159883,
      1767159907,
      1767159945,
      1767159985,
      1767160018,
      1767160042,
      1767160072,
      1767160091,
      1767160124,
      1767160144,
      1767160177,
      1767160213,
      1767160251,
      1767160269,
      1767160309,
      1767160348,
      1767160357,
      1767160402,
      1767160427,
      1767160460,
      1767160493,
      1767160501,
      1767160537,
      1767160586,
      1767160601,
      1767160622
    ],
    "wof:geomhash": "2d4072160c4887f099044abaf62e601d",
    "wof:id": 2014435747,
    "wof:repo": "sfomuseum-data-flights-2025-12"
  },
  "bbox": [
    -123.49217,
    36.83373,
    -122.07071,
    37.60908
  ],
  "geometry": {"coordinates":[[-123.49217,36.83373],[-123.44807,36.86393],[-123.36894,36.91657],[-123.32792,36.94494],[-123.26774,36.98595],[-123.19819,37.03273],[-123.14562,37.068],[-123.09411,37.1027],[-123.04803,37.13372],[-122.99777,37.16761],[-122.96827,37.18743],[-122.93477,37.20996],[-122.88987,37.23988],[-122.80478,37.27144],[-122.77008,37.27958],[-122.70895,37.29349],[-122.67816,37.30075],[-122.6397,37.30972],[-122.57915,37.32393],[-122.51531,37.33871],[-122.46277,37.35076],[-122.42455,37.35959],[-122.37688,37.37055],[-122.34767,37.37729],[-122.29911,37.3884],[-122.26948,37.39518],[-122.222,37.40604],[-122.17268,37.41708],[-122.12681,37.42678],[-122.10552,37.4307],[-122.07071,37.45418],[-122.09158,37.48761],[-122.09819,37.49469],[-122.1403,37.52301],[-122.16697,37.53313],[-122.20104,37.548],[-122.23518,37.56194],[-122.24445,37.56615],[-122.28012,37.58096],[-122.32038,37.59797],[-122.33097,37.60261],[-122.34658,37.60908]],"type":"LineString"}
}
