{
  "id": 2014439317,
  "type": "Feature",
  "properties": {
    "geom:area": 0,
    "geom:bbox": "-122.448670,37.214870,-121.256290,37.710990",
    "geom:latitude": 37.407976589255554,
    "geom:longitude": -121.9677868029547,
    "src:alt_label": "swim-takeoff",
    "src:geom": "swim",
    "swim:elevations": [
      152,
      333,
      498,
      908,
      1069,
      1181,
      1516,
      1571,
      1874,
      2004,
      2869,
      3084,
      3358,
      3651,
      3952,
      4218,
      4488,
      4869,
      5127,
      5334,
      5738,
      5875,
      6159,
      6322,
      6676,
      6853,
      7048,
      7119,
      7425,
      7568,
      7804,
      8080
    ],
    "swim:geom": "takeoff",
    "swim:timestamps": [
      1767091512,
      1767091525,
      1767091537,
      1767091580,
      1767091603,
      1767091630,
      1767091677,
      1767091682,
      1767091702,
      1767091711,
      1767091768,
      1767091786,
      1767091819,
      1767091857,
      1767091885,
      1767091911,
      1767091938,
      1767091972,
      1767091998,
      1767092019,
      1767092067,
      1767092078,
      1767092108,
      1767092130,
      1767092185,
      1767092210,
      1767092241,
      1767092250,
      1767092290,
      1767092313,
      1767092348,
      1767092396
    ],
    "wof:geomhash": "a0591271e337d7d6f0ca4f4358d1f92d",
    "wof:id": 2014439317,
    "wof:repo": "sfomuseum-data-flights-2025-12"
  },
  "bbox": [
    -122.44867,
    37.21487,
    -121.25629,
    37.71099
  ],
  "geometry": {"coordinates":[[-122.36767,37.63114],[-122.36345,37.64019],[-122.36248,37.64971],[-122.36229,37.68605],[-122.37467,37.70341],[-122.40582,37.71099],[-122.44239,37.67272],[-122.44335,37.66683],[-122.44706,37.64236],[-122.44867,37.63147],[-122.43759,37.56296],[-122.42628,37.54242],[-122.40534,37.5031],[-122.3699,37.45673],[-122.32031,37.44604],[-122.27238,37.43708],[-122.22225,37.42651],[-122.15738,37.41243],[-122.10717,37.40148],[-122.06615,37.39265],[-121.96974,37.37183],[-121.94719,37.36704],[-121.88734,37.3539],[-121.84233,37.34404],[-121.7274,37.31903],[-121.67323,37.30711],[-121.60576,37.29225],[-121.58645,37.28801],[-121.49966,37.26889],[-121.44775,37.25743],[-121.36751,37.23935],[-121.25629,37.21487]],"type":"LineString"}
}
