{
  "id": 2014411583,
  "type": "Feature",
  "properties": {
    "geom:area": 0,
    "geom:bbox": "-122.463690,37.628940,-122.363680,37.715670",
    "geom:latitude": 37.685696496889946,
    "geom:longitude": -122.40446748268916,
    "src:alt_label": "swim-takeoff",
    "src:geom": "swim",
    "swim:elevations": [
      152,
      327,
      535,
      1080,
      1481,
      1752,
      2340
    ],
    "swim:geom": "takeoff",
    "swim:timestamps": [
      1766906636,
      1766906650,
      1766906673,
      1766906728,
      1766906758,
      1766906779,
      1766906813
    ],
    "wof:geomhash": "0810f8143f8aec5b81408fceb7111ed5",
    "wof:id": 2014411583,
    "wof:repo": "sfomuseum-data-flights-2025-12"
  },
  "bbox": [
    -122.46369,
    37.62894,
    -122.36368,
    37.71567
  ],
  "geometry": {"coordinates":[[-122.36908,37.62894],[-122.36448,37.63892],[-122.36368,37.65701],[-122.37628,37.70736],[-122.4182,37.71567],[-122.44564,37.69978],[-122.46369,37.65607]],"type":"LineString"}
}
