{
  "id": 2014417123,
  "type": "Feature",
  "properties": {
    "geom:area": 0,
    "geom:bbox": "-122.360000,37.492160,-121.249280,37.615900",
    "geom:latitude": 37.546571414107234,
    "geom:longitude": -121.80982005028591,
    "src:alt_label": "swim-approach",
    "src:geom": "swim",
    "swim:elevations": [
      4584,
      4431,
      4117,
      3977,
      3555,
      3229,
      3140,
      3084,
      2711,
      2530,
      2438,
      2438,
      2206,
      2011,
      1956,
      1828,
      1451,
      1317,
      1126,
      1020,
      914,
      788,
      654,
      503,
      385,
      287,
      153,
      252
    ],
    "swim:geom": "approach",
    "swim:timestamps": [
      1766911645,
      1766911662,
      1766911696,
      1766911712,
      1766911756,
      1766911796,
      1766911816,
      1766911831,
      1766911877,
      1766911893,
      1766911948,
      1766911952,
      1766911994,
      1766912035,
      1766912043,
      1766912081,
      1766912125,
      1766912145,
      1766912177,
      1766912207,
      1766912243,
      1766912274,
      1766912302,
      1766912333,
      1766912358,
      1766912383,
      1766912418,
      1766912455
    ],
    "wof:geomhash": "4596fbc6db8faf2d4b22787bbe14cee3",
    "wof:id": 2014417123,
    "wof:repo": "sfomuseum-data-flights-2025-12"
  },
  "bbox": [
    -122.36,
    37.49216,
    -121.24928,
    37.6159
  ],
  "geometry": {"coordinates":[[-121.24928,37.59389],[-121.28232,37.58944],[-121.34875,37.58182],[-121.37851,37.57855],[-121.46475,37.56894],[-121.54058,37.56004],[-121.5768,37.55571],[-121.60275,37.55271],[-121.68004,37.53676],[-121.70492,37.53078],[-121.79111,37.5107],[-121.79687,37.50935],[-121.85856,37.49466],[-121.91836,37.49216],[-121.93019,37.49238],[-121.98305,37.49398],[-122.03876,37.51131],[-122.06466,37.51964],[-122.10298,37.53204],[-122.13769,37.54323],[-122.17624,37.55575],[-122.20597,37.5654],[-122.23303,37.57415],[-122.26254,37.58363],[-122.28474,37.59002],[-122.3042,37.59572],[-122.33254,37.60414],[-122.36,37.6159]],"type":"LineString"}
}
