{
  "id": 2014427955,
  "type": "Feature",
  "properties": {
    "geom:area": 0,
    "geom:bbox": "-122.360300,37.636010,-121.250270,38.422460",
    "geom:latitude": 38.03370963790956,
    "geom:longitude": -121.80964780241302,
    "src:alt_label": "swim-takeoff",
    "src:geom": "swim",
    "swim:elevations": [
      314,
      492,
      990,
      1100,
      1289,
      1404,
      1518,
      1735,
      1957,
      2369,
      2694,
      3034,
      3170,
      3407,
      3830,
      4117,
      4287,
      4580,
      4707,
      4788,
      5018,
      5307,
      5508,
      5708,
      5830,
      5938,
      6260,
      6464,
      6551,
      6720,
      6870,
      7069
    ],
    "swim:geom": "takeoff",
    "swim:timestamps": [
      1767027415,
      1767027428,
      1767027475,
      1767027496,
      1767027527,
      1767027543,
      1767027564,
      1767027592,
      1767027619,
      1767027654,
      1767027677,
      1767027703,
      1767027723,
      1767027768,
      1767027809,
      1767027833,
      1767027851,
      1767027883,
      1767027897,
      1767027905,
      1767027938,
      1767027973,
      1767028012,
      1767028039,
      1767028051,
      1767028062,
      1767028103,
      1767028134,
      1767028148,
      1767028181,
      1767028209,
      1767028245
    ],
    "wof:geomhash": "c8ef7ce49387fa80701ca23b0efb64b4",
    "wof:id": 2014427955,
    "wof:repo": "sfomuseum-data-flights-2025-12"
  },
  "bbox": [
    -122.3603,
    37.63601,
    -121.25027,
    38.42246
  ],
  "geometry": {"coordinates":[[-122.3603,37.63601],[-122.35152,37.64227],[-122.31814,37.66136],[-122.30218,37.6705],[-122.27549,37.68572],[-122.25899,37.69473],[-122.2364,37.70627],[-122.20682,37.72699],[-122.18116,37.75472],[-122.14819,37.79125],[-122.12384,37.81372],[-122.09292,37.8362],[-122.06793,37.85417],[-122.00734,37.89769],[-121.94906,37.93955],[-121.91336,37.96507],[-121.88764,37.98347],[-121.83965,38.01772],[-121.81855,38.03282],[-121.80692,38.04104],[-121.75696,38.07664],[-121.70154,38.11597],[-121.63918,38.16025],[-121.59543,38.19123],[-121.57713,38.20414],[-121.55918,38.21682],[-121.4926,38.26387],[-121.44339,38.29856],[-121.42062,38.31463],[-121.36472,38.35179],[-121.31413,38.38279],[-121.25027,38.42246]],"type":"LineString"}
}
