{
  "id": 2014447327,
  "type": "Feature",
  "properties": {
    "geom:area": 0,
    "geom:bbox": "-123.472610,37.420610,-122.398170,37.671780",
    "geom:latitude": 37.55877371778224,
    "geom:longitude": -122.93347110603901,
    "src:alt_label": "swim-takeoff",
    "src:geom": "swim",
    "swim:elevations": [
      183,
      646,
      879,
      1113,
      1231,
      1572,
      1921,
      2092,
      2646,
      3241,
      3453,
      3841,
      4210,
      4454,
      4783,
      4876,
      5380,
      5617,
      6156,
      6449,
      6931,
      7083
    ],
    "swim:geom": "takeoff",
    "swim:timestamps": [
      1767174135,
      1767174170,
      1767174192,
      1767174224,
      1767174233,
      1767174254,
      1767174276,
      1767174290,
      1767174318,
      1767174357,
      1767174384,
      1767174415,
      1767174443,
      1767174461,
      1767174505,
      1767174513,
      1767174551,
      1767174572,
      1767174618,
      1767174641,
      1767174683,
      1767174696
    ],
    "wof:geomhash": "82f9f2734bef04ce2157fe0e4e674ab2",
    "wof:id": 2014447327,
    "wof:repo": "sfomuseum-data-flights-2025-12"
  },
  "bbox": [
    -123.47261,
    37.42061,
    -122.39817,
    37.67178
  ],
  "geometry": {"coordinates":[[-122.39817,37.62858],[-122.43301,37.64371],[-122.45778,37.6546],[-122.49951,37.671],[-122.51366,37.67178],[-122.54649,37.66567],[-122.58083,37.6562],[-122.60248,37.6501],[-122.64824,37.63761],[-122.70922,37.62098],[-122.75718,37.60846],[-122.81722,37.59282],[-122.87264,37.57835],[-122.90979,37.56855],[-123.00609,37.5438],[-123.02475,37.53897],[-123.11462,37.51569],[-123.1647,37.50249],[-123.27536,37.47314],[-123.33314,37.45785],[-123.43973,37.42939],[-123.47261,37.42061]],"type":"LineString"}
}
