{
  "id": 2014429861,
  "type": "Feature",
  "properties": {
    "geom:area": 0,
    "geom:bbox": "-122.385630,37.637780,-121.474720,38.490690",
    "geom:latitude": 38.11183099431873,
    "geom:longitude": -122.03116542771053,
    "src:alt_label": "swim-takeoff",
    "src:geom": "swim",
    "swim:elevations": [
      338,
      706,
      819,
      1071,
      1283,
      1692,
      2094,
      2436,
      2734,
      3174,
      3297,
      3506,
      3597,
      3886,
      4271,
      4501,
      4769,
      5214,
      5437,
      5453,
      5598,
      5787,
      5900,
      6265,
      6514,
      6802,
      6866,
      7016,
      7099,
      7255
    ],
    "swim:geom": "takeoff",
    "swim:timestamps": [
      1767051228,
      1767051261,
      1767051282,
      1767051328,
      1767051344,
      1767051374,
      1767051409,
      1767051445,
      1767051469,
      1767051503,
      1767051522,
      1767051558,
      1767051573,
      1767051620,
      1767051651,
      1767051671,
      1767051698,
      1767051743,
      1767051777,
      1767051781,
      1767051806,
      1767051828,
      1767051843,
      1767051880,
      1767051905,
      1767051952,
      1767051961,
      1767051991,
      1767052003,
      1767052025
    ],
    "wof:geomhash": "fe338b3bfcc6e91cb323a16e00a0ee19",
    "wof:id": 2014429861,
    "wof:repo": "sfomuseum-data-flights-2025-12"
  },
  "bbox": [
    -122.38563,
    37.63778,
    -121.47472,
    38.49069
  ],
  "geometry": {"coordinates":[[-122.36051,37.63778],[-122.33969,37.65625],[-122.32402,37.6687],[-122.31553,37.71142],[-122.32592,37.72882],[-122.34464,37.76159],[-122.36496,37.80116],[-122.38559,37.84515],[-122.38563,37.87782],[-122.38328,37.92397],[-122.37038,37.94741],[-122.32034,37.98067],[-122.29687,37.99438],[-122.21948,38.04023],[-122.16616,38.07295],[-122.13116,38.09445],[-122.0843,38.12302],[-122.00468,38.17133],[-121.94315,38.20863],[-121.93694,38.21243],[-121.89157,38.23994],[-121.85066,38.26468],[-121.82251,38.28165],[-121.75108,38.32463],[-121.70553,38.35195],[-121.61527,38.40594],[-121.59803,38.41624],[-121.54057,38.4505],[-121.51711,38.46463],[-121.47472,38.49069]],"type":"LineString"}
}
