{
  "id": 2014443533,
  "type": "Feature",
  "properties": {
    "geom:area": 0,
    "geom:bbox": "-123.452470,37.452620,-122.099430,38.419860",
    "geom:latitude": 37.86984954543533,
    "geom:longitude": -122.68096127253293,
    "src:alt_label": "swim-approach",
    "src:geom": "swim",
    "swim:elevations": [
      8473,
      8077,
      7650,
      7437,
      7114,
      6925,
      6607,
      6467,
      5937,
      5906,
      5590,
      5508,
      5228,
      4928,
      4597,
      4304,
      4298,
      4129,
      4011,
      3797,
      3670,
      3522,
      3353,
      3353,
      3353,
      3353,
      3353,
      3272,
      3191,
      2942,
      2787,
      2664,
      2574,
      2374,
      2252,
      2082,
      1982,
      1671,
      1614,
      1435,
      1330,
      1189,
      1181,
      1063,
      875,
      735,
      456,
      361,
      267,
      186,
      92,
      0
    ],
    "swim:geom": "approach",
    "swim:timestamps": [
      1767247548,
      1767247582,
      1767247618,
      1767247646,
      1767247677,
      1767247696,
      1767247727,
      1767247742,
      1767247790,
      1767247793,
      1767247826,
      1767247833,
      1767247861,
      1767247890,
      1767247929,
      1767247956,
      1767247983,
      1767248021,
      1767248037,
      1767248063,
      1767248082,
      1767248103,
      1767248147,
      1767248180,
      1767248215,
      1767248224,
      1767248240,
      1767248264,
      1767248285,
      1767248325,
      1767248346,
      1767248364,
      1767248376,
      1767248403,
      1767248421,
      1767248442,
      1767248460,
      1767248511,
      1767248520,
      1767248559,
      1767248593,
      1767248635,
      1767248659,
      1767248683,
      1767248714,
      1767248736,
      1767248786,
      1767248810,
      1767248828,
      1767248846,
      1767248867,
      1767248894
    ],
    "wof:geomhash": "d6bdad713512e24d162f8f37b330b9ed",
    "wof:id": 2014443533,
    "wof:repo": "sfomuseum-data-flights-2025-12"
  },
  "bbox": [
    -123.45247,
    37.45262,
    -122.09943,
    38.41986
  ],
  "geometry": {"coordinates":[[-123.45247,38.41986],[-123.38639,38.37608],[-123.31733,38.33039],[-123.26406,38.29547],[-123.20767,38.2582],[-123.17214,38.23458],[-123.11659,38.19737],[-123.09167,38.18069],[-123.00693,38.12383],[-123.00177,38.12032],[-122.94555,38.08253],[-122.93517,38.07549],[-122.88741,38.04297],[-122.83963,38.01106],[-122.77802,37.97013],[-122.73427,37.94072],[-122.69347,37.91283],[-122.64528,37.87351],[-122.62538,37.85494],[-122.59574,37.82643],[-122.57469,37.80611],[-122.55018,37.78338],[-122.49947,37.73663],[-122.46578,37.70517],[-122.43411,37.67517],[-122.42731,37.66864],[-122.41398,37.6556],[-122.39395,37.63592],[-122.37644,37.61929],[-122.35167,37.58532],[-122.34197,37.56676],[-122.33339,37.55087],[-122.3272,37.54035],[-122.31324,37.51717],[-122.30338,37.50142],[-122.28428,37.48698],[-122.26067,37.48109],[-122.19406,37.46648],[-122.18271,37.46368],[-122.13317,37.45262],[-122.09943,37.472],[-122.11686,37.51035],[-122.14139,37.52311],[-122.16744,37.5328],[-122.2008,37.54736],[-122.22316,37.55705],[-122.27399,37.57839],[-122.29472,37.58735],[-122.31057,37.59381],[-122.32482,37.59997],[-122.341,37.60689],[-122.36109,37.61491]],"type":"LineString"}
}
