{
  "id": 2014417979,
  "type": "Feature",
  "properties": {
    "geom:area": 0,
    "geom:bbox": "-122.349220,37.491440,-121.258710,37.610180",
    "geom:latitude": 37.54576162372261,
    "geom:longitude": -121.8087038460114,
    "src:alt_label": "swim-approach",
    "src:geom": "swim",
    "swim:elevations": [
      4543,
      4250,
      3991,
      3583,
      3465,
      3147,
      3137,
      2925,
      2766,
      2593,
      2452,
      2306,
      2134,
      2017,
      1854,
      1657,
      1511,
      1267,
      1146,
      1005,
      767,
      748,
      523,
      424,
      340,
      239,
      174,
      61
    ],
    "swim:geom": "approach",
    "swim:timestamps": [
      1766910316,
      1766910345,
      1766910373,
      1766910418,
      1766910431,
      1766910472,
      1766910481,
      1766910525,
      1766910548,
      1766910574,
      1766910619,
      1766910642,
      1766910678,
      1766910703,
      1766910742,
      1766910773,
      1766910796,
      1766910838,
      1766910860,
      1766910888,
      1766910927,
      1766910935,
      1766910977,
      1766911001,
      1766911020,
      1766911046,
      1766911063,
      1766911087
    ],
    "wof:geomhash": "737b86ea6302325b261ab6fdd990b50b",
    "wof:id": 2014417979,
    "wof:repo": "sfomuseum-data-flights-2025-12"
  },
  "bbox": [
    -122.34922,
    37.49144,
    -121.25871,
    37.61018
  ],
  "geometry": {"coordinates":[[-121.25871,37.59327],[-121.316,37.5865],[-121.36922,37.58062],[-121.45489,37.57068],[-121.4805,37.56774],[-121.55808,37.55869],[-121.57448,37.5567],[-121.65261,37.54406],[-121.691,37.5351],[-121.73238,37.52503],[-121.80102,37.50859],[-121.83502,37.50051],[-121.88707,37.49144],[-121.92437,37.49218],[-121.98231,37.4944],[-122.02175,37.50564],[-122.05137,37.5152],[-122.10196,37.53159],[-122.12718,37.53982],[-122.1609,37.55077],[-122.20553,37.56536],[-122.21338,37.56787],[-122.25532,37.58139],[-122.27651,37.5873],[-122.29304,37.59222],[-122.31547,37.59804],[-122.33016,37.6023],[-122.34922,37.61018]],"type":"LineString"}
}
