{
  "id": 2014441103,
  "type": "Feature",
  "properties": {
    "geom:area": 0,
    "geom:bbox": "-123.506150,37.260820,-122.195040,37.611710",
    "geom:latitude": 37.376604334241776,
    "geom:longitude": -122.73563941575,
    "src:alt_label": "swim-approach",
    "src:geom": "swim",
    "swim:elevations": [
      5294,
      4866,
      4549,
      4698,
      4568,
      4191,
      3781,
      3469,
      3167,
      3105,
      3109,
      3113,
      2927,
      2760,
      2551,
      2440,
      2438,
      2438,
      2438,
      2438,
      2438,
      2438,
      2438,
      2438,
      2438,
      2416,
      2194,
      2025,
      1892,
      1828,
      1807,
      1733,
      1469,
      1276,
      1218,
      1198,
      1096,
      1015,
      975,
      548,
      460,
      288,
      160,
      120,
      51
    ],
    "swim:geom": "approach",
    "swim:timestamps": [
      1767171349,
      1767171376,
      1767171379,
      1767171409,
      1767171422,
      1767171461,
      1767171503,
      1767171535,
      1767171567,
      1767171597,
      1767171612,
      1767171633,
      1767171672,
      1767171699,
      1767171733,
      1767171766,
      1767171794,
      1767171817,
      1767171850,
      1767171878,
      1767171908,
      1767171955,
      1767171988,
      1767172014,
      1767172041,
      1767172059,
      1767172098,
      1767172127,
      1767172151,
      1767172171,
      1767172188,
      1767172203,
      1767172247,
      1767172283,
      1767172318,
      1767172333,
      1767172372,
      1767172403,
      1767172415,
      1767172464,
      1767172480,
      1767172520,
      1767172553,
      1767172561,
      1767172578
    ],
    "wof:geomhash": "61a837d66ae60f2cb71955ff9d93f64b",
    "wof:id": 2014441103,
    "wof:repo": "sfomuseum-data-flights-2025-12"
  },
  "bbox": [
    -123.50615,
    37.26082,
    -122.19504,
    37.61171
  ],
  "geometry": {"coordinates":[[-123.50615,37.45774],[-123.45,37.44043],[-123.44363,37.4386],[-123.38258,37.41963],[-123.35706,37.41169],[-123.27896,37.38753],[-123.19865,37.36245],[-123.13721,37.34341],[-123.0759,37.32427],[-123.02147,37.30729],[-122.99708,37.2997],[-122.96367,37.28913],[-122.90604,37.27103],[-122.86575,37.26082],[-122.81202,37.26924],[-122.76095,37.28137],[-122.71796,37.29178],[-122.68199,37.30024],[-122.63164,37.31193],[-122.59302,37.30994],[-122.55683,37.29878],[-122.50096,37.28157],[-122.46096,37.27172],[-122.43092,37.28458],[-122.42456,37.31463],[-122.43201,37.33507],[-122.44607,37.37936],[-122.42432,37.4044],[-122.39515,37.41015],[-122.36931,37.41332],[-122.34867,37.4158],[-122.32993,37.41826],[-122.27518,37.4254],[-122.23159,37.43182],[-122.20724,37.46016],[-122.20355,37.47675],[-122.19504,37.51756],[-122.19987,37.54576],[-122.20941,37.55254],[-122.25732,37.57152],[-122.27297,37.57819],[-122.30709,37.59246],[-122.33341,37.60355],[-122.33897,37.60589],[-122.3528,37.61171]],"type":"LineString"}
}
