{
  "id": 2014414165,
  "type": "Feature",
  "properties": {
    "geom:area": 0,
    "geom:bbox": "-123.336390,37.626750,-122.394330,38.516280",
    "geom:latitude": 38.02985941330605,
    "geom:longitude": -122.89890407857364,
    "src:alt_label": "swim-takeoff",
    "src:geom": "swim",
    "swim:elevations": [
      152,
      613,
      794,
      1060,
      1127,
      1413,
      1752,
      2211,
      2321,
      2419,
      2824,
      3015,
      3255,
      3331,
      3549,
      3687,
      4065,
      4291,
      4610,
      4849,
      4992,
      5174,
      5310,
      5444,
      5830,
      6049,
      6177,
      6492,
      6645
    ],
    "swim:geom": "takeoff",
    "swim:timestamps": [
      1766835620,
      1766835654,
      1766835676,
      1766835713,
      1766835733,
      1766835774,
      1766835797,
      1766835835,
      1766835844,
      1766835855,
      1766835888,
      1766835914,
      1766835958,
      1766835965,
      1766836003,
      1766836023,
      1766836064,
      1766836095,
      1766836129,
      1766836154,
      1766836171,
      1766836193,
      1766836213,
      1766836233,
      1766836286,
      1766836313,
      1766836336,
      1766836372,
      1766836408
    ],
    "wof:geomhash": "b70b4cfc3467d7e0b703f9577fc248cf",
    "wof:id": 2014414165,
    "wof:repo": "sfomuseum-data-flights-2025-12"
  },
  "bbox": [
    -123.33639,
    37.62675,
    -122.39433,
    38.51628
  ],
  "geometry": {"coordinates":[[-122.39433,37.62675],[-122.42624,37.64071],[-122.4478,37.65051],[-122.48561,37.66695],[-122.50725,37.67722],[-122.55573,37.70581],[-122.58452,37.72292],[-122.63064,37.75106],[-122.64255,37.75783],[-122.65738,37.76604],[-122.70039,37.7908],[-122.73487,37.81128],[-122.78493,37.85882],[-122.79165,37.86699],[-122.83188,37.91633],[-122.8546,37.94403],[-122.90192,37.99979],[-122.93854,38.0431],[-122.98029,38.09281],[-123.01126,38.12961],[-123.03204,38.15437],[-123.05933,38.18698],[-123.08427,38.21684],[-123.10874,38.24591],[-123.1772,38.32734],[-123.21135,38.36777],[-123.24146,38.40323],[-123.28889,38.45922],[-123.33639,38.51628]],"type":"LineString"}
}
