{
  "id": 2014435301,
  "type": "Feature",
  "properties": {
    "geom:area": 0,
    "geom:bbox": "-122.359210,36.761820,-121.898450,37.612180",
    "geom:latitude": 37.234264624871074,
    "geom:longitude": -122.07608999718711,
    "src:alt_label": "swim-approach",
    "src:geom": "swim",
    "swim:elevations": [
      4809,
      4461,
      4243,
      3905,
      3700,
      3483,
      3267,
      3150,
      3077,
      2989,
      2721,
      2527,
      2468,
      2026,
      1960,
      1739,
      1472,
      1292,
      1157,
      1048,
      779,
      579,
      398,
      306,
      209,
      126,
      49
    ],
    "swim:geom": "approach",
    "swim:timestamps": [
      1767095782,
      1767095818,
      1767095842,
      1767095878,
      1767095902,
      1767095929,
      1767095952,
      1767095987,
      1767096019,
      1767096039,
      1767096082,
      1767096109,
      1767096122,
      1767096177,
      1767096186,
      1767096219,
      1767096261,
      1767096282,
      1767096323,
      1767096346,
      1767096381,
      1767096408,
      1767096443,
      1767096462,
      1767096494,
      1767096513,
      1767096540
    ],
    "wof:geomhash": "eca0b6d130f29706d30020da2a316da8",
    "wof:id": 2014435301,
    "wof:repo": "sfomuseum-data-flights-2025-12"
  },
  "bbox": [
    -122.35921,
    36.76182,
    -121.89845,
    37.61218
  ],
  "geometry": {"coordinates":[[-121.89845,36.76182],[-121.91743,36.82507],[-121.92906,36.86647],[-121.94667,36.92956],[-121.95926,36.96784],[-121.97536,37.0093],[-121.98925,37.04496],[-122.00912,37.09561],[-122.02567,37.13795],[-122.03599,37.1646],[-122.05779,37.21999],[-122.07163,37.25495],[-122.07807,37.27157],[-122.10585,37.34229],[-122.11036,37.35375],[-122.11487,37.39582],[-122.11197,37.44954],[-122.1241,37.47444],[-122.16763,37.51152],[-122.19104,37.5308],[-122.22423,37.55513],[-122.25481,37.56793],[-122.28717,37.58156],[-122.30206,37.58786],[-122.3246,37.5975],[-122.33929,37.60373],[-122.35921,37.61218]],"type":"LineString"}
}
