{
  "id": 2014410397,
  "type": "Feature",
  "properties": {
    "geom:area": 0,
    "geom:bbox": "-122.364860,37.630670,-121.272090,38.114350",
    "geom:latitude": 37.888579271360584,
    "geom:longitude": -121.82635754664724,
    "src:alt_label": "swim-takeoff",
    "src:geom": "swim",
    "swim:elevations": [
      152,
      213,
      532,
      900,
      1357,
      1589,
      1965,
      2581,
      2900,
      3373,
      3503,
      3608,
      4234,
      4567,
      4838,
      5204,
      5596,
      5851,
      6000,
      6384,
      6552,
      6947,
      7265
    ],
    "swim:geom": "takeoff",
    "swim:timestamps": [
      1766840488,
      1766840493,
      1766840525,
      1766840568,
      1766840597,
      1766840618,
      1766840646,
      1766840681,
      1766840702,
      1766840757,
      1766840781,
      1766840791,
      1766840844,
      1766840873,
      1766840897,
      1766840925,
      1766840966,
      1766840988,
      1766841000,
      1766841042,
      1766841061,
      1766841109,
      1766841145
    ],
    "wof:geomhash": "c4b63b611df49be272978f7082f5922b",
    "wof:id": 2014410397,
    "wof:repo": "sfomuseum-data-flights-2025-12"
  },
  "bbox": [
    -122.36486,
    37.63067,
    -121.27209,
    38.11435
  ],
  "geometry": {"coordinates":[[-122.36486,37.63067],[-122.36258,37.63408],[-122.33702,37.65124],[-122.28957,37.67655],[-122.25606,37.69563],[-122.22912,37.70966],[-122.19301,37.72823],[-122.14551,37.75328],[-122.11857,37.76734],[-122.03988,37.80802],[-122.00057,37.82764],[-121.98338,37.83453],[-121.88443,37.87385],[-121.82862,37.89597],[-121.78337,37.91393],[-121.72671,37.93621],[-121.64729,37.96761],[-121.60184,37.98551],[-121.57737,37.99507],[-121.49228,38.02845],[-121.45269,38.04394],[-121.35118,38.0836],[-121.27209,38.11435]],"type":"LineString"}
}
