{
  "id": 2014427411,
  "type": "Feature",
  "properties": {
    "geom:area": 0,
    "geom:bbox": "-122.544120,36.727670,-121.256480,37.668130",
    "geom:latitude": 37.35048882111115,
    "geom:longitude": -121.92023650684848,
    "src:alt_label": "swim-takeoff",
    "src:geom": "swim",
    "swim:elevations": [
      4295,
      4248,
      3989,
      3763,
      3624,
      3575,
      3460,
      3227,
      3088,
      2953,
      2895,
      2725,
      2566,
      2273,
      2077,
      2004,
      1808,
      1431,
      1116,
      964,
      780,
      687,
      599,
      552,
      397,
      296,
      131,
      23,
      1,
      305,
      704,
      854,
      1061,
      1457,
      1704,
      1955,
      2549,
      2901,
      3165,
      3495,
      3628,
      3717,
      3938,
      4047,
      4395,
      4636,
      4869,
      5114,
      5401,
      5487,
      5653,
      5908,
      6049,
      6094,
      6257,
      6400,
      6655,
      6736,
      7002,
      7099,
      7365,
      7419
    ],
    "swim:geom": "takeoff",
    "swim:timestamps": [
      1766997856,
      1766997876,
      1766997911,
      1766997939,
      1766997971,
      1766997986,
      1766998015,
      1766998048,
      1766998066,
      1766998108,
      1766998126,
      1766998163,
      1766998183,
      1766998224,
      1766998251,
      1766998265,
      1766998292,
      1766998329,
      1766998372,
      1766998401,
      1766998436,
      1766998450,
      1766998471,
      1766998509,
      1766998545,
      1766998571,
      1766998609,
      1766998633,
      1767004997,
      1767005010,
      1767005057,
      1767005088,
      1767005108,
      1767005145,
      1767005168,
      1767005192,
      1767005240,
      1767005274,
      1767005296,
      1767005337,
      1767005356,
      1767005373,
      1767005421,
      1767005435,
      1767005479,
      1767005508,
      1767005532,
      1767005562,
      1767005599,
      1767005613,
      1767005657,
      1767005685,
      1767005704,
      1767005710,
      1767005739,
      1767005764,
      1767005812,
      1767005824,
      1767005877,
      1767005895,
      1767005937,
      1767005948
    ],
    "wof:geomhash": "c6861abe076c4f32c532b205940b373e",
    "wof:id": 2014427411,
    "wof:repo": "sfomuseum-data-flights-2025-12"
  },
  "bbox": [
    -122.54412,
    36.72767,
    -121.25648,
    37.66813
  ],
  "geometry": {"coordinates":[[-121.25648,37.5936],[-121.30066,37.58774],[-121.37835,37.57937],[-121.43873,37.57225],[-121.50446,37.56452],[-121.53382,37.56105],[-121.58851,37.55468],[-121.64794,37.54486],[-121.67911,37.53719],[-121.74859,37.52064],[-121.77643,37.51408],[-121.82989,37.50144],[-121.85763,37.49484],[-121.91549,37.49189],[-121.95331,37.49296],[-121.97281,37.49345],[-122.0069,37.50122],[-122.0525,37.51565],[-122.10479,37.53252],[-122.13849,37.54354],[-122.17704,37.55582],[-122.19266,37.56088],[-122.21373,37.56783],[-122.24956,37.57928],[-122.28262,37.58949],[-122.30454,37.59581],[-122.33754,37.6057],[-122.35729,37.61342],[-122.38506,37.62294],[-122.39708,37.62828],[-122.44118,37.64727],[-122.47734,37.66308],[-122.50469,37.66813],[-122.54412,37.64292],[-122.54099,37.61727],[-122.52697,37.58992],[-122.49733,37.5342],[-122.47464,37.49264],[-122.44832,37.47202],[-122.3928,37.43754],[-122.36675,37.42088],[-122.34155,37.40428],[-122.2648,37.35478],[-122.23959,37.33862],[-122.15593,37.30203],[-122.0959,37.28222],[-122.04615,37.26574],[-121.98201,37.24413],[-121.91426,37.20192],[-121.88933,37.18384],[-121.80951,37.12577],[-121.7598,37.08943],[-121.72562,37.06443],[-121.71371,37.05574],[-121.66206,37.01798],[-121.61494,36.98318],[-121.52712,36.91856],[-121.50476,36.90201],[-121.40342,36.82712],[-121.37063,36.80293],[-121.29034,36.74323],[-121.26938,36.72767]],"type":"LineString"}
}
