{
  "id": 2014443509,
  "type": "Feature",
  "properties": {
    "geom:area": 0,
    "geom:bbox": "-122.520620,36.735360,-121.886490,37.607200",
    "geom:latitude": 37.205887390245834,
    "geom:longitude": -122.24815133493385,
    "src:alt_label": "swim-approach",
    "src:geom": "swim",
    "swim:elevations": [
      5095,
      4893,
      4312,
      4077,
      3932,
      3728,
      3380,
      3314,
      3032,
      3048,
      3048,
      3048,
      3048,
      3048,
      2973,
      2741,
      2743,
      2743,
      2743,
      2743,
      2638,
      2436,
      2327,
      2235,
      2127,
      1975,
      1831,
      1829,
      1756,
      1552,
      1357,
      1262,
      1219,
      1003,
      915,
      796,
      793,
      750,
      618,
      443,
      339,
      241,
      89,
      62
    ],
    "swim:geom": "approach",
    "swim:timestamps": [
      1767171497,
      1767171517,
      1767171567,
      1767171593,
      1767171609,
      1767171630,
      1767171687,
      1767171696,
      1767171748,
      1767171766,
      1767171794,
      1767171838,
      1767171865,
      1767171874,
      1767171923,
      1767171955,
      1767171988,
      1767172014,
      1767172028,
      1767172062,
      1767172091,
      1767172130,
      1767172163,
      1767172174,
      1767172191,
      1767172212,
      1767172252,
      1767172271,
      1767172296,
      1767172343,
      1767172372,
      1767172385,
      1767172433,
      1767172467,
      1767172486,
      1767172508,
      1767172520,
      1767172556,
      1767172581,
      1767172618,
      1767172639,
      1767172673,
      1767172706,
      1767172712
    ],
    "wof:geomhash": "e01b6c2de6168a108cd1d14dac79279a",
    "wof:id": 2014443509,
    "wof:repo": "sfomuseum-data-flights-2025-12"
  },
  "bbox": [
    -122.52062,
    36.73536,
    -121.88649,
    37.6072
  ],
  "geometry": {"coordinates":[[-121.88649,36.73536],[-121.90093,36.76838],[-121.92538,36.85387],[-121.94069,36.89681],[-121.96146,36.91826],[-121.99926,36.93663],[-122.09984,36.97624],[-122.11471,36.98208],[-122.19931,37.01591],[-122.22717,37.02714],[-122.26672,37.04322],[-122.3275,37.06823],[-122.3643,37.08348],[-122.37602,37.08826],[-122.43928,37.12185],[-122.45604,37.16009],[-122.47165,37.19943],[-122.484,37.23042],[-122.49074,37.24697],[-122.50656,37.28655],[-122.52062,37.32121],[-122.518,37.36467],[-122.4786,37.37846],[-122.46373,37.3806],[-122.44277,37.38365],[-122.41598,37.38746],[-122.36642,37.39373],[-122.3419,37.39692],[-122.311,37.40099],[-122.25377,37.40888],[-122.21868,37.41374],[-122.20332,37.41597],[-122.16345,37.4471],[-122.15674,37.4807],[-122.16123,37.49971],[-122.17406,37.51772],[-122.18344,37.52778],[-122.21388,37.55153],[-122.23915,37.56151],[-122.2739,37.57615],[-122.29198,37.58334],[-122.31776,37.5948],[-122.34265,37.6051],[-122.34765,37.6072]],"type":"LineString"}
}
