{
  "id": 2014413753,
  "type": "Feature",
  "properties": {
    "geom:area": 0,
    "geom:bbox": "-122.358500,37.634740,-121.245900,37.965480",
    "geom:latitude": 37.84026316777374,
    "geom:longitude": -121.81646893759763,
    "src:alt_label": "swim-takeoff",
    "src:geom": "swim",
    "swim:elevations": [
      381,
      481,
      977,
      1068,
      1205,
      1288,
      1375,
      1429,
      1639,
      1807,
      2644,
      2898,
      3373,
      3552,
      3725,
      4183,
      4488,
      4804,
      5042,
      5424,
      5654,
      5871,
      6337,
      6405,
      6858,
      7072
    ],
    "swim:geom": "takeoff",
    "swim:timestamps": [
      1766871114,
      1766871120,
      1766871161,
      1766871178,
      1766871203,
      1766871219,
      1766871234,
      1766871243,
      1766871264,
      1766871276,
      1766871327,
      1766871342,
      1766871386,
      1766871414,
      1766871438,
      1766871476,
      1766871508,
      1766871536,
      1766871555,
      1766871596,
      1766871614,
      1766871639,
      1766871688,
      1766871694,
      1766871747,
      1766871774
    ],
    "wof:geomhash": "d3aa8d69dd7496be2c7012623a1470f1",
    "wof:id": 2014413753,
    "wof:repo": "sfomuseum-data-flights-2025-12"
  },
  "bbox": [
    -122.3585,
    37.63474,
    -121.2459,
    37.96548
  ],
  "geometry": {"coordinates":[[-122.3585,37.63474],[-122.35459,37.63754],[-122.32763,37.65383],[-122.31688,37.66022],[-122.29732,37.67206],[-122.28327,37.68056],[-122.26868,37.6893],[-122.25881,37.6948],[-122.23324,37.70809],[-122.21775,37.71606],[-122.15039,37.75087],[-122.13048,37.76121],[-122.07091,37.79196],[-122.02766,37.81445],[-121.98451,37.83032],[-121.90575,37.84455],[-121.83829,37.85724],[-121.77857,37.86842],[-121.73742,37.87596],[-121.6469,37.89268],[-121.60763,37.89988],[-121.55279,37.90995],[-121.44323,37.92981],[-121.43032,37.93214],[-121.3087,37.95419],[-121.2459,37.96548]],"type":"LineString"}
}
