{
  "id": 2014427393,
  "type": "Feature",
  "properties": {
    "geom:area": 0,
    "geom:bbox": "-122.450040,36.740070,-121.251580,37.711140",
    "geom:latitude": 37.23633724015913,
    "geom:longitude": -121.92004630146042,
    "src:alt_label": "swim-takeoff",
    "src:geom": "swim",
    "swim:elevations": [
      305,
      410,
      610,
      831,
      1085,
      1689,
      1818,
      2067,
      2422,
      2729,
      2777,
      3042,
      3206,
      3517,
      3687,
      3906,
      4278,
      4631,
      5007,
      5307,
      5639,
      5818,
      6300,
      6556,
      6696,
      6903,
      7036,
      7255,
      7364,
      7621,
      7620,
      7620,
      7620,
      7620,
      7620,
      7620,
      7620,
      7620
    ],
    "swim:geom": "takeoff",
    "swim:timestamps": [
      1767048772,
      1767048780,
      1767048804,
      1767048833,
      1767048855,
      1767048893,
      1767048902,
      1767048920,
      1767048943,
      1767048961,
      1767048964,
      1767048983,
      1767048999,
      1767049044,
      1767049064,
      1767049083,
      1767049112,
      1767049149,
      1767049184,
      1767049210,
      1767049249,
      1767049267,
      1767049317,
      1767049343,
      1767049361,
      1767049386,
      1767049402,
      1767049432,
      1767049450,
      1767049494,
      1767049514,
      1767049536,
      1767049542,
      1767049565,
      1767049602,
      1767049626,
      1767049676,
      1767049703
    ],
    "wof:geomhash": "7a466421da64365bda757f81a87e2e96",
    "wof:id": 2014427393,
    "wof:repo": "sfomuseum-data-flights-2025-12"
  },
  "bbox": [
    -122.45004,
    36.74007,
    -121.25158,
    37.71114
  ],
  "geometry": {"coordinates":[[-122.36064,37.63875],[-122.35994,37.64517],[-122.36088,37.66627],[-122.3677,37.69579],[-122.39291,37.71114],[-122.44224,37.69384],[-122.44674,37.68316],[-122.45004,37.66034],[-122.43768,37.63371],[-122.41749,37.61599],[-122.41423,37.61323],[-122.39406,37.59607],[-122.37635,37.58106],[-122.32204,37.5345],[-122.29555,37.51164],[-122.26956,37.48958],[-122.23073,37.45607],[-122.18079,37.41275],[-122.12951,37.36873],[-122.09224,37.33679],[-122.02996,37.29101],[-122.00052,37.27038],[-121.91824,37.21284],[-121.87449,37.18216],[-121.84427,37.16094],[-121.80269,37.13172],[-121.77595,37.11304],[-121.72464,37.07667],[-121.69345,37.05445],[-121.61549,36.99917],[-121.58118,36.97478],[-121.54089,36.94619],[-121.53024,36.93866],[-121.48957,36.90979],[-121.42434,36.86357],[-121.38276,36.83398],[-121.29798,36.77349],[-121.25158,36.74007]],"type":"LineString"}
}
