{
  "id": 2014417897,
  "type": "Feature",
  "properties": {
    "geom:area": 0,
    "geom:bbox": "-123.490210,36.971010,-122.113190,37.618220",
    "geom:latitude": 37.292481137423955,
    "geom:longitude": -122.70565025583107,
    "src:alt_label": "swim-approach",
    "src:geom": "swim",
    "swim:elevations": [
      6821,
      6699,
      6009,
      5827,
      5569,
      5471,
      5171,
      4871,
      4403,
      3998,
      3791,
      3265,
      3079,
      3048,
      3048,
      3048,
      3048,
      3048,
      3048,
      3034,
      2833,
      2755,
      2560,
      2495,
      2441,
      2431,
      2207,
      2025,
      1676,
      1440,
      1206,
      1008,
      856,
      787,
      732,
      590,
      459,
      335,
      202,
      88,
      589
    ],
    "swim:geom": "approach",
    "swim:timestamps": [
      1766985202,
      1766985211,
      1766985265,
      1766985280,
      1766985323,
      1766985356,
      1766985384,
      1766985405,
      1766985444,
      1766985477,
      1766985495,
      1766985531,
      1766985549,
      1766985593,
      1766985617,
      1766985644,
      1766985665,
      1766985710,
      1766985737,
      1766985775,
      1766985805,
      1766985820,
      1766985856,
      1766985871,
      1766985910,
      1766985947,
      1766985977,
      1766985998,
      1766986043,
      1766986070,
      1766986098,
      1766986127,
      1766986165,
      1766986192,
      1766986216,
      1766986250,
      1766986275,
      1766986305,
      1766986337,
      1766986358,
      1766986382
    ],
    "wof:geomhash": "d64be496d101ddcf91a9f2b269b195cf",
    "wof:id": 2014417897,
    "wof:repo": "sfomuseum-data-flights-2025-12"
  },
  "bbox": [
    -123.49021,
    36.97101,
    -122.11319,
    37.61822
  ],
  "geometry": {"coordinates":[[-123.49021,36.97101],[-123.4725,36.97884],[-123.36977,37.02631],[-123.34193,37.03916],[-123.26526,37.07455],[-123.20783,37.10071],[-123.15863,37.12324],[-123.12276,37.13977],[-123.05606,37.16991],[-123.00081,37.19531],[-122.97085,37.20902],[-122.9104,37.23626],[-122.87854,37.2505],[-122.79508,37.27346],[-122.74871,37.28444],[-122.69939,37.296],[-122.66431,37.30407],[-122.59771,37.31956],[-122.55925,37.32857],[-122.50509,37.34098],[-122.46121,37.35119],[-122.4396,37.35614],[-122.38792,37.36797],[-122.36633,37.37287],[-122.30972,37.38597],[-122.26132,37.39719],[-122.22345,37.40585],[-122.19664,37.41198],[-122.14027,37.42509],[-122.11798,37.44683],[-122.11319,37.47638],[-122.13593,37.50312],[-122.16917,37.53029],[-122.19438,37.5453],[-122.21867,37.55521],[-122.25257,37.56961],[-122.27439,37.5787],[-122.29896,37.58908],[-122.32555,37.60032],[-122.34345,37.60776],[-122.36292,37.61822]],"type":"LineString"}
}
