{
  "id": 2014423687,
  "type": "Feature",
  "properties": {
    "geom:area": 0,
    "geom:bbox": "-122.358520,37.490790,-121.300340,37.614200",
    "geom:latitude": 37.54467823309568,
    "geom:longitude": -121.83419857692343,
    "src:alt_label": "swim-approach",
    "src:geom": "swim",
    "swim:elevations": [
      4440,
      4137,
      3966,
      3557,
      3349,
      3140,
      2925,
      2688,
      2589,
      2562,
      2395,
      2096,
      1984,
      1890,
      1796,
      1735,
      1496,
      1258,
      1065,
      914,
      697,
      669,
      490,
      470,
      310,
      224,
      96,
      93
    ],
    "swim:geom": "approach",
    "swim:timestamps": [
      1767049766,
      1767049793,
      1767049809,
      1767049850,
      1767049871,
      1767049907,
      1767049940,
      1767049976,
      1767050006,
      1767050012,
      1767050056,
      1767050098,
      1767050120,
      1767050147,
      1767050178,
      1767050190,
      1767050242,
      1767050279,
      1767050302,
      1767050323,
      1767050366,
      1767050372,
      1767050409,
      1767050439,
      1767050474,
      1767050510,
      1767050542,
      1767050563
    ],
    "wof:geomhash": "fbffbcd25dcede431948153b02b00b20",
    "wof:id": 2014423687,
    "wof:repo": "sfomuseum-data-flights-2025-12"
  },
  "bbox": [
    -122.35852,
    37.49079,
    -121.30034,
    37.6142
  ],
  "geometry": {"coordinates":[[-121.30034,37.58778],[-121.35895,37.58139],[-121.39132,37.57793],[-121.47491,37.56836],[-121.51731,37.5634],[-121.58772,37.5551],[-121.64587,37.54599],[-121.70574,37.53143],[-121.75292,37.52004],[-121.76201,37.51784],[-121.8242,37.50304],[-121.88298,37.49079],[-121.91313,37.49153],[-121.94996,37.49288],[-121.98938,37.49512],[-122.00401,37.49922],[-122.06257,37.51907],[-122.09956,37.53147],[-122.12407,37.5394],[-122.14643,37.54668],[-122.19268,37.56172],[-122.19908,37.56367],[-122.23631,37.57556],[-122.26239,37.58391],[-122.29054,37.59199],[-122.31819,37.60007],[-122.34346,37.6078],[-122.35852,37.6142]],"type":"LineString"}
}
