{
  "id": 2014425263,
  "type": "Feature",
  "properties": {
    "geom:area": 0,
    "geom:bbox": "-122.361370,37.490770,-121.250670,37.615530",
    "geom:latitude": 37.54682123503254,
    "geom:longitude": -121.81102788438842,
    "src:alt_label": "swim-approach",
    "src:geom": "swim",
    "swim:elevations": [
      4751,
      4539,
      4374,
      4008,
      3834,
      3626,
      3313,
      2993,
      2784,
      2698,
      2589,
      2375,
      2313,
      2172,
      2103,
      2041,
      1970,
      1826,
      1781,
      1591,
      1376,
      1041,
      900,
      835,
      732,
      605,
      549,
      427,
      321,
      268,
      99,
      0
    ],
    "swim:geom": "approach",
    "swim:timestamps": [
      1767042148,
      1767042170,
      1767042191,
      1767042231,
      1767042252,
      1767042278,
      1767042313,
      1767042356,
      1767042385,
      1767042397,
      1767042414,
      1767042448,
      1767042457,
      1767042479,
      1767042489,
      1767042508,
      1767042520,
      1767042556,
      1767042595,
      1767042622,
      1767042643,
      1767042686,
      1767042718,
      1767042732,
      1767042764,
      1767042789,
      1767042824,
      1767042866,
      1767042891,
      1767042907,
      1767042950,
      1767042974
    ],
    "wof:geomhash": "466045e81a8cb87a7064196fce156d7a",
    "wof:id": 2014425263,
    "wof:repo": "sfomuseum-data-flights-2025-12"
  },
  "bbox": [
    -122.36137,
    37.49077,
    -121.25067,
    37.61553
  ],
  "geometry": {"coordinates":[[-121.25067,37.59442],[-121.29916,37.58791],[-121.34354,37.58286],[-121.42914,37.57366],[-121.4711,37.56893],[-121.52448,37.5625],[-121.59508,37.55408],[-121.67209,37.53918],[-121.72087,37.52751],[-121.74098,37.52285],[-121.76819,37.51665],[-121.82039,37.5041],[-121.83382,37.50074],[-121.86555,37.49304],[-121.88125,37.49077],[-121.90828,37.49162],[-121.92549,37.49244],[-121.97524,37.49401],[-122.02238,37.50585],[-122.05145,37.51533],[-122.07227,37.52214],[-122.11479,37.53602],[-122.14385,37.54544],[-122.15648,37.5495],[-122.18578,37.55921],[-122.20993,37.56678],[-122.24259,37.57738],[-122.27778,37.58803],[-122.29718,37.59382],[-122.30965,37.5975],[-122.34269,37.60739],[-122.36137,37.61553]],"type":"LineString"}
}
