{
  "id": 2014411577,
  "type": "Feature",
  "properties": {
    "geom:area": 0,
    "geom:bbox": "-122.363280,37.632580,-122.113090,38.518100",
    "geom:latitude": 38.040558816715595,
    "geom:longitude": -122.17719999920772,
    "src:alt_label": "swim-takeoff",
    "src:geom": "swim",
    "swim:elevations": [
      213,
      497,
      592,
      1023,
      1382,
      1690,
      1914,
      2401,
      2728,
      3126,
      3291,
      3454,
      3641,
      3976,
      4061,
      4588,
      5139,
      5218,
      5439,
      5615,
      6216,
      6494,
      6827,
      6937,
      7306,
      7328
    ],
    "swim:geom": "takeoff",
    "swim:timestamps": [
      1766869227,
      1766869255,
      1766869264,
      1766869307,
      1766869338,
      1766869367,
      1766869384,
      1766869422,
      1766869446,
      1766869474,
      1766869493,
      1766869519,
      1766869552,
      1766869587,
      1766869593,
      1766869636,
      1766869676,
      1766869681,
      1766869705,
      1766869720,
      1766869764,
      1766869789,
      1766869824,
      1766869837,
      1766869878,
      1766869882
    ],
    "wof:geomhash": "5fba33ca622b129aaf80f9a3a710a40d",
    "wof:id": 2014411577,
    "wof:repo": "sfomuseum-data-flights-2025-12"
  },
  "bbox": [
    -122.36328,
    37.63258,
    -122.11309,
    38.5181
  ],
  "geometry": {"coordinates":[[-122.36328,37.63258],[-122.34291,37.64674],[-122.33516,37.65103],[-122.29477,37.67419],[-122.26277,37.69265],[-122.22903,37.71023],[-122.2123,37.7249],[-122.20498,37.77088],[-122.2009,37.79982],[-122.19549,37.83413],[-122.192,37.85799],[-122.1856,37.89357],[-122.1771,37.9442],[-122.16804,38.00067],[-122.16642,38.01066],[-122.15419,38.08326],[-122.14295,38.15222],[-122.14148,38.16092],[-122.13492,38.20155],[-122.13104,38.22772],[-122.11753,38.30565],[-122.11309,38.34782],[-122.11667,38.41208],[-122.11828,38.43431],[-122.12427,38.51073],[-122.12485,38.5181]],"type":"LineString"}
}
