{
  "id": 2014413715,
  "type": "Feature",
  "properties": {
    "geom:area": 0,
    "geom:bbox": "-122.446000,36.723050,-121.245400,37.708180",
    "geom:latitude": 37.237279263642215,
    "geom:longitude": -121.91763098466785,
    "src:alt_label": "swim-takeoff",
    "src:geom": "swim",
    "swim:elevations": [
      152,
      732,
      1017,
      1219,
      1476,
      1815,
      2340,
      2491,
      2902,
      3283,
      3406,
      3703,
      3959,
      4348,
      4524,
      4697,
      4903,
      5368,
      5642,
      5906,
      6181,
      6336,
      6721,
      6829,
      7123,
      7338,
      7708,
      7751,
      8110,
      8168,
      8522,
      8756
    ],
    "swim:geom": "takeoff",
    "swim:timestamps": [
      1766827064,
      1766827104,
      1766827134,
      1766827167,
      1766827198,
      1766827222,
      1766827258,
      1766827270,
      1766827310,
      1766827346,
      1766827359,
      1766827401,
      1766827428,
      1766827463,
      1766827475,
      1766827490,
      1766827511,
      1766827555,
      1766827588,
      1766827616,
      1766827648,
      1766827665,
      1766827707,
      1766827718,
      1766827753,
      1766827779,
      1766827828,
      1766827834,
      1766827888,
      1766827897,
      1766827932,
      1766827957
    ],
    "wof:geomhash": "750a4329d9999e17aecd68ecb90e2f45",
    "wof:id": 2014413715,
    "wof:repo": "sfomuseum-data-flights-2025-12"
  },
  "bbox": [
    -122.446,
    36.72305,
    -121.2454,
    37.70818
  ],
  "geometry": {"coordinates":[[-122.36994,37.6275],[-122.36057,37.65723],[-122.36176,37.6818],[-122.37721,37.70789],[-122.41995,37.70818],[-122.44467,37.6861],[-122.446,37.64028],[-122.44061,37.62527],[-122.39731,37.58473],[-122.34946,37.54777],[-122.3313,37.53457],[-122.26787,37.48776],[-122.22522,37.45589],[-122.16723,37.41269],[-122.14708,37.39782],[-122.12126,37.37897],[-122.08438,37.35267],[-122.00813,37.29663],[-121.94902,37.25216],[-121.89869,37.21401],[-121.84186,37.171],[-121.80997,37.14683],[-121.73203,37.08785],[-121.71149,37.07227],[-121.64642,37.02305],[-121.59618,36.98484],[-121.50154,36.91294],[-121.48991,36.90408],[-121.38407,36.82342],[-121.36675,36.81011],[-121.29721,36.75692],[-121.2454,36.72305]],"type":"LineString"}
}
