{
  "id": 2014413785,
  "type": "Feature",
  "properties": {
    "geom:area": 0,
    "geom:bbox": "-122.475160,36.724400,-121.351030,37.691510",
    "geom:latitude": 37.17911194511086,
    "geom:longitude": -122.03623334902255,
    "src:alt_label": "swim-takeoff",
    "src:geom": "swim",
    "swim:elevations": [
      357,
      853,
      970,
      1224,
      1556,
      1927,
      2221,
      2606,
      3128,
      3324,
      3677,
      4348,
      4545,
      4804,
      5168,
      5517,
      5662,
      5877,
      6159,
      6502,
      6706,
      6706,
      6706,
      6706,
      6706,
      6706,
      6749,
      7160,
      7339,
      7619,
      7620
    ],
    "swim:geom": "takeoff",
    "swim:timestamps": [
      1766842040,
      1766842076,
      1766842083,
      1766842122,
      1766842156,
      1766842182,
      1766842203,
      1766842230,
      1766842265,
      1766842291,
      1766842321,
      1766842375,
      1766842398,
      1766842426,
      1766842458,
      1766842498,
      1766842513,
      1766842536,
      1766842564,
      1766842598,
      1766842642,
      1766842670,
      1766842688,
      1766842718,
      1766842766,
      1766842770,
      1766842805,
      1766842854,
      1766842874,
      1766842914,
      1766842935
    ],
    "wof:geomhash": "7b12dcffc1fb1e4356650f786dfcaec3",
    "wof:id": 2014413785,
    "wof:repo": "sfomuseum-data-flights-2025-12"
  },
  "bbox": [
    -122.47516,
    36.7244,
    -121.35103,
    37.69151
  ],
  "geometry": {"coordinates":[[-122.36262,37.64229],[-122.36303,37.66898],[-122.36269,37.67477],[-122.39364,37.69151],[-122.43593,37.67278],[-122.46622,37.65075],[-122.47516,37.62421],[-122.4717,37.58723],[-122.46542,37.5385],[-122.46075,37.49981],[-122.45578,37.45272],[-122.43604,37.36435],[-122.40371,37.3357],[-122.352,37.30777],[-122.29377,37.27553],[-122.21819,37.23245],[-122.18914,37.21569],[-122.1449,37.19009],[-122.09113,37.15905],[-122.02474,37.12073],[-121.93652,37.06974],[-121.88059,37.03717],[-121.8451,37.01644],[-121.78718,36.98266],[-121.69067,36.9264],[-121.68307,36.92193],[-121.61374,36.88141],[-121.51653,36.82438],[-121.47645,36.80082],[-121.39367,36.75208],[-121.35103,36.7244]],"type":"LineString"}
}
