{
  "id": 2014413205,
  "type": "Feature",
  "properties": {
    "geom:area": 0,
    "geom:bbox": "-122.364690,37.630920,-121.272640,38.113930",
    "geom:latitude": 37.88857378770608,
    "geom:longitude": -121.82634598722824,
    "src:alt_label": "swim-takeoff",
    "src:geom": "swim",
    "swim:elevations": [
      183,
      643,
      942,
      1410,
      2034,
      2485,
      2754,
      3173,
      3500,
      3801,
      4194,
      4494,
      4848,
      5440,
      5732,
      5929,
      6427,
      6713,
      7005,
      7397,
      7742,
      7787,
      8123
    ],
    "swim:geom": "takeoff",
    "swim:timestamps": [
      1766853573,
      1766853618,
      1766853641,
      1766853680,
      1766853717,
      1766853747,
      1766853765,
      1766853801,
      1766853838,
      1766853857,
      1766853884,
      1766853908,
      1766853933,
      1766853987,
      1766854017,
      1766854040,
      1766854075,
      1766854099,
      1766854121,
      1766854156,
      1766854197,
      1766854201,
      1766854245
    ],
    "wof:geomhash": "a757823a9b08f82f256d89ad737aa215",
    "wof:id": 2014413205,
    "wof:repo": "sfomuseum-data-flights-2025-12"
  },
  "bbox": [
    -122.36469,
    37.63092,
    -121.27264,
    38.11393
  ],
  "geometry": {"coordinates":[[-122.36469,37.63092],[-122.32774,37.65561],[-122.30391,37.66895],[-122.25983,37.69414],[-122.21376,37.7177],[-122.17412,37.73826],[-122.15019,37.75073],[-122.10055,37.77665],[-122.04233,37.80674],[-122.0115,37.82263],[-121.96572,37.84173],[-121.92127,37.85936],[-121.8748,37.87765],[-121.77327,37.91775],[-121.71519,37.94081],[-121.67118,37.95817],[-121.60237,37.98517],[-121.55744,38.0029],[-121.51397,38.02],[-121.44708,38.04618],[-121.36697,38.07754],[-121.35933,38.08036],[-121.27264,38.11393]],"type":"LineString"}
}
