{
  "id": 2014440951,
  "type": "Feature",
  "properties": {
    "geom:area": 0,
    "geom:bbox": "-122.358210,37.461370,-121.290540,37.611520",
    "geom:latitude": 37.53586685734959,
    "geom:longitude": -121.83315930339735,
    "src:alt_label": "swim-approach",
    "src:geom": "swim",
    "swim:elevations": [
      4596,
      4515,
      4210,
      4076,
      3720,
      3636,
      3265,
      3113,
      2901,
      2800,
      2582,
      2498,
      2340,
      2215,
      2103,
      1980,
      1891,
      1859,
      1695,
      1675,
      1438,
      1214,
      1067,
      1019,
      732,
      606,
      515,
      395,
      274,
      85,
      0
    ],
    "swim:geom": "approach",
    "swim:timestamps": [
      1767214558,
      1767214570,
      1767214608,
      1767214626,
      1767214674,
      1767214689,
      1767214734,
      1767214758,
      1767214793,
      1767214805,
      1767214841,
      1767214856,
      1767214885,
      1767214910,
      1767214937,
      1767214975,
      1767215005,
      1767215013,
      1767215041,
      1767215047,
      1767215081,
      1767215127,
      1767215153,
      1767215164,
      1767215218,
      1767215245,
      1767215265,
      1767215289,
      1767215320,
      1767215366,
      1767215381
    ],
    "wof:geomhash": "f890dec1a2bfde9c00986a13da91e704",
    "wof:id": 2014440951,
    "wof:repo": "sfomuseum-data-flights-2025-12"
  },
  "bbox": [
    -122.35821,
    37.46137,
    -121.29054,
    37.61152
  ],
  "geometry": {"coordinates":[[-121.29054,37.58916],[-121.31251,37.58675],[-121.3826,37.57915],[-121.41522,37.57543],[-121.50066,37.5653],[-121.527,37.56217],[-121.60574,37.55293],[-121.64423,37.546],[-121.69775,37.53319],[-121.71542,37.52904],[-121.76691,37.51699],[-121.78741,37.51198],[-121.82609,37.50275],[-121.85832,37.49498],[-121.89292,37.48657],[-121.94015,37.47354],[-121.97772,37.46335],[-121.98804,37.46137],[-122.02457,37.47044],[-122.03186,37.47371],[-122.07393,37.49162],[-122.12478,37.51314],[-122.15292,37.52517],[-122.16475,37.53014],[-122.2174,37.55246],[-122.2429,37.56319],[-122.26138,37.57097],[-122.2828,37.58],[-122.30811,37.59063],[-122.3456,37.60625],[-122.35821,37.61152]],"type":"LineString"}
}
