{
  "id": 2014417977,
  "type": "Feature",
  "properties": {
    "geom:area": 0,
    "geom:bbox": "-122.363020,37.491900,-121.263940,37.616770",
    "geom:latitude": 37.54650696998741,
    "geom:longitude": -121.81864296324824,
    "src:alt_label": "swim-approach",
    "src:geom": "swim",
    "swim:elevations": [
      4381,
      4267,
      3921,
      3504,
      3357,
      3138,
      3019,
      2941,
      2548,
      2467,
      2321,
      2239,
      2018,
      1917,
      1790,
      1679,
      1523,
      1432,
      1231,
      1126,
      918,
      729,
      655,
      492,
      404,
      311,
      149,
      99,
      0
    ],
    "swim:geom": "approach",
    "swim:timestamps": [
      1766953163,
      1766953176,
      1766953210,
      1766953256,
      1766953278,
      1766953312,
      1766953345,
      1766953354,
      1766953408,
      1766953438,
      1766953468,
      1766953480,
      1766953526,
      1766953550,
      1766953581,
      1766953602,
      1766953625,
      1766953641,
      1766953674,
      1766953688,
      1766953729,
      1766953762,
      1766953777,
      1766953806,
      1766953828,
      1766953849,
      1766953887,
      1766953896,
      1766953926
    ],
    "wof:geomhash": "705cc45f578db0f86966c7eb6f171562",
    "wof:id": 2014417977,
    "wof:repo": "sfomuseum-data-flights-2025-12"
  },
  "bbox": [
    -122.36302,
    37.4919,
    -121.26394,
    37.61677
  ],
  "geometry": {"coordinates":[[-121.26394,37.59262],[-121.2931,37.58889],[-121.36783,37.58045],[-121.46241,37.56975],[-121.50426,37.56496],[-121.57096,37.5571],[-121.6306,37.54922],[-121.64592,37.54568],[-121.73608,37.52426],[-121.78352,37.51301],[-121.82951,37.50182],[-121.84745,37.49744],[-121.91573,37.4919],[-121.95024,37.49253],[-121.99387,37.49672],[-122.02111,37.50543],[-122.05024,37.51466],[-122.07045,37.52123],[-122.1123,37.53481],[-122.12885,37.54035],[-122.17781,37.55634],[-122.21507,37.5672],[-122.2312,37.57257],[-122.26024,37.58264],[-122.28013,37.58842],[-122.2987,37.59405],[-122.33165,37.60361],[-122.33913,37.60622],[-122.36302,37.61677]],"type":"LineString"}
}
