{
  "id": 2014433275,
  "type": "Feature",
  "properties": {
    "geom:area": 0,
    "geom:bbox": "-122.830250,37.556800,-122.077410,38.439420",
    "geom:latitude": 37.854905006262,
    "geom:longitude": -122.48548345001905,
    "src:alt_label": "swim-approach",
    "src:geom": "swim",
    "swim:elevations": [
      7590,
      7325,
      7258,
      7075,
      6921,
      6754,
      6444,
      5880,
      5627,
      5550,
      5304,
      5202,
      4799,
      4375,
      4213,
      4031,
      3639,
      3408,
      3353,
      3324,
      3231,
      3127,
      3020,
      2914,
      2827,
      2806,
      2606,
      2254,
      1977,
      1828,
      1829,
      1758,
      1403,
      1228,
      1001,
      858,
      669,
      391,
      207,
      149,
      11
    ],
    "swim:geom": "approach",
    "swim:timestamps": [
      1767123716,
      1767123748,
      1767123754,
      1767123777,
      1767123793,
      1767123813,
      1767123843,
      1767123898,
      1767123925,
      1767123932,
      1767123960,
      1767123968,
      1767124007,
      1767124048,
      1767124064,
      1767124085,
      1767124127,
      1767124163,
      1767124196,
      1767124223,
      1767124247,
      1767124284,
      1767124308,
      1767124334,
      1767124351,
      1767124354,
      1767124383,
      1767124428,
      1767124461,
      1767124490,
      1767124520,
      1767124539,
      1767124586,
      1767124611,
      1767124647,
      1767124669,
      1767124693,
      1767124736,
      1767124763,
      1767124775,
      1767124807
    ],
    "wof:geomhash": "c0eafccab774649cca022845886a5952",
    "wof:id": 2014433275,
    "wof:repo": "sfomuseum-data-flights-2025-12"
  },
  "bbox": [
    -122.83025,
    37.5568,
    -122.07741,
    38.43942
  ],
  "geometry": {"coordinates":[[-122.83025,38.43942],[-122.81378,38.383],[-122.8107,38.37263],[-122.79938,38.33349],[-122.79115,38.30533],[-122.78101,38.27072],[-122.76663,38.22149],[-122.74005,38.13051],[-122.72758,38.08693],[-122.72428,38.07541],[-122.71166,38.03213],[-122.70789,38.01927],[-122.6901,37.95807],[-122.66586,37.89565],[-122.64732,37.87541],[-122.62129,37.85073],[-122.56985,37.80187],[-122.52799,37.76228],[-122.49197,37.72849],[-122.45249,37.71247],[-122.41575,37.70383],[-122.36279,37.69174],[-122.33007,37.68448],[-122.29473,37.6768],[-122.27313,37.67216],[-122.26905,37.67125],[-122.23265,37.6628],[-122.18089,37.64246],[-122.14427,37.62741],[-122.11303,37.61483],[-122.08208,37.59836],[-122.07741,37.57974],[-122.12623,37.55681],[-122.16051,37.5568],[-122.20707,37.56592],[-122.23187,37.57377],[-122.25712,37.58181],[-122.29855,37.594],[-122.32187,37.60066],[-122.33184,37.60373],[-122.3577,37.61371]],"type":"LineString"}
}
