{
  "id": 2014413765,
  "type": "Feature",
  "properties": {
    "geom:area": 0,
    "geom:bbox": "-122.469620,36.724650,-121.302960,37.718680",
    "geom:latitude": 37.21896021837458,
    "geom:longitude": -121.99933243464037,
    "src:alt_label": "swim-takeoff",
    "src:geom": "swim",
    "swim:elevations": [
      183,
      666,
      1033,
      1114,
      1362,
      1482,
      1921,
      2369,
      2521,
      3027,
      3279,
      3530,
      4007,
      4374,
      4752,
      4835,
      5451,
      5767,
      6094,
      6356,
      6619,
      7000,
      7112,
      7510,
      7670,
      7942,
      8162,
      8368,
      8569,
      8699,
      8980,
      9196,
      9289
    ],
    "swim:geom": "takeoff",
    "swim:timestamps": [
      1766867008,
      1766867038,
      1766867068,
      1766867077,
      1766867116,
      1766867128,
      1766867158,
      1766867188,
      1766867197,
      1766867235,
      1766867263,
      1766867296,
      1766867335,
      1766867364,
      1766867397,
      1766867403,
      1766867454,
      1766867488,
      1766867515,
      1766867538,
      1766867566,
      1766867608,
      1766867620,
      1766867668,
      1766867691,
      1766867727,
      1766867755,
      1766867787,
      1766867817,
      1766867841,
      1766867875,
      1766867902,
      1766867916
    ],
    "wof:geomhash": "e52e1c593d1b485a439459ecbd087090",
    "wof:id": 2014413765,
    "wof:repo": "sfomuseum-data-flights-2025-12"
  },
  "bbox": [
    -122.46962,
    36.72465,
    -121.30296,
    37.71868
  ],
  "geometry": {"coordinates":[[-122.36767,37.63139],[-122.36318,37.65358],[-122.36295,37.67511],[-122.36269,37.68172],[-122.38322,37.71296],[-122.39882,37.71868],[-122.44304,37.70954],[-122.4614,37.67456],[-122.46248,37.66308],[-122.46481,37.61042],[-122.46723,37.56909],[-122.46962,37.51557],[-122.42749,37.45965],[-122.37553,37.42741],[-122.3169,37.38959],[-122.30619,37.3826],[-122.21306,37.32176],[-122.15137,37.28166],[-122.10112,37.24891],[-122.05657,37.22004],[-122.00449,37.18618],[-121.92466,37.13415],[-121.90138,37.11896],[-121.80693,37.05731],[-121.76219,37.02804],[-121.69008,36.98084],[-121.63452,36.94408],[-121.56851,36.90082],[-121.50635,36.86014],[-121.4568,36.82709],[-121.3879,36.78132],[-121.33228,36.74422],[-121.30296,36.72465]],"type":"LineString"}
}
