{
  "id": 2014433823,
  "type": "Feature",
  "properties": {
    "geom:area": 0,
    "geom:bbox": "-122.355620,37.491400,-121.259630,37.612830",
    "geom:latitude": 37.546246147702355,
    "geom:longitude": -121.81243623077644,
    "src:alt_label": "swim-approach",
    "src:geom": "swim",
    "swim:elevations": [
      4559,
      4361,
      4162,
      3932,
      3751,
      3689,
      3378,
      3207,
      3066,
      2813,
      2776,
      2622,
      2313,
      2100,
      2082,
      1809,
      1673,
      1503,
      1244,
      1141,
      1007,
      883,
      605,
      508,
      303,
      298,
      152,
      17
    ],
    "swim:geom": "approach",
    "swim:timestamps": [
      1767130946,
      1767130967,
      1767130988,
      1767131018,
      1767131063,
      1767131081,
      1767131128,
      1767131155,
      1767131179,
      1767131216,
      1767131225,
      1767131252,
      1767131308,
      1767131336,
      1767131342,
      1767131396,
      1767131419,
      1767131444,
      1767131484,
      1767131501,
      1767131529,
      1767131552,
      1767131606,
      1767131629,
      1767131667,
      1767131672,
      1767131709,
      1767131735
    ],
    "wof:geomhash": "051261759c106f39e9f8f43fe6f330c3",
    "wof:id": 2014433823,
    "wof:repo": "sfomuseum-data-flights-2025-12"
  },
  "bbox": [
    -122.35562,
    37.4914,
    -121.25963,
    37.61283
  ],
  "geometry": {"coordinates":[[-121.25963,37.59317],[-121.30213,37.58781],[-121.34358,37.5834],[-121.40316,37.57678],[-121.48638,37.56762],[-121.51721,37.56373],[-121.59444,37.5544],[-121.63678,37.54785],[-121.67223,37.539],[-121.72606,37.52631],[-121.73947,37.5233],[-121.77915,37.51401],[-121.85882,37.49482],[-121.90003,37.4914],[-121.90906,37.49171],[-121.99017,37.49599],[-122.02129,37.5056],[-122.05531,37.5166],[-122.10716,37.53384],[-122.1262,37.54002],[-122.15878,37.55013],[-122.18337,37.55744],[-122.23984,37.57615],[-122.26405,37.58399],[-122.29866,37.59384],[-122.30292,37.59513],[-122.33373,37.6045],[-122.35562,37.61283]],"type":"LineString"}
}
