{
  "id": 2014447961,
  "type": "Feature",
  "properties": {
    "geom:area": 0,
    "geom:bbox": "-123.456210,37.625810,-122.392580,37.729550",
    "geom:latitude": 37.69679418545444,
    "geom:longitude": -122.92001203295271,
    "src:alt_label": "swim-takeoff",
    "src:geom": "swim",
    "swim:elevations": [
      122,
      417,
      722,
      945,
      1065,
      1120,
      1428,
      1841,
      2057,
      2477,
      2749,
      2951,
      3204,
      3325,
      3419,
      3577,
      3945,
      4181,
      4314,
      4534,
      4748,
      4918
    ],
    "swim:geom": "takeoff",
    "swim:timestamps": [
      1767228357,
      1767228378,
      1767228414,
      1767228446,
      1767228461,
      1767228482,
      1767228529,
      1767228564,
      1767228582,
      1767228621,
      1767228652,
      1767228671,
      1767228716,
      1767228743,
      1767228767,
      1767228799,
      1767228839,
      1767228869,
      1767228887,
      1767228911,
      1767228938,
      1767228962
    ],
    "wof:geomhash": "870b1252f1f2e0b1bad501991c97a07f",
    "wof:id": 2014447961,
    "wof:repo": "sfomuseum-data-flights-2025-12"
  },
  "bbox": [
    -123.45621,
    37.62581,
    -122.39258,
    37.72955
  ],
  "geometry": {"coordinates":[[-122.39258,37.62581],[-122.41369,37.63428],[-122.44907,37.65074],[-122.48356,37.66613],[-122.50012,37.67268],[-122.52623,37.67619],[-122.59361,37.67992],[-122.64813,37.68332],[-122.67655,37.68506],[-122.73966,37.68882],[-122.79028,37.69211],[-122.82365,37.69407],[-122.90323,37.69866],[-122.95608,37.70176],[-123.00566,37.70468],[-123.07531,37.70844],[-123.16449,37.71358],[-123.23355,37.71751],[-123.2754,37.7199],[-123.33205,37.72286],[-123.39805,37.72639],[-123.45621,37.72955]],"type":"LineString"}
}
