{
  "id": 2014408255,
  "type": "Feature",
  "properties": {
    "date:inception_lower": "2025-12-27",
    "date:inception_upper": "2025-12-27",
    "edtf:cessation": "",
    "edtf:inception": "2025-12-27",
    "flysfo:actual_timestamp": -1,
    "flysfo:airline": "BF",
    "flysfo:base_airline": "",
    "flysfo:base_flight_number": "6711",
    "flysfo:date": "2025-12-27",
    "flysfo:estimated_timestamp": 1766893440,
    "flysfo:event": "A",
    "flysfo:flight_number": "BF711",
    "flysfo:gate": "B11",
    "flysfo:journey": "PPT-SFO",
    "flysfo:scheduled_timestamp": 1766885100,
    "flysfo:timestamp": 1766893440,
    "geom:area": 0,
    "geom:bbox": "-149.617144,-17.573463,-122.370943,37.617990",
    "geom:latitude": 10.0222635,
    "geom:longitude": -135.9940435,
    "iata:airline": "BF",
    "iata:base_airline": "",
    "icao:airline": "FBU",
    "icao:base_airline": "FWI",
    "lbl:latitude": 37.61799,
    "lbl:longitude": -122.370943,
    "sfomuseum:airline_id": 1377649073,
    "sfomuseum:arrival_id": 102527513,
    "sfomuseum:base_flight_id": "20251227-A-FWI-6711",
    "sfomuseum:departure_id": 102558779,
    "sfomuseum:flight_id": "20251227-A-FBU-711",
    "sfomuseum:flight_number": [
      "FBU711",
      "BF711"
    ],
    "sfomuseum:placetype": "flight",
    "src:geom": "flysfo",
    "wof:belongsto": [
      1947304067,
      102527513,
      1947304261,
      102191575,
      85633793,
      102087579,
      85922583,
      554784711,
      85688637,
      1947304311,
      1947304259,
      102085387
    ],
    "wof:country": "US",
    "wof:created": 1766937952,
    "wof:geomhash": "cb635fc427df70f0d5f88d1f39ad4ded",
    "wof:hierarchy": [
      {
        "building_id": 1947304067,
        "campus_id": 102527513,
        "concourse_id": 1947304261,
        "continent_id": 102191575,
        "country_id": 85633793,
        "county_id": 102087579,
        "custom_id": 2014408255,
        "flight_id": 2014408255,
        "locality_id": 85922583,
        "postalcode_id": 554784711,
        "region_id": 85688637,
        "venue_id": 1947304311,
        "wing_id": 1947304259
      },
      {
        "building_id": 1947304067,
        "campus_id": 102527513,
        "concourse_id": 1947304261,
        "continent_id": 102191575,
        "country_id": 85633793,
        "county_id": 102085387,
        "custom_id": 2014408255,
        "flight_id": 2014408255,
        "region_id": 85688637,
        "venue_id": 1947304311,
        "wing_id": 1947304259
      }
    ],
    "wof:id": 2014408255,
    "wof:involves": [
      102527513,
      102558779,
      1377649073,
      1947304311,
      1779782741
    ],
    "wof:lastmodified": 1766937952,
    "wof:name": "BF711 (PPT-SFO)",
    "wof:parent_id": 1947304311,
    "wof:placetype": "custom",
    "wof:placetype_alt": [
      "flight"
    ],
    "wof:repo": "sfomuseum-data-flights-2025-12",
    "wof:superseded_by": [],
    "wof:supersedes": []
  },
  "bbox": [
    -149.617144,
    -17.573463,
    -122.370943,
    37.61799
  ],
  "geometry": {"coordinates":[[-149.617144,-17.573463],[-122.370943,37.61799]],"type":"MultiPoint"}
}
