{
  "id": 2014416463,
  "type": "Feature",
  "properties": {
    "geom:area": 0,
    "geom:bbox": "-122.743660,37.444430,-122.150520,38.399920",
    "geom:latitude": 37.82491059976042,
    "geom:longitude": -122.48988998273198,
    "src:alt_label": "swim-approach",
    "src:geom": "swim",
    "swim:elevations": [
      7498,
      7437,
      7052,
      6492,
      6427,
      5885,
      5514,
      5238,
      5006,
      4719,
      4425,
      4122,
      3700,
      3527,
      3352,
      3353,
      3353,
      3353,
      3353,
      3353,
      3203,
      3192,
      2937,
      2538,
      2159,
      1954,
      1941,
      1526,
      1342,
      1004,
      858,
      818,
      704,
      457,
      428,
      323,
      178,
      88
    ],
    "swim:geom": "approach",
    "swim:timestamps": [
      1766922057,
      1766922062,
      1766922096,
      1766922145,
      1766922152,
      1766922200,
      1766922230,
      1766922254,
      1766922276,
      1766922304,
      1766922336,
      1766922368,
      1766922416,
      1766922436,
      1766922471,
      1766922489,
      1766922530,
      1766922562,
      1766922573,
      1766922592,
      1766922628,
      1766922633,
      1766922661,
      1766922705,
      1766922747,
      1766922776,
      1766922782,
      1766922833,
      1766922866,
      1766922896,
      1766922922,
      1766922930,
      1766922963,
      1766923018,
      1766923025,
      1766923054,
      1766923088,
      1766923114
    ],
    "wof:geomhash": "5e3d8ebaa9afe8c2e5833935cf00a8e1",
    "wof:id": 2014416463,
    "wof:repo": "sfomuseum-data-flights-2025-12"
  },
  "bbox": [
    -122.74366,
    37.44443,
    -122.15052,
    38.39992
  ],
  "geometry": {"coordinates":[[-122.58706,38.39992],[-122.59542,38.39181],[-122.65435,38.33452],[-122.73391,38.25342],[-122.74081,38.24202],[-122.74366,38.14235],[-122.72636,38.0823],[-122.71237,38.03422],[-122.69988,37.9912],[-122.68477,37.93874],[-122.65855,37.887],[-122.61617,37.84538],[-122.55114,37.78408],[-122.52542,37.75977],[-122.48333,37.71991],[-122.46382,37.70162],[-122.42226,37.66257],[-122.39053,37.63272],[-122.37901,37.62183],[-122.36168,37.60277],[-122.33866,37.56276],[-122.33534,37.55702],[-122.31693,37.52565],[-122.28269,37.48212],[-122.23009,37.45998],[-122.19472,37.44581],[-122.18718,37.44443],[-122.15052,37.47486],[-122.15383,37.50232],[-122.16731,37.52656],[-122.19151,37.54063],[-122.19931,37.54369],[-122.22987,37.55778],[-122.27911,37.57905],[-122.28435,37.58157],[-122.30559,37.59129],[-122.32884,37.60163],[-122.34779,37.60958]],"type":"LineString"}
}
