{
  "id": 2014420083,
  "type": "Feature",
  "properties": {
    "geom:area": 0,
    "geom:bbox": "-122.469670,37.246810,-121.259610,37.721520",
    "geom:latitude": 37.44828740025269,
    "geom:longitude": -121.98337174136317,
    "src:alt_label": "swim-takeoff",
    "src:geom": "swim",
    "swim:elevations": [
      122,
      516,
      653,
      1124,
      1327,
      1665,
      1832,
      2624,
      2858,
      3382,
      3552,
      3773,
      3962,
      4485,
      4883,
      5175,
      5380,
      5570,
      5931,
      6259,
      6401,
      6718,
      7092,
      7276,
      7591,
      7754,
      8051,
      8118,
      8293,
      8601
    ],
    "swim:geom": "takeoff",
    "swim:timestamps": [
      1766941583,
      1766941618,
      1766941641,
      1766941674,
      1766941686,
      1766941708,
      1766941718,
      1766941767,
      1766941785,
      1766941826,
      1766941847,
      1766941871,
      1766941899,
      1766941937,
      1766941965,
      1766941987,
      1766942005,
      1766942030,
      1766942062,
      1766942096,
      1766942110,
      1766942144,
      1766942185,
      1766942205,
      1766942242,
      1766942262,
      1766942305,
      1766942316,
      1766942352,
      1766942388
    ],
    "wof:geomhash": "5f970cbac486001f04a7c1536e441149",
    "wof:id": 2014420083,
    "wof:repo": "sfomuseum-data-flights-2025-12"
  },
  "bbox": [
    -122.46967,
    37.24681,
    -121.25961,
    37.72152
  ],
  "geometry": {"coordinates":[[-122.37094,37.62586],[-122.36341,37.6518],[-122.3622,37.67383],[-122.37355,37.70802],[-122.38747,37.71677],[-122.42161,37.72152],[-122.43671,37.71795],[-122.46967,37.66174],[-122.46794,37.63616],[-122.46866,37.57662],[-122.46097,37.54536],[-122.42996,37.51609],[-122.37549,37.50282],[-122.29606,37.49436],[-122.23705,37.48196],[-122.19048,37.47087],[-122.15232,37.46173],[-122.09749,37.44869],[-122.0277,37.43211],[-121.95354,37.41448],[-121.92109,37.40672],[-121.84481,37.38854],[-121.74882,37.36553],[-121.70131,37.35402],[-121.6162,37.33344],[-121.56819,37.32186],[-121.46564,37.29662],[-121.43923,37.2903],[-121.35019,37.2691],[-121.25961,37.24681]],"type":"LineString"}
}
