{
  "id": 2014435289,
  "type": "Feature",
  "properties": {
    "geom:area": 0,
    "geom:bbox": "-122.355520,36.718320,-121.875810,37.610480",
    "geom:latitude": 37.25126202958461,
    "geom:longitude": -122.09775348374095,
    "src:alt_label": "swim-approach",
    "src:geom": "swim",
    "swim:elevations": [
      5298,
      4923,
      4744,
      4479,
      4366,
      4151,
      3939,
      3870,
      3653,
      3315,
      3188,
      2939,
      2835,
      2801,
      2659,
      2544,
      2481,
      2397,
      2228,
      1988,
      1867,
      1829,
      1829,
      1829,
      1816,
      1674,
      1538,
      1524,
      1506,
      1224,
      1091,
      860,
      651,
      465,
      341,
      237,
      180,
      41
    ],
    "swim:geom": "approach",
    "swim:timestamps": [
      1767120501,
      1767120536,
      1767120554,
      1767120587,
      1767120613,
      1767120652,
      1767120687,
      1767120698,
      1767120728,
      1767120769,
      1767120782,
      1767120827,
      1767120864,
      1767120886,
      1767120928,
      1767120952,
      1767120973,
      1767121005,
      1767121023,
      1767121055,
      1767121072,
      1767121099,
      1767121123,
      1767121158,
      1767121194,
      1767121220,
      1767121245,
      1767121279,
      1767121303,
      1767121347,
      1767121369,
      1767121397,
      1767121429,
      1767121468,
      1767121492,
      1767121520,
      1767121532,
      1767121565
    ],
    "wof:geomhash": "f3eced7ade0eb170ac8ee91283c02dfc",
    "wof:id": 2014435289,
    "wof:repo": "sfomuseum-data-flights-2025-12"
  },
  "bbox": [
    -122.35552,
    36.71832,
    -121.87581,
    37.61048
  ],
  "geometry": {"coordinates":[[-121.87581,36.71832],[-121.904,36.7766],[-121.91265,36.80757],[-121.9284,36.86372],[-121.94001,36.90556],[-121.95824,36.96514],[-121.97801,37.01542],[-121.98369,37.03031],[-121.99987,37.07196],[-122.02179,37.12819],[-122.02842,37.14484],[-122.05203,37.20531],[-122.0713,37.24837],[-122.08997,37.26965],[-122.12655,37.31076],[-122.14734,37.33386],[-122.17291,37.34673],[-122.21897,37.35759],[-122.2438,37.3634],[-122.27288,37.39062],[-122.26811,37.40934],[-122.23829,37.42294],[-122.20771,37.42684],[-122.16261,37.4328],[-122.1215,37.43859],[-122.09813,37.45099],[-122.08854,37.47141],[-122.10062,37.49958],[-122.12079,37.51404],[-122.16552,37.53002],[-122.18804,37.53959],[-122.21462,37.55093],[-122.24383,37.56329],[-122.27723,37.57791],[-122.29673,37.58572],[-122.31914,37.59519],[-122.32896,37.59921],[-122.35552,37.61048]],"type":"LineString"}
}
