{
  "id": 2014423733,
  "type": "Feature",
  "properties": {
    "geom:area": 0,
    "geom:bbox": "-122.993440,37.441230,-122.126960,38.447470",
    "geom:latitude": 37.8388773531043,
    "geom:longitude": -122.5280191622759,
    "src:alt_label": "swim-approach",
    "src:geom": "swim",
    "swim:elevations": [
      7468,
      7162,
      7023,
      6646,
      6307,
      6193,
      5732,
      5583,
      5297,
      5052,
      4775,
      4701,
      4138,
      4010,
      3700,
      3662,
      3419,
      3350,
      3357,
      3353,
      3353,
      3335,
      3263,
      2826,
      2417,
      2344,
      2139,
      1898,
      1872,
      1829,
      1829,
      1670,
      1425,
      1217,
      1221,
      1112,
      996,
      872,
      689,
      541,
      479,
      303,
      155,
      88,
      34
    ],
    "swim:geom": "approach",
    "swim:timestamps": [
      1767011723,
      1767011757,
      1767011772,
      1767011813,
      1767011839,
      1767011850,
      1767011903,
      1767011924,
      1767011960,
      1767011982,
      1767012016,
      1767012032,
      1767012088,
      1767012105,
      1767012144,
      1767012150,
      1767012193,
      1767012232,
      1767012244,
      1767012284,
      1767012305,
      1767012337,
      1767012347,
      1767012380,
      1767012417,
      1767012427,
      1767012459,
      1767012481,
      1767012484,
      1767012504,
      1767012523,
      1767012561,
      1767012595,
      1767012626,
      1767012634,
      1767012681,
      1767012711,
      1767012740,
      1767012778,
      1767012804,
      1767012820,
      1767012862,
      1767012898,
      1767012914,
      1767012932
    ],
    "wof:geomhash": "2b0ed370484e0927f185222941c20746",
    "wof:id": 2014423733,
    "wof:repo": "sfomuseum-data-flights-2025-12"
  },
  "bbox": [
    -122.99344,
    37.44123,
    -122.12696,
    38.44747
  ],
  "geometry": {"coordinates":[[-122.99344,38.44747],[-122.94325,38.39828],[-122.92157,38.37697],[-122.86167,38.31789],[-122.82375,38.28028],[-122.808,38.26471],[-122.75519,38.18194],[-122.74458,38.14623],[-122.72724,38.08631],[-122.71691,38.05036],[-122.70061,37.99411],[-122.6931,37.96806],[-122.65448,37.88223],[-122.63393,37.86233],[-122.59113,37.82165],[-122.58475,37.81577],[-122.53885,37.77294],[-122.49703,37.73326],[-122.48383,37.72073],[-122.44085,37.68033],[-122.41874,37.6595],[-122.3841,37.62686],[-122.3726,37.61601],[-122.34729,37.57787],[-122.32403,37.53308],[-122.31788,37.52261],[-122.2977,37.48966],[-122.28413,37.46908],[-122.28088,37.46553],[-122.25795,37.45411],[-122.23416,37.44971],[-122.18835,37.44123],[-122.15178,37.44399],[-122.13133,37.46629],[-122.12696,37.47257],[-122.14444,37.50736],[-122.16501,37.52751],[-122.1909,37.54122],[-122.22889,37.55728],[-122.25398,37.56781],[-122.26931,37.57425],[-122.3029,37.58843],[-122.33083,37.60016],[-122.34369,37.60559],[-122.35766,37.61143]],"type":"LineString"}
}
