{
  "id": 2014437919,
  "type": "Feature",
  "properties": {
    "geom:area": 0,
    "geom:bbox": "-122.386070,37.635560,-121.256630,38.163630",
    "geom:latitude": 37.990332095119,
    "geom:longitude": -121.938982928794,
    "src:alt_label": "swim-takeoff",
    "src:geom": "swim",
    "swim:elevations": [
      293,
      631,
      669,
      1212,
      1403,
      1474,
      1525,
      1524,
      1533,
      1910,
      2538,
      3254,
      3431,
      3536,
      3552,
      4032,
      4577,
      4991,
      5491,
      5877,
      5914,
      6214,
      6487,
      6636,
      7005,
      7151,
      7574,
      7734,
      7902,
      7932,
      8209
    ],
    "swim:geom": "takeoff",
    "swim:timestamps": [
      1767136318,
      1767136345,
      1767136351,
      1767136406,
      1767136421,
      1767136429,
      1767136456,
      1767136477,
      1767136504,
      1767136533,
      1767136568,
      1767136617,
      1767136632,
      1767136647,
      1767136650,
      1767136693,
      1767136728,
      1767136758,
      1767136798,
      1767136828,
      1767136831,
      1767136856,
      1767136879,
      1767136892,
      1767136934,
      1767136958,
      1767137001,
      1767137019,
      1767137038,
      1767137041,
      1767137071
    ],
    "wof:geomhash": "4682cc5bd7b07a56cae031a74f8d1ce3",
    "wof:id": 2014437919,
    "wof:repo": "sfomuseum-data-flights-2025-12"
  },
  "bbox": [
    -122.38607,
    37.63556,
    -121.25663,
    38.16363
  ],
  "geometry": {"coordinates":[[-122.36225,37.63556],[-122.34719,37.65086],[-122.3427,37.65409],[-122.3075,37.70047],[-122.31522,37.71831],[-122.32218,37.72792],[-122.34297,37.75868],[-122.3569,37.78462],[-122.3732,37.81758],[-122.38607,37.85359],[-122.38503,37.90228],[-122.33865,37.95482],[-122.31172,37.95972],[-122.28304,37.9632],[-122.27705,37.96403],[-122.18663,37.98064],[-122.11066,37.99611],[-122.04427,38.0094],[-121.95201,38.02709],[-121.8813,38.04088],[-121.87426,38.04238],[-121.81526,38.05474],[-121.75994,38.06553],[-121.72896,38.07158],[-121.62378,38.09217],[-121.5618,38.10425],[-121.44818,38.12642],[-121.3989,38.13572],[-121.34597,38.14659],[-121.33774,38.14811],[-121.25663,38.16363]],"type":"LineString"}
}
