{
  "id": 2014447683,
  "type": "Feature",
  "properties": {
    "geom:area": 0,
    "geom:bbox": "-122.365670,37.630000,-121.242590,38.126080",
    "geom:latitude": 37.894392455359316,
    "geom:longitude": -121.8121220129174,
    "src:alt_label": "swim-takeoff",
    "src:geom": "swim",
    "swim:elevations": [
      152,
      543,
      787,
      1054,
      1341,
      1742,
      1914,
      2421,
      2669,
      3253,
      3529,
      3818,
      4025,
      4278,
      4620,
      4705,
      5257,
      5559,
      5751,
      6079,
      6301,
      6550,
      6707,
      6849,
      7066,
      7143
    ],
    "swim:geom": "takeoff",
    "swim:timestamps": [
      1767175306,
      1767175335,
      1767175357,
      1767175383,
      1767175433,
      1767175465,
      1767175476,
      1767175513,
      1767175531,
      1767175571,
      1767175601,
      1767175634,
      1767175652,
      1767175673,
      1767175702,
      1767175711,
      1767175761,
      1767175795,
      1767175814,
      1767175853,
      1767175881,
      1767175914,
      1767175937,
      1767175961,
      1767175991,
      1767176000
    ],
    "wof:geomhash": "ae845deb6dfa8ae4b87b30bdd78f6171",
    "wof:id": 2014447683,
    "wof:repo": "sfomuseum-data-flights-2025-12"
  },
  "bbox": [
    -122.36567,
    37.63,
    -121.24259,
    38.12608
  ],
  "geometry": {"coordinates":[[-122.36567,37.63],[-122.34739,37.64574],[-122.32938,37.6551],[-122.30906,37.66674],[-122.25569,37.69604],[-122.2142,37.71779],[-122.19974,37.72532],[-122.14968,37.75144],[-122.12347,37.76483],[-122.06657,37.79431],[-122.02218,37.81723],[-121.96556,37.84157],[-121.93359,37.85432],[-121.89662,37.8691],[-121.84355,37.89003],[-121.82579,37.89703],[-121.73217,37.93399],[-121.66473,37.96047],[-121.6271,37.9753],[-121.55046,38.00556],[-121.49467,38.02753],[-121.42645,38.05424],[-121.37908,38.07282],[-121.3281,38.09276],[-121.26318,38.11805],[-121.24259,38.12608]],"type":"LineString"}
}
