{
  "id": 2014426983,
  "type": "Feature",
  "properties": {
    "geom:area": 0,
    "geom:bbox": "-123.490780,36.914190,-122.089130,37.611030",
    "geom:latitude": 37.24310245825323,
    "geom:longitude": -122.6765852010504,
    "src:alt_label": "swim-approach",
    "src:geom": "swim",
    "swim:elevations": [
      6340,
      6115,
      5798,
      5458,
      5176,
      4995,
      4440,
      4122,
      3766,
      3694,
      3235,
      3168,
      3107,
      3047,
      3048,
      3048,
      3048,
      3048,
      3048,
      3048,
      3048,
      3048,
      3008,
      2776,
      2641,
      2452,
      2438,
      2438,
      2438,
      2393,
      2288,
      1970,
      1873,
      1784,
      1534,
      1372,
      1219,
      1156,
      1129,
      1129,
      977,
      749,
      575,
      494,
      364,
      242,
      162,
      39
    ],
    "swim:geom": "approach",
    "swim:timestamps": [
      1767074096,
      1767074117,
      1767074147,
      1767074181,
      1767074206,
      1767074222,
      1767074275,
      1767074305,
      1767074338,
      1767074347,
      1767074397,
      1767074418,
      1767074442,
      1767074469,
      1767074516,
      1767074534,
      1767074564,
      1767074598,
      1767074616,
      1767074659,
      1767074695,
      1767074704,
      1767074743,
      1767074786,
      1767074805,
      1767074835,
      1767074868,
      1767074903,
      1767074929,
      1767074953,
      1767074971,
      1767075025,
      1767075052,
      1767075073,
      1767075108,
      1767075137,
      1767075164,
      1767075205,
      1767075238,
      1767075244,
      1767075280,
      1767075322,
      1767075355,
      1767075370,
      1767075404,
      1767075431,
      1767075451,
      1767075481
    ],
    "wof:geomhash": "b04eb26460114e8fa4acad148aee0001",
    "wof:id": 2014426983,
    "wof:repo": "sfomuseum-data-flights-2025-12"
  },
  "bbox": [
    -123.49078,
    36.91419,
    -122.08913,
    37.61103
  ],
  "geometry": {"coordinates":[[-123.49078,36.91419],[-123.44979,36.93549],[-123.39297,36.96656],[-123.33096,37.00198],[-123.28564,37.02611],[-123.2583,37.04111],[-123.16787,37.09081],[-123.11757,37.11862],[-123.06272,37.1487],[-123.04798,37.15675],[-122.96717,37.20092],[-122.93431,37.21901],[-122.8991,37.23833],[-122.86067,37.25691],[-122.7877,37.25591],[-122.75981,37.25049],[-122.7148,37.242],[-122.66866,37.23313],[-122.64443,37.22845],[-122.58549,37.21678],[-122.53629,37.20688],[-122.52404,37.20443],[-122.4708,37.19367],[-122.41293,37.1828],[-122.38737,37.17942],[-122.35133,37.19499],[-122.32001,37.22382],[-122.28603,37.25491],[-122.26132,37.27753],[-122.23817,37.29863],[-122.22162,37.31389],[-122.1698,37.35929],[-122.14516,37.37996],[-122.12706,37.39504],[-122.09872,37.41757],[-122.08913,37.44026],[-122.09755,37.46224],[-122.11229,37.49741],[-122.1357,37.51985],[-122.14154,37.52259],[-122.17827,37.53804],[-122.22036,37.556],[-122.25423,37.57031],[-122.26818,37.57613],[-122.2949,37.58738],[-122.31545,37.59612],[-122.32953,37.60193],[-122.35115,37.61103]],"type":"LineString"}
}
