{
  "id": 2014422647,
  "type": "Feature",
  "properties": {
    "geom:area": 0,
    "geom:bbox": "-123.451170,37.635510,-122.414680,37.729830",
    "geom:latitude": 37.698315039270526,
    "geom:longitude": -122.92941197794576,
    "src:alt_label": "swim-takeoff",
    "src:geom": "swim",
    "swim:elevations": [
      402,
      447,
      644,
      949,
      1217,
      1264,
      1580,
      2041,
      2442,
      2706,
      3207,
      3275,
      3484,
      3619,
      4173,
      4408,
      4537,
      5251,
      5379
    ],
    "swim:geom": "takeoff",
    "swim:timestamps": [
      1766923493,
      1766923497,
      1766923511,
      1766923541,
      1766923588,
      1766923595,
      1766923628,
      1766923667,
      1766923693,
      1766923716,
      1766923761,
      1766923775,
      1766923814,
      1766923839,
      1766923914,
      1766923940,
      1766923955,
      1766924033,
      1766924048
    ],
    "wof:geomhash": "6f23a45ba39031a00693e9c52e20f592",
    "wof:id": 2014422647,
    "wof:repo": "sfomuseum-data-flights-2025-12"
  },
  "bbox": [
    -123.45117,
    37.63551,
    -122.41468,
    37.72983
  ],
  "geometry": {"coordinates":[[-122.41468,37.63551],[-122.41826,37.63705],[-122.43236,37.64325],[-122.46077,37.65591],[-122.51214,37.67533],[-122.5219,37.67644],[-122.57176,37.67895],[-122.63543,37.68289],[-122.67818,37.68534],[-122.71586,37.68767],[-122.79227,37.69231],[-122.81852,37.69383],[-122.89517,37.69837],[-122.94703,37.70144],[-123.12013,37.71112],[-123.1824,37.71456],[-123.21741,37.71655],[-123.41487,37.72785],[-123.45117,37.72983]],"type":"LineString"}
}
