{
  "id": 2014447403,
  "type": "Feature",
  "properties": {
    "geom:area": 0,
    "geom:bbox": "-122.385560,37.628670,-121.245570,38.426000",
    "geom:latitude": 38.0853238783548,
    "geom:longitude": -121.92623125370825,
    "src:alt_label": "swim-takeoff",
    "src:geom": "swim",
    "swim:elevations": [
      213,
      574,
      688,
      921,
      1050,
      1179,
      1594,
      1972,
      2541,
      2921,
      3270,
      3491,
      3512,
      3776,
      3957,
      4351,
      4529,
      4680,
      4908,
      4932,
      5328,
      5609,
      5870,
      6071,
      6161,
      6447,
      6602,
      6726,
      6894
    ],
    "swim:geom": "takeoff",
    "swim:timestamps": [
      1767223674,
      1767223708,
      1767223723,
      1767223752,
      1767223783,
      1767223819,
      1767223849,
      1767223867,
      1767223900,
      1767223929,
      1767223959,
      1767224007,
      1767224013,
      1767224062,
      1767224076,
      1767224121,
      1767224142,
      1767224157,
      1767224188,
      1767224191,
      1767224233,
      1767224269,
      1767224304,
      1767224333,
      1767224342,
      1767224387,
      1767224417,
      1767224438,
      1767224463
    ],
    "wof:geomhash": "b484aa683d712c154055e0fd5d93d801",
    "wof:id": 2014447403,
    "wof:repo": "sfomuseum-data-flights-2025-12"
  },
  "bbox": [
    -122.38556,
    37.62867,
    -121.24557,
    38.426
  ],
  "geometry": {"coordinates":[[-122.36653,37.62867],[-122.34753,37.64687],[-122.33798,37.65485],[-122.31918,37.67104],[-122.30998,37.69586],[-122.32986,37.7356],[-122.35097,37.77476],[-122.36299,37.79837],[-122.38343,37.84067],[-122.38556,37.88192],[-122.37862,37.92536],[-122.30467,37.97314],[-122.29286,37.97776],[-122.19212,38.01741],[-122.15978,38.03057],[-122.06003,38.07065],[-122.01201,38.08971],[-121.97743,38.10335],[-121.90784,38.13109],[-121.9008,38.13391],[-121.8011,38.17397],[-121.7146,38.2084],[-121.62861,38.24256],[-121.55591,38.27126],[-121.53355,38.28007],[-121.42077,38.32443],[-121.34952,38.36165],[-121.30187,38.39118],[-121.24557,38.426]],"type":"LineString"}
}
