{
  "id": 2014426947,
  "type": "Feature",
  "properties": {
    "geom:area": 0,
    "geom:bbox": "-123.275080,37.778460,-122.544930,38.310580",
    "geom:latitude": 38.053472928128876,
    "geom:longitude": -122.90292397926392,
    "src:alt_label": "swim-approach",
    "src:geom": "swim",
    "swim:elevations": [
      7559,
      7261,
      6959,
      6586,
      6368,
      6087,
      5804,
      5392,
      5107,
      4779,
      4430,
      4366,
      4239,
      4196,
      3713,
      3415
    ],
    "swim:geom": "approach",
    "swim:timestamps": [
      1767079041,
      1767079070,
      1767079100,
      1767079135,
      1767079157,
      1767079184,
      1767079211,
      1767079255,
      1767079279,
      1767079311,
      1767079342,
      1767079355,
      1767079405,
      1767079411,
      1767079453,
      1767079493
    ],
    "wof:geomhash": "7674d2a5359046e4f1872bcbfb1f8702",
    "wof:id": 2014426947,
    "wof:repo": "sfomuseum-data-flights-2025-12"
  },
  "bbox": [
    -123.27508,
    37.77846,
    -122.54493,
    38.31058
  ],
  "geometry": {"coordinates":[[-123.27508,38.31058],[-123.22148,38.27427],[-123.16679,38.23729],[-123.10327,38.19414],[-123.06567,38.16856],[-123.01786,38.13594],[-122.97141,38.10411],[-122.89764,38.05358],[-122.85683,38.02575],[-122.8044,37.98959],[-122.75351,37.95477],[-122.73166,37.93967],[-122.6575,37.88432],[-122.64969,37.87719],[-122.59534,37.82602],[-122.54493,37.77846]],"type":"LineString"}
}
