{
  "id": 2014434869,
  "type": "Feature",
  "properties": {
    "geom:area": 0,
    "geom:bbox": "-122.356630,36.761690,-121.899200,37.610940",
    "geom:latitude": 37.23093640669759,
    "geom:longitude": -122.07732564314011,
    "src:alt_label": "swim-approach",
    "src:geom": "swim",
    "swim:elevations": [
      5115,
      5002,
      4624,
      4511,
      4181,
      3874,
      3699,
      3434,
      2974,
      2893,
      2551,
      2305,
      2235,
      2091,
      1846,
      1826,
      1662,
      1521,
      1251,
      1165,
      954,
      758,
      710,
      483,
      250,
      190,
      23
    ],
    "swim:geom": "approach",
    "swim:timestamps": [
      1767110513,
      1767110525,
      1767110568,
      1767110582,
      1767110618,
      1767110661,
      1767110695,
      1767110758,
      1767110818,
      1767110830,
      1767110866,
      1767110904,
      1767110917,
      1767110945,
      1767110987,
      1767111025,
      1767111048,
      1767111074,
      1767111114,
      1767111133,
      1767111177,
      1767111209,
      1767111216,
      1767111249,
      1767111288,
      1767111306,
      1767111346
    ],
    "wof:geomhash": "e100ea2e352a601636aeeaa21225814f",
    "wof:id": 2014434869,
    "wof:repo": "sfomuseum-data-flights-2025-12"
  },
  "bbox": [
    -122.35663,
    36.76169,
    -121.8992,
    37.61094
  ],
  "geometry": {"coordinates":[[-121.8992,36.76169],[-121.90507,36.78145],[-121.92407,36.84803],[-121.92989,36.86922],[-121.94553,36.92526],[-121.96708,36.9876],[-121.98445,37.03242],[-122.01448,37.10938],[-122.04255,37.18083],[-122.04778,37.19445],[-122.06404,37.23643],[-122.0812,37.28061],[-122.08772,37.2964],[-122.10008,37.32694],[-122.11762,37.37249],[-122.13196,37.41351],[-122.14051,37.43856],[-122.15048,37.46728],[-122.16526,37.50899],[-122.17231,37.52789],[-122.214,37.55089],[-122.24308,37.56328],[-122.25017,37.56622],[-122.27842,37.57818],[-122.31039,37.59171],[-122.32439,37.5974],[-122.35663,37.61094]],"type":"LineString"}
}
