{
  "id": 2014417551,
  "type": "Feature",
  "properties": {
    "geom:area": 0,
    "geom:bbox": "-122.362900,37.491990,-121.256850,37.616010",
    "geom:latitude": 37.546795336490966,
    "geom:longitude": -121.81487027201875,
    "src:alt_label": "swim-approach",
    "src:geom": "swim",
    "swim:elevations": [
      4762,
      4586,
      4123,
      3832,
      3592,
      3238,
      3142,
      2956,
      2829,
      2768,
      2633,
      2576,
      2429,
      2320,
      2042,
      1924,
      1858,
      1592,
      1514,
      1317,
      1071,
      877,
      817,
      584,
      433,
      321,
      194,
      141,
      0
    ],
    "swim:geom": "approach",
    "swim:timestamps": [
      1766915395,
      1766915410,
      1766915446,
      1766915479,
      1766915505,
      1766915542,
      1766915562,
      1766915607,
      1766915626,
      1766915643,
      1766915665,
      1766915683,
      1766915709,
      1766915730,
      1766915783,
      1766915809,
      1766915827,
      1766915871,
      1766915885,
      1766915915,
      1766915959,
      1766915994,
      1766916006,
      1766916053,
      1766916085,
      1766916115,
      1766916144,
      1766916156,
      1766916193
    ],
    "wof:geomhash": "e52b237713fe3f242a30ee207a67f826",
    "wof:id": 2014417551,
    "wof:repo": "sfomuseum-data-flights-2025-12"
  },
  "bbox": [
    -122.3629,
    37.49199,
    -121.25685,
    37.61601
  ],
  "geometry": {"coordinates":[[-121.25685,37.59404],[-121.28607,37.59001],[-121.35641,37.58172],[-121.41889,37.57441],[-121.46758,37.56881],[-121.53677,37.5611],[-121.57434,37.55668],[-121.65042,37.54461],[-121.68193,37.53724],[-121.70806,37.53102],[-121.74227,37.52281],[-121.76874,37.51635],[-121.80573,37.50717],[-121.83528,37.5001],[-121.91386,37.49199],[-121.95228,37.49299],[-121.97924,37.49391],[-122.03686,37.51034],[-122.05529,37.51634],[-122.09058,37.52779],[-122.14349,37.54517],[-122.18451,37.55833],[-122.1973,37.56244],[-122.24399,37.57762],[-122.27453,37.58694],[-122.30013,37.59425],[-122.32511,37.60169],[-122.33485,37.60471],[-122.3629,37.61601]],"type":"LineString"}
}
