{
  "id": 2014439253,
  "type": "Feature",
  "properties": {
    "geom:area": 0,
    "geom:bbox": "-122.385260,37.638930,-121.427630,38.519200",
    "geom:latitude": 38.12791125821434,
    "geom:longitude": -122.00710976004575,
    "src:alt_label": "swim-takeoff",
    "src:geom": "swim",
    "swim:elevations": [
      367,
      586,
      883,
      1081,
      1509,
      1843,
      2386,
      2781,
      3161,
      3235,
      3470,
      3534,
      3637,
      3892,
      4218,
      4850,
      5111,
      5318,
      5735,
      6009,
      6141,
      6400,
      6639,
      7048,
      7232,
      7253,
      7311,
      7359
    ],
    "swim:geom": "takeoff",
    "swim:timestamps": [
      1767136526,
      1767136541,
      1767136574,
      1767136592,
      1767136647,
      1767136673,
      1767136704,
      1767136733,
      1767136764,
      1767136777,
      1767136821,
      1767136831,
      1767136846,
      1767136868,
      1767136895,
      1767136946,
      1767136970,
      1767136991,
      1767137038,
      1767137065,
      1767137080,
      1767137109,
      1767137134,
      1767137182,
      1767137218,
      1767137224,
      1767137245,
      1767137257
    ],
    "wof:geomhash": "fde7a6e39c83e603c70d7c7b81870e2d",
    "wof:id": 2014439253,
    "wof:repo": "sfomuseum-data-flights-2025-12"
  },
  "bbox": [
    -122.38526,
    37.63893,
    -121.42763,
    38.5192
  ],
  "geometry": {"coordinates":[[-122.35914,37.63893],[-122.34998,37.6471],[-122.32644,37.66592],[-122.31657,37.67932],[-122.33278,37.73861],[-122.34964,37.77044],[-122.369,37.80994],[-122.38488,37.84753],[-122.38526,37.89259],[-122.38439,37.91253],[-122.33501,37.97192],[-122.31697,37.98287],[-122.29027,37.99859],[-122.24721,38.02424],[-122.19623,38.05561],[-122.09572,38.11626],[-122.04739,38.14496],[-122.00476,38.17068],[-121.90681,38.23003],[-121.85145,38.26351],[-121.81967,38.28272],[-121.75729,38.32026],[-121.70315,38.35279],[-121.59741,38.41632],[-121.51753,38.4642],[-121.50348,38.47279],[-121.45501,38.50242],[-121.42763,38.5192]],"type":"LineString"}
}
