{
  "id": 2014446047,
  "type": "Feature",
  "properties": {
    "geom:area": 0,
    "geom:bbox": "-123.321220,37.630850,-122.404810,38.498080",
    "geom:latitude": 38.02423978674683,
    "geom:longitude": -122.89556695016489,
    "src:alt_label": "swim-takeoff",
    "src:geom": "swim",
    "swim:elevations": [
      280,
      750,
      1057,
      1417,
      1850,
      2005,
      2575,
      2934,
      3313,
      3586,
      3850,
      4116,
      4300,
      4874,
      4959,
      5232,
      5405,
      5672,
      6047,
      6274,
      6621,
      6882,
      6980,
      7132
    ],
    "swim:geom": "takeoff",
    "swim:timestamps": [
      1767224475,
      1767224506,
      1767224541,
      1767224575,
      1767224608,
      1767224623,
      1767224667,
      1767224696,
      1767224726,
      1767224756,
      1767224783,
      1767224809,
      1767224824,
      1767224874,
      1767224889,
      1767224937,
      1767224962,
      1767224987,
      1767225026,
      1767225050,
      1767225086,
      1767225114,
      1767225127,
      1767225154
    ],
    "wof:geomhash": "3db2d4d9878797ca0cd8fb5dcafce54d",
    "wof:id": 2014446047,
    "wof:repo": "sfomuseum-data-flights-2025-12"
  },
  "bbox": [
    -123.32122,
    37.63085,
    -122.40481,
    38.49808
  ],
  "geometry": {"coordinates":[[-122.40481,37.63085],[-122.43677,37.64562],[-122.47995,37.66471],[-122.52547,37.68749],[-122.5704,37.71418],[-122.59097,37.72624],[-122.65427,37.7634],[-122.69693,37.78862],[-122.74185,37.81526],[-122.77944,37.85084],[-122.81069,37.88847],[-122.84143,37.92574],[-122.85921,37.94739],[-122.91898,38.01934],[-122.93772,38.04174],[-123.0023,38.11884],[-123.03697,38.1604],[-123.07337,38.20388],[-123.1299,38.27122],[-123.16533,38.31335],[-123.219,38.37693],[-123.26071,38.42557],[-123.27975,38.44783],[-123.32122,38.49808]],"type":"LineString"}
}
