{
  "id": 2014443867,
  "type": "Feature",
  "properties": {
    "geom:area": 0,
    "geom:bbox": "-122.354560,37.492270,-121.284710,37.612470",
    "geom:latitude": 37.54112211237093,
    "geom:longitude": -121.82649510176283,
    "src:alt_label": "swim-approach",
    "src:geom": "swim",
    "swim:elevations": [
      4421,
      4144,
      3978,
      3680,
      3360,
      3229,
      3161,
      3056,
      2751,
      2619,
      2430,
      2259,
      2133,
      2134,
      1795,
      1610,
      1366,
      1218,
      1187,
      1146,
      1071,
      867,
      681,
      418,
      323,
      127,
      42
    ],
    "swim:geom": "approach",
    "swim:timestamps": [
      1767183117,
      1767183148,
      1767183167,
      1767183201,
      1767183235,
      1767183256,
      1767183278,
      1767183307,
      1767183354,
      1767183374,
      1767183415,
      1767183438,
      1767183458,
      1767183482,
      1767183535,
      1767183565,
      1767183595,
      1767183619,
      1767183632,
      1767183651,
      1767183662,
      1767183694,
      1767183723,
      1767183772,
      1767183793,
      1767183835,
      1767183856
    ],
    "wof:geomhash": "d9dd9f803f22c45359b1dc11224786b3",
    "wof:id": 2014443867,
    "wof:repo": "sfomuseum-data-flights-2025-12"
  },
  "bbox": [
    -122.35456,
    37.49227,
    -121.28471,
    37.61247
  ],
  "geometry": {"coordinates":[[-121.28471,37.59005],[-121.34685,37.58304],[-121.38481,37.57867],[-121.4524,37.57099],[-121.5202,37.56306],[-121.56011,37.55842],[-121.59932,37.55383],[-121.64886,37.54506],[-121.72257,37.52735],[-121.75378,37.51991],[-121.81592,37.5051],[-121.8486,37.49748],[-121.87773,37.49227],[-121.91229,37.49336],[-121.98939,37.49745],[-122.03223,37.49977],[-122.07419,37.50208],[-122.10663,37.50795],[-122.12259,37.51483],[-122.14766,37.52536],[-122.16169,37.53126],[-122.20017,37.5475],[-122.23237,37.56106],[-122.28324,37.58246],[-122.30267,37.59069],[-122.33753,37.60515],[-122.35456,37.61247]],"type":"LineString"}
}
