{
  "id": 2014447539,
  "type": "Feature",
  "properties": {
    "geom:area": 0,
    "geom:bbox": "-122.367530,37.626890,-122.070040,38.482270",
    "geom:latitude": 38.024004013461465,
    "geom:longitude": -122.17687210473092,
    "src:alt_label": "swim-takeoff",
    "src:geom": "swim",
    "swim:elevations": [
      213,
      526,
      995,
      1129,
      1266,
      1677,
      1980,
      2081,
      2890,
      2969,
      3392,
      3509,
      4149,
      4231,
      4960,
      5291,
      5385,
      5610,
      6123,
      6378,
      6611,
      6678
    ],
    "swim:geom": "takeoff",
    "swim:timestamps": [
      1767199244,
      1767199261,
      1767199301,
      1767199337,
      1767199358,
      1767199388,
      1767199404,
      1767199410,
      1767199465,
      1767199471,
      1767199519,
      1767199534,
      1767199585,
      1767199591,
      1767199646,
      1767199676,
      1767199689,
      1767199713,
      1767199768,
      1767199797,
      1767199825,
      1767199834
    ],
    "wof:geomhash": "a98985027f7723198cc6244a53337db5",
    "wof:id": 2014447539,
    "wof:repo": "sfomuseum-data-flights-2025-12"
  },
  "bbox": [
    -122.36753,
    37.62689,
    -122.07004,
    38.48227
  ],
  "geometry": {"coordinates":[[-122.36753,37.62689],[-122.35762,37.63597],[-122.32896,37.65323],[-122.29611,37.67199],[-122.27241,37.68639],[-122.23237,37.70862],[-122.21638,37.7254],[-122.21282,37.73292],[-122.19925,37.80914],[-122.19786,37.81787],[-122.18536,37.89173],[-122.18099,37.91757],[-122.16645,38.00958],[-122.16469,38.02053],[-122.14823,38.12137],[-122.13921,38.17621],[-122.13512,38.20097],[-122.12768,38.24562],[-122.11359,38.35296],[-122.10006,38.41091],[-122.0774,38.46487],[-122.07004,38.48227]],"type":"LineString"}
}
