{
  "id": 2014415787,
  "type": "Feature",
  "properties": {
    "geom:area": 0,
    "geom:bbox": "-122.587920,37.546910,-122.089110,37.818910",
    "geom:latitude": 37.64802541955549,
    "geom:longitude": -122.30050596453742,
    "src:alt_label": "swim-approach",
    "src:geom": "swim",
    "swim:elevations": [
      3700,
      3449,
      3334,
      3353,
      3353,
      3297,
      3068,
      2915,
      2707,
      2660,
      2488,
      2209,
      2041,
      1842,
      1786,
      1599,
      1523,
      1429,
      1128,
      1042,
      898,
      691,
      645,
      582,
      434,
      341,
      219,
      65,
      0
    ],
    "swim:geom": "approach",
    "swim:timestamps": [
      1766944135,
      1766944166,
      1766944194,
      1766944226,
      1766944240,
      1766944274,
      1766944317,
      1766944339,
      1766944373,
      1766944382,
      1766944412,
      1766944460,
      1766944483,
      1766944520,
      1766944532,
      1766944563,
      1766944583,
      1766944598,
      1766944647,
      1766944665,
      1766944694,
      1766944737,
      1766944743,
      1766944760,
      1766944796,
      1766944817,
      1766944846,
      1766944881,
      1766944894
    ],
    "wof:geomhash": "b1b308a5eb8f172ca0694fabbe9f1f47",
    "wof:id": 2014415787,
    "wof:repo": "sfomuseum-data-flights-2025-12"
  },
  "bbox": [
    -122.58792,
    37.54691,
    -122.08911,
    37.81891
  ],
  "geometry": {"coordinates":[[-122.58792,37.81891],[-122.54755,37.78107],[-122.51265,37.74795],[-122.47543,37.71674],[-122.45672,37.71014],[-122.41346,37.69722],[-122.36321,37.68172],[-122.33802,37.67432],[-122.29962,37.66343],[-122.28933,37.66055],[-122.25535,37.65105],[-122.20212,37.63625],[-122.17702,37.62942],[-122.13669,37.61833],[-122.12338,37.61465],[-122.0934,37.60164],[-122.08911,37.58313],[-122.09109,37.56856],[-122.13449,37.54691],[-122.15306,37.55096],[-122.18278,37.5578],[-122.22397,37.57137],[-122.22961,37.57325],[-122.24496,37.57799],[-122.27638,37.58739],[-122.29433,37.59253],[-122.31933,37.59975],[-122.34807,37.60952],[-122.35786,37.61425]],"type":"LineString"}
}
