{
  "id": 2014435709,
  "type": "Feature",
  "properties": {
    "geom:area": 0,
    "geom:bbox": "-123.178810,37.577040,-122.122800,38.378750",
    "geom:latitude": 37.88347553005556,
    "geom:longitude": -122.60660253142484,
    "src:alt_label": "swim-approach",
    "src:geom": "swim",
    "swim:elevations": [
      7468,
      7065,
      6745,
      6521,
      6127,
      5811,
      5570,
      5212,
      4939,
      4532,
      4384,
      4296,
      4111,
      3951,
      3617,
      3412,
      3353,
      3353,
      3353,
      3289,
      3040,
      2748,
      2467,
      2209,
      1967,
      1735,
      1721,
      1447,
      1250,
      1217,
      1177,
      849,
      808,
      628,
      551,
      390,
      185,
      151,
      0
    ],
    "swim:geom": "approach",
    "swim:timestamps": [
      1767082725,
      1767082764,
      1767082795,
      1767082816,
      1767082854,
      1767082884,
      1767082908,
      1767082941,
      1767082970,
      1767083005,
      1767083030,
      1767083066,
      1767083094,
      1767083112,
      1767083153,
      1767083181,
      1767083209,
      1767083225,
      1767083246,
      1767083265,
      1767083305,
      1767083336,
      1767083360,
      1767083383,
      1767083405,
      1767083447,
      1767083450,
      1767083485,
      1767083517,
      1767083529,
      1767083555,
      1767083602,
      1767083615,
      1767083664,
      1767083680,
      1767083709,
      1767083752,
      1767083761,
      1767083792
    ],
    "wof:geomhash": "b24fd6049a76b4e36c51f412fdd0c36a",
    "wof:id": 2014435709,
    "wof:repo": "sfomuseum-data-flights-2025-12"
  },
  "bbox": [
    -123.17881,
    37.57704,
    -122.1228,
    38.37875
  ],
  "geometry": {"coordinates":[[-123.17881,38.37875],[-123.11619,38.32157],[-123.06842,38.27662],[-123.03635,38.24628],[-122.98053,38.19327],[-122.93604,38.15067],[-122.901,38.11722],[-122.8528,38.07117],[-122.81181,38.03209],[-122.76262,37.98515],[-122.72853,37.95242],[-122.68245,37.90819],[-122.64799,37.87533],[-122.62556,37.8544],[-122.57562,37.80754],[-122.54079,37.77462],[-122.50841,37.74383],[-122.49091,37.72733],[-122.4651,37.71077],[-122.43673,37.70265],[-122.3792,37.68821],[-122.33884,37.67841],[-122.30799,37.67131],[-122.2782,37.66436],[-122.24977,37.65718],[-122.19791,37.6432],[-122.19442,37.64226],[-122.15495,37.63155],[-122.12834,37.6156],[-122.1228,37.60619],[-122.12645,37.58461],[-122.17615,37.57704],[-122.19011,37.57772],[-122.24594,37.58033],[-122.26245,37.58328],[-122.28992,37.59152],[-122.3277,37.60257],[-122.33539,37.60482],[-122.36,37.61455]],"type":"LineString"}
}
