{
  "id": 2014426369,
  "type": "Feature",
  "properties": {
    "geom:area": 0,
    "geom:bbox": "-122.351260,37.492080,-121.288780,37.611040",
    "geom:latitude": 37.54472193662472,
    "geom:longitude": -121.82459922322424,
    "src:alt_label": "swim-approach",
    "src:geom": "swim",
    "swim:elevations": [
      4359,
      4089,
      3991,
      3647,
      3279,
      3171,
      3047,
      2965,
      2627,
      2539,
      2438,
      2376,
      2122,
      1897,
      1864,
      1495,
      1230,
      984,
      786,
      664,
      614,
      487,
      327,
      305,
      165,
      69
    ],
    "swim:geom": "approach",
    "swim:timestamps": [
      1767048082,
      1767048111,
      1767048122,
      1767048160,
      1767048198,
      1767048216,
      1767048268,
      1767048281,
      1767048324,
      1767048345,
      1767048381,
      1767048391,
      1767048441,
      1767048475,
      1767048481,
      1767048535,
      1767048567,
      1767048594,
      1767048628,
      1767048654,
      1767048666,
      1767048705,
      1767048748,
      1767048754,
      1767048795,
      1767048822
    ],
    "wof:geomhash": "1fcd0e068c907ec9b45e4824b8652470",
    "wof:id": 2014426369,
    "wof:repo": "sfomuseum-data-flights-2025-12"
  },
  "bbox": [
    -122.35126,
    37.49208,
    -121.28878,
    37.61104
  ],
  "geometry": {"coordinates":[[-121.28878,37.58933],[-121.35037,37.58251],[-121.37385,37.57996],[-121.45167,37.57115],[-121.53001,37.56192],[-121.5662,37.55769],[-121.66127,37.54216],[-121.68301,37.53714],[-121.75294,37.52026],[-121.78698,37.51205],[-121.84267,37.49869],[-121.85639,37.49535],[-121.9313,37.49208],[-121.97924,37.49416],[-121.9876,37.49561],[-122.05762,37.51726],[-122.09862,37.53071],[-122.13242,37.54174],[-122.17452,37.55534],[-122.20476,37.5651],[-122.21796,37.56936],[-122.25701,37.5821],[-122.29445,37.59305],[-122.29924,37.59443],[-122.33081,37.60397],[-122.35126,37.61104]],"type":"LineString"}
}
