{
  "id": 2014444459,
  "type": "Feature",
  "properties": {
    "geom:area": 0,
    "geom:bbox": "-122.386130,37.642510,-121.253680,38.420030",
    "geom:latitude": 38.08912025278621,
    "geom:longitude": -121.92518919419601,
    "src:alt_label": "swim-takeoff",
    "src:geom": "swim",
    "swim:elevations": [
      399,
      563,
      738,
      966,
      1333,
      1563,
      2112,
      2557,
      2818,
      3129,
      3195,
      3417,
      3607,
      4019,
      4346,
      4682,
      4998,
      5046,
      5290,
      5528,
      5780,
      6203,
      6357,
      6698,
      6966,
      7352,
      7593,
      7729,
      7898,
      8048,
      8241
    ],
    "swim:geom": "takeoff",
    "swim:timestamps": [
      1767222299,
      1767222323,
      1767222356,
      1767222383,
      1767222418,
      1767222436,
      1767222470,
      1767222502,
      1767222526,
      1767222554,
      1767222563,
      1767222598,
      1767222616,
      1767222652,
      1767222684,
      1767222714,
      1767222746,
      1767222752,
      1767222778,
      1767222799,
      1767222825,
      1767222864,
      1767222879,
      1767222913,
      1767222942,
      1767222982,
      1767223009,
      1767223027,
      1767223051,
      1767223081,
      1767223114
    ],
    "wof:geomhash": "03a137de4ce8aab660cdbda1fe8b2044",
    "wof:id": 2014444459,
    "wof:repo": "sfomuseum-data-flights-2025-12"
  },
  "bbox": [
    -122.38613,
    37.64251,
    -121.25368,
    38.42003
  ],
  "geometry": {"coordinates":[[-122.35487,37.64251],[-122.33728,37.65674],[-122.31376,37.68341],[-122.31648,37.71576],[-122.34101,37.75819],[-122.35409,37.78106],[-122.37712,37.82596],[-122.38613,37.86904],[-122.38488,37.90278],[-122.36675,37.93922],[-122.35601,37.94907],[-122.2982,37.97644],[-122.26564,37.98881],[-122.20029,38.01455],[-122.14119,38.0384],[-122.08376,38.0614],[-122.02093,38.08661],[-122.00907,38.0913],[-121.9591,38.11125],[-121.91591,38.12849],[-121.86155,38.1499],[-121.78069,38.18239],[-121.74928,38.19491],[-121.67944,38.22231],[-121.6157,38.24771],[-121.52938,38.28107],[-121.47064,38.30403],[-121.4313,38.31933],[-121.37984,38.34273],[-121.31939,38.37947],[-121.25368,38.42003]],"type":"LineString"}
}
