{
  "id": 2014435355,
  "type": "Feature",
  "properties": {
    "geom:area": 0,
    "geom:bbox": "-123.468070,37.266020,-122.137210,37.616240",
    "geom:latitude": 37.383235510232254,
    "geom:longitude": -122.7016239165188,
    "src:alt_label": "swim-approach",
    "src:geom": "swim",
    "swim:elevations": [
      5606,
      5239,
      4864,
      4805,
      4547,
      4315,
      3937,
      3779,
      3395,
      3200,
      3166,
      3135,
      3102,
      3048,
      3048,
      3048,
      3048,
      3048,
      3048,
      2957,
      2746,
      2739,
      2618,
      2496,
      2394,
      2249,
      2069,
      2007,
      1887,
      1768,
      1609,
      1551,
      1280,
      1061,
      768,
      526,
      460,
      308,
      158,
      124,
      170
    ],
    "swim:geom": "approach",
    "swim:timestamps": [
      1767129947,
      1767129983,
      1767130016,
      1767130022,
      1767130046,
      1767130069,
      1767130106,
      1767130121,
      1767130160,
      1767130196,
      1767130211,
      1767130226,
      1767130239,
      1767130287,
      1767130316,
      1767130334,
      1767130353,
      1767130377,
      1767130406,
      1767130430,
      1767130468,
      1767130494,
      1767130521,
      1767130545,
      1767130586,
      1767130613,
      1767130643,
      1767130672,
      1767130704,
      1767130737,
      1767130764,
      1767130773,
      1767130817,
      1767130840,
      1767130873,
      1767130917,
      1767130931,
      1767130967,
      1767131001,
      1767131012,
      1767131043
    ],
    "wof:geomhash": "4ed782038e511e0debe4feb95c488054",
    "wof:id": 2014435355,
    "wof:repo": "sfomuseum-data-flights-2025-12"
  },
  "bbox": [
    -123.46807,
    37.26602,
    -122.13721,
    37.61624
  ],
  "geometry": {"coordinates":[[-123.46807,37.4451],[-123.39028,37.42099],[-123.32052,37.39956],[-123.30826,37.39582],[-123.2589,37.38063],[-123.21363,37.36654],[-123.14153,37.34414],[-123.11202,37.335],[-123.03649,37.3116],[-122.97164,37.29147],[-122.94641,37.28358],[-122.92254,37.27606],[-122.90196,37.26962],[-122.82748,37.26602],[-122.78175,37.27664],[-122.7534,37.28326],[-122.72351,37.29032],[-122.68539,37.29915],[-122.63954,37.30992],[-122.60139,37.31875],[-122.54219,37.33246],[-122.50251,37.34166],[-122.46084,37.35122],[-122.42461,37.35954],[-122.35972,37.37443],[-122.31895,37.38379],[-122.27215,37.39458],[-122.22839,37.40449],[-122.18357,37.41696],[-122.14544,37.43952],[-122.13721,37.46867],[-122.14056,37.47843],[-122.17484,37.51792],[-122.19153,37.53471],[-122.21919,37.55548],[-122.26287,37.57391],[-122.27481,37.5789],[-122.30349,37.59099],[-122.3295,37.60187],[-122.33811,37.60556],[-122.36386,37.61624]],"type":"LineString"}
}
