{
  "id": 2014443555,
  "type": "Feature",
  "properties": {
    "geom:area": 0,
    "geom:bbox": "-122.363440,36.729210,-121.883410,37.614400",
    "geom:latitude": 37.21723435026566,
    "geom:longitude": -122.07297942608979,
    "src:alt_label": "swim-approach",
    "src:geom": "swim",
    "swim:elevations": [
      5004,
      4899,
      4681,
      4268,
      4177,
      3906,
      3821,
      3626,
      3506,
      3200,
      3111,
      2970,
      2859,
      2543,
      2527,
      2104,
      1932,
      1839,
      1548,
      1324,
      1258,
      1047,
      840,
      732,
      586,
      404,
      396,
      318,
      298,
      180,
      62,
      123
    ],
    "swim:geom": "approach",
    "swim:timestamps": [
      1767207141,
      1767207156,
      1767207182,
      1767207237,
      1767207246,
      1767207282,
      1767207294,
      1767207322,
      1767207338,
      1767207378,
      1767207402,
      1767207433,
      1767207453,
      1767207507,
      1767207510,
      1767207568,
      1767207589,
      1767207606,
      1767207643,
      1767207688,
      1767207703,
      1767207741,
      1767207775,
      1767207797,
      1767207826,
      1767207865,
      1767207868,
      1767207886,
      1767207892,
      1767207920,
      1767207948,
      1767207965
    ],
    "wof:geomhash": "62763bf4563374aed9e9aaf34756bf5e",
    "wof:id": 2014443555,
    "wof:repo": "sfomuseum-data-flights-2025-12"
  },
  "bbox": [
    -122.36344,
    36.72921,
    -121.88341,
    37.6144
  ],
  "geometry": {"coordinates":[[-121.88341,36.72921],[-121.89521,36.75145],[-121.90794,36.79162],[-121.93181,36.87632],[-121.93569,36.88996],[-121.95077,36.94411],[-121.95689,36.96173],[-121.97269,37.00226],[-121.98129,37.02446],[-122.00334,37.08097],[-122.01638,37.1142],[-122.03312,37.1571],[-122.04335,37.18312],[-122.07051,37.25224],[-122.07201,37.25606],[-122.10112,37.33051],[-122.11205,37.35777],[-122.12066,37.37961],[-122.13662,37.42654],[-122.15386,37.47633],[-122.15862,37.4912],[-122.17064,37.52596],[-122.19813,37.54426],[-122.21856,37.55297],[-122.24673,37.56478],[-122.28221,37.57966],[-122.28472,37.58073],[-122.29958,37.58707],[-122.30451,37.58914],[-122.32748,37.59878],[-122.34991,37.60816],[-122.36344,37.6144]],"type":"LineString"}
}
