{
  "id": 2014426399,
  "type": "Feature",
  "properties": {
    "geom:area": 0,
    "geom:bbox": "-123.502260,36.909090,-122.089640,37.612720",
    "geom:latitude": 37.27955799713328,
    "geom:longitude": -122.70699526424579,
    "src:alt_label": "swim-approach",
    "src:geom": "swim",
    "swim:elevations": [
      7125,
      6963,
      6596,
      6490,
      6253,
      6088,
      5766,
      5442,
      4973,
      4584,
      4194,
      3787,
      3428,
      3192,
      3069,
      3017,
      2832,
      2772,
      2658,
      2443,
      2438,
      2438,
      2438,
      2438,
      2438,
      2438,
      2438,
      2438,
      2438,
      2438,
      2432,
      2305,
      2161,
      1776,
      1689,
      1503,
      1363,
      1156,
      976,
      846,
      640,
      521,
      447,
      316,
      154,
      0
    ],
    "swim:geom": "approach",
    "swim:timestamps": [
      1767048920,
      1767048933,
      1767048961,
      1767048971,
      1767048987,
      1767049002,
      1767049032,
      1767049061,
      1767049100,
      1767049131,
      1767049161,
      1767049193,
      1767049222,
      1767049243,
      1767049273,
      1767049297,
      1767049332,
      1767049358,
      1767049382,
      1767049408,
      1767049429,
      1767049456,
      1767049497,
      1767049514,
      1767049533,
      1767049539,
      1767049551,
      1767049565,
      1767049602,
      1767049638,
      1767049663,
      1767049694,
      1767049718,
      1767049769,
      1767049781,
      1767049809,
      1767049830,
      1767049865,
      1767049913,
      1767049937,
      1767049976,
      1767049997,
      1767050015,
      1767050047,
      1767050089,
      1767050126
    ],
    "wof:geomhash": "d59e8e8b89d70564835f322e5bec978f",
    "wof:id": 2014426399,
    "wof:repo": "sfomuseum-data-flights-2025-12"
  },
  "bbox": [
    -123.50226,
    36.90909,
    -122.08964,
    37.61272
  ],
  "geometry": {"coordinates":[[-123.50226,36.90909],[-123.47832,36.92287],[-123.42537,36.95125],[-123.40789,36.96052],[-123.37671,36.97704],[-123.35012,36.99319],[-123.29581,37.02253],[-123.24343,37.05112],[-123.1752,37.08828],[-123.12081,37.11814],[-123.06848,37.14663],[-123.01219,37.17695],[-122.96232,37.2038],[-122.92726,37.22303],[-122.8776,37.24948],[-122.83546,37.26398],[-122.77478,37.27845],[-122.73197,37.28829],[-122.69547,37.29652],[-122.65546,37.30588],[-122.623,37.3139],[-122.5812,37.32331],[-122.5177,37.33881],[-122.49296,37.34433],[-122.46331,37.35085],[-122.45389,37.35314],[-122.43572,37.35762],[-122.41449,37.36252],[-122.35789,37.37512],[-122.30462,37.38713],[-122.26932,37.39522],[-122.22525,37.40546],[-122.1927,37.41287],[-122.12869,37.4371],[-122.11363,37.44291],[-122.08964,37.46478],[-122.09276,37.48511],[-122.12125,37.50985],[-122.16984,37.53181],[-122.19317,37.54263],[-122.23305,37.55893],[-122.25392,37.56803],[-122.27076,37.57494],[-122.29755,37.5861],[-122.33129,37.60036],[-122.3604,37.61272]],"type":"LineString"}
}
