{
  "id": 2014446065,
  "type": "Feature",
  "properties": {
    "geom:area": 0,
    "geom:bbox": "-122.534470,36.740600,-121.452030,37.744510",
    "geom:latitude": 37.27165847654289,
    "geom:longitude": -122.08674304166793,
    "src:alt_label": "swim-takeoff",
    "src:geom": "swim",
    "swim:elevations": [
      152,
      581,
      653,
      964,
      1253,
      1387,
      1870,
      2444,
      2704,
      2888,
      3249,
      3441,
      3570,
      3846,
      3962,
      4272,
      4461,
      4733,
      5212,
      5276,
      5874,
      6152,
      6284,
      6574,
      7090,
      7261,
      7460,
      7683,
      7882,
      8071,
      8411,
      8457,
      9066,
      9295,
      9507,
      9594
    ],
    "swim:geom": "takeoff",
    "swim:timestamps": [
      1767173859,
      1767173907,
      1767173921,
      1767173957,
      1767173996,
      1767174014,
      1767174047,
      1767174085,
      1767174101,
      1767174113,
      1767174141,
      1767174170,
      1767174192,
      1767174227,
      1767174236,
      1767174260,
      1767174276,
      1767174295,
      1767174327,
      1767174332,
      1767174384,
      1767174411,
      1767174425,
      1767174455,
      1767174505,
      1767174521,
      1767174545,
      1767174572,
      1767174610,
      1767174644,
      1767174686,
      1767174693,
      1767174746,
      1767174773,
      1767174803,
      1767174813
    ],
    "wof:geomhash": "0998bf22c0ea2d6bdd8b3717c89349cf",
    "wof:id": 2014446065,
    "wof:repo": "sfomuseum-data-flights-2025-12"
  },
  "bbox": [
    -122.53447,
    36.7406,
    -121.45203,
    37.74451
  ],
  "geometry": {"coordinates":[[-122.36728,37.63186],[-122.36256,37.67271],[-122.36238,37.68738],[-122.39939,37.71799],[-122.45709,37.74451],[-122.48583,37.74047],[-122.51092,37.70542],[-122.5282,37.65935],[-122.53447,37.63992],[-122.53221,37.62548],[-122.51445,37.5944],[-122.49438,37.56171],[-122.47268,37.53516],[-122.42491,37.49793],[-122.41156,37.48761],[-122.37635,37.46067],[-122.35183,37.44178],[-122.32314,37.41971],[-122.27439,37.38229],[-122.26782,37.37726],[-122.18695,37.31492],[-122.1433,37.28115],[-122.12162,37.26442],[-122.07213,37.22611],[-121.99002,37.16246],[-121.96311,37.14154],[-121.92294,37.11041],[-121.87641,37.07414],[-121.81048,37.02273],[-121.74976,36.9751],[-121.67234,36.91632],[-121.65979,36.90636],[-121.56506,36.83198],[-121.5205,36.79482],[-121.46928,36.75485],[-121.45203,36.7406]],"type":"LineString"}
}
