{
  "id": 2014435473,
  "type": "Feature",
  "properties": {
    "date:inception_lower": "2025-12-30",
    "date:inception_upper": "2025-12-30",
    "edtf:cessation": "",
    "edtf:inception": "2025-12-30",
    "flysfo:actual_timestamp": -1,
    "flysfo:airline": "UA",
    "flysfo:base_airline": "",
    "flysfo:base_flight_number": "9318",
    "flysfo:date": "2025-12-30",
    "flysfo:estimated_timestamp": 1767112800,
    "flysfo:event": "A",
    "flysfo:flight_number": "UA5313",
    "flysfo:gate": "E11",
    "flysfo:journey": "ACV-SFO",
    "flysfo:scheduled_timestamp": 1767112920,
    "flysfo:timestamp": 1767112920,
    "geom:area": 0,
    "geom:bbox": "-124.108020,37.617990,-122.370943,40.971689",
    "geom:latitude": 39.294839499999995,
    "geom:longitude": -123.2394815,
    "iata:airline": "UA",
    "iata:base_airline": "",
    "icao:airline": "UAL",
    "icao:base_airline": "ANZ",
    "lbl:latitude": 37.619367,
    "lbl:longitude": -122.38387,
    "sfomuseum:airline_id": 1159285413,
    "sfomuseum:arrival_id": 102527513,
    "sfomuseum:base_flight_id": "20251230-A-ANZ-9318",
    "sfomuseum:departure_id": 102531997,
    "sfomuseum:flight_id": "20251230-A-UAL-5313",
    "sfomuseum:flight_number": [
      "UAL5313",
      "UA5313"
    ],
    "sfomuseum:placetype": "flight",
    "src:geom": "flysfo",
    "wof:belongsto": [
      1947304067,
      102527513,
      1947304511,
      102191575,
      85633793,
      102087579,
      85922583,
      554784711,
      85688637,
      1947304527,
      1947304447,
      102085387
    ],
    "wof:country": "US",
    "wof:created": 1767197329,
    "wof:geomhash": "dcc7d5812c5708e8b42757f5054e75d6",
    "wof:hierarchy": [
      {
        "building_id": 1947304067,
        "campus_id": 102527513,
        "concourse_id": 1947304511,
        "continent_id": 102191575,
        "country_id": 85633793,
        "county_id": 102087579,
        "custom_id": 2014435473,
        "flight_id": 2014435473,
        "locality_id": 85922583,
        "postalcode_id": 554784711,
        "region_id": 85688637,
        "venue_id": 1947304527,
        "wing_id": 1947304447
      },
      {
        "building_id": 1947304067,
        "campus_id": 102527513,
        "concourse_id": 1947304511,
        "continent_id": 102191575,
        "country_id": 85633793,
        "county_id": 102085387,
        "custom_id": 2014435473,
        "flight_id": 2014435473,
        "region_id": 85688637,
        "venue_id": 1947304527,
        "wing_id": 1947304447
      }
    ],
    "wof:id": 2014435473,
    "wof:involves": [
      102527513,
      102531997,
      1159285413,
      1947304527,
      1159283697
    ],
    "wof:lastmodified": 1767197329,
    "wof:name": "UA5313 (ACV-SFO)",
    "wof:parent_id": 1947304527,
    "wof:placetype": "custom",
    "wof:placetype_alt": [
      "flight"
    ],
    "wof:repo": "sfomuseum-data-flights-2025-12",
    "wof:superseded_by": [],
    "wof:supersedes": []
  },
  "bbox": [
    -124.10802,
    37.61799,
    -122.370943,
    40.971689
  ],
  "geometry": {"coordinates":[[-124.10802,40.971689],[-122.370943,37.61799]],"type":"MultiPoint"}
}
