{
  "id": 2014420179,
  "type": "Feature",
  "properties": {
    "geom:area": 0,
    "geom:bbox": "-122.363610,37.633030,-121.263270,38.146450",
    "geom:latitude": 37.95263980416558,
    "geom:longitude": -121.9063099531337,
    "src:alt_label": "swim-takeoff",
    "src:geom": "swim",
    "swim:elevations": [
      244,
      574,
      792,
      950,
      1463,
      1826,
      2153,
      2740,
      3143,
      3370,
      3451,
      3639,
      4143,
      4454,
      4638,
      4977,
      5467,
      5774,
      6044,
      6261,
      6648,
      6903,
      7122,
      7300,
      7380,
      7738,
      7813
    ],
    "swim:geom": "takeoff",
    "swim:timestamps": [
      1766965887,
      1766965916,
      1766965942,
      1766965965,
      1766966003,
      1766966030,
      1766966054,
      1766966093,
      1766966123,
      1766966154,
      1766966171,
      1766966206,
      1766966242,
      1766966266,
      1766966283,
      1766966312,
      1766966363,
      1766966393,
      1766966420,
      1766966441,
      1766966484,
      1766966515,
      1766966546,
      1766966570,
      1766966582,
      1766966636,
      1766966648
    ],
    "wof:geomhash": "9d17247e71176cbed0584d14e237834a",
    "wof:id": 2014420179,
    "wof:repo": "sfomuseum-data-flights-2025-12"
  },
  "bbox": [
    -122.36361,
    37.63303,
    -121.26327,
    38.14645
  ],
  "geometry": {"coordinates":[[-122.36361,37.63303],[-122.34525,37.64971],[-122.32476,37.66654],[-122.31203,37.68722],[-122.32912,37.73095],[-122.34584,37.76219],[-122.35991,37.79109],[-122.36309,37.83919],[-122.32704,37.86163],[-122.2787,37.87481],[-122.25009,37.88262],[-122.18515,37.90035],[-122.11498,37.91929],[-122.06846,37.93179],[-122.03513,37.94087],[-121.97668,37.95673],[-121.87371,37.98433],[-121.8121,38.00094],[-121.75658,38.0159],[-121.71286,38.02754],[-121.62347,38.05128],[-121.55648,38.06917],[-121.48941,38.08699],[-121.43687,38.10084],[-121.41045,38.10782],[-121.29016,38.13921],[-121.26327,38.14645]],"type":"LineString"}
}
