{
  "id": 2014410433,
  "type": "Feature",
  "properties": {
    "geom:area": 0,
    "geom:bbox": "-122.349750,37.644010,-121.246310,37.965380",
    "geom:latitude": 37.84195347089358,
    "geom:longitude": -121.81079441935638,
    "src:alt_label": "swim-takeoff",
    "src:geom": "swim",
    "swim:elevations": [
      416,
      565,
      822,
      873,
      1409,
      1771,
      2532,
      2859,
      3222,
      3229,
      3648,
      3833,
      4396,
      4735,
      4901,
      5367,
      5714,
      5909,
      6361,
      6437,
      6853,
      7119
    ],
    "swim:geom": "takeoff",
    "swim:timestamps": [
      1766823267,
      1766823293,
      1766823324,
      1766823330,
      1766823370,
      1766823397,
      1766823448,
      1766823472,
      1766823502,
      1766823511,
      1766823567,
      1766823589,
      1766823626,
      1766823656,
      1766823668,
      1766823708,
      1766823745,
      1766823764,
      1766823807,
      1766823816,
      1766823856,
      1766823883
    ],
    "wof:geomhash": "16fb1cce15dff3d8e8d30c05e4e2d83d",
    "wof:id": 2014410433,
    "wof:repo": "sfomuseum-data-flights-2025-12"
  },
  "bbox": [
    -122.34975,
    37.64401,
    -121.24631,
    37.96538
  ],
  "geometry": {"coordinates":[[-122.34975,37.64401],[-122.32553,37.65742],[-122.29117,37.67641],[-122.28399,37.68048],[-122.23477,37.70699],[-122.19828,37.72578],[-122.13068,37.76085],[-122.09821,37.77766],[-122.05638,37.79915],[-122.0432,37.8061],[-121.94425,37.83719],[-121.89902,37.84566],[-121.82316,37.8597],[-121.76134,37.8713],[-121.73399,37.87638],[-121.64747,37.892],[-121.56573,37.9071],[-121.5243,37.91475],[-121.42591,37.93286],[-121.40509,37.93668],[-121.31183,37.9536],[-121.24631,37.96538]],"type":"LineString"}
}
