{
  "id": 2014425777,
  "type": "Feature",
  "properties": {
    "date:cessation_lower": "2025-12-29",
    "date:cessation_upper": "2025-12-29",
    "date:inception_lower": "1970-01-01",
    "date:inception_upper": "1970-01-01",
    "edtf:cessation": "2025-12-29T03:35:39-08:00",
    "edtf:inception": "1970-01-01T00:00:00Z",
    "flysfo:actual_timestamp": -1,
    "flysfo:airline": "MX",
    "flysfo:date": "2025-12-29",
    "flysfo:estimated_timestamp": 1767038160,
    "flysfo:event": "A",
    "flysfo:flight_number": "MX228",
    "flysfo:gate": "",
    "flysfo:journey": "SDF-SFO",
    "flysfo:scheduled_timestamp": 1767038520,
    "flysfo:timestamp": 1767038520,
    "geom:area": 0,
    "geom:bbox": "-122.370943,37.617990,-85.744415,38.187123",
    "geom:latitude": 37.9025565,
    "geom:longitude": -104.05767900000001,
    "iata:airline": "MX",
    "icao:aircraft": "BCS3",
    "icao:airline": "MXY",
    "lbl:latitude": 37.61799,
    "lbl:longitude": -122.370943,
    "sfomuseum:aircraft_id": 1813375783,
    "sfomuseum:airline_id": 1763552131,
    "sfomuseum:arrival_id": 102527513,
    "sfomuseum:departure_id": 102533321,
    "sfomuseum:flight_id": "20251229-A-MXY-228",
    "sfomuseum:flight_number": [
      "MXY228",
      "MX228"
    ],
    "sfomuseum:placetype": "flight",
    "src:geom": "flysfo",
    "src:geom_alt": [
      "swim-approach"
    ],
    "swim:tail_number": "N228BZ",
    "wof:belongsto": [],
    "wof:country": "US",
    "wof:created": 1767110825,
    "wof:geomhash": "0a450debd31d00abad70d92377328dce",
    "wof:hierarchy": [
      {
        "custom_id": 2014425777,
        "flight_id": 2014425777
      }
    ],
    "wof:id": 2014425777,
    "wof:involves": [
      102527513,
      102533321,
      1763552131,
      1813375783
    ],
    "wof:lastmodified": 1767111517,
    "wof:name": "MX228 (SDF-SFO)",
    "wof:parent_id": -1,
    "wof:placetype": "custom",
    "wof:placetype_alt": [
      "flight"
    ],
    "wof:repo": "sfomuseum-data-flights-2025-12",
    "wof:superseded_by": [],
    "wof:supersedes": []
  },
  "bbox": [
    -122.370943,
    37.61799,
    -85.744415,
    38.187123
  ],
  "geometry": {"coordinates":[[-85.744415,38.187123],[-122.370943,37.61799]],"type":"MultiPoint"}
}
