{
  "id": 2014422653,
  "type": "Feature",
  "properties": {
    "geom:area": 0,
    "geom:bbox": "-123.476860,37.174500,-122.419820,37.665600",
    "geom:latitude": 37.442288763221406,
    "geom:longitude": -122.95137349004165,
    "src:alt_label": "swim-takeoff",
    "src:geom": "swim",
    "swim:elevations": [
      533,
      670,
      825,
      1030,
      1381,
      1625,
      1863,
      2422,
      2622,
      2934,
      3139,
      3139,
      3407,
      3630,
      3762,
      4148,
      4430,
      4730,
      4765,
      4970,
      5162,
      5458,
      5422
    ],
    "swim:geom": "takeoff",
    "swim:timestamps": [
      1766964838,
      1766964854,
      1766964886,
      1766964924,
      1766964956,
      1766964973,
      1766964992,
      1766965040,
      1766965061,
      1766965091,
      1766965138,
      1766965163,
      1766965195,
      1766965226,
      1766965239,
      1766965281,
      1766965316,
      1766965347,
      1766965352,
      1766965373,
      1766965398,
      1766965433,
      1766965454
    ],
    "wof:geomhash": "d9ed80f09e63c234d0d5795e6209552b",
    "wof:id": 2014422653,
    "wof:repo": "sfomuseum-data-flights-2025-12"
  },
  "bbox": [
    -123.47686,
    37.1745,
    -122.41982,
    37.6656
  ],
  "geometry": {"coordinates":[[-122.41982,37.63774],[-122.4349,37.64445],[-122.46944,37.66023],[-122.52384,37.6656],[-122.56601,37.6397],[-122.58655,37.62373],[-122.60966,37.60729],[-122.67341,37.566],[-122.70178,37.54761],[-122.7455,37.52256],[-122.82478,37.49201],[-122.87355,37.47406],[-122.94133,37.44857],[-123.00814,37.42298],[-123.03746,37.4115],[-123.12923,37.37393],[-123.20701,37.33727],[-123.27394,37.29891],[-123.28454,37.29256],[-123.32831,37.26595],[-123.38053,37.23393],[-123.45668,37.1869],[-123.47686,37.1745]],"type":"LineString"}
}
