{
  "id": 2014435723,
  "type": "Feature",
  "properties": {
    "geom:area": 0,
    "geom:bbox": "-123.458640,37.262690,-122.095930,37.611500",
    "geom:latitude": 37.38429495590389,
    "geom:longitude": -122.67291848944886,
    "src:alt_label": "swim-approach",
    "src:geom": "swim",
    "swim:elevations": [
      5315,
      5020,
      4702,
      4493,
      4099,
      4039,
      3742,
      3319,
      3223,
      3174,
      3048,
      3048,
      3048,
      3009,
      2920,
      2804,
      2747,
      2727,
      2655,
      2605,
      2559,
      2439,
      2438,
      2356,
      2182,
      1966,
      1344,
      1209,
      1122,
      919,
      914,
      914,
      787,
      667,
      519,
      449,
      212,
      113,
      46
    ],
    "swim:geom": "approach",
    "swim:timestamps": [
      1767159803,
      1767159833,
      1767159864,
      1767159886,
      1767159928,
      1767159934,
      1767159967,
      1767160012,
      1767160045,
      1767160057,
      1767160106,
      1767160124,
      1767160168,
      1767160195,
      1767160207,
      1767160254,
      1767160284,
      1767160303,
      1767160339,
      1767160372,
      1767160393,
      1767160431,
      1767160440,
      1767160477,
      1767160501,
      1767160531,
      1767160586,
      1767160616,
      1767160645,
      1767160675,
      1767160707,
      1767160711,
      1767160768,
      1767160789,
      1767160816,
      1767160834,
      1767160885,
      1767160911,
      1767160923
    ],
    "wof:geomhash": "c5ea8faeb38ed760455e5b59c6a01e31",
    "wof:id": 2014435723,
    "wof:repo": "sfomuseum-data-flights-2025-12"
  },
  "bbox": [
    -123.45864,
    37.26269,
    -122.09593,
    37.6115
  ],
  "geometry": {"coordinates":[[-123.45864,37.43715],[-123.39548,37.41827],[-123.33006,37.39865],[-123.28508,37.3852],[-123.20063,37.35986],[-123.18879,37.35628],[-123.12372,37.33666],[-123.03708,37.31038],[-122.97616,37.29203],[-122.95525,37.28565],[-122.87493,37.26269],[-122.84489,37.2627],[-122.77214,37.27864],[-122.72818,37.28928],[-122.7089,37.29391],[-122.63326,37.31149],[-122.58396,37.32281],[-122.55138,37.33043],[-122.49294,37.34384],[-122.43975,37.35614],[-122.40605,37.36387],[-122.34724,37.37739],[-122.33287,37.38065],[-122.27318,37.39437],[-122.23804,37.40243],[-122.19815,37.41159],[-122.12914,37.42729],[-122.10184,37.44715],[-122.09593,37.47728],[-122.11517,37.50382],[-122.14839,37.52538],[-122.15301,37.52736],[-122.21453,37.55351],[-122.2357,37.56243],[-122.26137,37.57322],[-122.27845,37.58045],[-122.32157,37.59855],[-122.34265,37.60743],[-122.35234,37.6115]],"type":"LineString"}
}
