{
  "id": 2014431199,
  "type": "Feature",
  "properties": {
    "geom:area": 0,
    "geom:bbox": "-123.501230,37.638440,-122.421730,37.731990",
    "geom:latitude": 37.70006416059185,
    "geom:longitude": -122.95821008472507,
    "src:alt_label": "swim-takeoff",
    "src:geom": "swim",
    "swim:elevations": [
      511,
      750,
      1047,
      1237,
      1338,
      1426,
      1620,
      2001,
      2424,
      2556,
      2973,
      3113,
      3281,
      3414,
      3499,
      3822,
      3861,
      4188,
      4364,
      4820,
      5087,
      5155
    ],
    "swim:geom": "takeoff",
    "swim:timestamps": [
      1767040588,
      1767040615,
      1767040641,
      1767040676,
      1767040691,
      1767040704,
      1767040725,
      1767040756,
      1767040796,
      1767040812,
      1767040857,
      1767040871,
      1767040908,
      1767040942,
      1767040957,
      1767041007,
      1767041010,
      1767041055,
      1767041074,
      1767041126,
      1767041156,
      1767041165
    ],
    "wof:geomhash": "4adea8ce0176b7def4a2ac90a1b753e8",
    "wof:id": 2014431199,
    "wof:repo": "sfomuseum-data-flights-2025-12"
  },
  "bbox": [
    -123.50123,
    37.63844,
    -122.42173,
    37.73199
  ],
  "geometry": {"coordinates":[[-122.42173,37.63844],[-122.44972,37.6508],[-122.47696,37.6628],[-122.51729,37.67604],[-122.5381,37.67733],[-122.55742,37.67841],[-122.58946,37.68026],[-122.63708,37.68295],[-122.70103,37.68642],[-122.72808,37.68807],[-122.80815,37.69284],[-122.83283,37.69434],[-122.90209,37.69872],[-122.97222,37.70267],[-123.00419,37.70458],[-123.11885,37.71085],[-123.12584,37.71124],[-123.23105,37.71724],[-123.27607,37.71974],[-123.40392,37.72675],[-123.47804,37.73061],[-123.50123,37.73199]],"type":"LineString"}
}
