{
  "id": 2014426573,
  "type": "Feature",
  "properties": {
    "geom:area": 0,
    "geom:bbox": "-122.622780,37.323880,-121.279940,37.662590",
    "geom:latitude": 37.507734672711074,
    "geom:longitude": -122.13264026165963,
    "src:alt_label": "swim-approach",
    "src:geom": "swim",
    "swim:elevations": [
      4391,
      4122,
      3718,
      3657,
      3467,
      3238,
      3169,
      3130,
      3072,
      2807,
      2742,
      2466,
      2344,
      2318,
      2158,
      2074,
      2036,
      1669,
      1473,
      1410,
      1342,
      1319,
      1228,
      932,
      735,
      610,
      561,
      555,
      460,
      399,
      320,
      209,
      152,
      584,
      854,
      914,
      914,
      919,
      1265,
      1659,
      1828,
      1829,
      1829,
      1829,
      1829,
      1829,
      1829,
      1829,
      1829,
      1829,
      1829,
      1829,
      1829,
      1829,
      1829,
      1829,
      1829,
      1829,
      1829,
      1829,
      1826,
      1736,
      1507,
      1374,
      1282,
      1217,
      1219,
      1189,
      1040,
      1027,
      933,
      794,
      751,
      570,
      389,
      270,
      192,
      152,
      73,
      0
    ],
    "swim:geom": "approach",
    "swim:timestamps": [
      1767036616,
      1767036642,
      1767036685,
      1767036694,
      1767036711,
      1767036735,
      1767036756,
      1767036772,
      1767036792,
      1767036834,
      1767036843,
      1767036894,
      1767036921,
      1767036931,
      1767036955,
      1767036984,
      1767036995,
      1767037047,
      1767037076,
      1767037094,
      1767037125,
      1767037137,
      1767037157,
      1767037194,
      1767037220,
      1767037250,
      1767037262,
      1767037265,
      1767037291,
      1767037317,
      1767037337,
      1767037373,
      1767037387,
      1767037434,
      1767037457,
      1767037482,
      1767037510,
      1767037533,
      1767037579,
      1767037614,
      1767037648,
      1767037662,
      1767037674,
      1767037687,
      1767037738,
      1767037741,
      1767037790,
      1767037810,
      1767037846,
      1767037853,
      1767037862,
      1767037907,
      1767037938,
      1767037953,
      1767037989,
      1767038015,
      1767038040,
      1767038067,
      1767038083,
      1767038122,
      1767038145,
      1767038167,
      1767038205,
      1767038233,
      1767038267,
      1767038296,
      1767038324,
      1767038343,
      1767038392,
      1767038403,
      1767038421,
      1767038448,
      1767038460,
      1767038495,
      1767038542,
      1767038578,
      1767038600,
      1767038606,
      1767038630,
      1767038645
    ],
    "wof:geomhash": "9a4553f728908bf131e184efd665d4d3",
    "wof:id": 2014426573,
    "wof:repo": "sfomuseum-data-flights-2025-12"
  },
  "bbox": [
    -122.62278,
    37.32388,
    -121.27994,
    37.66259
  ],
  "geometry": {"coordinates":[[-121.27994,37.59042],[-121.33678,37.58393],[-121.42567,37.57414],[-121.44435,37.57202],[-121.48063,37.5678],[-121.52972,37.56189],[-121.56951,37.55719],[-121.60081,37.55354],[-121.63486,37.54791],[-121.70316,37.5323],[-121.71882,37.52849],[-121.80021,37.50871],[-121.84059,37.49908],[-121.85385,37.49587],[-121.88947,37.49134],[-121.93002,37.49228],[-121.94364,37.49268],[-122.01107,37.50197],[-122.04661,37.51362],[-122.06694,37.5205],[-122.10178,37.53131],[-122.11406,37.53529],[-122.13313,37.54157],[-122.16843,37.55342],[-122.19432,37.5615],[-122.22443,37.57158],[-122.23535,37.57502],[-122.23811,37.57587],[-122.25986,37.58295],[-122.28033,37.58885],[-122.29561,37.59328],[-122.32343,37.60138],[-122.33422,37.60487],[-122.37503,37.62104],[-122.40471,37.63123],[-122.43791,37.64187],[-122.47334,37.6535],[-122.50152,37.66259],[-122.56018,37.66112],[-122.57866,37.62298],[-122.58899,37.58456],[-122.59336,37.56841],[-122.59728,37.55383],[-122.60092,37.5401],[-122.61688,37.4816],[-122.61784,37.47819],[-122.62278,37.42233],[-122.6092,37.40067],[-122.57427,37.37044],[-122.56419,37.3668],[-122.55152,37.36256],[-122.48694,37.34685],[-122.44233,37.33839],[-122.41997,37.33415],[-122.36645,37.32629],[-122.32724,37.32388],[-122.2916,37.32857],[-122.2557,37.33616],[-122.23564,37.34054],[-122.1876,37.35061],[-122.16188,37.35767],[-122.14592,37.37246],[-122.12177,37.39877],[-122.10441,37.41757],[-122.08288,37.44148],[-122.089,37.46275],[-122.10832,37.48057],[-122.12114,37.49262],[-122.15313,37.52366],[-122.16241,37.52899],[-122.17952,37.53646],[-122.20534,37.54735],[-122.21685,37.55204],[-122.24951,37.56598],[-122.28636,37.58141],[-122.31223,37.59229],[-122.3278,37.59885],[-122.3321,37.60072],[-122.34947,37.60791],[-122.36004,37.61261]],"type":"LineString"}
}
