{
  "id": 2014447523,
  "type": "Feature",
  "properties": {
    "geom:area": 0,
    "geom:bbox": "-122.364860,37.630860,-121.305520,37.954630",
    "geom:latitude": 37.83223422036987,
    "geom:longitude": -121.85000437750331,
    "src:alt_label": "swim-takeoff",
    "src:geom": "swim",
    "swim:elevations": [
      152,
      659,
      897,
      1145,
      1195,
      1463,
      1697,
      2001,
      2592,
      2923,
      3288,
      3430,
      3565,
      3732,
      4067,
      4441,
      4698,
      4798,
      5379,
      5665,
      5809,
      6089,
      6260,
      6517
    ],
    "swim:geom": "takeoff",
    "swim:timestamps": [
      1767173385,
      1767173417,
      1767173444,
      1767173480,
      1767173492,
      1767173520,
      1767173540,
      1767173561,
      1767173605,
      1767173629,
      1767173663,
      1767173684,
      1767173711,
      1767173727,
      1767173757,
      1767173786,
      1767173814,
      1767173823,
      1767173874,
      1767173907,
      1767173924,
      1767173954,
      1767173976,
      1767174005
    ],
    "wof:geomhash": "a4bb16c63632a0b0986435766a83a5d2",
    "wof:id": 2014447523,
    "wof:repo": "sfomuseum-data-flights-2025-12"
  },
  "bbox": [
    -122.36486,
    37.63086,
    -121.30552,
    37.95463
  ],
  "geometry": {"coordinates":[[-122.36486,37.63086],[-122.34582,37.65103],[-122.3231,37.66228],[-122.28983,37.67874],[-122.27671,37.68515],[-122.24341,37.70197],[-122.218,37.71528],[-122.19087,37.72957],[-122.12937,37.76143],[-122.09594,37.77875],[-122.04763,37.80376],[-122.01391,37.82066],[-121.96288,37.83385],[-121.93218,37.83935],[-121.86968,37.8511],[-121.8081,37.86268],[-121.74898,37.8737],[-121.72925,37.87729],[-121.61382,37.89838],[-121.53774,37.91236],[-121.49805,37.91962],[-121.4283,37.93241],[-121.37687,37.94174],[-121.30552,37.95463]],"type":"LineString"}
}
