{
  "id": 2014436695,
  "type": "Feature",
  "properties": {
    "geom:area": 0,
    "geom:bbox": "-122.365170,37.630390,-121.245920,38.124640",
    "geom:latitude": 37.89398596459464,
    "geom:longitude": -121.81343750008205,
    "src:alt_label": "swim-takeoff",
    "src:geom": "swim",
    "swim:elevations": [
      244,
      782,
      852,
      1207,
      1480,
      1741,
      2119,
      2576,
      2667,
      3317,
      3420,
      3535,
      4064,
      4232,
      4361,
      4795,
      5026,
      5294,
      5449,
      5706,
      5856,
      6059,
      6189,
      6250
    ],
    "swim:geom": "takeoff",
    "swim:timestamps": [
      1767111431,
      1767111473,
      1767111480,
      1767111530,
      1767111563,
      1767111593,
      1767111617,
      1767111653,
      1767111661,
      1767111718,
      1767111734,
      1767111751,
      1767111804,
      1767111828,
      1767111845,
      1767111885,
      1767111913,
      1767111941,
      1767111968,
      1767112009,
      1767112043,
      1767112073,
      1767112093,
      1767112115
    ],
    "wof:geomhash": "f7b5804f3158634b7f767ca6469ba19b",
    "wof:id": 2014436695,
    "wof:repo": "sfomuseum-data-flights-2025-12"
  },
  "bbox": [
    -122.36517,
    37.63039,
    -121.24592,
    38.12464
  ],
  "geometry": {"coordinates":[[-122.36517,37.63039],[-122.3374,37.65035],[-122.33194,37.65342],[-122.28887,37.67814],[-122.25167,37.69869],[-122.21234,37.71879],[-122.1805,37.73556],[-122.1312,37.76101],[-122.12049,37.7665],[-122.03991,37.8081],[-122.01582,37.82044],[-121.98714,37.83295],[-121.8941,37.87006],[-121.84898,37.88794],[-121.81729,37.90052],[-121.73919,37.93151],[-121.68294,37.95369],[-121.62629,37.976],[-121.57123,37.99762],[-121.48489,38.03148],[-121.41058,38.06056],[-121.34264,38.08702],[-121.29749,38.10467],[-121.24592,38.12464]],"type":"LineString"}
}
