{
  "id": 2014429191,
  "type": "Feature",
  "properties": {
    "geom:area": 0,
    "geom:bbox": "-122.339330,37.649820,-121.274130,38.107160",
    "geom:latitude": 37.882814684428865,
    "geom:longitude": -121.80895334605515,
    "src:alt_label": "swim-takeoff",
    "src:geom": "swim",
    "swim:elevations": [
      582,
      649,
      1025,
      1393,
      1967,
      2104,
      3198,
      3286,
      3412,
      3564,
      4147,
      4651,
      4754,
      5234,
      5326,
      5666,
      5782,
      6236,
      6417,
      6880,
      6973
    ],
    "swim:geom": "takeoff",
    "swim:timestamps": [
      1767023663,
      1767023675,
      1767023721,
      1767023753,
      1767023788,
      1767023796,
      1767023874,
      1767023890,
      1767023916,
      1767023943,
      1767023988,
      1767024028,
      1767024037,
      1767024088,
      1767024096,
      1767024144,
      1767024155,
      1767024199,
      1767024216,
      1767024264,
      1767024273
    ],
    "wof:geomhash": "0a03bd28ed32a5f00126f3e548199456",
    "wof:id": 2014429191,
    "wof:repo": "sfomuseum-data-flights-2025-12"
  },
  "bbox": [
    -122.33933,
    37.64982,
    -121.27413,
    38.10716
  ],
  "geometry": {"coordinates":[[-122.33933,37.64982],[-122.32868,37.65543],[-122.27816,37.68439],[-122.23686,37.70653],[-122.18843,37.72709],[-122.17564,37.73018],[-122.06308,37.77599],[-122.03861,37.78617],[-121.99422,37.80457],[-121.94482,37.82532],[-121.86029,37.86119],[-121.78209,37.89428],[-121.76531,37.90144],[-121.66364,37.94417],[-121.64646,37.95142],[-121.54849,37.99263],[-121.52426,38.00279],[-121.43074,38.04194],[-121.39417,38.0572],[-121.29305,38.09929],[-121.27413,38.10716]],"type":"LineString"}
}
