{
  "id": 2014406679,
  "type": "Feature",
  "properties": {
    "geom:area": 0,
    "geom:bbox": "-122.359890,37.491570,-121.251010,37.615350",
    "geom:latitude": 37.54681345131887,
    "geom:longitude": -121.81056685509812,
    "src:alt_label": "swim-approach",
    "src:geom": "swim",
    "swim:elevations": [
      4774,
      4711,
      4344,
      4251,
      4182,
      4028,
      3862,
      3603,
      3488,
      3287,
      3041,
      2792,
      2664,
      2525,
      2280,
      2160,
      2041,
      1952,
      1819,
      1733,
      1645,
      1408,
      1340,
      1046,
      1011,
      961,
      882,
      788,
      698,
      472,
      427,
      272,
      103,
      0
    ],
    "swim:geom": "approach",
    "swim:timestamps": [
      1766868831,
      1766868840,
      1766868886,
      1766868898,
      1766868904,
      1766868925,
      1766868943,
      1766868979,
      1766868999,
      1766869027,
      1766869066,
      1766869106,
      1766869129,
      1766869153,
      1766869192,
      1766869212,
      1766869241,
      1766869264,
      1766869299,
      1766869311,
      1766869327,
      1766869370,
      1766869384,
      1766869438,
      1766869442,
      1766869455,
      1766869471,
      1766869493,
      1766869513,
      1766869557,
      1766869565,
      1766869606,
      1766869648,
      1766869669
    ],
    "wof:geomhash": "4ca00182db495cff72b2b39bf8253db6",
    "wof:id": 2014406679,
    "wof:repo": "sfomuseum-data-flights-2025-12"
  },
  "bbox": [
    -122.35989,
    37.49157,
    -121.25101,
    37.61535
  ],
  "geometry": {"coordinates":[[-121.25101,37.59435],[-121.26778,37.59206],[-121.35855,37.58181],[-121.38143,37.57934],[-121.39302,37.57805],[-121.43215,37.57353],[-121.46641,37.56937],[-121.5298,37.56188],[-121.56262,37.55804],[-121.60862,37.55272],[-121.6686,37.54042],[-121.72579,37.52679],[-121.7569,37.51927],[-121.7904,37.51122],[-121.84308,37.49871],[-121.87064,37.49236],[-121.91006,37.49157],[-121.94253,37.49263],[-121.98967,37.49568],[-122.00415,37.4998],[-122.0235,37.5064],[-122.07433,37.52239],[-122.09044,37.52748],[-122.14819,37.5466],[-122.15288,37.54814],[-122.16544,37.55232],[-122.18098,37.55746],[-122.20265,37.56434],[-122.22237,37.57064],[-122.26585,37.58456],[-122.27354,37.58668],[-122.30905,37.59704],[-122.34388,37.60795],[-122.35989,37.61535]],"type":"LineString"}
}
