{
  "id": 2014435469,
  "type": "Feature",
  "properties": {
    "geom:area": 0,
    "geom:bbox": "-122.362760,37.491410,-121.264960,37.615440",
    "geom:latitude": 37.54639556038628,
    "geom:longitude": -121.8187611876339,
    "src:alt_label": "swim-approach",
    "src:geom": "swim",
    "swim:elevations": [
      4565,
      4384,
      4174,
      4079,
      3799,
      3318,
      3205,
      3139,
      3105,
      2906,
      2694,
      2527,
      2452,
      2350,
      2164,
      2080,
      1979,
      1853,
      1829,
      1562,
      1317,
      1235,
      1092,
      1005,
      873,
      642,
      451,
      364,
      335,
      180,
      43,
      0
    ],
    "swim:geom": "approach",
    "swim:timestamps": [
      1767129638,
      1767129665,
      1767129705,
      1767129724,
      1767129768,
      1767129807,
      1767129823,
      1767129838,
      1767129850,
      1767129878,
      1767129911,
      1767129950,
      1767129974,
      1767129992,
      1767130022,
      1767130043,
      1767130069,
      1767130100,
      1767130118,
      1767130155,
      1767130187,
      1767130202,
      1767130226,
      1767130239,
      1767130262,
      1767130307,
      1767130343,
      1767130362,
      1767130371,
      1767130406,
      1767130438,
      1767130450
    ],
    "wof:geomhash": "6d688384322033ba608b420e8c072aea",
    "wof:id": 2014435469,
    "wof:repo": "sfomuseum-data-flights-2025-12"
  },
  "bbox": [
    -122.36276,
    37.49141,
    -121.26496,
    37.61544
  ],
  "geometry": {"coordinates":[[-121.26496,37.5924],[-121.31959,37.58628],[-121.39306,37.57781],[-121.42598,37.574],[-121.49676,37.56573],[-121.55841,37.55848],[-121.58285,37.55571],[-121.60603,37.55314],[-121.6245,37.55055],[-121.66758,37.54061],[-121.71664,37.52886],[-121.77203,37.51564],[-121.8039,37.50794],[-121.82759,37.50225],[-121.86749,37.49313],[-121.89736,37.49141],[-121.93299,37.49234],[-121.97601,37.49385],[-122.0011,37.4989],[-122.0502,37.51476],[-122.09055,37.52796],[-122.10978,37.53417],[-122.1396,37.54384],[-122.15577,37.54919],[-122.1824,37.55767],[-122.23274,37.57394],[-122.2702,37.58578],[-122.28828,37.59083],[-122.29603,37.59328],[-122.32563,37.60218],[-122.35305,37.61175],[-122.36276,37.61544]],"type":"LineString"}
}
