{
  "id": 2014409113,
  "type": "Feature",
  "properties": {
    "geom:area": 0,
    "geom:bbox": "-122.359590,36.724950,-121.880770,37.612530",
    "geom:latitude": 37.21325947930626,
    "geom:longitude": -122.07086468676705,
    "src:alt_label": "swim-approach",
    "src:geom": "swim",
    "swim:elevations": [
      5797,
      5699,
      5273,
      5085,
      4596,
      4273,
      3988,
      3772,
      3412,
      3262,
      3109,
      3064,
      2934,
      2735,
      2704,
      2521,
      2180,
      1948,
      1862,
      1507,
      1300,
      1161,
      883,
      823,
      759,
      620,
      492,
      426,
      342,
      181,
      97,
      45,
      0
    ],
    "swim:geom": "approach",
    "swim:timestamps": [
      1766857467,
      1766857476,
      1766857528,
      1766857542,
      1766857585,
      1766857615,
      1766857641,
      1766857662,
      1766857698,
      1766857713,
      1766857756,
      1766857768,
      1766857794,
      1766857828,
      1766857832,
      1766857861,
      1766857910,
      1766857940,
      1766857950,
      1766857990,
      1766858036,
      1766858056,
      1766858087,
      1766858111,
      1766858157,
      1766858187,
      1766858215,
      1766858234,
      1766858252,
      1766858297,
      1766858321,
      1766858336,
      1766858343
    ],
    "wof:geomhash": "cf61018c0e679b406e88a65de2ce5d1e",
    "wof:id": 2014409113,
    "wof:repo": "sfomuseum-data-flights-2025-12"
  },
  "bbox": [
    -122.35959,
    36.72495,
    -121.88077,
    37.61253
  ],
  "geometry": {"coordinates":[[-121.88077,36.72495],[-121.88875,36.73791],[-121.91474,36.81535],[-121.92102,36.83767],[-121.93882,36.9017],[-121.95182,36.9473],[-121.96637,36.98568],[-121.97803,37.01587],[-121.99751,37.06639],[-122.00571,37.08714],[-122.02789,37.14365],[-122.03327,37.1577],[-122.04516,37.18822],[-122.06035,37.22632],[-122.06219,37.23088],[-122.07515,37.26402],[-122.0967,37.319],[-122.10998,37.35219],[-122.11421,37.3628],[-122.13052,37.40838],[-122.14634,37.45559],[-122.15278,37.475],[-122.16267,37.50291],[-122.1703,37.5255],[-122.21223,37.55022],[-122.24255,37.56222],[-122.26619,37.57278],[-122.28098,37.57882],[-122.29423,37.58443],[-122.32607,37.59811],[-122.34369,37.60553],[-122.35469,37.61018],[-122.35959,37.61253]],"type":"LineString"}
}
