{
  "id": 2014417565,
  "type": "Feature",
  "properties": {
    "geom:area": 0,
    "geom:bbox": "-122.358740,37.491570,-121.262730,37.614440",
    "geom:latitude": 37.54625087569797,
    "geom:longitude": -121.81565158124606,
    "src:alt_label": "swim-approach",
    "src:geom": "swim",
    "swim:elevations": [
      4416,
      4059,
      3773,
      3499,
      3334,
      3119,
      3073,
      2908,
      2720,
      2707,
      2519,
      2439,
      2259,
      2163,
      2121,
      1919,
      1838,
      1560,
      1433,
      1299,
      1115,
      972,
      911,
      781,
      552,
      517,
      306,
      195,
      31,
      6
    ],
    "swim:geom": "approach",
    "swim:timestamps": [
      1766946105,
      1766946144,
      1766946174,
      1766946206,
      1766946224,
      1766946266,
      1766946285,
      1766946321,
      1766946357,
      1766946360,
      1766946384,
      1766946396,
      1766946429,
      1766946444,
      1766946453,
      1766946501,
      1766946522,
      1766946563,
      1766946590,
      1766946616,
      1766946651,
      1766946683,
      1766946693,
      1766946723,
      1766946777,
      1766946785,
      1766946834,
      1766946861,
      1766946896,
      1766946900
    ],
    "wof:geomhash": "099b0cef68f362063625fc88515a2410",
    "wof:id": 2014417565,
    "wof:repo": "sfomuseum-data-flights-2025-12"
  },
  "bbox": [
    -122.35874,
    37.49157,
    -121.26273,
    37.61444
  ],
  "geometry": {"coordinates":[[-121.26273,37.59279],[-121.34595,37.58308],[-121.40865,37.57591],[-121.47347,37.56853],[-121.50921,37.56432],[-121.59016,37.55486],[-121.62344,37.55063],[-121.6832,37.53675],[-121.73962,37.52337],[-121.74417,37.52228],[-121.78035,37.51362],[-121.79835,37.50923],[-121.84814,37.49742],[-121.87064,37.49279],[-121.8843,37.49157],[-121.95591,37.49307],[-121.98658,37.49544],[-122.03869,37.51086],[-122.06946,37.52098],[-122.09777,37.53038],[-122.13432,37.54208],[-122.16765,37.55289],[-122.17646,37.55583],[-122.20401,37.56476],[-122.25309,37.58054],[-122.26032,37.58284],[-122.30282,37.5953],[-122.32568,37.60207],[-122.35537,37.61285],[-122.35874,37.61444]],"type":"LineString"}
}
