{
  "id": 2014413617,
  "type": "Feature",
  "properties": {
    "geom:area": 0,
    "geom:bbox": "-123.470050,37.421220,-122.393670,37.666430",
    "geom:latitude": 37.55873126876363,
    "geom:longitude": -122.93035175668719,
    "src:alt_label": "swim-takeoff",
    "src:geom": "swim",
    "swim:elevations": [
      152,
      748,
      970,
      1164,
      1509,
      1919,
      2292,
      2590,
      3165,
      3398,
      3666,
      3777,
      3951,
      4364,
      4575,
      4615,
      4730,
      5317,
      5407,
      5575,
      5902,
      5946,
      6174,
      6311,
      6395
    ],
    "swim:geom": "takeoff",
    "swim:timestamps": [
      1766855711,
      1766855757,
      1766855776,
      1766855805,
      1766855848,
      1766855877,
      1766855900,
      1766855925,
      1766855967,
      1766855994,
      1766856018,
      1766856031,
      1766856051,
      1766856087,
      1766856108,
      1766856111,
      1766856121,
      1766856177,
      1766856189,
      1766856220,
      1766856267,
      1766856272,
      1766856301,
      1766856321,
      1766856337
    ],
    "wof:geomhash": "7a32c24d64925369f5d7b0bd8dd7dbfe",
    "wof:id": 2014413617,
    "wof:repo": "sfomuseum-data-flights-2025-12"
  },
  "bbox": [
    -123.47005,
    37.42122,
    -122.39367,
    37.66643
  ],
  "geometry": {"coordinates":[[-122.39367,37.62631],[-122.43717,37.64484],[-122.45523,37.65304],[-122.48498,37.66643],[-122.54718,37.66336],[-122.59106,37.65147],[-122.62725,37.64209],[-122.66692,37.63212],[-122.73412,37.61464],[-122.78002,37.60225],[-122.82115,37.59147],[-122.84472,37.5855],[-122.88181,37.57608],[-122.94991,37.55821],[-122.99131,37.54759],[-122.99712,37.54609],[-123.01504,37.54159],[-123.12645,37.51216],[-123.1492,37.5061],[-123.21415,37.48901],[-123.31498,37.46242],[-123.32559,37.45962],[-123.38933,37.44279],[-123.43383,37.43095],[-123.47005,37.42122]],"type":"LineString"}
}
