{
  "id": 2014409479,
  "type": "Feature",
  "properties": {
    "geom:area": 0,
    "geom:bbox": "-122.794130,37.477160,-122.157730,38.317790",
    "geom:latitude": 37.78603099947764,
    "geom:longitude": -122.4912661635502,
    "src:alt_label": "swim-approach",
    "src:geom": "swim",
    "swim:elevations": [
      6316,
      5755,
      5085,
      4712,
      4513,
      4215,
      3804,
      3436,
      3316,
      2740,
      2382,
      2222,
      2128,
      1919,
      1788,
      1712,
      1554,
      723,
      459,
      333,
      257,
      91,
      40
    ],
    "swim:geom": "approach",
    "swim:timestamps": [
      1766850953,
      1766851014,
      1766851097,
      1766851133,
      1766851158,
      1766851202,
      1766851242,
      1766851286,
      1766851337,
      1766851418,
      1766851460,
      1766851482,
      1766851503,
      1766851562,
      1766851638,
      1766851671,
      1766851699,
      1766851783,
      1766851818,
      1766851849,
      1766851869,
      1766851913,
      1766851926
    ],
    "wof:geomhash": "a2731cc61972a62a888686cb1bf613c0",
    "wof:id": 2014409479,
    "wof:repo": "sfomuseum-data-flights-2025-12"
  },
  "bbox": [
    -122.79413,
    37.47716,
    -122.15773,
    38.31779
  ],
  "geometry": {"coordinates":[[-122.79413,38.31779],[-122.76137,38.20556],[-122.71929,38.06012],[-122.70145,37.99884],[-122.68965,37.95793],[-122.6599,37.8886],[-122.60635,37.83759],[-122.54876,37.78281],[-122.48704,37.72433],[-122.39659,37.63896],[-122.35472,37.59292],[-122.33884,37.56598],[-122.3245,37.54021],[-122.27181,37.48411],[-122.18113,37.47716],[-122.15773,37.49995],[-122.16985,37.52033],[-122.24252,37.56219],[-122.27445,37.57645],[-122.29988,37.58679],[-122.31457,37.59329],[-122.34665,37.6068],[-122.35555,37.61052]],"type":"LineString"}
}
