{
  "id": 2014438541,
  "type": "Feature",
  "properties": {
    "geom:area": 0,
    "geom:bbox": "-122.362010,37.635340,-121.307700,38.500750",
    "geom:latitude": 38.10001920466486,
    "geom:longitude": -121.85946671358369,
    "src:alt_label": "swim-takeoff",
    "src:geom": "swim",
    "swim:elevations": [
      313,
      701,
      766,
      1062,
      1387,
      1675,
      2233,
      2543,
      3031,
      3184,
      3502,
      3658,
      3780,
      4185,
      4432,
      4458,
      4870,
      5225,
      5362,
      5685,
      5927,
      6170,
      6374,
      6601,
      6781,
      6873
    ],
    "swim:geom": "takeoff",
    "swim:timestamps": [
      1767164355,
      1767164398,
      1767164413,
      1767164455,
      1767164476,
      1767164497,
      1767164546,
      1767164571,
      1767164607,
      1767164620,
      1767164662,
      1767164693,
      1767164715,
      1767164758,
      1767164789,
      1767164792,
      1767164836,
      1767164876,
      1767164894,
      1767164938,
      1767164969,
      1767164998,
      1767165023,
      1767165053,
      1767165083,
      1767165099
    ],
    "wof:geomhash": "9be844a4a7012a478cfa953eddf1ca85",
    "wof:id": 2014438541,
    "wof:repo": "sfomuseum-data-flights-2025-12"
  },
  "bbox": [
    -122.36201,
    37.63534,
    -121.3077,
    38.50075
  ],
  "geometry": {"coordinates":[[-122.36201,37.63534],[-122.33293,37.66171],[-122.32057,37.67164],[-122.28323,37.71015],[-122.2623,37.73024],[-122.24148,37.75025],[-122.19253,37.80008],[-122.16547,37.8279],[-122.12732,37.86701],[-122.11267,37.8816],[-122.06473,37.92922],[-122.0253,37.96996],[-121.9959,37.99947],[-121.93537,38.06005],[-121.89275,38.10344],[-121.88824,38.10803],[-121.82158,38.17459],[-121.75978,38.23475],[-121.72722,38.25639],[-121.63888,38.3074],[-121.57747,38.34327],[-121.5165,38.37899],[-121.467,38.4079],[-121.4055,38.44373],[-121.34172,38.48087],[-121.3077,38.50075]],"type":"LineString"}
}
