{
  "id": 2014421981,
  "type": "Feature",
  "properties": {
    "geom:area": 0,
    "geom:bbox": "-122.457210,36.722650,-121.274780,37.707250",
    "geom:latitude": 37.22138083165045,
    "geom:longitude": -121.95718713294248,
    "src:alt_label": "swim-takeoff",
    "src:geom": "swim",
    "swim:elevations": [
      244,
      852,
      1022,
      1164,
      1344,
      1635,
      2069,
      2263,
      2766,
      3165,
      3405,
      3619,
      3867,
      3934,
      4066,
      4313,
      4381,
      4676,
      4786,
      5013,
      5423,
      5662,
      5896,
      6011,
      6297,
      6428,
      6704,
      6714,
      6808,
      6987,
      7255,
      7277,
      7529,
      7617
    ],
    "swim:geom": "takeoff",
    "swim:timestamps": [
      1766964581,
      1766964625,
      1766964650,
      1766964680,
      1766964716,
      1766964743,
      1766964776,
      1766964790,
      1766964829,
      1766964860,
      1766964882,
      1766964920,
      1766964950,
      1766964956,
      1766964970,
      1766965016,
      1766965025,
      1766965067,
      1766965082,
      1766965110,
      1766965158,
      1766965195,
      1766965220,
      1766965235,
      1766965275,
      1766965298,
      1766965347,
      1766965352,
      1766965370,
      1766965401,
      1766965436,
      1766965442,
      1766965493,
      1766965526
    ],
    "wof:geomhash": "0c447c1f9c4d9ce99a4e539577230d6e",
    "wof:id": 2014421981,
    "wof:repo": "sfomuseum-data-flights-2025-12"
  },
  "bbox": [
    -122.45721,
    36.72265,
    -121.27478,
    37.70725
  ],
  "geometry": {"coordinates":[[-122.36642,37.6335],[-122.36334,37.66468],[-122.36245,37.68417],[-122.38198,37.70725],[-122.43211,37.70022],[-122.44872,37.66916],[-122.44937,37.62671],[-122.45161,37.60788],[-122.45721,37.55647],[-122.42781,37.52469],[-122.4002,37.50586],[-122.34778,37.47167],[-122.30339,37.44082],[-122.29458,37.43453],[-122.27379,37.41984],[-122.2016,37.36973],[-122.18656,37.3594],[-122.11552,37.3103],[-122.08923,37.29213],[-122.04022,37.258],[-121.95655,37.19989],[-121.88946,37.15337],[-121.84557,37.12257],[-121.81866,37.10387],[-121.74728,37.05404],[-121.70519,37.02455],[-121.61435,36.9608],[-121.60493,36.95419],[-121.57181,36.93081],[-121.51267,36.88915],[-121.44744,36.84307],[-121.43617,36.83507],[-121.33977,36.7672],[-121.27478,36.72265]],"type":"LineString"}
}
