{
  "id": 2014426867,
  "type": "Feature",
  "properties": {
    "geom:area": 0,
    "geom:bbox": "-122.355840,37.491970,-121.279120,37.612830",
    "geom:latitude": 37.54544937838271,
    "geom:longitude": -121.82214295116862,
    "src:alt_label": "swim-approach",
    "src:geom": "swim",
    "swim:elevations": [
      4279,
      4061,
      3611,
      3405,
      3169,
      3148,
      3046,
      2798,
      2626,
      2446,
      2295,
      2145,
      2013,
      1968,
      1909,
      1658,
      1454,
      1334,
      1202,
      927,
      873,
      778,
      631,
      485,
      367,
      332,
      181,
      90,
      23
    ],
    "swim:geom": "approach",
    "swim:timestamps": [
      1767026625,
      1767026646,
      1767026696,
      1767026720,
      1767026751,
      1767026761,
      1767026794,
      1767026835,
      1767026862,
      1767026899,
      1767026935,
      1767026966,
      1767026998,
      1767027013,
      1767027030,
      1767027079,
      1767027112,
      1767027129,
      1767027153,
      1767027205,
      1767027212,
      1767027229,
      1767027256,
      1767027282,
      1767027327,
      1767027336,
      1767027367,
      1767027388,
      1767027402
    ],
    "wof:geomhash": "c5527f837d63ad1022f0a72117137f32",
    "wof:id": 2014426867,
    "wof:repo": "sfomuseum-data-flights-2025-12"
  },
  "bbox": [
    -122.35584,
    37.49197,
    -121.27912,
    37.61283
  ],
  "geometry": {"coordinates":[[-121.27912,37.59073],[-121.32367,37.58579],[-121.42632,37.57398],[-121.47578,37.56819],[-121.53659,37.56094],[-121.55569,37.55877],[-121.61558,37.55192],[-121.68235,37.53703],[-121.72624,37.52673],[-121.78277,37.51291],[-121.83457,37.50055],[-121.87665,37.49205],[-121.91838,37.49197],[-121.93826,37.49249],[-121.96019,37.49302],[-122.02276,37.50598],[-122.06189,37.51868],[-122.08235,37.52529],[-122.10992,37.53423],[-122.16661,37.55258],[-122.17329,37.55476],[-122.19145,37.56069],[-122.21937,37.56977],[-122.24576,37.57825],[-122.29026,37.59151],[-122.29814,37.59383],[-122.32657,37.60219],[-122.34385,37.60799],[-122.35584,37.61283]],"type":"LineString"}
}
