{
  "id": 2014443723,
  "type": "Feature",
  "properties": {
    "geom:area": 0,
    "geom:bbox": "-123.496630,36.970140,-122.114590,37.624570",
    "geom:latitude": 37.35780032980029,
    "geom:longitude": -122.57109022826553,
    "src:alt_label": "swim-approach",
    "src:geom": "swim",
    "swim:elevations": [
      6478,
      6278,
      6187,
      5990,
      5855,
      5381,
      5285,
      4807,
      4519,
      4155,
      4061,
      3588,
      3338,
      3049,
      3041,
      2986,
      2867,
      2646,
      2396,
      2303,
      1948,
      1829,
      1829,
      1829,
      1829,
      1829,
      1829,
      1829,
      1550,
      1397,
      1239,
      1219,
      1214,
      1061,
      945,
      790,
      792,
      752,
      578,
      564,
      387,
      204,
      121,
      264,
      445,
      883,
      1181,
      1763,
      1828,
      1829,
      1829,
      1829,
      1829,
      1829,
      1829,
      1829,
      1829,
      1829,
      1829,
      1829,
      1829,
      1829,
      1829,
      1772,
      1542,
      1383,
      1311,
      1219,
      1149,
      921,
      855,
      792,
      628,
      498,
      354,
      241,
      134,
      162
    ],
    "swim:geom": "approach",
    "swim:timestamps": [
      1767207847,
      1767207868,
      1767207875,
      1767207895,
      1767207908,
      1767207956,
      1767207965,
      1767208011,
      1767208039,
      1767208075,
      1767208084,
      1767208129,
      1767208152,
      1767208195,
      1767208221,
      1767208243,
      1767208273,
      1767208303,
      1767208339,
      1767208351,
      1767208395,
      1767208437,
      1767208445,
      1767208472,
      1767208525,
      1767208554,
      1767208569,
      1767208596,
      1767208639,
      1767208675,
      1767208704,
      1767208735,
      1767208756,
      1767208780,
      1767208804,
      1767208846,
      1767208860,
      1767208884,
      1767208917,
      1767208920,
      1767208957,
      1767209006,
      1767209020,
      1767209065,
      1767209082,
      1767209126,
      1767209149,
      1767209189,
      1767209207,
      1767209244,
      1767209267,
      1767209290,
      1767209318,
      1767209354,
      1767209377,
      1767209422,
      1767209443,
      1767209458,
      1767209464,
      1767209506,
      1767209542,
      1767209563,
      1767209590,
      1767209635,
      1767209666,
      1767209690,
      1767209705,
      1767209752,
      1767209770,
      1767209812,
      1767209830,
      1767209867,
      1767209906,
      1767209935,
      1767209968,
      1767209992,
      1767210018,
      1767210054
    ],
    "wof:geomhash": "f9f745770d8992834359befa36ec4c55",
    "wof:id": 2014443723,
    "wof:repo": "sfomuseum-data-flights-2025-12"
  },
  "bbox": [
    -123.49663,
    36.97014,
    -122.11459,
    37.62457
  ],
  "geometry": {"coordinates":[[-123.49663,36.97014],[-123.45668,36.98824],[-123.44283,36.99475],[-123.40464,37.01194],[-123.37922,37.02319],[-123.28713,37.06585],[-123.26993,37.07355],[-123.18235,37.11337],[-123.13017,37.13729],[-123.06335,37.16753],[-123.04651,37.17509],[-122.96338,37.2126],[-122.92139,37.23148],[-122.84341,37.2619],[-122.79617,37.27319],[-122.75804,37.28224],[-122.70935,37.29359],[-122.66141,37.30467],[-122.60404,37.31816],[-122.5851,37.32254],[-122.51596,37.33851],[-122.45098,37.34721],[-122.43882,37.34589],[-122.40277,37.34206],[-122.33524,37.33486],[-122.29686,37.34295],[-122.27767,37.34948],[-122.24412,37.36089],[-122.19874,37.38538],[-122.17016,37.41489],[-122.14885,37.43657],[-122.12838,37.45952],[-122.12053,37.478],[-122.11459,37.49965],[-122.13152,37.51621],[-122.17423,37.53419],[-122.18883,37.54038],[-122.2136,37.55091],[-122.24772,37.56522],[-122.25075,37.56651],[-122.28496,37.58093],[-122.32563,37.59799],[-122.33618,37.60241],[-122.37471,37.61655],[-122.39284,37.61751],[-122.4495,37.6231],[-122.4833,37.62457],[-122.5179,37.59308],[-122.52525,37.57297],[-122.54042,37.53183],[-122.54991,37.50611],[-122.55927,37.48081],[-122.57013,37.44988],[-122.5547,37.41136],[-122.53889,37.38796],[-122.50755,37.34149],[-122.49304,37.31993],[-122.48263,37.30459],[-122.47846,37.29842],[-122.42295,37.28116],[-122.37448,37.30798],[-122.34804,37.32621],[-122.31047,37.3453],[-122.25174,37.37462],[-122.21353,37.39402],[-122.18563,37.40838],[-122.16925,37.41679],[-122.13914,37.45426],[-122.1322,37.47039],[-122.14759,37.50761],[-122.16045,37.52169],[-122.19479,37.54332],[-122.23732,37.56083],[-122.26526,37.57267],[-122.294,37.58473],[-122.31393,37.59298],[-122.33515,37.60203],[-122.36533,37.61371]],"type":"LineString"}
}
