{
  "id": 2014408279,
  "type": "Feature",
  "properties": {
    "geom:area": 0,
    "geom:bbox": "-122.360280,37.491810,-121.262730,37.614820",
    "geom:latitude": 37.546298151364276,
    "geom:longitude": -121.81636639104578,
    "src:alt_label": "swim-approach",
    "src:geom": "swim",
    "swim:elevations": [
      4630,
      4564,
      4038,
      3804,
      3549,
      3509,
      3129,
      2955,
      2743,
      2537,
      2446,
      2194,
      2011,
      1882,
      1827,
      1621,
      1342,
      1212,
      1005,
      810,
      672,
      603,
      551,
      470,
      417,
      363,
      331,
      128,
      89,
      0
    ],
    "swim:geom": "approach",
    "swim:timestamps": [
      1766880745,
      1766880751,
      1766880808,
      1766880837,
      1766880868,
      1766880874,
      1766880928,
      1766880952,
      1766880985,
      1766881018,
      1766881030,
      1766881073,
      1766881106,
      1766881130,
      1766881143,
      1766881189,
      1766881224,
      1766881242,
      1766881272,
      1766881308,
      1766881348,
      1766881361,
      1766881385,
      1766881433,
      1766881445,
      1766881461,
      1766881470,
      1766881527,
      1766881539,
      1766881560
    ],
    "wof:geomhash": "f02cd5b61c3b8e300abaf419660a3ea1",
    "wof:id": 2014408279,
    "wof:repo": "sfomuseum-data-flights-2025-12"
  },
  "bbox": [
    -122.36028,
    37.49181,
    -121.26273,
    37.61482
  ],
  "geometry": {"coordinates":[[-121.26273,37.59256],[-121.27683,37.59069],[-121.40769,37.57571],[-121.46918,37.56876],[-121.52862,37.56168],[-121.53959,37.5604],[-121.63529,37.54816],[-121.67495,37.53859],[-121.72806,37.52591],[-121.77957,37.51365],[-121.79787,37.50924],[-121.86175,37.49396],[-121.9101,37.49181],[-121.94456,37.49292],[-121.96243,37.49336],[-122.02154,37.50534],[-122.06343,37.51959],[-122.08496,37.52665],[-122.12016,37.5376],[-122.15839,37.54984],[-122.19782,37.56271],[-122.2107,37.56699],[-122.23303,37.5742],[-122.26937,37.58555],[-122.2783,37.58814],[-122.29024,37.59164],[-122.29694,37.59365],[-122.33847,37.60591],[-122.34672,37.60908],[-122.36028,37.61482]],"type":"LineString"}
}
