{
  "id": 2014443401,
  "type": "Feature",
  "properties": {
    "geom:area": 0,
    "geom:bbox": "-123.469040,36.940640,-122.099450,37.612020",
    "geom:latitude": 37.2877731414935,
    "geom:longitude": -122.68934687096719,
    "src:alt_label": "swim-approach",
    "src:geom": "swim",
    "swim:elevations": [
      6812,
      6507,
      6338,
      5795,
      5532,
      4937,
      4648,
      4362,
      3881,
      3465,
      3174,
      3075,
      3047,
      3048,
      2920,
      2756,
      2612,
      2465,
      2438,
      2438,
      2438,
      2438,
      2438,
      2412,
      2342,
      2164,
      2114,
      1957,
      1909,
      1862,
      1829,
      1615,
      1393,
      1166,
      975,
      825,
      665,
      497,
      439,
      245,
      206,
      29
    ],
    "swim:geom": "approach",
    "swim:timestamps": [
      1767218511,
      1767218535,
      1767218552,
      1767218595,
      1767218616,
      1767218664,
      1767218690,
      1767218715,
      1767218757,
      1767218789,
      1767218815,
      1767218841,
      1767218877,
      1767218880,
      1767218907,
      1767218933,
      1767218958,
      1767218997,
      1767219024,
      1767219056,
      1767219086,
      1767219116,
      1767219125,
      1767219173,
      1767219182,
      1767219236,
      1767219251,
      1767219282,
      1767219294,
      1767219309,
      1767219334,
      1767219376,
      1767219413,
      1767219446,
      1767219477,
      1767219506,
      1767219533,
      1767219565,
      1767219579,
      1767219624,
      1767219633,
      1767219672
    ],
    "wof:geomhash": "a8b44b16353685af750b2f0c15a69193",
    "wof:id": 2014443401,
    "wof:repo": "sfomuseum-data-flights-2025-12"
  },
  "bbox": [
    -123.46904,
    36.94064,
    -122.09945,
    37.61202
  ],
  "geometry": {"coordinates":[[-123.46904,36.94064],[-123.41913,36.96742],[-123.38358,36.98532],[-123.29641,37.03225],[-123.25432,37.05442],[-123.16039,37.10356],[-123.11112,37.12903],[-123.06397,37.15342],[-122.98714,37.19343],[-122.92934,37.22342],[-122.88054,37.24846],[-122.83174,37.26577],[-122.76804,37.28028],[-122.76306,37.28144],[-122.71964,37.29166],[-122.67923,37.30083],[-122.63941,37.31017],[-122.57656,37.32479],[-122.53342,37.33483],[-122.48094,37.34647],[-122.43286,37.35749],[-122.38543,37.36871],[-122.37205,37.37192],[-122.30642,37.38624],[-122.29411,37.38696],[-122.22039,37.3924],[-122.20181,37.39394],[-122.166,37.39685],[-122.15207,37.39826],[-122.13519,37.4043],[-122.11927,37.42678],[-122.09945,37.46893],[-122.11276,37.50483],[-122.14573,37.52378],[-122.17794,37.53835],[-122.20892,37.55101],[-122.23596,37.5624],[-122.26592,37.57522],[-122.27794,37.58028],[-122.31435,37.59567],[-122.32155,37.59856],[-122.35366,37.61202]],"type":"LineString"}
}
