{
  "id": 2014425025,
  "type": "Feature",
  "properties": {
    "geom:area": 0,
    "geom:bbox": "-122.364850,37.446630,-121.248300,37.616590",
    "geom:latitude": 37.52993012674069,
    "geom:longitude": -121.81421175484309,
    "src:alt_label": "swim-approach",
    "src:geom": "swim",
    "swim:elevations": [
      4771,
      4334,
      4146,
      3991,
      3657,
      3555,
      3340,
      3275,
      3211,
      3056,
      2871,
      2590,
      2528,
      2325,
      2260,
      2177,
      2009,
      1664,
      1590,
      1389,
      1065,
      960,
      915,
      854,
      738,
      607,
      395,
      235,
      157,
      0
    ],
    "swim:geom": "approach",
    "swim:timestamps": [
      1767028695,
      1767028738,
      1767028756,
      1767028773,
      1767028822,
      1767028836,
      1767028875,
      1767028892,
      1767028905,
      1767028926,
      1767028956,
      1767029002,
      1767029022,
      1767029055,
      1767029070,
      1767029086,
      1767029115,
      1767029158,
      1767029167,
      1767029195,
      1767029248,
      1767029274,
      1767029298,
      1767029325,
      1767029343,
      1767029372,
      1767029415,
      1767029453,
      1767029469,
      1767029507
    ],
    "wof:geomhash": "df293fbfa4b04683688bea7c07202208",
    "wof:id": 2014425025,
    "wof:repo": "sfomuseum-data-flights-2025-12"
  },
  "bbox": [
    -122.36485,
    37.44663,
    -121.2483,
    37.61659
  ],
  "geometry": {"coordinates":[[-121.2483,37.59463],[-121.34401,37.58316],[-121.38315,37.57902],[-121.41996,37.57497],[-121.52382,37.56278],[-121.55216,37.5594],[-121.62826,37.54955],[-121.65812,37.54241],[-121.67909,37.53298],[-121.70644,37.51242],[-121.74291,37.48387],[-121.81162,37.45737],[-121.84445,37.45471],[-121.89473,37.45054],[-121.91612,37.44862],[-121.93824,37.44663],[-121.97545,37.45287],[-122.02512,37.47343],[-122.03594,37.47808],[-122.0676,37.49163],[-122.12559,37.51595],[-122.15371,37.52788],[-122.17753,37.53793],[-122.20381,37.54904],[-122.22118,37.55631],[-122.2498,37.56842],[-122.28667,37.58393],[-122.31856,37.5973],[-122.33219,37.60305],[-122.36485,37.61659]],"type":"LineString"}
}
