{
  "id": 2014413631,
  "type": "Feature",
  "properties": {
    "geom:area": 0,
    "geom:bbox": "-123.497250,37.075970,-122.393170,37.696800",
    "geom:latitude": 37.43246090305637,
    "geom:longitude": -122.95566894272545,
    "src:alt_label": "swim-takeoff",
    "src:geom": "swim",
    "swim:elevations": [
      152,
      607,
      833,
      1219,
      1271,
      1380,
      1785,
      2129,
      2689,
      3105,
      3139,
      3149,
      3339,
      3729,
      4032,
      4378,
      4482,
      4953,
      5220,
      5354,
      5660,
      5897,
      6089
    ],
    "swim:geom": "takeoff",
    "swim:timestamps": [
      1766844134,
      1766844175,
      1766844190,
      1766844265,
      1766844297,
      1766844310,
      1766844337,
      1766844365,
      1766844404,
      1766844440,
      1766844478,
      1766844490,
      1766844520,
      1766844546,
      1766844576,
      1766844617,
      1766844630,
      1766844680,
      1766844714,
      1766844730,
      1766844775,
      1766844805,
      1766844835
    ],
    "wof:geomhash": "2bf83d945e7b2f2e2cbfd0d30ad2ae79",
    "wof:id": 2014413631,
    "wof:repo": "sfomuseum-data-flights-2025-12"
  },
  "bbox": [
    -123.49725,
    37.07597,
    -122.39317,
    37.6968
  ],
  "geometry": {"coordinates":[[-122.39317,37.62625],[-122.43137,37.64313],[-122.44682,37.65002],[-122.53828,37.68657],[-122.5866,37.6968],[-122.60514,37.69055],[-122.63592,37.66665],[-122.66951,37.64325],[-122.72042,37.61],[-122.76868,37.57715],[-122.82489,37.53843],[-122.84525,37.52443],[-122.89838,37.48806],[-122.94557,37.45654],[-122.99846,37.42045],[-123.07401,37.36841],[-123.09719,37.35243],[-123.19316,37.2865],[-123.25788,37.24205],[-123.29064,37.21937],[-123.37834,37.15863],[-123.43796,37.11742],[-123.49725,37.07597]],"type":"LineString"}
}
