{
  "id": 2014441015,
  "type": "Feature",
  "properties": {
    "geom:area": 0,
    "geom:bbox": "-122.375130,36.726150,-121.881380,37.610340",
    "geom:latitude": 37.2243471755511,
    "geom:longitude": -122.16417291036093,
    "src:alt_label": "swim-approach",
    "src:geom": "swim",
    "swim:elevations": [
      5141,
      4848,
      4708,
      4574,
      4364,
      4056,
      3881,
      3682,
      3455,
      3288,
      3076,
      3078,
      2974,
      2790,
      2669,
      2468,
      2438,
      2284,
      2208,
      2162,
      2050,
      1829,
      1829,
      1829,
      1829,
      1702,
      1678,
      1515,
      1353,
      1239,
      1155,
      1040,
      925,
      793,
      792,
      641,
      478,
      365,
      281,
      132,
      0
    ],
    "swim:geom": "approach",
    "swim:timestamps": [
      1767216760,
      1767216796,
      1767216817,
      1767216832,
      1767216856,
      1767216897,
      1767216918,
      1767216946,
      1767216978,
      1767217010,
      1767217045,
      1767217056,
      1767217074,
      1767217101,
      1767217113,
      1767217163,
      1767217190,
      1767217225,
      1767217243,
      1767217252,
      1767217273,
      1767217313,
      1767217346,
      1767217359,
      1767217384,
      1767217408,
      1767217411,
      1767217442,
      1767217466,
      1767217487,
      1767217526,
      1767217556,
      1767217577,
      1767217616,
      1767217628,
      1767217669,
      1767217705,
      1767217729,
      1767217750,
      1767217784,
      1767217819
    ],
    "wof:geomhash": "6bf470b0a2fbbc8df74262adf78c6c7a",
    "wof:id": 2014441015,
    "wof:repo": "sfomuseum-data-flights-2025-12"
  },
  "bbox": [
    -122.37513,
    36.72615,
    -121.88138,
    37.61034
  ],
  "geometry": {"coordinates":[[-121.88138,36.72615],[-121.90566,36.78316],[-121.9146,36.81587],[-121.92122,36.8401],[-121.93248,36.87889],[-121.95119,36.94433],[-121.96284,36.9763],[-121.98504,37.01561],[-122.03344,37.04681],[-122.08017,37.07475],[-122.1319,37.10536],[-122.14914,37.11549],[-122.17516,37.13078],[-122.21373,37.15332],[-122.23066,37.16333],[-122.29604,37.20353],[-122.32022,37.22934],[-122.34211,37.26817],[-122.35314,37.28776],[-122.35859,37.29747],[-122.37106,37.31982],[-122.37513,37.3638],[-122.35505,37.39711],[-122.33813,37.4018],[-122.30542,37.3989],[-122.27408,37.39511],[-122.27014,37.39469],[-122.22963,37.39074],[-122.1982,37.38866],[-122.17299,37.39924],[-122.15971,37.44176],[-122.15771,37.47492],[-122.15962,37.49589],[-122.18589,37.52749],[-122.19413,37.53671],[-122.2328,37.5588],[-122.26879,37.57403],[-122.29023,37.5831],[-122.3074,37.59039],[-122.33502,37.60189],[-122.3624,37.61034]],"type":"LineString"}
}
