{
  "id": 2014418893,
  "type": "Feature",
  "properties": {
    "geom:area": 0,
    "geom:bbox": "-122.365030,37.630580,-121.244300,37.964320",
    "geom:latitude": 37.83555371032566,
    "geom:longitude": -121.81864877337641,
    "src:alt_label": "swim-takeoff",
    "src:geom": "swim",
    "swim:elevations": [
      152,
      433,
      671,
      1242,
      1318,
      1466,
      2057,
      2375,
      2864,
      3135,
      3263,
      3633,
      4011,
      4342,
      4419,
      4760,
      5145,
      5444,
      5801,
      5978,
      6237,
      6577,
      6740,
      6907
    ],
    "swim:geom": "takeoff",
    "swim:timestamps": [
      1766925223,
      1766925247,
      1766925281,
      1766925327,
      1766925333,
      1766925342,
      1766925386,
      1766925410,
      1766925443,
      1766925471,
      1766925495,
      1766925537,
      1766925565,
      1766925596,
      1766925601,
      1766925635,
      1766925671,
      1766925699,
      1766925746,
      1766925765,
      1766925794,
      1766925832,
      1766925854,
      1766925877
    ],
    "wof:geomhash": "d5cc2150ab6599daf5e051f1dba06895",
    "wof:id": 2014418893,
    "wof:repo": "sfomuseum-data-flights-2025-12"
  },
  "bbox": [
    -122.36503,
    37.63058,
    -121.2443,
    37.96432
  ],
  "geometry": {"coordinates":[[-122.36503,37.63058],[-122.3479,37.6451],[-122.31547,37.66258],[-122.26339,37.69199],[-122.25612,37.6959],[-122.24509,37.70159],[-122.19051,37.7299],[-122.15932,37.74599],[-122.11435,37.76927],[-122.07615,37.78927],[-122.04142,37.80632],[-121.96046,37.82597],[-121.90461,37.83707],[-121.84327,37.84906],[-121.83267,37.85115],[-121.76525,37.86429],[-121.6908,37.87869],[-121.63007,37.89042],[-121.53186,37.90901],[-121.48941,37.9171],[-121.42717,37.9292],[-121.34329,37.94538],[-121.29584,37.95454],[-121.2443,37.96432]],"type":"LineString"}
}
