{
  "id": 2014417785,
  "type": "Feature",
  "properties": {
    "geom:area": 0,
    "geom:bbox": "-122.355200,37.492450,-121.249580,37.612670",
    "geom:latitude": 37.546843039497176,
    "geom:longitude": -121.80709575622849,
    "src:alt_label": "swim-approach",
    "src:geom": "swim",
    "swim:elevations": [
      4511,
      4093,
      4059,
      3637,
      3465,
      3179,
      3091,
      2914,
      2831,
      2677,
      2403,
      2364,
      2174,
      1949,
      1600,
      1524,
      1448,
      1026,
      855,
      655,
      555,
      489,
      393,
      327,
      276,
      120,
      27
    ],
    "swim:geom": "approach",
    "swim:timestamps": [
      1766939983,
      1766940027,
      1766940032,
      1766940079,
      1766940099,
      1766940139,
      1766940170,
      1766940207,
      1766940219,
      1766940243,
      1766940297,
      1766940302,
      1766940332,
      1766940379,
      1766940443,
      1766940458,
      1766940488,
      1766940535,
      1766940559,
      1766940597,
      1766940619,
      1766940639,
      1766940675,
      1766940690,
      1766940697,
      1766940739,
      1766940761
    ],
    "wof:geomhash": "d2fede027f80fdba4f1ecc0d12c3df84",
    "wof:id": 2014417785,
    "wof:repo": "sfomuseum-data-flights-2025-12"
  },
  "bbox": [
    -122.3552,
    37.49245,
    -121.24958,
    37.61267
  ],
  "geometry": {"coordinates":[[-121.24958,37.59464],[-121.33946,37.58394],[-121.34866,37.58284],[-121.44175,37.57217],[-121.48033,37.56779],[-121.55477,37.55897],[-121.61175,37.5523],[-121.67411,37.53893],[-121.69451,37.53421],[-121.73308,37.52485],[-121.81349,37.50565],[-121.82135,37.50379],[-121.86672,37.49327],[-121.93796,37.49245],[-122.0268,37.50725],[-122.04665,37.51353],[-122.08278,37.52528],[-122.14016,37.5442],[-122.16683,37.5527],[-122.20721,37.56575],[-122.2287,37.57269],[-122.24929,37.57931],[-122.2843,37.58971],[-122.2975,37.59376],[-122.3039,37.59566],[-122.33802,37.60599],[-122.3552,37.61267]],"type":"LineString"}
}
