{
  "id": 2014426401,
  "type": "Feature",
  "properties": {
    "geom:area": 0,
    "geom:bbox": "-122.368410,37.491130,-121.269800,37.617380",
    "geom:latitude": 37.546566166311926,
    "geom:longitude": -121.82403176180591,
    "src:alt_label": "swim-approach",
    "src:geom": "swim",
    "swim:elevations": [
      4391,
      4157,
      3816,
      3462,
      3317,
      3111,
      3003,
      2712,
      2563,
      2500,
      2302,
      2099,
      2071,
      1890,
      1774,
      1502,
      1264,
      1123,
      1067,
      791,
      639,
      487,
      410,
      271,
      0
    ],
    "swim:geom": "approach",
    "swim:timestamps": [
      1767007667,
      1767007689,
      1767007726,
      1767007764,
      1767007779,
      1767007815,
      1767007846,
      1767007887,
      1767007908,
      1767007928,
      1767007968,
      1767008002,
      1767008010,
      1767008049,
      1767008076,
      1767008120,
      1767008158,
      1767008182,
      1767008192,
      1767008243,
      1767008273,
      1767008299,
      1767008320,
      1767008351,
      1767008421
    ],
    "wof:geomhash": "28e0c4104b9d4862672a6ffcd8ee34b7",
    "wof:id": 2014426401,
    "wof:repo": "sfomuseum-data-flights-2025-12"
  },
  "bbox": [
    -122.36841,
    37.49113,
    -121.2698,
    37.61738
  ],
  "geometry": {"coordinates":[[-121.2698,37.59177],[-121.31796,37.58602],[-121.40006,37.57723],[-121.47978,37.5678],[-121.51208,37.56386],[-121.58362,37.55557],[-121.6403,37.547],[-121.71192,37.52976],[-121.74672,37.52163],[-121.77951,37.51383],[-121.83817,37.49965],[-121.88803,37.49113],[-121.9002,37.4912],[-121.95866,37.49295],[-121.99797,37.49766],[-122.05414,37.51603],[-122.10253,37.53211],[-122.13261,37.54161],[-122.14514,37.54553],[-122.20277,37.5643],[-122.23477,37.57471],[-122.26043,37.58312],[-122.28021,37.58895],[-122.30684,37.59651],[-122.36841,37.61738]],"type":"LineString"}
}
