{
  "id": 2014441013,
  "type": "Feature",
  "properties": {
    "geom:area": 0,
    "geom:bbox": "-122.341670,36.751490,-121.894390,37.604720",
    "geom:latitude": 37.23169275745582,
    "geom:longitude": -122.06770298201623,
    "src:alt_label": "swim-approach",
    "src:geom": "swim",
    "swim:elevations": [
      5229,
      4940,
      4675,
      4364,
      4110,
      4068,
      3738,
      3629,
      3610,
      3458,
      3097,
      2731,
      2673,
      2479,
      2172,
      1980,
      1934,
      1704,
      1429,
      1276,
      1127,
      1030,
      915,
      709,
      628,
      488,
      386,
      305,
      248,
      110
    ],
    "swim:geom": "approach",
    "swim:timestamps": [
      1767178556,
      1767178585,
      1767178611,
      1767178645,
      1767178675,
      1767178680,
      1767178736,
      1767178767,
      1767178779,
      1767178804,
      1767178852,
      1767178888,
      1767178894,
      1767178912,
      1767178948,
      1767178976,
      1767178985,
      1767179030,
      1767179068,
      1767179090,
      1767179113,
      1767179142,
      1767179173,
      1767179218,
      1767179235,
      1767179262,
      1767179287,
      1767179305,
      1767179319,
      1767179355
    ],
    "wof:geomhash": "57accf1dcbd5f2480686612b060d6f18",
    "wof:id": 2014441013,
    "wof:repo": "sfomuseum-data-flights-2025-12"
  },
  "bbox": [
    -122.34167,
    36.75149,
    -121.89439,
    37.60472
  ],
  "geometry": {"coordinates":[[-121.89439,36.75149],[-121.91121,36.80351],[-121.92437,36.85029],[-121.94145,36.91052],[-121.95696,36.96175],[-121.9607,36.97118],[-121.9954,37.06087],[-122.01331,37.10658],[-122.01978,37.1231],[-122.033,37.15697],[-122.05667,37.21645],[-122.07368,37.26034],[-122.07631,37.26701],[-122.08507,37.28916],[-122.10147,37.33084],[-122.11249,37.36339],[-122.11267,37.37409],[-122.10322,37.42293],[-122.09586,37.4619],[-122.09369,37.48429],[-122.11051,37.50463],[-122.14042,37.52096],[-122.17337,37.53345],[-122.22159,37.55423],[-122.23925,37.56155],[-122.26623,37.57299],[-122.28746,37.58193],[-122.30158,37.58791],[-122.31309,37.59273],[-122.34167,37.60472]],"type":"LineString"}
}
