{
  "id": 2014408015,
  "type": "Feature",
  "properties": {
    "geom:area": 0,
    "geom:bbox": "-122.364360,37.491520,-121.255470,37.616130",
    "geom:latitude": 37.546913721897944,
    "geom:longitude": -121.81489052781951,
    "src:alt_label": "swim-approach",
    "src:geom": "swim",
    "swim:elevations": [
      4449,
      4422,
      3999,
      3729,
      3634,
      3232,
      3201,
      3079,
      3048,
      3078,
      2899,
      2681,
      2551,
      2467,
      2341,
      2222,
      2065,
      2035,
      1859,
      1704,
      1632,
      1448,
      1205,
      1004,
      857,
      707,
      641,
      446,
      300,
      158,
      67,
      164
    ],
    "swim:geom": "approach",
    "swim:timestamps": [
      1766876307,
      1766876310,
      1766876361,
      1766876395,
      1766876404,
      1766876456,
      1766876462,
      1766876487,
      1766876499,
      1766876520,
      1766876555,
      1766876585,
      1766876603,
      1766876621,
      1766876642,
      1766876663,
      1766876696,
      1766876704,
      1766876750,
      1766876779,
      1766876791,
      1766876824,
      1766876867,
      1766876903,
      1766876933,
      1766876962,
      1766876976,
      1766877017,
      1766877052,
      1766877082,
      1766877107,
      1766877124
    ],
    "wof:geomhash": "4f5eef3e8eaa5d5c5b4db9e74bb01957",
    "wof:id": 2014408015,
    "wof:repo": "sfomuseum-data-flights-2025-12"
  },
  "bbox": [
    -122.36436,
    37.49152,
    -121.25547,
    37.61613
  ],
  "geometry": {"coordinates":[[-121.25547,37.59383],[-121.26146,37.59303],[-121.36077,37.58145],[-121.42388,37.57432],[-121.44085,37.57233],[-121.53872,37.56083],[-121.54997,37.55959],[-121.59614,37.55433],[-121.61806,37.55167],[-121.65325,37.54377],[-121.70742,37.53113],[-121.75115,37.52101],[-121.77596,37.51484],[-121.80011,37.50887],[-121.82819,37.50196],[-121.85644,37.49517],[-121.90186,37.49152],[-121.91342,37.49187],[-121.97442,37.49349],[-122.01123,37.50212],[-122.02572,37.50688],[-122.06402,37.51921],[-122.11631,37.53627],[-122.15802,37.5496],[-122.18985,37.55984],[-122.21897,37.56948],[-122.23302,37.57403],[-122.27302,37.58636],[-122.30328,37.59532],[-122.32885,37.60298],[-122.34991,37.61054],[-122.36436,37.61613]],"type":"LineString"}
}
