{
  "id": 2014439559,
  "type": "Feature",
  "properties": {
    "geom:area": 0,
    "geom:bbox": "-122.456870,36.722130,-121.415670,37.704560",
    "geom:latitude": 37.230910660597345,
    "geom:longitude": -122.01705809528026,
    "src:alt_label": "swim-takeoff",
    "src:geom": "swim",
    "swim:elevations": [
      122,
      612,
      966,
      1161,
      1437,
      1668,
      2111,
      2385,
      2572,
      3082,
      3260,
      3513,
      4111,
      4202,
      4527,
      4750,
      4978,
      5330,
      5497,
      5740,
      6809,
      7026,
      7252,
      7426,
      7722,
      7866,
      8000,
      8229,
      8230,
      8230,
      8230
    ],
    "swim:geom": "takeoff",
    "swim:timestamps": [
      1767125146,
      1767125180,
      1767125211,
      1767125240,
      1767125277,
      1767125293,
      1767125321,
      1767125336,
      1767125348,
      1767125382,
      1767125405,
      1767125443,
      1767125485,
      1767125494,
      1767125523,
      1767125541,
      1767125561,
      1767125594,
      1767125616,
      1767125640,
      1767125756,
      1767125780,
      1767125807,
      1767125828,
      1767125873,
      1767125900,
      1767125924,
      1767125963,
      1767125981,
      1767126017,
      1767126049
    ],
    "wof:geomhash": "d63d1c8fdd271fd059a07040784bede4",
    "wof:id": 2014439559,
    "wof:repo": "sfomuseum-data-flights-2025-12"
  },
  "bbox": [
    -122.45687,
    36.72213,
    -121.41567,
    37.70456
  ],
  "geometry": {"coordinates":[[-122.36875,37.62961],[-122.36352,37.65608],[-122.36156,37.68052],[-122.37612,37.70456],[-122.42625,37.70299],[-122.43948,37.68667],[-122.44523,37.65324],[-122.44729,37.63469],[-122.44926,37.61988],[-122.45687,37.57774],[-122.44514,37.54879],[-122.39282,37.51002],[-122.33364,37.46344],[-122.32045,37.45299],[-122.27951,37.42016],[-122.25261,37.39849],[-122.22359,37.37531],[-122.1735,37.33534],[-122.13952,37.30826],[-122.10328,37.2792],[-121.91624,37.12908],[-121.87643,37.09701],[-121.83171,37.06082],[-121.79629,37.03217],[-121.7195,36.97027],[-121.6725,36.93196],[-121.62776,36.89695],[-121.55981,36.83984],[-121.52824,36.81473],[-121.46771,36.76511],[-121.41567,36.72213]],"type":"LineString"}
}
