{
  "id": 2014426011,
  "type": "Feature",
  "properties": {
    "geom:area": 0,
    "geom:bbox": "-122.350500,37.491890,-121.261170,37.610720",
    "geom:latitude": 37.54589761241569,
    "geom:longitude": -121.81065614500473,
    "src:alt_label": "swim-approach",
    "src:geom": "swim",
    "swim:elevations": [
      4447,
      4315,
      3948,
      3712,
      3367,
      3140,
      3079,
      3021,
      2653,
      2562,
      2385,
      2312,
      2029,
      1989,
      1808,
      1677,
      1407,
      1279,
      1122,
      959,
      912,
      718,
      550,
      477,
      332,
      205,
      65
    ],
    "swim:geom": "approach",
    "swim:timestamps": [
      1767006927,
      1767006941,
      1767006980,
      1767007011,
      1767007048,
      1767007075,
      1767007089,
      1767007113,
      1767007164,
      1767007179,
      1767007217,
      1767007230,
      1767007283,
      1767007294,
      1767007341,
      1767007367,
      1767007407,
      1767007431,
      1767007460,
      1767007497,
      1767007504,
      1767007545,
      1767007576,
      1767007595,
      1767007624,
      1767007654,
      1767007689
    ],
    "wof:geomhash": "29ef8bb4ba226808032c65642b4c4a09",
    "wof:id": 2014426011,
    "wof:repo": "sfomuseum-data-flights-2025-12"
  },
  "bbox": [
    -122.3505,
    37.49189,
    -121.26117,
    37.61072
  ],
  "geometry": {"coordinates":[[-121.26117,37.59257],[-121.29226,37.5887],[-121.37624,37.57981],[-121.44184,37.57249],[-121.51873,37.56357],[-121.57073,37.55763],[-121.59671,37.55447],[-121.63981,37.54726],[-121.72263,37.52693],[-121.74743,37.52124],[-121.807,37.50736],[-121.82742,37.50233],[-121.90734,37.49189],[-121.92264,37.4925],[-121.98824,37.49496],[-122.02251,37.50543],[-122.07238,37.52183],[-122.10026,37.53111],[-122.13151,37.54111],[-122.16913,37.55304],[-122.17592,37.5553],[-122.21858,37.56949],[-122.25024,37.57975],[-122.26834,37.58543],[-122.29356,37.59239],[-122.3212,37.59904],[-122.3505,37.61072]],"type":"LineString"}
}
