{
  "id": 2014440431,
  "type": "Feature",
  "properties": {
    "geom:area": 0,
    "geom:bbox": "-122.353920,37.492390,-121.256050,37.612180",
    "geom:latitude": 37.542493424613,
    "geom:longitude": -121.81184536714778,
    "src:alt_label": "swim-approach",
    "src:geom": "swim",
    "swim:elevations": [
      4639,
      4546,
      4300,
      3913,
      3716,
      3698,
      3399,
      3248,
      3121,
      2947,
      2669,
      2583,
      2373,
      2164,
      2091,
      1968,
      1655,
      1487,
      1365,
      1311,
      1051,
      777,
      577,
      434,
      305,
      121,
      40
    ],
    "swim:geom": "approach",
    "swim:timestamps": [
      1767202527,
      1767202536,
      1767202566,
      1767202611,
      1767202644,
      1767202650,
      1767202692,
      1767202710,
      1767202726,
      1767202751,
      1767202794,
      1767202806,
      1767202848,
      1767202883,
      1767202906,
      1767202928,
      1767202976,
      1767203005,
      1767203026,
      1767203041,
      1767203090,
      1767203128,
      1767203158,
      1767203182,
      1767203205,
      1767203246,
      1767203267
    ],
    "wof:geomhash": "988bdffb5678a63fc9e2682e5e713eb9",
    "wof:id": 2014440431,
    "wof:repo": "sfomuseum-data-flights-2025-12"
  },
  "bbox": [
    -122.35392,
    37.49239,
    -121.25605,
    37.61218
  ],
  "geometry": {"coordinates":[[-121.25605,37.5939],[-121.27457,37.59133],[-121.33591,37.58437],[-121.42566,37.57416],[-121.48961,37.56673],[-121.50065,37.56543],[-121.57453,37.5567],[-121.60539,37.5531],[-121.63182,37.549],[-121.67068,37.53974],[-121.73746,37.52406],[-121.75539,37.5197],[-121.81802,37.50479],[-121.87086,37.49239],[-121.90516,37.49249],[-121.93918,37.49474],[-122.01172,37.49886],[-122.05485,37.50131],[-122.08587,37.50387],[-122.1061,37.50922],[-122.16976,37.53462],[-122.21776,37.55495],[-122.25418,37.57029],[-122.28079,37.58143],[-122.30263,37.5906],[-122.3378,37.6054],[-122.35392,37.61218]],"type":"LineString"}
}
