{
  "id": 2014407413,
  "type": "Feature",
  "properties": {
    "date:cessation_lower": "2025-12-27",
    "date:cessation_upper": "2025-12-27",
    "date:inception_lower": "1970-01-01",
    "date:inception_upper": "1970-01-01",
    "edtf:cessation": "2025-12-27T15:50:50-08:00",
    "edtf:inception": "1970-01-01T00:00:00Z",
    "flysfo:actual_timestamp": -1,
    "flysfo:airline": "AS",
    "flysfo:base_airline": "",
    "flysfo:base_flight_number": "2950",
    "flysfo:date": "2025-12-27",
    "flysfo:estimated_timestamp": 1766908260,
    "flysfo:event": "A",
    "flysfo:flight_number": "AS411",
    "flysfo:gate": "B7",
    "flysfo:journey": "SEA-SFO",
    "flysfo:scheduled_timestamp": 1766908440,
    "flysfo:timestamp": 1766908440,
    "geom:area": 0,
    "geom:bbox": "-122.370943,37.617990,-122.304268,47.441823",
    "geom:latitude": 42.529906499999996,
    "geom:longitude": -122.3376055,
    "iata:airline": "AS",
    "iata:base_airline": "",
    "icao:aircraft": "B38M",
    "icao:airline": "ASA",
    "icao:base_airline": "BAW",
    "lbl:latitude": 37.61799,
    "lbl:longitude": -122.370943,
    "sfomuseum:aircraft_id": 1528104575,
    "sfomuseum:airline_id": 1159283813,
    "sfomuseum:arrival_id": 102527513,
    "sfomuseum:base_flight_id": "20251227-A-BAW-2950",
    "sfomuseum:departure_id": 102533269,
    "sfomuseum:flight_id": "20251227-A-ASA-411",
    "sfomuseum:flight_number": [
      "ASA411",
      "AS411"
    ],
    "sfomuseum:placetype": "flight",
    "src:geom": "flysfo",
    "src:geom_alt": [
      "swim-approach"
    ],
    "swim:tail_number": "N813AK",
    "wof:belongsto": [
      1947304067,
      102527513,
      1947304261,
      102191575,
      85633793,
      102087579,
      85922583,
      554784711,
      85688637,
      1947304293,
      1947304259,
      102085387
    ],
    "wof:country": "US",
    "wof:created": 1766937856,
    "wof:geomhash": "3123a4aff4021144fa8973299956ba97",
    "wof:hierarchy": [
      {
        "building_id": 1947304067,
        "campus_id": 102527513,
        "concourse_id": 1947304261,
        "continent_id": 102191575,
        "country_id": 85633793,
        "county_id": 102087579,
        "custom_id": 2014407413,
        "flight_id": 2014407413,
        "locality_id": 85922583,
        "postalcode_id": 554784711,
        "region_id": 85688637,
        "venue_id": 1947304293,
        "wing_id": 1947304259
      },
      {
        "building_id": 1947304067,
        "campus_id": 102527513,
        "concourse_id": 1947304261,
        "continent_id": 102191575,
        "country_id": 85633793,
        "county_id": 102085387,
        "custom_id": 2014407413,
        "flight_id": 2014407413,
        "region_id": 85688637,
        "venue_id": 1947304293,
        "wing_id": 1947304259
      }
    ],
    "wof:id": 2014407413,
    "wof:involves": [
      1159284021,
      1528104575,
      102527513,
      102533269,
      1159283813,
      1947304293
    ],
    "wof:lastmodified": 1766938680,
    "wof:name": "AS411 (SEA-SFO)",
    "wof:parent_id": 1947304293,
    "wof:placetype": "custom",
    "wof:placetype_alt": [
      "flight"
    ],
    "wof:repo": "sfomuseum-data-flights-2025-12",
    "wof:superseded_by": [],
    "wof:supersedes": []
  },
  "bbox": [
    -122.370943,
    37.61799,
    -122.304268,
    47.441823
  ],
  "geometry": {"coordinates":[[-122.304268,47.441823],[-122.370943,37.61799]],"type":"MultiPoint"}
}
