{
  "id": 2014407413,
  "type": "Feature",
  "properties": {
    "geom:area": 0,
    "geom:bbox": "-122.847970,37.439200,-122.148930,38.499330",
    "geom:latitude": 37.84442832113953,
    "geom:longitude": -122.51913876353392,
    "src:alt_label": "swim-approach",
    "src:geom": "swim",
    "swim:elevations": [
      7529,
      7202,
      6898,
      6648,
      6320,
      6237,
      5800,
      5506,
      5364,
      5126,
      4735,
      4298,
      3983,
      3732,
      3483,
      3381,
      3353,
      3353,
      3353,
      3281,
      3150,
      2997,
      2831,
      2569,
      2272,
      2159,
      2118,
      1886,
      1853,
      1688,
      1544,
      1448,
      1272,
      1076,
      993,
      885,
      727,
      548,
      377,
      331,
      184,
      30
    ],
    "swim:geom": "approach",
    "swim:timestamps": [
      1766878312,
      1766878346,
      1766878376,
      1766878403,
      1766878436,
      1766878446,
      1766878491,
      1766878521,
      1766878541,
      1766878562,
      1766878602,
      1766878646,
      1766878676,
      1766878703,
      1766878733,
      1766878759,
      1766878794,
      1766878809,
      1766878837,
      1766878873,
      1766878888,
      1766878907,
      1766878928,
      1766878959,
      1766878995,
      1766879007,
      1766879013,
      1766879046,
      1766879055,
      1766879087,
      1766879116,
      1766879134,
      1766879167,
      1766879208,
      1766879235,
      1766879259,
      1766879293,
      1766879326,
      1766879363,
      1766879377,
      1766879411,
      1766879450
    ],
    "wof:geomhash": "fdd8c228d562d2a16056673185a6f25c",
    "wof:id": 2014407413,
    "wof:repo": "sfomuseum-data-flights-2025-12"
  },
  "bbox": [
    -122.84797,
    37.4392,
    -122.14893,
    38.49933
  ],
  "geometry": {"coordinates":[[-122.84797,38.49933],[-122.82848,38.433],[-122.81166,38.37567],[-122.79652,38.32395],[-122.77918,38.2642],[-122.77351,38.24486],[-122.74976,38.16331],[-122.73441,38.11095],[-122.72421,38.07604],[-122.71348,38.03876],[-122.69368,37.97032],[-122.66711,37.89828],[-122.62772,37.85698],[-122.59164,37.82239],[-122.55301,37.7857],[-122.51926,37.754],[-122.47766,37.71468],[-122.46065,37.69876],[-122.42996,37.66993],[-122.39395,37.6361],[-122.37942,37.62257],[-122.36153,37.60408],[-122.34805,37.58199],[-122.33172,37.54856],[-122.30904,37.51142],[-122.30158,37.49902],[-122.29791,37.49285],[-122.27224,37.46339],[-122.26233,37.45778],[-122.22662,37.4392],[-122.19414,37.44531],[-122.17683,37.45435],[-122.14893,37.47104],[-122.15629,37.50329],[-122.17051,37.52239],[-122.188,37.53666],[-122.2195,37.55264],[-122.25156,37.56693],[-122.28557,37.58105],[-122.29713,37.58585],[-122.32468,37.59756],[-122.35529,37.61036]],"type":"LineString"}
}
