{
  "id": 2014417919,
  "type": "Feature",
  "properties": {
    "geom:area": 0,
    "geom:bbox": "-122.344350,37.492270,-121.248220,37.608090",
    "geom:latitude": 37.54606121473561,
    "geom:longitude": -121.80084632343934,
    "src:alt_label": "swim-approach",
    "src:geom": "swim",
    "swim:elevations": [
      4373,
      3907,
      3684,
      3560,
      3193,
      3113,
      3080,
      3017,
      2827,
      2743,
      2496,
      2341,
      2185,
      1950,
      1889,
      1844,
      1440,
      1151,
      1085,
      980,
      926,
      699,
      608,
      473,
      364,
      306,
      125,
      96
    ],
    "swim:geom": "approach",
    "swim:timestamps": [
      1766962353,
      1766962408,
      1766962435,
      1766962450,
      1766962495,
      1766962519,
      1766962531,
      1766962549,
      1766962581,
      1766962595,
      1766962637,
      1766962667,
      1766962694,
      1766962736,
      1766962760,
      1766962772,
      1766962822,
      1766962855,
      1766962869,
      1766962884,
      1766962896,
      1766962942,
      1766962968,
      1766963001,
      1766963036,
      1766963054,
      1766963096,
      1766963105
    ],
    "wof:geomhash": "f5651013967a6d437a33de49ba5a9582",
    "wof:id": 2014417919,
    "wof:repo": "sfomuseum-data-flights-2025-12"
  },
  "bbox": [
    -122.34435,
    37.49227,
    -121.24822,
    37.60809
  ],
  "geometry": {"coordinates":[[-121.24822,37.5947],[-121.36481,37.58073],[-121.4203,37.57469],[-121.45031,37.57129],[-121.53766,37.56119],[-121.58278,37.55589],[-121.60427,37.55326],[-121.636,37.54784],[-121.69018,37.53535],[-121.71181,37.53008],[-121.78061,37.51345],[-121.82582,37.50255],[-121.86597,37.49347],[-121.92958,37.49227],[-121.9663,37.49331],[-121.98315,37.49506],[-122.05442,37.51605],[-122.09686,37.53001],[-122.11339,37.53549],[-122.13115,37.54127],[-122.14494,37.54579],[-122.19621,37.56238],[-122.22316,37.5711],[-122.25679,37.5819],[-122.29018,37.59166],[-122.30499,37.59586],[-122.33751,37.6056],[-122.34435,37.60809]],"type":"LineString"}
}
