{
  "id": 2014447451,
  "type": "Feature",
  "properties": {
    "geom:area": 0,
    "geom:bbox": "-122.363790,37.631400,-121.273870,38.408970",
    "geom:latitude": 38.02983152606897,
    "geom:longitude": -121.82733997954611,
    "src:alt_label": "swim-takeoff",
    "src:geom": "swim",
    "swim:elevations": [
      386,
      920,
      1189,
      1505,
      2075,
      2557,
      3006,
      3762,
      3789,
      4439,
      5110,
      5394,
      5832,
      6070,
      6604,
      7030,
      7259,
      7619,
      8035,
      8375,
      8578,
      8602,
      8836,
      8955,
      9153,
      9237
    ],
    "swim:geom": "takeoff",
    "swim:timestamps": [
      1767215390,
      1767215427,
      1767215454,
      1767215487,
      1767215515,
      1767215534,
      1767215557,
      1767215607,
      1767215610,
      1767215651,
      1767215696,
      1767215717,
      1767215750,
      1767215768,
      1767215815,
      1767215848,
      1767215865,
      1767215892,
      1767215930,
      1767215966,
      1767215993,
      1767216002,
      1767216037,
      1767216055,
      1767216085,
      1767216097
    ],
    "wof:geomhash": "25f0f39c3be30429f2f1c026ae09b33f",
    "wof:id": 2014447451,
    "wof:repo": "sfomuseum-data-flights-2025-12"
  },
  "bbox": [
    -122.36379,
    37.6314,
    -121.27387,
    38.40897
  ],
  "geometry": {"coordinates":[[-122.36379,37.6314],[-122.33667,37.64725],[-122.31384,37.66094],[-122.27648,37.68439],[-122.23724,37.70561],[-122.21289,37.72173],[-122.18936,37.74536],[-122.13626,37.80373],[-122.13281,37.80747],[-122.08435,37.8613],[-122.01933,37.91316],[-121.98562,37.93587],[-121.93068,37.97281],[-121.90003,37.99336],[-121.81771,38.04913],[-121.75871,38.08938],[-121.72726,38.11075],[-121.67949,38.14301],[-121.60882,38.19052],[-121.54049,38.23566],[-121.49026,38.26964],[-121.47251,38.28135],[-121.40168,38.32907],[-121.36483,38.35372],[-121.30034,38.39302],[-121.27387,38.40897]],"type":"LineString"}
}
