{
  "id": 2014433763,
  "type": "Feature",
  "properties": {
    "geom:area": 0,
    "geom:bbox": "-122.356580,36.719560,-121.876420,37.610960",
    "geom:latitude": 37.20505025882969,
    "geom:longitude": -122.0687966800445,
    "src:alt_label": "swim-approach",
    "src:geom": "swim",
    "swim:elevations": [
      5089,
      4850,
      4741,
      4452,
      4151,
      3767,
      3534,
      3198,
      3120,
      3110,
      2933,
      2681,
      2651,
      2535,
      2419,
      2162,
      1980,
      1789,
      1696,
      1606,
      1460,
      1436,
      1221,
      1007,
      817,
      647,
      496,
      351,
      282,
      211,
      132,
      27
    ],
    "swim:geom": "approach",
    "swim:timestamps": [
      1767135293,
      1767135320,
      1767135330,
      1767135362,
      1767135394,
      1767135437,
      1767135464,
      1767135504,
      1767135532,
      1767135541,
      1767135583,
      1767135627,
      1767135632,
      1767135648,
      1767135668,
      1767135717,
      1767135742,
      1767135766,
      1767135784,
      1767135802,
      1767135831,
      1767135834,
      1767135861,
      1767135895,
      1767135922,
      1767135950,
      1767135978,
      1767136014,
      1767136029,
      1767136047,
      1767136068,
      1767136090
    ],
    "wof:geomhash": "77bf43760a91da5d4e80ca633a7ba1f3",
    "wof:id": 2014433763,
    "wof:repo": "sfomuseum-data-flights-2025-12"
  },
  "bbox": [
    -122.35658,
    36.71956,
    -121.87642,
    37.61096
  ],
  "geometry": {"coordinates":[[-121.87642,36.71956],[-121.89985,36.76192],[-121.90534,36.77878],[-121.92074,36.83271],[-121.93491,36.88543],[-121.95458,36.95609],[-121.97147,36.99886],[-121.9956,37.06047],[-122.01152,37.10168],[-122.01652,37.11445],[-122.03873,37.1713],[-122.06029,37.22659],[-122.06295,37.23335],[-122.07101,37.25354],[-122.08114,37.27892],[-122.10433,37.33872],[-122.11509,37.36673],[-122.12489,37.3923],[-122.13128,37.41131],[-122.1383,37.43104],[-122.14984,37.46199],[-122.15129,37.46509],[-122.16778,37.49146],[-122.1943,37.52072],[-122.21403,37.54195],[-122.23726,37.56071],[-122.26347,37.57111],[-122.29321,37.58413],[-122.30558,37.58923],[-122.32022,37.59588],[-122.33782,37.60293],[-122.35658,37.61096]],"type":"LineString"}
}
