{
  "id": 2014442157,
  "type": "Feature",
  "properties": {
    "geom:area": 0,
    "geom:bbox": "-122.361460,37.475640,-121.256880,37.615040",
    "geom:latitude": 37.55157948251008,
    "geom:longitude": -121.82034942266898,
    "src:alt_label": "swim-approach",
    "src:geom": "swim",
    "swim:elevations": [
      4598,
      4458,
      4371,
      4036,
      3879,
      3739,
      3397,
      3355,
      3353,
      3185,
      3007,
      2817,
      2671,
      2602,
      2465,
      2434,
      2405,
      2133,
      2085,
      2006,
      1873,
      1829,
      1643,
      1499,
      1400,
      1401,
      1130,
      1049,
      887,
      616,
      551,
      223,
      164,
      18
    ],
    "swim:geom": "approach",
    "swim:timestamps": [
      1767180587,
      1767180616,
      1767180640,
      1767180687,
      1767180714,
      1767180734,
      1767180778,
      1767180794,
      1767180826,
      1767180863,
      1767180894,
      1767180920,
      1767180952,
      1767180962,
      1767180982,
      1767181012,
      1767181020,
      1767181062,
      1767181106,
      1767181117,
      1767181137,
      1767181144,
      1767181168,
      1767181197,
      1767181227,
      1767181230,
      1767181287,
      1767181302,
      1767181338,
      1767181369,
      1767181380,
      1767181431,
      1767181443,
      1767181484
    ],
    "wof:geomhash": "3cd432f26d72f2b928acf4097dabff9d",
    "wof:id": 2014442157,
    "wof:repo": "sfomuseum-data-flights-2025-12"
  },
  "bbox": [
    -122.36146,
    37.47564,
    -121.25688,
    37.61504
  ],
  "geometry": {"coordinates":[[-121.25688,37.59359],[-121.31567,37.58634],[-121.36115,37.58141],[-121.44586,37.5718],[-121.49437,37.56612],[-121.52926,37.56195],[-121.60621,37.55303],[-121.63322,37.54876],[-121.68585,37.54117],[-121.7348,37.56561],[-121.77445,37.58897],[-121.8123,37.5962],[-121.85784,37.59225],[-121.86777,37.58529],[-121.87244,37.56649],[-121.87003,37.53658],[-121.87239,37.52933],[-121.90201,37.49339],[-121.96242,37.48309],[-121.97757,37.48085],[-122.00479,37.4769],[-122.01445,37.47564],[-122.04808,37.48227],[-122.08519,37.49895],[-122.12177,37.51446],[-122.12565,37.51607],[-122.18677,37.54192],[-122.20188,37.54819],[-122.23717,37.56301],[-122.26487,37.57472],[-122.27504,37.57898],[-122.31812,37.59715],[-122.32781,37.60124],[-122.36146,37.61504]],"type":"LineString"}
}
