{
  "id": 2014414093,
  "type": "Feature",
  "properties": {
    "geom:area": 0,
    "geom:bbox": "-122.361470,37.635860,-121.267570,37.952940",
    "geom:latitude": 37.81603516466994,
    "geom:longitude": -121.8228008185962,
    "src:alt_label": "swim-takeoff",
    "src:geom": "swim",
    "swim:elevations": [
      213,
      635,
      921,
      1235,
      1497,
      1750,
      2437,
      2561,
      3143,
      3490,
      3721,
      3916,
      4357,
      4785,
      5171,
      5262,
      5821,
      6055,
      6300,
      6590,
      6788,
      7003,
      7239
    ],
    "swim:geom": "takeoff",
    "swim:timestamps": [
      1766841636,
      1766841666,
      1766841690,
      1766841739,
      1766841769,
      1766841788,
      1766841834,
      1766841842,
      1766841884,
      1766841907,
      1766841949,
      1766841964,
      1766842005,
      1766842040,
      1766842072,
      1766842080,
      1766842134,
      1766842156,
      1766842182,
      1766842218,
      1766842242,
      1766842265,
      1766842291
    ],
    "wof:geomhash": "64c697d18becdd91452285143a7a43ea",
    "wof:id": 2014414093,
    "wof:repo": "sfomuseum-data-flights-2025-12"
  },
  "bbox": [
    -122.36147,
    37.63586,
    -121.26757,
    37.95294
  ],
  "geometry": {"coordinates":[[-122.36147,37.63586],[-122.33778,37.65186],[-122.31812,37.66185],[-122.27383,37.6871],[-122.23789,37.70609],[-122.21425,37.71799],[-122.1476,37.74376],[-122.13597,37.74655],[-122.07073,37.76126],[-122.0334,37.77022],[-121.96284,37.78746],[-121.9338,37.79448],[-121.85553,37.81336],[-121.78701,37.82992],[-121.72515,37.84448],[-121.70792,37.84866],[-121.59974,37.87439],[-121.55523,37.88495],[-121.50121,37.89766],[-121.42602,37.91563],[-121.37449,37.92798],[-121.32459,37.93969],[-121.26757,37.95294]],"type":"LineString"}
}
