{
  "id": 2014439393,
  "type": "Feature",
  "properties": {
    "geom:area": 0,
    "geom:bbox": "-122.365810,37.629670,-122.077210,38.517300",
    "geom:latitude": 38.03419141571073,
    "geom:longitude": -122.16743000015288,
    "src:alt_label": "swim-takeoff",
    "src:geom": "swim",
    "swim:elevations": [
      152,
      341,
      687,
      994,
      1300,
      1573,
      2043,
      2667,
      2983,
      3259,
      3466,
      3898,
      4363,
      4838,
      4964,
      5419,
      5546,
      5999,
      6329,
      6603,
      6678,
      7051,
      7464,
      7487
    ],
    "swim:geom": "takeoff",
    "swim:timestamps": [
      1767094495,
      1767094509,
      1767094540,
      1767094569,
      1767094611,
      1767094635,
      1767094664,
      1767094704,
      1767094727,
      1767094746,
      1767094776,
      1767094810,
      1767094847,
      1767094888,
      1767094896,
      1767094944,
      1767094953,
      1767094998,
      1767095035,
      1767095061,
      1767095070,
      1767095113,
      1767095157,
      1767095160
    ],
    "wof:geomhash": "21470a8834e39a3c5486f965ca8c23e4",
    "wof:id": 2014439393,
    "wof:repo": "sfomuseum-data-flights-2025-12"
  },
  "bbox": [
    -122.36581,
    37.62967,
    -122.07721,
    38.5173
  ],
  "geometry": {"coordinates":[[-122.36581,37.62967],[-122.35853,37.63815],[-122.3347,37.65118],[-122.3101,37.66511],[-122.26493,37.69139],[-122.23418,37.70786],[-122.21181,37.73877],[-122.2321,37.79045],[-122.25041,37.81872],[-122.26495,37.84363],[-122.26098,37.88729],[-122.23742,37.93704],[-122.19086,37.98105],[-122.13469,38.03146],[-122.12303,38.04203],[-122.07721,38.11229],[-122.07748,38.1283],[-122.07834,38.20705],[-122.07818,38.27535],[-122.07895,38.32518],[-122.07909,38.3426],[-122.08077,38.42385],[-122.0789,38.51153],[-122.07732,38.5173]],"type":"LineString"}
}
