{
  "id": 2014444931,
  "type": "Feature",
  "properties": {
    "geom:area": 0,
    "geom:bbox": "-122.364390,37.631780,-122.116500,38.479020",
    "geom:latitude": 38.02163634827538,
    "geom:longitude": -122.18021321461617,
    "src:alt_label": "swim-takeoff",
    "src:geom": "swim",
    "swim:elevations": [
      183,
      583,
      905,
      1090,
      1109,
      1384,
      1647,
      2037,
      2207,
      2594,
      2697,
      2978,
      3325,
      3408,
      3828,
      4039,
      4332,
      4748,
      5221,
      5457,
      5807,
      5905,
      6176
    ],
    "swim:geom": "takeoff",
    "swim:timestamps": [
      1767188871,
      1767188903,
      1767188937,
      1767188962,
      1767188970,
      1767189015,
      1767189042,
      1767189073,
      1767189087,
      1767189118,
      1767189126,
      1767189150,
      1767189201,
      1767189213,
      1767189253,
      1767189274,
      1767189303,
      1767189342,
      1767189378,
      1767189403,
      1767189445,
      1767189457,
      1767189492
    ],
    "wof:geomhash": "81d0fc37f0caca139d78df2ac5c1a033",
    "wof:id": 2014444931,
    "wof:repo": "sfomuseum-data-flights-2025-12"
  },
  "bbox": [
    -122.36439,
    37.63178,
    -122.1165,
    38.47902
  ],
  "geometry": {"coordinates":[[-122.36439,37.63178],[-122.34343,37.64827],[-122.31517,37.66216],[-122.29392,37.67462],[-122.28647,37.67899],[-122.23645,37.70621],[-122.21213,37.73315],[-122.20517,37.77557],[-122.20228,37.79463],[-122.19514,37.83716],[-122.19327,37.84821],[-122.18763,37.88288],[-122.17509,37.95933],[-122.17178,37.97887],[-122.16076,38.04537],[-122.15473,38.0817],[-122.14651,38.13141],[-122.1351,38.20069],[-122.12427,38.26619],[-122.11692,38.31051],[-122.1165,38.38922],[-122.11805,38.41213],[-122.12283,38.47902]],"type":"LineString"}
}
