{
  "id": 2014432079,
  "type": "Feature",
  "properties": {
    "geom:area": 0,
    "geom:bbox": "-122.360510,37.476770,-121.272910,37.637840",
    "geom:latitude": 37.565552415816924,
    "geom:longitude": -121.82866500423246,
    "src:alt_label": "swim-approach",
    "src:geom": "swim",
    "swim:elevations": [
      4329,
      4084,
      3857,
      3770,
      3473,
      3458,
      3295,
      3012,
      2866,
      2803,
      2529,
      2435,
      2438,
      2438,
      2438,
      2438,
      2223,
      2135,
      2134,
      1968,
      1828,
      1763,
      1510,
      1456,
      1098,
      946,
      823,
      639,
      549,
      516,
      324,
      230,
      144,
      101
    ],
    "swim:geom": "approach",
    "swim:timestamps": [
      1767097760,
      1767097787,
      1767097823,
      1767097844,
      1767097887,
      1767097891,
      1767097931,
      1767097979,
      1767098001,
      1767098013,
      1767098058,
      1767098094,
      1767098112,
      1767098154,
      1767098186,
      1767098207,
      1767098241,
      1767098273,
      1767098304,
      1767098335,
      1767098365,
      1767098394,
      1767098425,
      1767098430,
      1767098484,
      1767098514,
      1767098543,
      1767098574,
      1767098602,
      1767098625,
      1767098665,
      1767098693,
      1767098713,
      1767098746
    ],
    "wof:geomhash": "49a451b2fd60494e43820bc26ed47343",
    "wof:id": 2014432079,
    "wof:repo": "sfomuseum-data-flights-2025-12"
  },
  "bbox": [
    -122.36051,
    37.47677,
    -121.27291,
    37.63784
  ],
  "geometry": {"coordinates":[[-121.27291,37.59172],[-121.32715,37.58525],[-121.39909,37.57728],[-121.43775,37.57287],[-121.51212,37.56414],[-121.5177,37.56349],[-121.58207,37.55586],[-121.65319,37.56361],[-121.68242,37.57988],[-121.69762,37.58833],[-121.75476,37.62064],[-121.80116,37.63784],[-121.82667,37.63751],[-121.88307,37.62818],[-121.90094,37.59856],[-121.90115,37.57803],[-121.88332,37.54809],[-121.86693,37.51891],[-121.8789,37.48992],[-121.91511,37.47677],[-121.95606,37.48766],[-121.99329,37.49884],[-122.03211,37.51054],[-122.03933,37.51262],[-122.10664,37.53312],[-122.14044,37.54429],[-122.17043,37.55397],[-122.20275,37.56444],[-122.23151,37.57387],[-122.25323,37.58095],[-122.29221,37.59248],[-122.31592,37.59947],[-122.33245,37.60435],[-122.36051,37.61462]],"type":"LineString"}
}
