{
  "id": 2014426439,
  "type": "Feature",
  "properties": {
    "geom:area": 0,
    "geom:bbox": "-122.354110,37.491740,-121.507660,37.612160",
    "geom:latitude": 37.53667245482476,
    "geom:longitude": -121.93416137174688,
    "src:alt_label": "swim-approach",
    "src:geom": "swim",
    "swim:elevations": [
      3327,
      3169,
      3111,
      2895,
      2644,
      2497,
      2388,
      2194,
      2060,
      1907,
      1741,
      1617,
      1394,
      1217,
      1126,
      988,
      859,
      669,
      484,
      377,
      271,
      170,
      33
    ],
    "swim:geom": "approach",
    "swim:timestamps": [
      1767024463,
      1767024486,
      1767024511,
      1767024553,
      1767024592,
      1767024615,
      1767024641,
      1767024675,
      1767024705,
      1767024738,
      1767024774,
      1767024796,
      1767024836,
      1767024867,
      1767024885,
      1767024914,
      1767024938,
      1767024976,
      1767025017,
      1767025041,
      1767025062,
      1767025093,
      1767025122
    ],
    "wof:geomhash": "75d6b3cad97d4052b3db4d1566d580a9",
    "wof:id": 2014426439,
    "wof:repo": "sfomuseum-data-flights-2025-12"
  },
  "bbox": [
    -122.35411,
    37.49174,
    -121.50766,
    37.61216
  ],
  "geometry": {"coordinates":[[-121.50766,37.56442],[-121.55362,37.55903],[-121.59953,37.55375],[-121.67293,37.53929],[-121.73603,37.52429],[-121.77384,37.51514],[-121.81377,37.50557],[-121.86372,37.49362],[-121.90717,37.49174],[-121.95503,37.49295],[-122.00305,37.49945],[-122.03027,37.50832],[-122.07778,37.52389],[-122.11437,37.5356],[-122.13359,37.54183],[-122.16277,37.5513],[-122.18629,37.55899],[-122.22582,37.57189],[-122.26643,37.58463],[-122.28816,37.59085],[-122.30587,37.59618],[-122.33083,37.60348],[-122.35411,37.61216]],"type":"LineString"}
}
