{
  "id": 2014430603,
  "type": "Feature",
  "properties": {
    "geom:area": 0,
    "geom:bbox": "-122.548630,36.720380,-121.439840,37.666610",
    "geom:latitude": 37.21173807372651,
    "geom:longitude": -122.06597813480055,
    "src:alt_label": "swim-takeoff",
    "src:geom": "swim",
    "swim:elevations": [
      213,
      456,
      739,
      1363,
      1632,
      1943,
      2496,
      3013,
      3293,
      3841,
      3981,
      4540,
      4878,
      5211,
      5350,
      5426,
      5952,
      6311,
      6615,
      7005,
      7280,
      7493,
      7700,
      8043,
      8421,
      8534,
      9051,
      9359,
      9428,
      9449,
      9449,
      9449
    ],
    "swim:geom": "takeoff",
    "swim:timestamps": [
      1767016253,
      1767016271,
      1767016293,
      1767016346,
      1767016371,
      1767016398,
      1767016431,
      1767016465,
      1767016485,
      1767016528,
      1767016541,
      1767016585,
      1767016611,
      1767016640,
      1767016649,
      1767016654,
      1767016701,
      1767016733,
      1767016759,
      1767016797,
      1767016824,
      1767016845,
      1767016866,
      1767016908,
      1767016945,
      1767016956,
      1767017004,
      1767017038,
      1767017048,
      1767017093,
      1767017124,
      1767017135
    ],
    "wof:geomhash": "44950f0a5729572640ef64b8d80a7657",
    "wof:id": 2014430603,
    "wof:repo": "sfomuseum-data-flights-2025-12"
  },
  "bbox": [
    -122.54863,
    36.72038,
    -121.43984,
    37.66661
  ],
  "geometry": {"coordinates":[[-122.39692,37.62822],[-122.41356,37.63548],[-122.43533,37.6445],[-122.48853,37.66661],[-122.52331,37.66443],[-122.54863,37.6396],[-122.53669,37.60012],[-122.51291,37.55823],[-122.49938,37.53442],[-122.45596,37.48158],[-122.43752,37.46821],[-122.37362,37.42058],[-122.33421,37.39165],[-122.28992,37.35899],[-122.27562,37.3484],[-122.26683,37.34195],[-122.19155,37.28598],[-122.1399,37.24755],[-122.09689,37.21547],[-122.03155,37.16679],[-121.98442,37.13153],[-121.94814,37.10431],[-121.91196,37.07713],[-121.83831,37.02201],[-121.77148,36.97161],[-121.75308,36.95788],[-121.6676,36.89511],[-121.60797,36.84941],[-121.59087,36.83611],[-121.51278,36.77654],[-121.45848,36.73474],[-121.43984,36.72038]],"type":"LineString"}
}
