{
  "id": 2014435249,
  "type": "Feature",
  "properties": {
    "geom:area": 0,
    "geom:bbox": "-122.349240,37.491470,-121.243250,37.610220",
    "geom:latitude": 37.54647893148181,
    "geom:longitude": -121.80097699166761,
    "src:alt_label": "swim-approach",
    "src:geom": "swim",
    "swim:elevations": [
      4846,
      4676,
      4445,
      4258,
      3916,
      3661,
      3468,
      3291,
      3171,
      3067,
      3006,
      2735,
      2677,
      2216,
      2112,
      2011,
      1894,
      1856,
      1787,
      1366,
      1163,
      935,
      915,
      851,
      615,
      401,
      281,
      203,
      62
    ],
    "swim:geom": "approach",
    "swim:timestamps": [
      1767133821,
      1767133841,
      1767133869,
      1767133890,
      1767133947,
      1767133975,
      1767133999,
      1767134020,
      1767134037,
      1767134051,
      1767134072,
      1767134126,
      1767134131,
      1767134184,
      1767134199,
      1767134220,
      1767134247,
      1767134259,
      1767134281,
      1767134333,
      1767134360,
      1767134396,
      1767134407,
      1767134444,
      1767134488,
      1767134516,
      1767134542,
      1767134562,
      1767134591
    ],
    "wof:geomhash": "78b7dda4602ee3d3d736b89323c6887c",
    "wof:id": 2014435249,
    "wof:repo": "sfomuseum-data-flights-2025-12"
  },
  "bbox": [
    -122.34924,
    37.49147,
    -121.24325,
    37.61022
  ],
  "geometry": {"coordinates":[[-121.24325,37.59558],[-121.28455,37.59008],[-121.34099,37.58374],[-121.38422,37.57885],[-121.4921,37.5663],[-121.53992,37.56068],[-121.58171,37.55599],[-121.61761,37.55166],[-121.64587,37.54582],[-121.66903,37.54005],[-121.70189,37.53221],[-121.78211,37.51319],[-121.78973,37.51137],[-121.86477,37.49348],[-121.88641,37.49147],[-121.91713,37.49241],[-121.95793,37.49344],[-121.97583,37.49394],[-122.00626,37.5012],[-122.07286,37.52241],[-122.10805,37.53383],[-122.15491,37.5491],[-122.16836,37.55341],[-122.21044,37.56694],[-122.25747,37.58135],[-122.28534,37.58945],[-122.30918,37.59577],[-122.3259,37.60117],[-122.34924,37.61022]],"type":"LineString"}
}
