{
  "id": 2014447557,
  "type": "Feature",
  "properties": {
    "geom:area": 0,
    "geom:bbox": "-122.353980,37.645940,-121.259850,38.416700",
    "geom:latitude": 38.03877335151705,
    "geom:longitude": -121.81462960528407,
    "src:alt_label": "swim-takeoff",
    "src:geom": "swim",
    "swim:elevations": [
      497,
      893,
      1062,
      1365,
      1700,
      2014,
      2470,
      2832,
      3221,
      3565,
      3647,
      4088,
      4250,
      4529,
      4941,
      5408,
      5516,
      6023,
      6258,
      6369,
      6547,
      6602,
      6818,
      6860,
      7049,
      7101,
      7480,
      7678
    ],
    "swim:geom": "takeoff",
    "swim:timestamps": [
      1767171950,
      1767171988,
      1767172008,
      1767172047,
      1767172078,
      1767172102,
      1767172133,
      1767172160,
      1767172188,
      1767172228,
      1767172247,
      1767172283,
      1767172300,
      1767172327,
      1767172361,
      1767172400,
      1767172415,
      1767172467,
      1767172490,
      1767172502,
      1767172523,
      1767172530,
      1767172556,
      1767172561,
      1767172585,
      1767172590,
      1767172639,
      1767172661
    ],
    "wof:geomhash": "c6134ca18b073a82d7560e88166aebbd",
    "wof:id": 2014447557,
    "wof:repo": "sfomuseum-data-flights-2025-12"
  },
  "bbox": [
    -122.35398,
    37.64594,
    -121.25985,
    38.4167
  ],
  "geometry": {"coordinates":[[-122.35398,37.64594],[-122.3223,37.66252],[-122.30449,37.67128],[-122.26184,37.69214],[-122.22347,37.71211],[-122.19784,37.73446],[-122.16811,37.7681],[-122.14172,37.7974],[-122.11275,37.82929],[-122.06789,37.8776],[-122.03982,37.89937],[-121.97963,37.93923],[-121.9525,37.95712],[-121.90445,37.98961],[-121.84558,38.03028],[-121.77401,38.07912],[-121.74737,38.09708],[-121.65038,38.16199],[-121.60544,38.192],[-121.58387,38.20646],[-121.54146,38.23479],[-121.52945,38.24281],[-121.47596,38.27849],[-121.46801,38.28381],[-121.41868,38.31667],[-121.40897,38.32308],[-121.30615,38.38855],[-121.25985,38.4167]],"type":"LineString"}
}
