{
  "id": 2014439887,
  "type": "Feature",
  "properties": {
    "geom:area": 0,
    "geom:bbox": "-123.491280,37.629330,-122.399640,38.437480",
    "geom:latitude": 38.034700997665375,
    "geom:longitude": -122.94339454861917,
    "src:alt_label": "swim-takeoff",
    "src:geom": "swim",
    "swim:elevations": [
      213,
      399,
      821,
      912,
      1088,
      1662,
      1799,
      2453,
      2654,
      2802,
      3118,
      3322,
      3481,
      3671,
      3966,
      4185,
      4635,
      4901,
      5048,
      5368,
      5685,
      5902,
      6218,
      6437,
      6949
    ],
    "swim:geom": "takeoff",
    "swim:timestamps": [
      1767093919,
      1767093931,
      1767093969,
      1767094011,
      1767094042,
      1767094078,
      1767094087,
      1767094132,
      1767094149,
      1767094163,
      1767094194,
      1767094223,
      1767094252,
      1767094282,
      1767094315,
      1767094330,
      1767094377,
      1767094399,
      1767094416,
      1767094450,
      1767094489,
      1767094513,
      1767094552,
      1767094579,
      1767094617
    ],
    "wof:geomhash": "5970d704dc0f444c8f4004ca86d614a9",
    "wof:id": 2014439887,
    "wof:repo": "sfomuseum-data-flights-2025-12"
  },
  "bbox": [
    -123.49128,
    37.62933,
    -122.39964,
    38.43748
  ],
  "geometry": {"coordinates":[[-122.39964,37.62933],[-122.41088,37.63416],[-122.44721,37.65041],[-122.49626,37.67167],[-122.53479,37.69311],[-122.58223,37.72134],[-122.59406,37.72824],[-122.65446,37.7642],[-122.67812,37.77822],[-122.69756,37.78949],[-122.74424,37.81724],[-122.78083,37.85211],[-122.81482,37.89474],[-122.85334,37.94195],[-122.89828,37.99586],[-122.91967,38.02073],[-122.98557,38.09982],[-123.01859,38.1391],[-123.04333,38.16838],[-123.10467,38.22305],[-123.19193,38.27278],[-123.24669,38.30296],[-123.33631,38.35186],[-123.4014,38.387],[-123.49128,38.43748]],"type":"LineString"}
}
