{
  "id": 2014417885,
  "type": "Feature",
  "properties": {
    "geom:area": 0,
    "geom:bbox": "-122.354600,37.491800,-121.253090,37.612500",
    "geom:latitude": 37.54638238438664,
    "geom:longitude": -121.80864242521733,
    "src:alt_label": "swim-approach",
    "src:geom": "swim",
    "swim:elevations": [
      4328,
      4214,
      3874,
      3667,
      3457,
      3389,
      3178,
      3110,
      2991,
      2846,
      2713,
      2499,
      2471,
      2381,
      2244,
      2171,
      2141,
      2031,
      1739,
      1549,
      1369,
      1197,
      1095,
      845,
      756,
      529,
      486,
      317,
      146,
      29
    ],
    "swim:geom": "approach",
    "swim:timestamps": [
      1766957247,
      1766957262,
      1766957301,
      1766957324,
      1766957349,
      1766957358,
      1766957384,
      1766957406,
      1766957439,
      1766957455,
      1766957472,
      1766957509,
      1766957525,
      1766957546,
      1766957573,
      1766957591,
      1766957619,
      1766957652,
      1766957687,
      1766957714,
      1766957746,
      1766957777,
      1766957795,
      1766957843,
      1766957858,
      1766957908,
      1766957914,
      1766957952,
      1766957997,
      1766958019
    ],
    "wof:geomhash": "68e5efc38b3a290804d3d2ecb7c853b6",
    "wof:id": 2014417885,
    "wof:repo": "sfomuseum-data-flights-2025-12"
  },
  "bbox": [
    -122.3546,
    37.4918,
    -121.25309,
    37.6125
  ],
  "geometry": {"coordinates":[[-121.25309,37.59399],[-121.28609,37.58954],[-121.3694,37.58052],[-121.41667,37.57507],[-121.46698,37.5692],[-121.48502,37.56712],[-121.53652,37.56112],[-121.57923,37.55614],[-121.63815,37.54748],[-121.66453,37.54128],[-121.69459,37.53416],[-121.75477,37.51965],[-121.77999,37.51361],[-121.81218,37.50593],[-121.85225,37.49637],[-121.87896,37.4918],[-121.91811,37.49205],[-121.96408,37.49323],[-122.0114,37.50242],[-122.04621,37.51365],[-122.08448,37.52593],[-122.11974,37.53728],[-122.13942,37.54373],[-122.19167,37.56073],[-122.20739,37.56592],[-122.2575,37.58198],[-122.26313,37.58374],[-122.29688,37.59353],[-122.3354,37.60494],[-122.3546,37.6125]],"type":"LineString"}
}
