{
  "id": 2014409419,
  "type": "Feature",
  "properties": {
    "geom:area": 0,
    "geom:bbox": "-122.358820,36.724140,-121.880140,37.611900",
    "geom:latitude": 37.21026706675474,
    "geom:longitude": -122.08163584229636,
    "src:alt_label": "swim-approach",
    "src:geom": "swim",
    "swim:elevations": [
      5864,
      5661,
      5432,
      5216,
      4661,
      4464,
      4187,
      3833,
      3691,
      3411,
      3138,
      3028,
      2721,
      2489,
      2264,
      2078,
      1946,
      1891,
      1794,
      1435,
      1386,
      1244,
      1182,
      980,
      851,
      761,
      608,
      549,
      304,
      249,
      73,
      28
    ],
    "swim:geom": "approach",
    "swim:timestamps": [
      1766834033,
      1766834053,
      1766834084,
      1766834105,
      1766834156,
      1766834176,
      1766834204,
      1766834237,
      1766834253,
      1766834284,
      1766834332,
      1766834354,
      1766834397,
      1766834425,
      1766834452,
      1766834484,
      1766834508,
      1766834532,
      1766834552,
      1766834608,
      1766834628,
      1766834664,
      1766834673,
      1766834712,
      1766834752,
      1766834780,
      1766834812,
      1766834821,
      1766834873,
      1766834883,
      1766834929,
      1766834946
    ],
    "wof:geomhash": "b0bb25681b175c9c6013483b6bff7b33",
    "wof:id": 2014409419,
    "wof:repo": "sfomuseum-data-flights-2025-12"
  },
  "bbox": [
    -122.35882,
    36.72414,
    -121.88014,
    37.6119
  ],
  "geometry": {"coordinates":[[-121.88014,36.72414],[-121.89583,36.75267],[-121.91016,36.79951],[-121.91913,36.83069],[-121.94045,36.90732],[-121.9478,36.93651],[-121.96068,36.97789],[-121.98047,37.0238],[-121.98919,37.04464],[-122.00534,37.08608],[-122.03451,37.14356],[-122.0613,37.16],[-122.11775,37.18644],[-122.1415,37.21279],[-122.14292,37.24576],[-122.14051,37.28414],[-122.13909,37.3119],[-122.13711,37.34108],[-122.13507,37.36543],[-122.12952,37.43086],[-122.12774,37.45184],[-122.13669,37.48415],[-122.1428,37.49054],[-122.16968,37.51758],[-122.20023,37.54157],[-122.22463,37.55529],[-122.25394,37.56821],[-122.26214,37.5714],[-122.30338,37.5884],[-122.31087,37.59159],[-122.34551,37.60625],[-122.35882,37.6119]],"type":"LineString"}
}
