{
  "id": 2014409041,
  "type": "Feature",
  "properties": {
    "geom:area": 0,
    "geom:bbox": "-122.749320,37.422100,-122.089980,38.512220",
    "geom:latitude": 37.883984856508334,
    "geom:longitude": -122.45228007127754,
    "src:alt_label": "swim-approach",
    "src:geom": "swim",
    "swim:elevations": [
      8382,
      8100,
      7598,
      7305,
      6882,
      6435,
      6312,
      6032,
      6004,
      5673,
      5431,
      5213,
      4924,
      4680,
      4448,
      4300,
      4191,
      4037,
      3986,
      3847,
      3534,
      3350,
      3353,
      3353,
      3347,
      3168,
      3129,
      2956,
      2802,
      2597,
      2538,
      2237,
      2117,
      1929,
      1716,
      1609,
      1462,
      1251,
      1219,
      1099,
      1063,
      881,
      704,
      544,
      519,
      364,
      233,
      150,
      116,
      68
    ],
    "swim:geom": "approach",
    "swim:timestamps": [
      1766875308,
      1766875325,
      1766875361,
      1766875385,
      1766875418,
      1766875453,
      1766875464,
      1766875492,
      1766875507,
      1766875557,
      1766875586,
      1766875612,
      1766875646,
      1766875670,
      1766875706,
      1766875738,
      1766875768,
      1766875798,
      1766875813,
      1766875838,
      1766875877,
      1766875907,
      1766875944,
      1766875973,
      1766875994,
      1766876024,
      1766876033,
      1766876066,
      1766876095,
      1766876128,
      1766876140,
      1766876188,
      1766876206,
      1766876229,
      1766876256,
      1766876270,
      1766876295,
      1766876322,
      1766876361,
      1766876398,
      1766876404,
      1766876440,
      1766876478,
      1766876517,
      1766876523,
      1766876555,
      1766876588,
      1766876606,
      1766876618,
      1766876642
    ],
    "wof:geomhash": "0968ea65108a50c16291cf46ca2db4aa",
    "wof:id": 2014409041,
    "wof:repo": "sfomuseum-data-flights-2025-12"
  },
  "bbox": [
    -122.74932,
    37.4221,
    -122.08998,
    38.51222
  ],
  "geometry": {"coordinates":[[-122.30222,38.51222],[-122.34004,38.48879],[-122.42014,38.4393],[-122.47208,38.40718],[-122.54291,38.36347],[-122.61578,38.31844],[-122.6386,38.30432],[-122.69592,38.26884],[-122.72362,38.24958],[-122.74932,38.16258],[-122.73466,38.11173],[-122.72136,38.06609],[-122.70428,38.00732],[-122.69264,37.96716],[-122.67379,37.90924],[-122.64119,37.86919],[-122.60697,37.83671],[-122.57486,37.80667],[-122.55942,37.79225],[-122.53405,37.76831],[-122.49564,37.73164],[-122.46602,37.70386],[-122.43077,37.67106],[-122.40205,37.64403],[-122.38161,37.6245],[-122.35457,37.59558],[-122.34801,37.58605],[-122.3304,37.54983],[-122.31342,37.51803],[-122.29226,37.48366],[-122.28452,37.47123],[-122.22801,37.44656],[-122.2046,37.44097],[-122.17434,37.43366],[-122.13892,37.4247],[-122.12126,37.4221],[-122.09349,37.43372],[-122.08998,37.45922],[-122.12202,37.48663],[-122.15511,37.50719],[-122.1606,37.5105],[-122.19266,37.52982],[-122.22386,37.54963],[-122.25541,37.56859],[-122.26069,37.57094],[-122.28996,37.58288],[-122.31678,37.59425],[-122.33111,37.60022],[-122.34057,37.60424],[-122.3595,37.61206]],"type":"LineString"}
}
