{
  "id": 2014444001,
  "type": "Feature",
  "properties": {
    "geom:area": 0,
    "geom:bbox": "-122.887830,37.237470,-122.135970,38.427390",
    "geom:latitude": 37.65585338711164,
    "geom:longitude": -122.4806564573687,
    "src:alt_label": "swim-approach",
    "src:geom": "swim",
    "swim:elevations": [
      7590,
      7151,
      6856,
      6513,
      6383,
      6121,
      5870,
      5621,
      5519,
      5332,
      5010,
      4831,
      4375,
      4158,
      3953,
      3673,
      3462,
      3381,
      3353,
      3353,
      3353,
      3353,
      3353,
      3353,
      3339,
      3008,
      2920,
      2776,
      2743,
      2743,
      2743,
      2743,
      2712,
      2526,
      2438,
      2438,
      2438,
      2438,
      2438,
      2438,
      2438,
      2438,
      2438,
      2438,
      2438,
      2438,
      2358,
      2211,
      2129,
      1993,
      1845,
      1829,
      1829,
      1683,
      1483,
      1355,
      1237,
      1219,
      1219,
      1219,
      1145,
      1046,
      825,
      792,
      792,
      785,
      665,
      533,
      360,
      212,
      91,
      0
    ],
    "swim:geom": "approach",
    "swim:timestamps": [
      1767178695,
      1767178736,
      1767178764,
      1767178799,
      1767178822,
      1767178849,
      1767178876,
      1767178904,
      1767178912,
      1767178936,
      1767178967,
      1767178985,
      1767179036,
      1767179060,
      1767179084,
      1767179108,
      1767179139,
      1767179173,
      1767179213,
      1767179223,
      1767179278,
      1767179283,
      1767179295,
      1767179319,
      1767179341,
      1767179395,
      1767179414,
      1767179438,
      1767179478,
      1767179487,
      1767179494,
      1767179534,
      1767179571,
      1767179602,
      1767179638,
      1767179653,
      1767179666,
      1767179676,
      1767179714,
      1767179749,
      1767179787,
      1767179806,
      1767179828,
      1767179843,
      1767179861,
      1767179890,
      1767179938,
      1767179960,
      1767179978,
      1767179998,
      1767180020,
      1767180056,
      1767180086,
      1767180112,
      1767180146,
      1767180169,
      1767180196,
      1767180211,
      1767180238,
      1767180244,
      1767180286,
      1767180304,
      1767180342,
      1767180372,
      1767180399,
      1767180414,
      1767180440,
      1767180464,
      1767180497,
      1767180534,
      1767180558,
      1767180580
    ],
    "wof:geomhash": "89fc58f99adecc09fce80d76ad77fc13",
    "wof:id": 2014444001,
    "wof:repo": "sfomuseum-data-flights-2025-12"
  },
  "bbox": [
    -122.88783,
    37.23747,
    -122.13597,
    38.42739
  ],
  "geometry": {"coordinates":[[-122.88783,38.42739],[-122.8469,38.35848],[-122.81953,38.31238],[-122.78623,38.25615],[-122.76792,38.21956],[-122.75356,38.17665],[-122.74088,38.13347],[-122.72856,38.09062],[-122.7246,38.07686],[-122.71396,38.03997],[-122.70048,37.99354],[-122.69256,37.96653],[-122.66428,37.89327],[-122.6375,37.86564],[-122.60908,37.83865],[-122.57998,37.81148],[-122.54482,37.77844],[-122.5096,37.74522],[-122.47265,37.71022],[-122.46434,37.70239],[-122.41755,37.65833],[-122.41356,37.65456],[-122.40309,37.64468],[-122.38323,37.62598],[-122.36485,37.6081],[-122.33813,37.55629],[-122.32817,37.53945],[-122.3143,37.51739],[-122.29175,37.48221],[-122.28684,37.47441],[-122.28339,37.46745],[-122.3048,37.43263],[-122.35492,37.41678],[-122.39556,37.40492],[-122.44338,37.39105],[-122.46303,37.38527],[-122.48022,37.38026],[-122.49335,37.3765],[-122.54307,37.36229],[-122.58559,37.34456],[-122.58543,37.30941],[-122.57523,37.29231],[-122.56371,37.27262],[-122.55585,37.25933],[-122.54454,37.24401],[-122.51162,37.23747],[-122.45165,37.25639],[-122.4247,37.26523],[-122.40682,37.27691],[-122.39507,37.29794],[-122.38474,37.32161],[-122.3661,37.35863],[-122.3311,37.37247],[-122.29956,37.37781],[-122.25815,37.38487],[-122.22963,37.38953],[-122.19703,37.39469],[-122.17935,37.39792],[-122.15924,37.41755],[-122.15706,37.42316],[-122.14236,37.46055],[-122.13597,37.47583],[-122.14948,37.50787],[-122.17162,37.53063],[-122.19656,37.54599],[-122.21335,37.55278],[-122.23995,37.56426],[-122.26532,37.57491],[-122.29626,37.58791],[-122.32626,37.6006],[-122.34491,37.60836],[-122.3617,37.61563]],"type":"LineString"}
}
