{
  "id": 2014434403,
  "type": "Feature",
  "properties": {
    "geom:area": 0,
    "geom:bbox": "-122.360660,36.738050,-121.890900,37.613140",
    "geom:latitude": 37.218579592680086,
    "geom:longitude": -122.07423996471307,
    "src:alt_label": "swim-approach",
    "src:geom": "swim",
    "swim:elevations": [
      4578,
      4387,
      4054,
      3846,
      3775,
      3497,
      3129,
      3011,
      2808,
      2596,
      2489,
      2437,
      2438,
      2438,
      2438,
      2182,
      2137,
      1851,
      1300,
      1043,
      700,
      391,
      341,
      169,
      88,
      210
    ],
    "swim:geom": "approach",
    "swim:timestamps": [
      1767140217,
      1767140239,
      1767140277,
      1767140302,
      1767140311,
      1767140344,
      1767140397,
      1767140415,
      1767140443,
      1767140473,
      1767140488,
      1767140503,
      1767140527,
      1767140572,
      1767140602,
      1767140635,
      1767140641,
      1767140674,
      1767140728,
      1767140764,
      1767140846,
      1767140908,
      1767140920,
      1767140965,
      1767140992,
      1767141010
    ],
    "wof:geomhash": "2d338c473b0ab94b9847a039c5ed8314",
    "wof:id": 2014434403,
    "wof:repo": "sfomuseum-data-flights-2025-12"
  },
  "bbox": [
    -122.36066,
    36.73805,
    -121.8909,
    37.61314
  ],
  "geometry": {"coordinates":[[-121.8909,36.73805],[-121.90437,36.77445],[-121.92144,36.83841],[-121.93277,36.8788],[-121.93687,36.89315],[-121.95156,36.94506],[-121.98054,37.02057],[-121.98972,37.04539],[-122.00483,37.08463],[-122.02085,37.12519],[-122.02889,37.14523],[-122.03655,37.16484],[-122.04829,37.19582],[-122.0706,37.25269],[-122.08551,37.29067],[-122.10176,37.33181],[-122.10467,37.33928],[-122.12075,37.37992],[-122.14302,37.44559],[-122.15796,37.48898],[-122.22322,37.55484],[-122.28387,37.58044],[-122.29351,37.58448],[-122.32744,37.59871],[-122.34775,37.60731],[-122.36066,37.61314]],"type":"LineString"}
}
