{
  "id": 2014411729,
  "type": "Feature",
  "properties": {
    "geom:area": 0,
    "geom:bbox": "-122.364470,37.631390,-121.252800,38.121990",
    "geom:latitude": 37.89273837724061,
    "geom:longitude": -121.81632746473768,
    "src:alt_label": "swim-takeoff",
    "src:geom": "swim",
    "swim:elevations": [
      213,
      480,
      751,
      1125,
      1340,
      2107,
      2577,
      3114,
      3292,
      3417,
      3963,
      4356,
      4640,
      4999,
      5354,
      5734,
      6284,
      6518,
      6909,
      7181,
      7398,
      7449,
      7868
    ],
    "swim:geom": "takeoff",
    "swim:timestamps": [
      1766828902,
      1766828927,
      1766828966,
      1766828995,
      1766829006,
      1766829056,
      1766829084,
      1766829116,
      1766829136,
      1766829159,
      1766829196,
      1766829223,
      1766829249,
      1766829277,
      1766829307,
      1766829343,
      1766829385,
      1766829406,
      1766829445,
      1766829478,
      1766829505,
      1766829513,
      1766829568
    ],
    "wof:geomhash": "faeaea9e6f56c43797a9f6af040a731c",
    "wof:id": 2014411729,
    "wof:repo": "sfomuseum-data-flights-2025-12"
  },
  "bbox": [
    -122.36447,
    37.63139,
    -121.2528,
    38.12199
  ],
  "geometry": {"coordinates":[[-122.36447,37.63139],[-122.3471,37.64491],[-122.30882,37.66598],[-122.27461,37.68572],[-122.26202,37.69302],[-122.19738,37.72658],[-122.15887,37.74627],[-122.11679,37.76806],[-122.08873,37.78291],[-122.05425,37.80074],[-121.99182,37.83125],[-121.9449,37.84975],[-121.89804,37.86853],[-121.84615,37.88914],[-121.7874,37.91227],[-121.71805,37.93969],[-121.63464,37.97255],[-121.59232,37.98919],[-121.5155,38.01942],[-121.44579,38.04676],[-121.38892,38.06895],[-121.37305,38.07512],[-121.2528,38.12199]],"type":"LineString"}
}
