{
  "id": 2014437415,
  "type": "Feature",
  "properties": {
    "geom:area": 0,
    "geom:bbox": "-122.386590,37.632750,-122.116820,38.493510",
    "geom:latitude": 38.05475147387303,
    "geom:longitude": -122.26557788902217,
    "src:alt_label": "swim-takeoff",
    "src:geom": "swim",
    "swim:elevations": [
      183,
      477,
      602,
      967,
      1402,
      1608,
      2037,
      2609,
      2881,
      3323,
      3470,
      3855,
      4187,
      4359,
      5055,
      5393,
      5755,
      5930,
      6330,
      6639,
      6869,
      7018
    ],
    "swim:geom": "takeoff",
    "swim:timestamps": [
      1767132114,
      1767132134,
      1767132152,
      1767132206,
      1767132238,
      1767132254,
      1767132289,
      1767132327,
      1767132348,
      1767132386,
      1767132413,
      1767132446,
      1767132476,
      1767132491,
      1767132538,
      1767132562,
      1767132596,
      1767132613,
      1767132652,
      1767132684,
      1767132707,
      1767132724
    ],
    "wof:geomhash": "f9da5622343aa0f037a981c8ef912fa5",
    "wof:id": 2014437415,
    "wof:repo": "sfomuseum-data-flights-2025-12"
  },
  "bbox": [
    -122.38659,
    37.63275,
    -122.11682,
    38.49351
  ],
  "geometry": {"coordinates":[[-122.36369,37.63275],[-122.35269,37.64499],[-122.34074,37.65484],[-122.30801,37.70069],[-122.32573,37.73698],[-122.33912,37.75494],[-122.36302,37.79726],[-122.38446,37.84763],[-122.38659,37.87715],[-122.38126,37.93119],[-122.36343,37.97109],[-122.33019,38.0195],[-122.29852,38.06464],[-122.28288,38.08743],[-122.23162,38.16272],[-122.20557,38.20079],[-122.16885,38.25424],[-122.14919,38.28279],[-122.11682,38.35195],[-122.11839,38.41429],[-122.1213,38.45979],[-122.12353,38.49351]],"type":"LineString"}
}
