{
  "id": 2014446711,
  "type": "Feature",
  "properties": {
    "geom:area": 0,
    "geom:bbox": "-122.387210,37.635920,-121.243150,37.992590",
    "geom:latitude": 37.91331271403743,
    "geom:longitude": -121.92426200544575,
    "src:alt_label": "swim-takeoff",
    "src:geom": "swim",
    "swim:elevations": [
      272,
      318,
      528,
      699,
      822,
      1289,
      1744,
      2174,
      2536,
      3055,
      3136,
      3648,
      4221,
      4246,
      4807,
      5034,
      5273,
      5362,
      5509,
      5579,
      5727,
      6184,
      6470,
      6551,
      6736,
      6941,
      7391,
      7458
    ],
    "swim:geom": "takeoff",
    "swim:timestamps": [
      1767225981,
      1767225987,
      1767226017,
      1767226047,
      1767226069,
      1767226108,
      1767226135,
      1767226158,
      1767226188,
      1767226226,
      1767226233,
      1767226272,
      1767226317,
      1767226320,
      1767226371,
      1767226392,
      1767226429,
      1767226450,
      1767226491,
      1767226512,
      1767226533,
      1767226582,
      1767226613,
      1767226625,
      1767226652,
      1767226684,
      1767226738,
      1767226746
    ],
    "wof:geomhash": "e2cee6d7b48a1c582c6ee0bf94882e7e",
    "wof:id": 2014446711,
    "wof:repo": "sfomuseum-data-flights-2025-12"
  },
  "bbox": [
    -122.38721,
    37.63592,
    -121.24315,
    37.99259
  ],
  "geometry": {"coordinates":[[-122.36154,37.63592],[-122.35803,37.63933],[-122.33812,37.65728],[-122.31464,37.67909],[-122.31207,37.70453],[-122.33901,37.75174],[-122.35813,37.78642],[-122.37233,37.81518],[-122.38721,37.85491],[-122.36738,37.90477],[-122.35711,37.91204],[-122.29278,37.92452],[-122.21368,37.92869],[-122.20832,37.92902],[-122.11376,37.93504],[-122.07495,37.93749],[-122.00405,37.94157],[-121.96104,37.94399],[-121.87083,37.94916],[-121.82188,37.95207],[-121.77205,37.9556],[-121.65551,37.9643],[-121.57975,37.96963],[-121.55037,37.97166],[-121.48338,37.97628],[-121.40295,37.98181],[-121.26488,37.99111],[-121.24315,37.99259]],"type":"LineString"}
}
