{
  "id": 2014442225,
  "type": "Feature",
  "properties": {
    "geom:area": 0,
    "geom:bbox": "-122.661650,37.418160,-122.115000,38.510440",
    "geom:latitude": 37.833188585543695,
    "geom:longitude": -122.42075111993346,
    "src:alt_label": "swim-approach",
    "src:geom": "swim",
    "swim:elevations": [
      8321,
      7972,
      7751,
      7473,
      7049,
      6764,
      6352,
      6212,
      5889,
      5449,
      5284,
      4978,
      4636,
      4383,
      4320,
      3866,
      3673,
      3438,
      3352,
      3353,
      3353,
      3353,
      3353,
      3353,
      3353,
      3162,
      2861,
      2656,
      2407,
      2211,
      1986,
      1801,
      1430,
      1290,
      1185,
      949,
      914,
      914,
      887,
      669,
      510,
      451,
      257,
      171,
      56,
      0
    ],
    "swim:geom": "approach",
    "swim:timestamps": [
      1767169280,
      1767169307,
      1767169327,
      1767169354,
      1767169394,
      1767169421,
      1767169464,
      1767169479,
      1767169512,
      1767169553,
      1767169575,
      1767169609,
      1767169647,
      1767169677,
      1767169683,
      1767169736,
      1767169764,
      1767169798,
      1767169816,
      1767169833,
      1767169858,
      1767169881,
      1767169902,
      1767169943,
      1767169951,
      1767170003,
      1767170037,
      1767170062,
      1767170096,
      1767170121,
      1767170146,
      1767170166,
      1767170214,
      1767170229,
      1767170255,
      1767170297,
      1767170334,
      1767170358,
      1767170375,
      1767170423,
      1767170455,
      1767170469,
      1767170518,
      1767170538,
      1767170573,
      1767170585
    ],
    "wof:geomhash": "a738bc1c6b0c3f51659d87b60a23c2c9",
    "wof:id": 2014442225,
    "wof:repo": "sfomuseum-data-flights-2025-12"
  },
  "bbox": [
    -122.66165,
    37.41816,
    -122.115,
    38.51044
  ],
  "geometry": {"coordinates":[[-122.41014,38.51044],[-122.43112,38.46229],[-122.44626,38.42738],[-122.46543,38.38168],[-122.49503,38.31341],[-122.51443,38.26848],[-122.54379,38.20039],[-122.55409,38.17638],[-122.57695,38.12338],[-122.6043,38.05972],[-122.61866,38.02613],[-122.6404,37.97546],[-122.66165,37.9189],[-122.64722,37.87623],[-122.64054,37.86906],[-122.57788,37.80941],[-122.54661,37.77997],[-122.50952,37.74495],[-122.49031,37.72679],[-122.47234,37.70992],[-122.44617,37.68535],[-122.42422,37.66477],[-122.40575,37.64739],[-122.37101,37.61452],[-122.36517,37.6076],[-122.33702,37.55907],[-122.31787,37.52676],[-122.30359,37.50323],[-122.285,37.47262],[-122.2708,37.44933],[-122.24937,37.43174],[-122.22439,37.42696],[-122.1668,37.41816],[-122.15078,37.42518],[-122.13331,37.44801],[-122.115,37.48257],[-122.13801,37.51124],[-122.15945,37.52687],[-122.1778,37.53544],[-122.22868,37.55716],[-122.26133,37.5709],[-122.27405,37.57624],[-122.31348,37.59292],[-122.3283,37.5992],[-122.35371,37.60981],[-122.3625,37.61333]],"type":"LineString"}
}
