{
  "id": 2014411021,
  "type": "Feature",
  "properties": {
    "geom:area": 0,
    "geom:bbox": "-122.469250,36.722010,-121.309160,37.713630",
    "geom:latitude": 37.21407022237302,
    "geom:longitude": -121.99561581124276,
    "src:alt_label": "swim-takeoff",
    "src:geom": "swim",
    "swim:elevations": [
      183,
      352,
      717,
      1156,
      1496,
      1721,
      2079,
      2437,
      2555,
      3152,
      3285,
      3752,
      3988,
      4465,
      4778,
      4841,
      5325,
      5636,
      5797,
      6031,
      6453,
      6704,
      7023,
      7122,
      7348,
      7571,
      7811,
      7892,
      8004,
      8037,
      8218,
      8397,
      8449,
      8760,
      8861,
      8922
    ],
    "swim:geom": "takeoff",
    "swim:timestamps": [
      1766877077,
      1766877091,
      1766877136,
      1766877173,
      1766877199,
      1766877214,
      1766877236,
      1766877263,
      1766877272,
      1766877317,
      1766877343,
      1766877386,
      1766877407,
      1766877448,
      1766877476,
      1766877485,
      1766877522,
      1766877563,
      1766877580,
      1766877606,
      1766877648,
      1766877676,
      1766877716,
      1766877730,
      1766877759,
      1766877795,
      1766877835,
      1766877844,
      1766877866,
      1766877870,
      1766877898,
      1766877925,
      1766877930,
      1766877985,
      1766878005,
      1766878020
    ],
    "wof:geomhash": "1c513f01a2f6ba00d360aaf4f4c1ccb6",
    "wof:id": 2014411021,
    "wof:repo": "sfomuseum-data-flights-2025-12"
  },
  "bbox": [
    -122.46925,
    36.72201,
    -121.30916,
    37.71363
  ],
  "geometry": {"coordinates":[[-122.3675,37.63158],[-122.3625,37.64205],[-122.36215,37.68573],[-122.39727,37.71363],[-122.43356,37.70267],[-122.44391,37.68442],[-122.44795,37.65523],[-122.45342,37.61956],[-122.45556,37.60742],[-122.46608,37.54662],[-122.46925,37.50869],[-122.42089,37.4559],[-122.38798,37.43504],[-122.3224,37.39179],[-122.27793,37.36276],[-122.26323,37.35326],[-122.20113,37.3134],[-122.13324,37.26967],[-122.10423,37.25084],[-122.06058,37.22253],[-121.98776,37.17514],[-121.94011,37.14413],[-121.86999,37.09851],[-121.8445,37.08187],[-121.79264,37.04788],[-121.72868,37.00602],[-121.65503,36.9579],[-121.63713,36.94614],[-121.59707,36.91975],[-121.58942,36.91448],[-121.53603,36.87922],[-121.48518,36.84594],[-121.47513,36.83935],[-121.37332,36.76756],[-121.33593,36.74093],[-121.30916,36.72201]],"type":"LineString"}
}
