{
  "id": 2014414027,
  "type": "Feature",
  "properties": {
    "geom:area": 0,
    "geom:bbox": "-122.527030,37.627750,-121.461060,38.499870",
    "geom:latitude": 38.07204312536865,
    "geom:longitude": -122.07043177828349,
    "src:alt_label": "swim-takeoff",
    "src:geom": "swim",
    "swim:elevations": [
      152,
      631,
      1059,
      1099,
      1359,
      1638,
      2133,
      2327,
      2692,
      3213,
      3285,
      3446,
      3683,
      3876,
      4214,
      4343,
      4853,
      5132,
      5432,
      5528,
      5723,
      6122,
      6319,
      6567,
      6867,
      7194,
      7280,
      7685
    ],
    "swim:geom": "takeoff",
    "swim:timestamps": [
      1766845299,
      1766845335,
      1766845377,
      1766845388,
      1766845429,
      1766845458,
      1766845496,
      1766845508,
      1766845539,
      1766845574,
      1766845592,
      1766845621,
      1766845669,
      1766845702,
      1766845735,
      1766845748,
      1766845796,
      1766845825,
      1766845853,
      1766845870,
      1766845891,
      1766845940,
      1766845963,
      1766845990,
      1766846025,
      1766846058,
      1766846070,
      1766846112
    ],
    "wof:geomhash": "38c63bcb6faddcdd49c32f07431c65e2",
    "wof:id": 2014414027,
    "wof:repo": "sfomuseum-data-flights-2025-12"
  },
  "bbox": [
    -122.52703,
    37.62775,
    -121.46106,
    38.49987
  ],
  "geometry": {"coordinates":[[-122.39706,37.62775],[-122.43149,37.64229],[-122.4718,37.6601],[-122.48237,37.66463],[-122.52244,37.69442],[-122.52592,37.72767],[-122.52703,37.77409],[-122.5248,37.78987],[-122.49294,37.81835],[-122.43923,37.83793],[-122.41424,37.85163],[-122.37432,37.87947],[-122.29944,37.9313],[-122.24522,37.96925],[-122.18669,38.00952],[-122.16257,38.02612],[-122.0763,38.08555],[-122.02262,38.12239],[-121.97067,38.15823],[-121.93923,38.17968],[-121.89936,38.20693],[-121.80505,38.27125],[-121.7604,38.30175],[-121.70772,38.33767],[-121.63804,38.38501],[-121.57121,38.43037],[-121.54682,38.44659],[-121.46106,38.49987]],"type":"LineString"}
}
