{
  "id": 2014409991,
  "type": "Feature",
  "properties": {
    "geom:area": 0,
    "geom:bbox": "-122.761000,37.542990,-122.126800,38.517440",
    "geom:latitude": 37.893285408792984,
    "geom:longitude": -122.50733050993006,
    "src:alt_label": "swim-approach",
    "src:geom": "swim",
    "swim:elevations": [
      7262,
      7079,
      6823,
      6612,
      6477,
      5945,
      5802,
      5584,
      5436,
      5058,
      4770,
      4447,
      4199,
      3992,
      3798,
      3501,
      3353,
      3353,
      3350,
      3048,
      2867,
      2475,
      1988,
      1708,
      1663,
      1375,
      1246,
      1160,
      988,
      836,
      813,
      792,
      792,
      697,
      594,
      525,
      444,
      246,
      184,
      0
    ],
    "swim:geom": "approach",
    "swim:timestamps": [
      1766832148,
      1766832168,
      1766832200,
      1766832224,
      1766832240,
      1766832296,
      1766832319,
      1766832344,
      1766832360,
      1766832404,
      1766832437,
      1766832473,
      1766832499,
      1766832521,
      1766832541,
      1766832573,
      1766832625,
      1766832643,
      1766832668,
      1766832713,
      1766832728,
      1766832761,
      1766832805,
      1766832836,
      1766832847,
      1766832884,
      1766832914,
      1766832933,
      1766832958,
      1766832984,
      1766832994,
      1766833044,
      1766833068,
      1766833090,
      1766833112,
      1766833127,
      1766833144,
      1766833194,
      1766833213,
      1766833255
    ],
    "wof:geomhash": "df525f76efbac156a9ac2937025f0020",
    "wof:id": 2014409991,
    "wof:repo": "sfomuseum-data-flights-2025-12"
  },
  "bbox": [
    -122.761,
    37.54299,
    -122.1268,
    38.51744
  ],
  "geometry": {"coordinates":[[-122.68554,38.51744],[-122.69686,38.47787],[-122.7134,38.41846],[-122.72592,38.37339],[-122.73442,38.34315],[-122.761,38.24133],[-122.75937,38.19899],[-122.74751,38.15534],[-122.73943,38.12683],[-122.71694,38.05094],[-122.70042,37.99414],[-122.68241,37.93186],[-122.6607,37.89021],[-122.63256,37.86108],[-122.60558,37.83538],[-122.56194,37.79433],[-122.49869,37.73482],[-122.47897,37.7176],[-122.44606,37.70342],[-122.38638,37.68336],[-122.3667,37.67694],[-122.32308,37.66265],[-122.26624,37.64587],[-122.22625,37.63497],[-122.2141,37.6314],[-122.17305,37.61929],[-122.14221,37.6104],[-122.12761,37.59935],[-122.1268,37.57833],[-122.13589,37.55616],[-122.14068,37.54836],[-122.18992,37.54299],[-122.21108,37.55247],[-122.23229,37.56118],[-122.25204,37.56932],[-122.2648,37.57473],[-122.27859,37.58052],[-122.31457,37.59567],[-122.3276,37.60113],[-122.35687,37.61352]],"type":"LineString"}
}
