{
  "id": 2014424337,
  "type": "Feature",
  "properties": {
    "geom:area": 0,
    "geom:bbox": "-122.934500,37.555980,-122.058690,38.423310",
    "geom:latitude": 37.85655457418466,
    "geom:longitude": -122.49077722315054,
    "src:alt_label": "swim-approach",
    "src:geom": "swim",
    "swim:elevations": [
      7529,
      7223,
      7104,
      6762,
      6384,
      6061,
      5907,
      5558,
      5216,
      4950,
      4648,
      4534,
      4383,
      4038,
      3830,
      3631,
      3597,
      3557,
      3504,
      3442,
      3414,
      3159,
      2936,
      2783,
      2458,
      2251,
      2090,
      2035,
      1830,
      1619,
      1481,
      1366,
      1306,
      1245,
      1218,
      1130,
      1089,
      875,
      687,
      520,
      476,
      378,
      368,
      148,
      0
    ],
    "swim:geom": "approach",
    "swim:timestamps": [
      1767037342,
      1767037373,
      1767037384,
      1767037417,
      1767037457,
      1767037490,
      1767037506,
      1767037542,
      1767037582,
      1767037607,
      1767037640,
      1767037651,
      1767037671,
      1767037707,
      1767037728,
      1767037768,
      1767037793,
      1767037815,
      1767037839,
      1767037858,
      1767037862,
      1767037907,
      1767037935,
      1767037953,
      1767037999,
      1767038024,
      1767038040,
      1767038048,
      1767038089,
      1767038128,
      1767038148,
      1767038180,
      1767038202,
      1767038220,
      1767038243,
      1767038276,
      1767038282,
      1767038316,
      1767038360,
      1767038397,
      1767038409,
      1767038427,
      1767038430,
      1767038482,
      1767038510
    ],
    "wof:geomhash": "52753ca47ab70faf8691eb17ccb97c0d",
    "wof:id": 2014424337,
    "wof:repo": "sfomuseum-data-flights-2025-12"
  },
  "bbox": [
    -122.9345,
    37.55598,
    -122.05869,
    38.42331
  ],
  "geometry": {"coordinates":[[-122.9345,38.42331],[-122.89422,38.37551],[-122.88007,38.35864],[-122.83863,38.3091],[-122.78958,38.25072],[-122.76032,38.19822],[-122.75229,38.17139],[-122.73463,38.11175],[-122.71552,38.04628],[-122.70352,38.00371],[-122.68799,37.94967],[-122.683,37.93232],[-122.66972,37.90126],[-122.6278,37.85641],[-122.60163,37.83167],[-122.55419,37.7867],[-122.52698,37.76084],[-122.50384,37.73923],[-122.47831,37.72052],[-122.45458,37.71344],[-122.44874,37.71181],[-122.39136,37.69616],[-122.3567,37.68641],[-122.3336,37.67952],[-122.27563,37.66228],[-122.24337,37.65336],[-122.22258,37.64778],[-122.21173,37.64484],[-122.15761,37.63049],[-122.10598,37.61647],[-122.0799,37.60871],[-122.05869,37.5821],[-122.06911,37.56302],[-122.08821,37.55704],[-122.11266,37.55598],[-122.14327,37.56445],[-122.14903,37.56523],[-122.18175,37.56985],[-122.2253,37.57643],[-122.26019,37.58224],[-122.27092,37.58541],[-122.28694,37.5904],[-122.28959,37.59123],[-122.33453,37.60467],[-122.35824,37.61393]],"type":"LineString"}
}
