{
  "id": 2014443597,
  "type": "Feature",
  "properties": {
    "geom:area": 0,
    "geom:bbox": "-122.319560,37.491570,-121.245820,37.597710",
    "geom:latitude": 37.54073740173862,
    "geom:longitude": -121.78891653969336,
    "src:alt_label": "swim-approach",
    "src:geom": "swim",
    "swim:elevations": [
      4573,
      4405,
      4163,
      3725,
      3424,
      3360,
      3137,
      3092,
      2753,
      2596,
      2542,
      2390,
      2354,
      2162,
      2123,
      2013,
      1884,
      1829,
      1563,
      1461,
      1287,
      1160,
      1096,
      1069,
      826,
      744,
      486,
      451,
      230
    ],
    "swim:geom": "approach",
    "swim:timestamps": [
      1767251683,
      1767251704,
      1767251730,
      1767251780,
      1767251815,
      1767251821,
      1767251869,
      1767251887,
      1767251935,
      1767251960,
      1767251974,
      1767252016,
      1767252022,
      1767252058,
      1767252066,
      1767252088,
      1767252115,
      1767252136,
      1767252175,
      1767252192,
      1767252231,
      1767252261,
      1767252278,
      1767252285,
      1767252326,
      1767252339,
      1767252387,
      1767252396,
      1767252444
    ],
    "wof:geomhash": "c04976059eaf4ad3bf2941745a0f299d",
    "wof:id": 2014443597,
    "wof:repo": "sfomuseum-data-flights-2025-12"
  },
  "bbox": [
    -122.31956,
    37.49157,
    -121.24582,
    37.59771
  ],
  "geometry": {"coordinates":[[-121.24582,37.59503],[-121.28669,37.58949],[-121.33769,37.5839],[-121.43512,37.57316],[-121.50156,37.56527],[-121.51282,37.56399],[-121.59912,37.55384],[-121.62845,37.5498],[-121.70067,37.53244],[-121.73711,37.52377],[-121.75719,37.51906],[-121.81465,37.50557],[-121.82274,37.50362],[-121.87169,37.49244],[-121.88327,37.49157],[-121.91233,37.49282],[-121.94948,37.49505],[-121.97921,37.49676],[-122.03313,37.49994],[-122.05547,37.50119],[-122.10457,37.50711],[-122.13858,37.52177],[-122.15625,37.52901],[-122.16412,37.53229],[-122.20831,37.55097],[-122.22214,37.55679],[-122.27093,37.5773],[-122.2791,37.5808],[-122.31956,37.59771]],"type":"LineString"}
}
