{
  "id": 2014417873,
  "type": "Feature",
  "properties": {
    "geom:area": 0,
    "geom:bbox": "-122.359240,36.748920,-121.895360,37.612110",
    "geom:latitude": 37.22277794713268,
    "geom:longitude": -122.07579482827354,
    "src:alt_label": "swim-approach",
    "src:geom": "swim",
    "swim:elevations": [
      5031,
      4942,
      4552,
      4206,
      3897,
      3810,
      3595,
      3505,
      3420,
      3138,
      3123,
      2885,
      2595,
      2445,
      2438,
      2438,
      2438,
      2220,
      1983,
      1760,
      1655,
      1514,
      1494,
      1413,
      1145,
      1034,
      884,
      687,
      503,
      398,
      259,
      157,
      62,
      0
    ],
    "swim:geom": "approach",
    "swim:timestamps": [
      1766941734,
      1766941743,
      1766941781,
      1766941814,
      1766941847,
      1766941874,
      1766941915,
      1766941937,
      1766941955,
      1766942005,
      1766942010,
      1766942050,
      1766942086,
      1766942110,
      1766942150,
      1766942174,
      1766942200,
      1766942231,
      1766942265,
      1766942305,
      1766942323,
      1766942356,
      1766942388,
      1766942412,
      1766942442,
      1766942462,
      1766942498,
      1766942541,
      1766942577,
      1766942601,
      1766942633,
      1766942661,
      1766942696,
      1766942705
    ],
    "wof:geomhash": "645b306cc3c9b1f6e82c945ee81505ac",
    "wof:id": 2014417873,
    "wof:repo": "sfomuseum-data-flights-2025-12"
  },
  "bbox": [
    -122.35924,
    36.74892,
    -121.89536,
    37.61211
  ],
  "geometry": {"coordinates":[[-121.89536,36.74892],[-121.89952,36.76236],[-121.91534,36.81747],[-121.92916,36.86593],[-121.94224,36.91331],[-121.95238,36.94908],[-121.97016,36.99543],[-121.97914,37.01839],[-121.98666,37.03746],[-122.00577,37.08685],[-122.0077,37.09183],[-122.02285,37.13063],[-122.03685,37.16667],[-122.04634,37.19066],[-122.06154,37.22957],[-122.07082,37.2531],[-122.08097,37.27888],[-122.09291,37.30913],[-122.10634,37.34351],[-122.12116,37.38209],[-122.12718,37.39993],[-122.13813,37.43015],[-122.14731,37.45609],[-122.15573,37.4742],[-122.17152,37.49601],[-122.18312,37.51081],[-122.19968,37.53629],[-122.23369,37.55849],[-122.26627,37.57182],[-122.28595,37.57977],[-122.30911,37.59008],[-122.32887,37.59926],[-122.35295,37.60938],[-122.35924,37.61211]],"type":"LineString"}
}
