{
  "id": 2014427417,
  "type": "Feature",
  "properties": {
    "geom:area": 0,
    "geom:bbox": "-122.481020,37.008560,-121.764720,37.708640",
    "geom:latitude": 37.35639575008344,
    "geom:longitude": -122.21501325446317,
    "src:alt_label": "swim-takeoff",
    "src:geom": "swim",
    "swim:elevations": [
      244,
      649,
      688,
      908,
      1134,
      1801,
      1925,
      2526,
      2658,
      3198,
      3224,
      3529,
      3799,
      4109,
      4317,
      4739,
      4937,
      5293,
      5442,
      5685,
      5804,
      6064,
      6234,
      6298,
      6724,
      6873
    ],
    "swim:geom": "takeoff",
    "swim:timestamps": [
      1767018535,
      1767018567,
      1767018571,
      1767018602,
      1767018635,
      1767018687,
      1767018700,
      1767018747,
      1767018760,
      1767018807,
      1767018811,
      1767018867,
      1767018891,
      1767018923,
      1767018944,
      1767018987,
      1767019009,
      1767019046,
      1767019071,
      1767019097,
      1767019112,
      1767019143,
      1767019163,
      1767019172,
      1767019228,
      1767019256
    ],
    "wof:geomhash": "d66509dfb3fb348c017361124cc79a4a",
    "wof:id": 2014427417,
    "wof:repo": "sfomuseum-data-flights-2025-12"
  },
  "bbox": [
    -122.48102,
    37.00856,
    -121.76472,
    37.70864
  ],
  "geometry": {"coordinates":[[-122.36647,37.63292],[-122.361,37.65855],[-122.36116,37.66199],[-122.3742,37.68844],[-122.41268,37.70864],[-122.47805,37.68585],[-122.48102,37.6692],[-122.46366,37.61161],[-122.45847,37.59418],[-122.44103,37.53236],[-122.43957,37.52693],[-122.4166,37.44352],[-122.39804,37.40748],[-122.34975,37.3739],[-122.31515,37.35244],[-122.24315,37.30766],[-122.20617,37.28467],[-122.14223,37.24486],[-122.09857,37.2177],[-122.05334,37.18942],[-122.02696,37.17297],[-121.97109,37.13802],[-121.93452,37.11514],[-121.91923,37.10556],[-121.81669,37.04113],[-121.76472,37.00856]],"type":"LineString"}
}
