{
  "id": 2014443483,
  "type": "Feature",
  "properties": {
    "geom:area": 0,
    "geom:bbox": "-122.360160,36.723730,-121.879200,37.614680",
    "geom:latitude": 37.21390911477577,
    "geom:longitude": -122.07084845503654,
    "src:alt_label": "swim-approach",
    "src:geom": "swim",
    "swim:elevations": [
      5199,
      5135,
      4862,
      4606,
      4574,
      4256,
      3945,
      3688,
      3536,
      3473,
      3310,
      3139,
      2915,
      2856,
      2586,
      2316,
      2113,
      1814,
      1647,
      1499,
      1319,
      1096,
      991,
      978,
      772,
      690,
      557,
      443,
      295,
      130,
      29,
      50
    ],
    "swim:geom": "approach",
    "swim:timestamps": [
      1767225746,
      1767225768,
      1767225807,
      1767225837,
      1767225840,
      1767225876,
      1767225914,
      1767225948,
      1767225978,
      1767225987,
      1767226017,
      1767226044,
      1767226078,
      1767226090,
      1767226129,
      1767226167,
      1767226194,
      1767226226,
      1767226253,
      1767226275,
      1767226308,
      1767226347,
      1767226377,
      1767226380,
      1767226417,
      1767226438,
      1767226465,
      1767226491,
      1767226524,
      1767226558,
      1767226582,
      1767226590
    ],
    "wof:geomhash": "76943f70f84298d27aef30c04a7e9724",
    "wof:id": 2014443483,
    "wof:repo": "sfomuseum-data-flights-2025-12"
  },
  "bbox": [
    -122.36016,
    36.72373,
    -121.8792,
    37.61468
  ],
  "geometry": {"coordinates":[[-121.8792,36.72373],[-121.89736,36.75794],[-121.91638,36.82115],[-121.92986,36.86897],[-121.93116,36.87372],[-121.94668,36.93029],[-121.96691,36.98771],[-121.98674,37.03853],[-122.00273,37.07933],[-122.00783,37.09214],[-122.02317,37.13181],[-122.03698,37.16692],[-122.05343,37.20978],[-122.05905,37.22415],[-122.07742,37.2701],[-122.09454,37.3136],[-122.1065,37.34413],[-122.12038,37.37975],[-122.13106,37.41124],[-122.13959,37.43596],[-122.1523,37.47302],[-122.16548,37.5136],[-122.17927,37.53777],[-122.18178,37.53931],[-122.21508,37.55378],[-122.23364,37.56158],[-122.25767,37.57174],[-122.28022,37.5812],[-122.30689,37.59245],[-122.33423,37.60391],[-122.35379,37.61211],[-122.36016,37.61468]],"type":"LineString"}
}
