{
  "id": 2014438165,
  "type": "Feature",
  "properties": {
    "geom:area": 0,
    "geom:bbox": "-122.558350,36.957550,-122.362670,37.739330",
    "geom:latitude": 37.415238458191524,
    "geom:longitude": -122.5009376341188,
    "src:alt_label": "swim-takeoff",
    "src:geom": "swim",
    "swim:elevations": [
      244,
      660,
      1042,
      1419,
      1795,
      1969,
      2540,
      2817,
      3258,
      3496,
      3820,
      4536,
      4728,
      4901,
      5094,
      5418,
      5832,
      5952,
      6218,
      6445,
      6669,
      6835
    ],
    "swim:geom": "takeoff",
    "swim:timestamps": [
      1767105068,
      1767105099,
      1767105146,
      1767105179,
      1767105203,
      1767105215,
      1767105256,
      1767105277,
      1767105326,
      1767105348,
      1767105374,
      1767105411,
      1767105440,
      1767105464,
      1767105491,
      1767105524,
      1767105566,
      1767105582,
      1767105614,
      1767105642,
      1767105676,
      1767105698
    ],
    "wof:geomhash": "a6338dc953a119dcd8335409a9b76398",
    "wof:id": 2014438165,
    "wof:repo": "sfomuseum-data-flights-2025-12"
  },
  "bbox": [
    -122.55835,
    36.95755,
    -122.36267,
    37.73933
  ],
  "geometry": {"coordinates":[[-122.36917,37.62928],[-122.36488,37.65462],[-122.36267,37.70283],[-122.39563,37.73335],[-122.43448,37.73933],[-122.45359,37.73677],[-122.49416,37.6981],[-122.49673,37.67164],[-122.50383,37.60387],[-122.50738,37.57065],[-122.51123,37.53036],[-122.51664,37.47314],[-122.5213,37.42752],[-122.52549,37.38622],[-122.53009,37.34042],[-122.53634,37.27938],[-122.54401,37.20428],[-122.54706,37.17328],[-122.5529,37.11434],[-122.55835,37.05985],[-122.5516,36.99497],[-122.5282,36.95755]],"type":"LineString"}
}
