{
  "id": 2014418009,
  "type": "Feature",
  "properties": {
    "geom:area": 0,
    "geom:bbox": "-122.358640,37.491850,-121.252040,37.613980",
    "geom:latitude": 37.54670125876461,
    "geom:longitude": -121.81022355367135,
    "src:alt_label": "swim-approach",
    "src:geom": "swim",
    "swim:elevations": [
      4413,
      4127,
      3883,
      3668,
      3554,
      3444,
      3193,
      3068,
      2777,
      2680,
      2492,
      2296,
      2133,
      2030,
      1917,
      1854,
      1715,
      1429,
      1216,
      1084,
      951,
      749,
      639,
      540,
      467,
      392,
      194,
      41,
      0
    ],
    "swim:geom": "approach",
    "swim:timestamps": [
      1766947124,
      1766947155,
      1766947185,
      1766947211,
      1766947234,
      1766947266,
      1766947301,
      1766947322,
      1766947372,
      1766947386,
      1766947425,
      1766947461,
      1766947492,
      1766947520,
      1766947546,
      1766947564,
      1766947592,
      1766947640,
      1766947676,
      1766947699,
      1766947723,
      1766947766,
      1766947786,
      1766947809,
      1766947823,
      1766947840,
      1766947882,
      1766947917,
      1766947924
    ],
    "wof:geomhash": "460064aa58be98bc503e43fa3575f904",
    "wof:id": 2014418009,
    "wof:repo": "sfomuseum-data-flights-2025-12"
  },
  "bbox": [
    -122.35864,
    37.49185,
    -121.25204,
    37.61398
  ],
  "geometry": {"coordinates":[[-121.25204,37.59429],[-121.31851,37.58621],[-121.38004,37.57933],[-121.43145,37.57334],[-121.47665,37.56802],[-121.53435,37.5615],[-121.59471,37.55442],[-121.63081,37.54909],[-121.71095,37.53016],[-121.73239,37.52505],[-121.78847,37.51163],[-121.83748,37.49993],[-121.88017,37.49185],[-121.91825,37.49205],[-121.95347,37.49291],[-121.9782,37.49404],[-122.01214,37.50252],[-122.07075,37.52154],[-122.11547,37.53602],[-122.14247,37.54488],[-122.16936,37.55327],[-122.21254,37.56764],[-122.23293,37.57413],[-122.25488,37.58126],[-122.26917,37.58524],[-122.28481,37.58973],[-122.32258,37.60115],[-122.35373,37.61199],[-122.35864,37.61398]],"type":"LineString"}
}
